{"type":"Feature","properties":{"iso3":"ABW","name":"Aruba","continent":"Americas"},"geometry":{"type":"Polygon","coordinates":[[[-69.996938,12.577582],[-69.924672,12.519232],[-69.915761,12.497016],[-69.880198,12.453559],[-69.87682,12.427395],[-69.888092,12.41767],[-69.930531,12.425971],[-69.945139,12.440375],[-69.924672,12.440375],[-69.924672,12.447211],[-69.958567,12.463202],[-70.027659,12.522935],[-70.058095,12.537177],[-70.060374,12.556952],[-70.048736,12.583726],[-70.061106,12.625393],[-70.048736,12.632148],[-69.996938,12.577582]]]}}