{"type":"Feature","properties":{"iso3":"AFG","name":"Afghanistan","continent":"Asia"},"geometry":{"type":"Polygon","coordinates":[[[74.542354,37.021669],[74.537393,36.962241],[74.456984,37.004383],[74.394043,36.994022],[74.235706,36.902167],[74.1153,36.889532],[74.103931,36.841318],[74.035305,36.815583],[73.772892,36.892013],[73.191842,36.877027],[72.867727,36.830415],[72.629602,36.832947],[72.454109,36.757964],[72.213607,36.726442],[72.149632,36.689338],[72.154179,36.645465],[72.070877,36.632287],[72.038838,36.580456],[71.773221,36.480048],[71.782626,36.396539],[71.600725,36.449301],[71.53892,36.319283],[71.223073,36.125393],[71.169913,36.030802],[71.356399,35.933053],[71.515355,35.701491],[71.483316,35.62656],[71.59349,35.549356],[71.587806,35.470911],[71.622429,35.429621],[71.529825,35.300895],[71.633694,35.203124],[71.604135,35.138166],[71.508947,35.072021],[71.504297,35.000604],[71.459958,34.942674],[71.289478,34.87503],[71.203075,34.748164],[71.080601,34.672923],[71.065822,34.55846],[70.956991,34.532002],[70.991511,34.443067],[71.122046,34.356819],[71.108093,34.165228],[71.046702,34.041877],[70.894308,34.009372],[70.862217,33.964775],[70.521979,33.938705],[70.328193,33.957282],[70.002838,34.043789],[69.872613,34.017227],[69.847188,33.926948],[69.957518,33.752695],[70.108154,33.727296],[70.173473,33.607872],[70.154973,33.506612],[70.285715,33.382873],[70.294448,33.318949],[70.124794,33.199034],[70.059785,33.198052],[69.994725,33.127333],[69.880933,33.089248],[69.771844,33.114776],[69.547517,33.075011],[69.487727,33.028373],[69.477288,32.856833],[69.37807,32.752317],[69.429126,32.667361],[69.232859,32.462671],[69.268102,32.301337],[69.251049,32.13065],[69.29885,31.93769],[69.040106,31.673107],[68.803841,31.602568],[68.705449,31.70127],[68.675787,31.774702],[68.5051,31.822658],[68.418748,31.783022],[68.5498,31.753515],[68.460968,31.730467],[68.255037,31.766383],[68.138559,31.824674],[68.052259,31.695431],[67.955211,31.633212],[67.842711,31.623497],[67.696312,31.520816],[67.568981,31.52986],[67.611459,31.410797],[67.770364,31.394674],[67.764731,31.334058],[67.364601,31.210706],[67.035267,31.235924],[67.002091,31.315867],[66.943283,31.314731],[66.696993,31.195823],[66.663093,31.083117],[66.550025,30.976973],[66.366264,30.922868],[66.267975,30.601389],[66.321822,30.437368],[66.305286,30.24477],[66.221725,30.073721],[66.332364,29.966079],[66.195628,29.835338],[65.036371,29.540162],[64.477697,29.570367],[64.172599,29.4843],[64.086093,29.386605],[63.568605,29.497477],[62.477509,29.407819],[60.844379,29.858179],[61.802253,30.847059],[61.826438,31.014956],[61.742722,31.239541],[61.749233,31.30238],[61.686911,31.373177],[60.821744,31.494668],[60.774926,32.027194],[60.808825,32.07117],[60.830323,32.248885],[60.562949,33.058268],[60.561502,33.137307],[60.818644,33.404887],[60.849856,33.494365],[60.919788,33.512571],[60.846032,33.555782],[60.655553,33.559891],[60.511789,33.638387],[60.486881,33.71138],[60.528016,33.84145],[60.492772,34.139028],[60.643667,34.306641],[60.890474,34.318914],[60.699685,34.516396],[60.957964,34.649411],[60.959927,34.723205],[61.06545,34.814724],[61.074752,34.933114],[61.147306,35.102096],[61.101521,35.183228],[61.102451,35.25666],[61.187097,35.300379],[61.195055,35.390089],[61.290036,35.548064],[61.277014,35.609197],[61.360936,35.621031],[61.386878,35.559536],[61.604746,35.430603],[62.00746,35.438923],[62.219023,35.30627],[62.275713,35.151034],[62.431879,35.280638],[62.595641,35.22059],[62.69362,35.248392],[62.918206,35.388177],[63.066827,35.425591],[63.100727,35.524964],[63.07494,35.609817],[63.207697,35.683198],[63.112044,35.769911],[63.084397,35.826083],[63.104086,35.856469],[63.430216,35.871042],[63.582093,35.959047],[63.765906,35.977288],[63.889826,36.029637],[64.045114,35.998734],[64.044648,36.09232],[64.123352,36.146064],[64.266134,36.152471],[64.318947,36.219754],[64.477697,36.271637],[64.594382,36.424186],[64.604821,36.660554],[64.778764,36.93847],[64.755613,37.053631],[64.778764,37.118046],[65.063088,37.233232],[65.536857,37.257107],[65.629461,37.365421],[65.648168,37.493837],[65.758859,37.564117],[66.294434,37.331211],[67.005915,37.384386],[67.085083,37.349633],[67.259129,37.185147],[67.503145,37.281963],[67.561385,37.2199],[67.633163,37.254058],[67.746593,37.229408],[67.775997,37.207549],[67.78535,37.096548],[67.87811,37.064431],[68.032725,36.925241],[68.186411,37.01831],[68.277775,37.010068],[68.307282,37.114221],[68.411462,37.113369],[68.403711,37.151635],[68.532747,37.168999],[68.630777,37.213828],[68.671239,37.247185],[68.657545,37.267675],[68.808492,37.251629],[68.835829,37.329144],[68.904714,37.276692],[68.917633,37.302427],[68.885077,37.334828],[68.985225,37.320359],[69.145732,37.156958],[69.245675,37.103886],[69.308617,37.116882],[69.442148,37.223621],[69.376313,37.418854],[69.508656,37.578973],[69.812668,37.585846],[69.918812,37.617137],[70.016894,37.545978],[70.157867,37.541431],[70.253934,37.630805],[70.281891,37.719559],[70.247164,37.819166],[70.179158,37.860791],[70.17213,37.946083],[70.26153,37.939287],[70.25042,37.964144],[70.460071,38.112248],[70.595773,38.338178],[70.676698,38.37492],[70.683313,38.414581],[70.777261,38.446466],[70.936217,38.433004],[70.974045,38.473673],[71.358156,38.251258],[71.359086,38.184105],[71.258265,37.926472],[71.341154,37.893295],[71.537059,37.944455],[71.597727,37.89836],[71.594214,37.833764],[71.531168,37.751754],[71.493858,37.307543],[71.431123,37.066989],[71.552872,36.769591],[71.653021,36.687012],[71.836576,36.699156],[72.259806,36.967305],[72.657714,37.028826],[72.79073,37.220262],[73.067509,37.315062],[73.132104,37.384386],[73.296332,37.464949],[73.485261,37.480969],[73.753462,37.428388],[73.722249,37.322452],[73.597295,37.261809],[73.702405,37.221166],[74.163256,37.330074],[74.223924,37.403351],[74.303816,37.400173],[74.315598,37.426916],[74.512692,37.377229],[74.660383,37.393972],[74.78854,37.331159],[74.892307,37.231114],[74.783269,37.219667],[74.721464,37.297776],[74.609017,37.230183],[74.500083,37.23163],[74.441585,37.170549],[74.38226,37.172047],[74.38257,37.126572],[74.542354,37.021669]]]}}