{"type":"Feature","properties":{"iso3":"AGO","name":"Angola","continent":"Africa"},"geometry":{"type":"MultiPolygon","coordinates":[[[[13.073703,-4.635323],[13.065331,-4.663952],[12.802918,-4.739813],[12.678895,-4.924298],[12.61585,-4.93546],[12.550427,-5.024188],[12.444387,-5.055091],[12.44077,-5.08403],[12.530687,-5.162681],[12.508983,-5.726264],[12.344445,-5.724611],[12.210541,-5.763442],[12.147227,-5.617934],[12.232188,-5.479587],[12.124612,-5.184828],[12.023123,-5.045994],[12.100527,-5.080022],[12.132476,-5.005899],[12.103738,-5.048836],[12.009608,-5.019631],[12.130815,-4.912929],[12.187555,-4.768028],[12.235201,-4.803995],[12.307651,-4.783635],[12.374107,-4.683176],[12.377621,-4.619407],[12.608098,-4.565043],[12.761681,-4.391204],[12.854285,-4.403089],[13.073703,-4.635323]]],[[[23.967457,-10.872307],[24.000013,-10.967805],[24.011175,-11.272903],[24.061094,-11.394962],[23.954641,-11.636911],[23.990194,-11.824083],[23.954331,-12.151919],[24.030812,-12.385083],[23.928699,-12.561609],[23.865654,-12.789709],[24.000633,-13.001479],[21.979878,-13.001479],[21.983805,-16.165886],[22.045197,-16.252289],[22.019875,-16.253115],[22.054188,-16.358639],[22.103591,-16.391918],[22.079923,-16.457754],[22.15165,-16.597694],[22.237743,-16.665493],[22.333654,-16.673658],[22.573433,-16.971004],[22.710479,-17.055444],[22.778278,-17.180397],[22.984157,-17.285817],[23.097639,-17.432165],[23.165748,-17.467408],[23.177531,-17.524046],[23.320158,-17.54637],[23.382273,-17.601043],[23.375968,-17.628225],[21.405546,-18.009287],[21.23274,-17.93446],[21.143133,-17.933736],[20.806202,-18.031405],[20.754423,-17.997918],[20.565494,-17.985206],[20.347729,-17.858909],[20.03426,-17.895909],[19.951991,-17.862319],[19.793964,-17.862319],[19.755207,-17.889088],[19.672628,-17.842682],[19.421274,-17.859426],[19.17209,-17.801238],[19.020575,-17.822322],[18.89004,-17.799274],[18.761986,-17.747701],[18.455028,-17.395991],[18.392293,-17.389273],[14.218801,-17.388136],[14.174979,-17.416248],[13.957318,-17.419142],[13.896857,-17.349069],[13.521324,-17.1219],[13.479776,-17.010278],[13.382004,-16.970384],[13.267489,-16.98537],[13.166307,-16.951057],[12.887151,-17.029812],[12.818318,-17.104846],[12.56717,-17.234554],[12.417929,-17.203445],[12.242642,-17.224839],[12.16151,-17.146291],[12.082239,-17.14133],[11.942092,-17.180501],[11.82241,-17.264423],[11.752778,-17.229181],[11.768141,-16.768251],[11.80371,-16.824033],[11.821951,-16.479099],[11.779145,-16.099867],[11.806977,-16.018813],[11.735525,-15.85711],[11.751801,-15.799086],[11.804942,-15.76922],[11.844249,-15.793552],[11.930512,-15.652439],[11.992035,-15.617283],[12.040375,-15.463311],[12.056407,-15.233087],[12.104991,-15.172784],[12.145274,-15.168634],[12.115001,-15.093927],[12.207774,-14.833266],[12.272716,-14.750584],[12.331309,-14.433526],[12.345388,-14.302992],[12.315196,-14.187921],[12.353038,-14.160903],[12.349783,-14.045505],[12.415538,-13.878595],[12.502452,-13.855239],[12.51531,-13.425958],[12.624197,-13.349216],[12.656505,-13.255629],[12.749766,-13.201349],[12.944835,-12.982354],[12.939464,-12.816664],[13.161632,-12.611261],[13.392914,-12.570408],[13.459727,-12.507257],[13.505626,-12.371352],[13.630219,-12.263442],[13.792247,-11.790948],[13.781912,-11.481052],[13.846528,-11.113702],[13.843435,-10.945733],[13.731456,-10.764255],[13.764985,-10.662042],[13.527599,-10.406508],[13.508962,-10.277032],[13.317393,-9.976332],[13.327159,-9.886],[13.191173,-9.690037],[13.223888,-9.61419],[13.143403,-9.330255],[12.996349,-9.093845],[12.992361,-9.038018],[13.086436,-8.892348],[13.136567,-8.871026],[13.042817,-8.962498],[13.000173,-9.072035],[13.023448,-9.074965],[13.086925,-8.959731],[13.137462,-8.940851],[13.224132,-8.773858],[13.241547,-8.760675],[13.198009,-8.823175],[13.2942,-8.754815],[13.380138,-8.75506],[13.406098,-8.63714],[13.342052,-8.467462],[13.382579,-8.444024],[13.378917,-8.347101],[13.198009,-8.02158],[12.911473,-7.335111],[12.849963,-7.265919],[12.832774,-6.915785],[12.779633,-6.914727],[12.550632,-6.632639],[12.279447,-6.147705],[12.290294,-6.096612],[12.333648,-6.078436],[12.324781,-6.122353],[12.346873,-6.120113],[12.632823,-6.034356],[12.817431,-6.03175],[12.927569,-5.981218],[12.98588,-5.90114],[13.169688,-5.861749],[13.342524,-5.890595],[13.41332,-5.857006],[13.943572,-5.841606],[14.576609,-5.904651],[16.315727,-5.854629],[16.396136,-5.894109],[16.515095,-5.887081],[16.597364,-5.924702],[16.601188,-6.050586],[16.62837,-6.05534],[16.61111,-6.089756],[16.717873,-6.174092],[16.706091,-6.465031],[16.746812,-6.53159],[16.768103,-6.708323],[16.84448,-6.838445],[16.914967,-6.864076],[16.928713,-6.968669],[16.964576,-6.997195],[16.961166,-7.069231],[16.929126,-7.060653],[16.945663,-7.204624],[16.991655,-7.286066],[17.082502,-7.34229],[17.118159,-7.425489],[17.167458,-7.423525],[17.146167,-7.463109],[17.217791,-7.585996],[17.286417,-7.625167],[17.310602,-7.740818],[17.452402,-7.883962],[17.437829,-7.922409],[17.528366,-8.007779],[17.544283,-8.084777],[17.600197,-8.098523],[17.901367,-8.048086],[17.981879,-8.105344],[18.098151,-8.109271],[18.120372,-8.022455],[18.507635,-7.997547],[18.516523,-7.932228],[18.738525,-7.932331],[18.773768,-8.001991],[19.355542,-8.001991],[19.330944,-7.898638],[19.38138,-7.703921],[19.355645,-7.57411],[19.458274,-7.560261],[19.513155,-7.479439],[19.476361,-7.315935],[19.487213,-7.153877],[19.540233,-7.041636],[19.521836,-7.001949],[20.294296,-7.001949],[20.331089,-6.916786],[20.611486,-6.915959],[20.524463,-7.143129],[20.520535,-7.286376],[21.784954,-7.283379],[21.860918,-7.469827],[21.753948,-7.99734],[21.851203,-8.143481],[21.943911,-8.455917],[21.859885,-8.846384],[21.851617,-9.233751],[21.793326,-9.393534],[21.878902,-9.657084],[22.055842,-9.875365],[22.159918,-9.931486],[22.20281,-10.130647],[22.31009,-10.356989],[22.271849,-10.481736],[22.305956,-10.550673],[22.322389,-10.742186],[22.165499,-10.85236],[22.243841,-11.078289],[22.23764,-11.249545],[22.440315,-11.146915],[22.500983,-11.042426],[22.727739,-11.096789],[22.853106,-11.053071],[23.014336,-11.102474],[23.196754,-11.071881],[23.455963,-10.960984],[23.833718,-11.028473],[23.967457,-10.872307]]],[[[11.725759,-16.618422],[11.737519,-16.692578],[11.669394,-16.55721],[11.701977,-16.500393],[11.725759,-16.618422]]]]}}