{"type":"Feature","properties":{"iso3":"ALA","name":"Aland","continent":"Europe"},"geometry":{"type":"MultiPolygon","coordinates":[[[[20.277599,60.142157],[20.297618,60.121527],[20.268891,60.086005],[20.277599,60.066474],[20.266287,60.060492],[20.201915,60.087551],[20.198253,60.104071],[20.222423,60.149604],[20.258067,60.107978],[20.263927,60.118232],[20.255707,60.145413],[20.277599,60.142157]]],[[[19.639496,60.220933],[19.670909,60.190579],[19.671072,60.158108],[19.646983,60.155829],[19.591645,60.196763],[19.603282,60.164008],[19.584809,60.135321],[19.565196,60.12995],[19.527029,60.148627],[19.513927,60.179104],[19.537283,60.201117],[19.53712,60.232164],[19.567882,60.255113],[19.608409,60.256903],[19.634451,60.240139],[19.639496,60.220933]]],[[[20.427908,60.265692],[20.438975,60.258205],[20.441417,60.245185],[20.392914,60.196763],[20.38087,60.198879],[20.387543,60.232978],[20.38266,60.240709],[20.353038,60.228827],[20.345388,60.237698],[20.347016,60.252875],[20.358897,60.265692],[20.379649,60.26968],[20.410981,60.259508],[20.427908,60.265692]]],[[[20.818858,60.232164],[20.790538,60.238715],[20.781098,60.263658],[20.787283,60.286322],[20.805186,60.2862],[20.853038,60.265692],[20.850597,60.253607],[20.838878,60.246812],[20.811371,60.245185],[20.818858,60.232164]]],[[[20.208751,60.224677],[20.229747,60.20425],[20.200938,60.199408],[20.177989,60.173529],[20.161957,60.167141],[20.136974,60.176337],[20.09547,60.176337],[20.087087,60.182196],[20.088878,60.195868],[20.102306,60.220933],[20.122895,60.23078],[20.172374,60.232815],[20.188243,60.245185],[20.111013,60.239447],[20.081879,60.223375],[20.064708,60.190619],[20.057872,60.190619],[20.060883,60.214748],[20.031912,60.236396],[20.023692,60.255113],[20.05714,60.293158],[20.06129,60.310045],[20.023692,60.313463],[20.033865,60.293891],[20.024913,60.276435],[20.003266,60.267035],[19.975922,60.278713],[19.993988,60.241441],[20.030528,60.217231],[20.014903,60.202338],[20.016287,60.183743],[19.948009,60.20425],[19.954845,60.224677],[19.914561,60.218207],[19.917247,60.207668],[19.943614,60.186225],[19.987315,60.173041],[20.01002,60.155829],[20.0442,60.176337],[20.030528,60.114814],[20.050466,60.097805],[20.04477,60.08747],[20.006358,60.094387],[19.948985,60.083889],[19.958181,60.053778],[19.948497,60.047675],[19.937755,60.05036],[19.941173,60.060248],[19.924001,60.091539],[19.91033,60.10106],[19.886567,60.101223],[19.873302,60.096422],[19.868337,60.085517],[19.845063,60.078681],[19.831716,60.079495],[19.823253,60.084296],[19.824474,60.094387],[19.806977,60.09984],[19.78891,60.096259],[19.763031,60.07392],[19.694672,60.170111],[19.682384,60.211982],[19.670909,60.217231],[19.646983,60.265692],[19.682872,60.26435],[19.691417,60.256537],[19.688487,60.238349],[19.709321,60.268866],[19.770518,60.2862],[19.74936,60.306627],[19.79656,60.299791],[19.765147,60.248969],[19.792003,60.200141],[19.81422,60.190619],[19.823497,60.208482],[19.817638,60.232164],[19.851817,60.217231],[19.858653,60.245185],[19.879731,60.258857],[19.892833,60.306627],[19.905528,60.271796],[19.934337,60.282416],[19.924001,60.314276],[19.889496,60.344672],[19.857677,60.313218],[19.819184,60.346829],[19.777354,60.355048],[19.838145,60.400458],[19.882335,60.405585],[19.906423,60.402167],[19.927501,60.356431],[19.995616,60.356431],[20.036794,60.33393],[20.023692,60.361274],[20.072032,60.349921],[20.093028,60.355129],[20.12615,60.33393],[20.178071,60.322984],[20.192068,60.312323],[20.181407,60.2862],[20.201915,60.292955],[20.277599,60.278713],[20.236013,60.232164],[20.208751,60.224677]]],[[[20.875255,59.91413],[20.862071,59.928168],[20.87086,59.936754],[20.897472,59.940131],[20.920177,59.909247],[20.912364,59.904486],[20.875255,59.91413]]],[[[20.983572,59.942776],[20.969412,59.943834],[20.991222,59.926744],[20.982758,59.921536],[20.913259,59.948432],[20.934744,59.957994],[20.99586,59.949897],[20.983572,59.942776]]],[[[20.610118,60.044989],[20.617931,60.042222],[20.603363,60.039781],[20.606293,60.02265],[20.587169,60.008124],[20.550466,60.018866],[20.527029,60.005072],[20.500824,60.012681],[20.544932,60.056098],[20.582856,60.059149],[20.610118,60.044989]]],[[[20.424083,60.055243],[20.462576,60.066799],[20.45102,60.040107],[20.43214,60.025092],[20.402354,60.021308],[20.390147,60.028225],[20.424083,60.055243]]],[[[20.521169,60.048041],[20.500336,60.036363],[20.471365,60.041327],[20.469737,60.057359],[20.54184,60.07099],[20.521169,60.048041]]],[[[20.68336,60.13052],[20.688243,60.117011],[20.67156,60.109198],[20.638682,60.131334],[20.635509,60.143948],[20.659923,60.149726],[20.68336,60.13052]]],[[[20.683767,60.229397],[20.716319,60.209296],[20.686778,60.194566],[20.670665,60.199205],[20.663422,60.216376],[20.668468,60.226711],[20.683767,60.229397]]],[[[20.777354,60.326483],[20.732677,60.314358],[20.732677,60.33275],[20.757172,60.366116],[20.787364,60.361965],[20.789399,60.342719],[20.777354,60.326483]]],[[[20.281315,59.976616],[20.301908,59.998975],[20.339447,60.02011],[20.436746,60.004989],[20.447059,59.995181],[20.398576,59.981349],[20.324819,59.977195],[20.322366,59.962686],[20.306648,59.953624],[20.283707,59.958475],[20.281315,59.976616]]],[[[20.03365,60.063626],[20.068193,60.072654],[20.101269,60.094975],[20.163259,60.087845],[20.193191,60.06557],[20.225218,60.005478],[20.175121,59.971436],[20.184037,59.992938],[20.171495,59.998754],[20.123179,59.988872],[20.105255,59.996469],[20.121318,60.016627],[20.104258,60.028248],[20.025256,60.042485],[20.03365,60.063626]]],[[[21.088634,60.480129],[21.09669,60.463446],[21.088227,60.452216],[21.064952,60.454779],[21.059255,60.466742],[21.064301,60.474351],[21.088634,60.480129]]]]}}