{"type":"Feature","properties":{"iso3":"ALB","name":"Albania","continent":"Europe"},"geometry":{"type":"Polygon","coordinates":[[[20.567147,41.873182],[20.541722,41.86158],[20.550921,41.793522],[20.511337,41.757943],[20.500381,41.734095],[20.508339,41.661748],[20.53467,41.587324],[20.52932,41.574879],[20.507409,41.56227],[20.444157,41.549661],[20.452012,41.493592],[20.481597,41.468269],[20.490873,41.436025],[20.522189,41.42569],[20.539049,41.402944],[20.539965,41.387139],[20.523429,41.356805],[20.49604,41.337788],[20.481674,41.341199],[20.483121,41.289471],[20.500071,41.23552],[20.51268,41.210147],[20.565494,41.147412],[20.576966,41.093513],[20.65386,41.075272],[20.702746,40.936314],[20.717216,40.913214],[20.740883,40.89797],[20.766102,40.893732],[20.836544,40.923904],[20.939941,40.907065],[20.956684,40.894766],[20.964849,40.875956],[20.967019,40.802007],[20.960922,40.780768],[20.943662,40.765265],[20.963505,40.736068],[21.018593,40.690902],[21.035336,40.65938],[21.036679,40.639743],[21.013528,40.548896],[20.981489,40.523264],[20.957924,40.514944],[20.93684,40.472518],[20.911932,40.459547],[20.839999,40.471639],[20.826666,40.464818],[20.8092,40.436603],[20.770649,40.421978],[20.770442,40.36255],[20.736646,40.303639],[20.699129,40.278369],[20.696442,40.215066],[20.68528,40.191191],[20.660372,40.178892],[20.668226,40.138068],[20.647556,40.09404],[20.577793,40.067271],[20.499865,40.071457],[20.465965,40.060812],[20.432789,40.063809],[20.400439,40.045257],[20.376461,39.993736],[20.297913,39.986914],[20.317964,39.918391],[20.346902,39.894259],[20.392998,39.835451],[20.397028,39.818087],[20.388967,39.79814],[20.371604,39.784291],[20.299577,39.805056],[20.280033,39.80398],[20.273005,39.796487],[20.284684,39.780312],[20.276829,39.763155],[20.299463,39.728222],[20.296466,39.71737],[20.249027,39.684814],[20.24603,39.662903],[20.212027,39.667037],[20.199935,39.640062],[20.184122,39.637013],[20.089347,39.682799],[20.01607,39.701402],[19.989024,39.686713],[19.98699,39.717963],[20.002696,39.748236],[19.980642,39.75731],[20.014171,39.832953],[20.009776,39.865668],[19.961681,39.878567],[19.954845,39.892808],[19.941173,39.898993],[19.906423,39.90644],[19.941173,39.940009],[19.923839,39.952826],[19.863455,40.045356],[19.807384,40.052883],[19.79656,40.057318],[19.804535,40.063463],[19.777354,40.077786],[19.770518,40.063463],[19.732677,40.110256],[19.653168,40.132392],[19.565766,40.179836],[19.509288,40.194485],[19.476248,40.21369],[19.381114,40.295233],[19.365082,40.317369],[19.344249,40.374335],[19.289561,40.420396],[19.289561,40.427232],[19.316173,40.437812],[19.348155,40.43065],[19.39324,40.386298],[19.414236,40.334418],[19.423595,40.330024],[19.474946,40.348375],[19.47877,40.453925],[19.418793,40.491889],[19.391368,40.521796],[19.386404,40.54328],[19.398611,40.520941],[19.414236,40.522773],[19.433604,40.505927],[19.446056,40.511135],[19.4546,40.55386],[19.442149,40.573065],[19.415701,40.583482],[19.391612,40.578315],[19.386404,40.550727],[19.304373,40.653144],[19.360525,40.709784],[19.368826,40.802151],[19.377778,40.812974],[19.406749,40.820746],[19.39324,40.844916],[19.411388,40.867092],[19.381196,40.908271],[19.404959,40.918158],[19.440929,40.948635],[19.427013,40.936835],[19.435395,40.913398],[19.427257,40.87226],[19.434744,40.87226],[19.437836,40.886542],[19.440929,40.87226],[19.454112,40.88581],[19.506602,40.905097],[19.523448,40.92064],[19.525157,40.945258],[19.495453,41.002631],[19.479666,40.953925],[19.453868,40.923977],[19.447765,40.934312],[19.477224,40.975002],[19.474946,40.995795],[19.440603,41.020657],[19.456391,41.106676],[19.441905,41.143866],[19.463715,41.151313],[19.468761,41.187567],[19.509532,41.237291],[19.516612,41.256415],[19.513357,41.276679],[19.488048,41.306464],[19.431651,41.313707],[19.418956,41.322577],[19.414236,41.382799],[19.39324,41.41352],[19.406423,41.400377],[19.428722,41.401313],[19.44516,41.415188],[19.440929,41.440863],[19.489268,41.466132],[19.508637,41.486884],[19.516612,41.513414],[19.514171,41.529975],[19.468028,41.554267],[19.440929,41.585395],[19.528087,41.576565],[19.565196,41.58511],[19.584809,41.619574],[19.591645,41.619574],[19.596039,41.602729],[19.612966,41.605292],[19.600108,41.639106],[19.591645,41.632636],[19.557628,41.660549],[19.578136,41.687649],[19.5713,41.770413],[19.589529,41.765692],[19.598969,41.778713],[19.591645,41.818793],[19.432953,41.868598],[19.365082,41.852362],[19.364947,41.888995],[19.34593,41.914471],[19.352854,41.938501],[19.346447,41.961548],[19.365774,41.969713],[19.371045,41.98656],[19.354198,42.008703],[19.350581,42.027823],[19.372491,42.104253],[19.297767,42.151666],[19.272033,42.180682],[19.400397,42.325893],[19.412076,42.368397],[19.481735,42.434491],[19.517806,42.45803],[19.549328,42.508595],[19.588086,42.532857],[19.605035,42.584844],[19.621779,42.604997],[19.676039,42.646675],[19.699293,42.654814],[19.722134,42.64608],[19.746009,42.5989],[19.747766,42.578901],[19.732159,42.555543],[19.73433,42.524382],[19.75159,42.493402],[19.784456,42.474566],[19.819596,42.466479],[19.907549,42.506399],[19.981757,42.510765],[20.039221,42.557765],[20.135546,42.509629],[20.152392,42.493712],[20.180814,42.443095],[20.204689,42.420099],[20.192803,42.393693],[20.218848,42.371446],[20.220915,42.343101],[20.237762,42.319924],[20.333363,42.317883],[20.481674,42.230705],[20.538622,42.150116],[20.549371,42.123476],[20.552161,42.07379],[20.59929,41.960567],[20.588748,41.929586],[20.562496,41.900105],[20.567147,41.873182]]]}}