{"type":"Feature","properties":{"iso3":"AND","name":"Andorra","continent":"Europe"},"geometry":{"type":"Polygon","coordinates":[[[1.707006,42.502781],[1.686336,42.490612],[1.656984,42.49764],[1.639517,42.466427],[1.544432,42.450356],[1.528206,42.434233],[1.508466,42.428677],[1.436429,42.440951],[1.436429,42.453482],[1.407593,42.486762],[1.449968,42.504073],[1.446557,42.519886],[1.428987,42.531462],[1.406456,42.52924],[1.4263,42.561796],[1.419272,42.579263],[1.429297,42.595386],[1.451415,42.602052],[1.466814,42.641455],[1.543089,42.649362],[1.608304,42.618123],[1.721993,42.609855],[1.713311,42.589546],[1.752688,42.576679],[1.765091,42.563372],[1.739976,42.561641],[1.721683,42.548515],[1.707006,42.502781]]]}}