{"type":"Feature","properties":{"iso3":"ARG","name":"Argentina","continent":"Americas"},"geometry":{"type":"MultiPolygon","coordinates":[[[[-67.193904,-22.822223],[-67.037686,-22.654585],[-67.032725,-22.524567],[-66.796461,-22.434857],[-66.712848,-22.206447],[-66.297163,-22.050281],[-66.240009,-21.792415],[-65.744613,-22.11405],[-65.020368,-22.096583],[-64.58688,-22.212752],[-64.343897,-22.863668],[-64.250828,-22.54069],[-63.947591,-22.007596],[-62.804353,-22.004082],[-62.630824,-22.287682],[-62.26883,-22.512992],[-61.956446,-23.034407],[-61.109857,-23.606982],[-60.974826,-23.824074],[-60.296418,-24.016414],[-60.072375,-24.004839],[-58.809196,-24.776781],[-57.766004,-25.167868],[-57.578729,-25.416742],[-57.570047,-25.546657],[-57.753705,-25.672747],[-57.859694,-25.994278],[-58.086501,-26.12719],[-58.206184,-26.402728],[-58.181379,-26.641577],[-58.658404,-27.18511],[-58.604135,-27.315548],[-58.003664,-27.263303],[-57.191207,-27.484213],[-56.904447,-27.418696],[-56.734233,-27.500439],[-56.546933,-27.455003],[-56.400299,-27.586636],[-56.124554,-27.298901],[-55.754732,-27.443698],[-55.581641,-27.305516],[-55.598979,-27.182629],[-55.414003,-26.979851],[-55.161564,-26.95732],[-54.784946,-26.622767],[-54.644696,-26.208218],[-54.662266,-25.979912],[-54.589557,-25.832944],[-54.643146,-25.68794],[-54.545632,-25.574769],[-54.457007,-25.663135],[-54.116408,-25.494567],[-54.09889,-25.597196],[-53.90996,-25.629236],[-53.661552,-26.259791],[-53.763613,-26.700798],[-53.710696,-26.873811],[-53.818752,-27.131469],[-53.964117,-27.154],[-54.363473,-27.453517],[-54.460831,-27.412589],[-54.690326,-27.551289],[-54.818897,-27.536199],[-54.932999,-27.743835],[-55.044646,-27.775048],[-55.02581,-27.84016],[-55.329874,-27.928113],[-55.435087,-28.07074],[-55.747936,-28.215744],[-55.684064,-28.388034],[-55.887359,-28.363332],[-56.444276,-29.078121],[-56.584216,-29.132278],[-57.094159,-29.751981],[-57.262572,-29.792599],[-57.318745,-29.965508],[-57.633971,-30.183583],[-57.652729,-30.329104],[-57.889769,-30.550796],[-57.796132,-30.868399],[-57.90398,-30.929687],[-57.905117,-31.240986],[-58.075236,-31.475184],[-57.979583,-31.598794],[-58.048881,-31.797128],[-58.196004,-31.872575],[-58.101591,-32.31136],[-58.220082,-32.489516],[-58.149078,-33.024998],[-58.430165,-33.102634],[-58.412343,-33.298272],[-58.5065,-33.405857],[-58.549387,-33.683038],[-58.380727,-34.177179],[-58.549306,-34.272638],[-58.466615,-34.347987],[-58.511465,-34.435945],[-58.331836,-34.63201],[-57.522032,-35.013154],[-57.201577,-35.310154],[-57.144909,-35.4842],[-57.365631,-35.763767],[-57.372467,-35.968357],[-57.108266,-36.282322],[-56.722401,-36.369317],[-56.668324,-36.736423],[-56.686431,-36.927667],[-57.511871,-37.872328],[-57.55842,-38.120864],[-58.330963,-38.492771],[-59.796864,-38.838474],[-61.493072,-38.9992],[-62.026723,-38.937595],[-62.130035,-38.836602],[-62.37975,-38.798435],[-62.274037,-38.954522],[-62.357818,-39.102227],[-62.276967,-39.237563],[-62.325592,-39.254653],[-62.023915,-39.364841],[-62.056996,-39.411554],[-62.283925,-39.310724],[-62.055084,-39.485528],[-62.114369,-39.821466],[-62.305043,-39.81113],[-62.355824,-40.175388],[-62.490061,-40.307875],[-62.250478,-40.596775],[-62.315012,-40.626642],[-62.181549,-40.626642],[-62.311269,-40.845798],[-62.7294,-41.041111],[-63.053578,-41.147149],[-63.779408,-41.158787],[-64.085317,-41.004083],[-64.911204,-40.823826],[-64.77302,-40.806085],[-64.890452,-40.705987],[-65.121938,-40.833673],[-65.17512,-41.010186],[-64.993276,-41.552992],[-65.069569,-41.985772],[-65.004994,-42.093194],[-64.857289,-42.193617],[-64.480865,-42.254653],[-64.587473,-42.38128],[-64.410634,-42.446222],[-64.059722,-42.388116],[-64.059722,-42.281671],[-64.29662,-42.257582],[-63.870915,-42.083713],[-63.732249,-42.105239],[-63.597971,-42.299981],[-63.620269,-42.751235],[-64.138539,-42.866957],[-64.251332,-42.775079],[-64.249094,-42.609796],[-64.437734,-42.506931],[-64.922475,-42.641371],[-64.997141,-42.784845],[-64.328277,-42.951837],[-64.328196,-43.009861],[-64.943918,-43.239435],[-65.313547,-43.638279],[-65.318227,-43.832208],[-65.186708,-44.035539],[-65.308708,-44.200085],[-65.221412,-44.338449],[-65.320135,-44.532804],[-65.679252,-44.70517],[-65.715443,-44.869963],[-65.535262,-44.915635],[-65.583809,-45.007472],[-66.168574,-44.996397],[-66.46772,-45.077016],[-66.523873,-45.108972],[-66.476051,-45.142571],[-66.571422,-45.14117],[-66.522573,-45.193185],[-66.929266,-45.256534],[-67.307769,-45.601495],[-67.578481,-45.992852],[-67.574696,-46.322035],[-67.42322,-46.567419],[-66.824574,-46.981378],[-66.028798,-47.067315],[-65.744902,-47.204164],[-65.735665,-47.509535],[-65.845626,-47.742206],[-66.373443,-47.861261],[-65.901824,-47.76995],[-65.761739,-47.911908],[-65.946214,-47.962502],[-65.937477,-48.071686],[-66.501056,-48.413988],[-67.114348,-48.67375],[-67.247808,-48.845645],[-67.556549,-49.015817],[-67.60993,-49.178107],[-67.830881,-49.379571],[-67.725184,-49.390746],[-67.607655,-49.265069],[-67.732012,-49.781302],[-67.894927,-49.996875],[-68.328277,-50.120212],[-68.69579,-49.73561],[-68.577272,-49.927616],[-69.013499,-50.007745],[-68.58347,-49.970337],[-68.349873,-50.14881],[-68.899892,-50.361993],[-69.076519,-50.560172],[-69.1368,-50.903481],[-69.390126,-51.048517],[-69.167778,-50.978225],[-68.962554,-51.560154],[-69.616811,-51.625177],[-69.304559,-51.59349],[-69.200668,-51.620492],[-69.218902,-51.680434],[-68.973511,-51.619952],[-68.354809,-52.324978],[-68.407053,-52.371024],[-68.621724,-52.26363],[-69.952754,-52.007419],[-71.965241,-51.970625],[-71.981726,-51.844948],[-72.42914,-51.576024],[-72.270494,-51.259557],[-72.403095,-51.126077],[-72.277056,-51.007325],[-72.30491,-50.664917],[-72.505983,-50.601251],[-73.177725,-50.749459],[-73.284333,-50.333051],[-73.530572,-50.140814],[-73.480756,-50.022682],[-73.554446,-49.947131],[-73.465098,-49.759959],[-73.19675,-49.682423],[-73.059745,-49.554971],[-73.171317,-49.189348],[-73.092252,-49.081034],[-72.618793,-48.819655],[-72.61471,-48.510009],[-72.3154,-48.350329],[-72.333229,-48.09081],[-72.535284,-47.945806],[-72.524225,-47.882658],[-72.339947,-47.585208],[-72.328733,-47.426458],[-72.145385,-47.38181],[-72.045133,-47.215825],[-71.880698,-47.221923],[-71.984309,-47.080536],[-71.95072,-46.823601],[-71.680194,-46.65958],[-71.763341,-46.244515],[-71.891292,-46.162969],[-71.624383,-45.934146],[-71.743187,-45.857562],[-71.78241,-45.641761],[-71.749595,-45.54926],[-71.489094,-45.498514],[-71.311534,-45.299456],[-71.555188,-45.005831],[-72.053297,-44.906819],[-72.088748,-44.782795],[-71.29784,-44.795611],[-71.122398,-44.549424],[-71.235001,-44.423851],[-71.860596,-44.377135],[-71.835223,-44.094362],[-71.6696,-43.959796],[-71.815483,-43.774381],[-71.710683,-43.614081],[-71.873825,-43.538943],[-71.941056,-43.398383],[-71.75068,-43.295341],[-71.750164,-43.172454],[-72.009838,-43.120364],[-72.148537,-42.998718],[-72.143214,-42.557091],[-72.041929,-42.491049],[-72.121562,-42.313023],[-72.039913,-42.144662],[-71.74944,-42.104354],[-71.925915,-41.653012],[-71.851449,-40.957654],[-71.955577,-40.720356],[-71.804165,-40.42642],[-71.678488,-40.340224],[-71.813571,-40.188192],[-71.800703,-40.079671],[-71.670944,-40.060758],[-71.624848,-39.93105],[-71.718744,-39.623368],[-71.495657,-39.565594],[-71.541959,-39.532315],[-71.401968,-39.236002],[-71.415765,-38.935348],[-70.945045,-38.747246],[-70.847738,-38.599968],[-70.973751,-38.424682],[-71.009976,-38.087855],[-71.18503,-37.706069],[-71.120848,-37.486341],[-71.205597,-37.292658],[-71.125137,-37.120059],[-71.207148,-36.972367],[-71.143327,-36.965443],[-71.148908,-36.70396],[-71.027819,-36.481168],[-70.71865,-36.414572],[-70.588477,-36.150195],[-70.435102,-36.136346],[-70.357329,-35.815229],[-70.428384,-35.357066],[-70.560417,-35.298361],[-70.542899,-35.209271],[-70.386629,-35.16669],[-70.316298,-34.74563],[-70.067579,-34.414591],[-70.05758,-34.291187],[-69.832761,-34.243232],[-69.914772,-33.793543],[-69.813899,-33.289491],[-69.940558,-33.242879],[-69.983863,-33.294452],[-70.109773,-33.149448],[-70.000167,-32.888999],[-70.140029,-32.768283],[-70.158142,-32.50649],[-70.387482,-32.041712],[-70.244467,-31.942235],[-70.42828,-31.870095],[-70.580261,-31.592282],[-70.543364,-31.20812],[-70.479802,-31.096705],[-70.435618,-31.141354],[-70.266559,-31.036451],[-70.339216,-30.938162],[-70.173774,-30.382227],[-69.994457,-30.388118],[-69.857411,-30.205494],[-69.849737,-30.126635],[-69.973244,-30.089428],[-69.915599,-29.805621],[-70.04448,-29.346115],[-69.803926,-29.098688],[-69.654045,-28.400994],[-69.173008,-27.924083],[-68.829024,-27.136017],[-68.610717,-27.165679],[-68.307428,-26.944607],[-68.595317,-26.457299],[-68.417085,-26.0936],[-68.605963,-25.436999],[-68.516046,-25.183578],[-68.366649,-25.123427],[-68.578006,-24.808717],[-68.508036,-24.626816],[-68.244486,-24.385384],[-67.362369,-24.030367],[-67.019548,-23.031926],[-67.193904,-22.822223]]],[[[-68.654135,-54.886245],[-68.641998,-54.799168],[-68.568227,-54.878351],[-68.654135,-54.886245]]],[[[-68.641882,-54.782971],[-68.627617,-52.639572],[-68.285878,-52.943536],[-68.229237,-53.087335],[-68.349569,-53.016162],[-68.520715,-53.120631],[-68.550751,-53.238537],[-68.111402,-53.343802],[-67.992421,-53.588474],[-67.558248,-53.836189],[-67.583363,-53.893243],[-66.766582,-54.249842],[-66.448245,-54.473408],[-65.69811,-54.662367],[-65.155588,-54.640558],[-65.332265,-54.913832],[-65.685699,-54.969171],[-65.966225,-54.902073],[-66.060979,-54.983969],[-66.540508,-55.051046],[-67.030995,-54.905206],[-68.272125,-54.799005],[-68.520334,-54.852227],[-68.641882,-54.782971]]],[[[-63.888417,-54.729913],[-63.825673,-54.714939],[-63.966786,-54.815037],[-63.967763,-54.75921],[-64.311106,-54.777602],[-64.62442,-54.903741],[-64.758656,-54.832289],[-64.363881,-54.705987],[-63.888417,-54.729913]]],[[[-61.907216,-39.136651],[-61.910471,-39.234063],[-62.086049,-39.122979],[-61.907216,-39.136651]]],[[[-62.085927,-39.02337],[-62.130767,-39.020603],[-61.97232,-39.033949],[-62.085927,-39.02337]]],[[[-62.1553,-40.374205],[-62.037593,-40.484365],[-62.136333,-40.56487],[-62.221177,-40.522445],[-62.1553,-40.374205]]],[[[-62.118962,-40.13072],[-62.04058,-40.146456],[-62.014775,-40.328361],[-62.118962,-40.13072]]]]}}