{"type":"Feature","properties":{"iso3":"ARM","name":"Armenia","continent":"Asia"},"geometry":{"type":"MultiPolygon","coordinates":[[[[45.0024,41.290452],[45.0394,41.23118],[45.029323,41.210096],[45.034853,41.197693],[45.134433,41.187875],[45.199752,41.142658],[45.201044,41.126741],[45.166731,41.107776],[45.067822,41.110928],[45.057177,41.078786],[45.070044,41.062094],[45.111024,41.049537],[45.120016,41.079613],[45.221611,41.014449],[45.312562,40.99662],[45.335351,40.99383],[45.391523,41.015069],[45.419119,41.017342],[45.425217,40.993675],[45.416432,40.961325],[45.47927,40.929906],[45.537871,40.875904],[45.599159,40.862675],[45.600968,40.840557],[45.58221,40.799371],[45.555855,40.776582],[45.437929,40.73338],[45.39881,40.708937],[45.373643,40.675296],[45.37354,40.632715],[45.387803,40.609512],[45.444647,40.566362],[45.455447,40.523626],[45.48542,40.505281],[45.526192,40.441047],[45.585413,40.398724],[45.818371,40.2978],[45.861676,40.261265],[45.924618,40.266174],[45.97924,40.223592],[45.9811,40.205971],[45.962961,40.141685],[45.950766,40.117191],[45.909528,40.082671],[45.894025,40.029082],[45.873768,40.009755],[45.803901,40.004484],[45.63957,40.025413],[45.576267,39.993891],[45.579419,39.970171],[45.611148,39.959164],[45.715431,39.950896],[45.742768,39.940509],[45.764421,39.92206],[45.816821,39.839171],[45.861882,39.804548],[45.97924,39.768478],[46.006576,39.747911],[46.045127,39.687553],[46.076546,39.668122],[46.131685,39.652154],[46.18424,39.593243],[46.206461,39.587921],[46.241187,39.593502],[46.309504,39.620528],[46.343713,39.618616],[46.396423,39.576655],[46.495435,39.575932],[46.524271,39.554641],[46.527268,39.538156],[46.518276,39.525444],[46.492025,39.510199],[46.498588,39.483121],[46.491405,39.466429],[46.405725,39.451185],[46.373996,39.435992],[46.36087,39.410257],[46.374616,39.378838],[46.49528,39.324009],[46.517656,39.278844],[46.59114,39.231069],[46.602612,39.215489],[46.572795,39.21151],[46.514142,39.184431],[46.453371,39.208409],[46.418334,39.211923],[46.395286,39.19518],[46.396268,39.164432],[46.479312,39.114771],[46.491921,39.081905],[46.494609,39.025526],[46.475798,38.975607],[46.475075,38.95106],[46.514039,38.882176],[46.378233,38.924705],[46.291314,38.913931],[46.202482,38.870548],[46.135871,38.863701],[46.07758,38.950492],[46.02549,39.063767],[45.958104,39.151513],[45.949009,39.177791],[45.955107,39.203241],[45.986009,39.234686],[45.985802,39.24944],[45.958827,39.272436],[45.887204,39.299669],[45.823745,39.343078],[45.767004,39.354395],[45.758633,39.369484],[45.803075,39.448188],[45.794031,39.49387],[45.79708,39.536348],[45.765454,39.561566],[45.714656,39.569472],[45.586447,39.545391],[45.47927,39.497177],[45.434828,39.488857],[45.374884,39.525857],[45.312975,39.533815],[45.259955,39.599703],[45.233187,39.592727],[45.204765,39.572314],[45.16792,39.565545],[45.148334,39.57526],[45.151538,39.667709],[45.067512,39.757213],[45.033509,39.77039],[44.995992,39.760468],[44.927159,39.724708],[44.802929,39.712409],[44.774559,39.702797],[44.692031,39.793024],[44.647693,39.805117],[44.611519,39.837311],[44.598187,39.831007],[44.591056,39.857827],[44.567491,39.87302],[44.55912,39.896894],[44.522171,39.933533],[44.464345,39.97229],[44.325645,40.034663],[44.255262,40.043397],[44.135476,40.022313],[44.10447,40.035955],[44.032433,40.008618],[43.912131,40.024328],[43.802783,40.070734],[43.711213,40.090732],[43.665427,40.110163],[43.652508,40.138998],[43.666357,40.14892],[43.711626,40.156465],[43.721393,40.169384],[43.673075,40.227727],[43.691369,40.23863],[43.675969,40.265967],[43.594217,40.345445],[43.625326,40.42017],[43.563625,40.464715],[43.559491,40.477892],[43.5937,40.509001],[43.638969,40.522592],[43.631476,40.536855],[43.652508,40.529414],[43.651475,40.553391],[43.664807,40.574062],[43.707182,40.611941],[43.699534,40.634575],[43.729351,40.677105],[43.720618,40.762888],[43.659536,40.851978],[43.647651,40.913886],[43.636178,40.933523],[43.565433,40.988145],[43.522387,41.004475],[43.479599,41.009126],[43.460479,41.022872],[43.436294,41.08323],[43.440428,41.106588],[43.566622,41.124054],[43.754156,41.108241],[43.820353,41.1455],[43.863245,41.158988],[43.955849,41.160486],[44.061269,41.184154],[44.124727,41.178056],[44.160074,41.1979],[44.168446,41.223583],[44.180331,41.229939],[44.218107,41.221568],[44.284976,41.190872],[44.308489,41.193817],[44.344921,41.213248],[44.410601,41.18772],[44.45494,41.180485],[44.516641,41.20684],[44.531008,41.181467],[44.551523,41.177023],[44.591366,41.21578],[44.612863,41.223118],[44.674926,41.208494],[44.847784,41.208907],[44.857706,41.219346],[44.847061,41.230766],[44.809543,41.244409],[44.801275,41.258516],[44.820706,41.273347],[44.955168,41.262702],[45.0024,41.290452]],[[44.979456,41.082041],[44.963953,41.073773],[44.96695,41.044834],[44.979456,41.032639],[45.015732,41.023234],[45.029995,41.046281],[45.018885,41.07491],[44.979456,41.082041]],[[45.209932,40.967991],[45.220474,40.97905],[45.191846,40.997809],[45.17717,40.99383],[45.186781,40.970834],[45.209932,40.967991]]],[[[45.513687,40.601967],[45.47927,40.609822],[45.471312,40.629873],[45.47927,40.650233],[45.520198,40.660413],[45.560712,40.647649],[45.547173,40.621553],[45.513687,40.601967]]]]}}