{"type":"Feature","properties":{"iso3":"ASM","name":"American Samoa","continent":"Oceania"},"geometry":{"type":"MultiPolygon","coordinates":[[[[-170.591013,-14.264825],[-170.576243,-14.252537],[-170.56725,-14.258559],[-170.568471,-14.270929],[-170.584177,-14.277765],[-170.659291,-14.285252],[-170.748647,-14.374688],[-170.831248,-14.319431],[-170.788645,-14.294529],[-170.721506,-14.289239],[-170.698476,-14.260512],[-170.661448,-14.252374],[-170.620066,-14.254571],[-170.591013,-14.264825]]],[[[-169.463857,-14.22324],[-169.44404,-14.230645],[-169.440134,-14.245294],[-169.447133,-14.255629],[-169.460154,-14.250421],[-169.476186,-14.262384],[-169.494862,-14.257257],[-169.504262,-14.270603],[-169.522817,-14.270929],[-169.529286,-14.248793],[-169.542673,-14.236749],[-169.506459,-14.222263],[-169.463857,-14.22324]]],[[[-168.16157,-14.532892],[-168.173085,-14.523696],[-168.163523,-14.519789],[-168.16157,-14.532892]]],[[[-169.676218,-14.1749],[-169.658193,-14.168878],[-169.63561,-14.177016],[-169.660146,-14.189142],[-169.669749,-14.187921],[-169.676218,-14.1749]]],[[[-171.072825,-11.052504],[-171.081532,-11.066095],[-171.085642,-11.051365],[-171.072825,-11.052504]]]]}}