{"type":"Feature","properties":{"iso3":"ATG","name":"Antigua and Barbuda","continent":"Americas"},"geometry":{"type":"MultiPolygon","coordinates":[[[[-61.883616,17.049018],[-61.882436,17.078803],[-61.8662,17.086859],[-61.894154,17.100531],[-61.842356,17.124416],[-61.848785,17.149482],[-61.825266,17.168769],[-61.793365,17.164944],[-61.77302,17.126532],[-61.756418,17.114163],[-61.743316,17.141506],[-61.729848,17.127997],[-61.708608,17.127834],[-61.729644,17.114163],[-61.725087,17.09984],[-61.714833,17.093085],[-61.680653,17.100531],[-61.667592,17.079413],[-61.694936,17.079413],[-61.67219,17.057563],[-61.685699,17.028551],[-61.733998,17.034857],[-61.729644,17.001166],[-61.737131,16.989244],[-61.776845,17.018541],[-61.81786,17.00495],[-61.851715,17.007636],[-61.883656,17.026272],[-61.89037,17.035386],[-61.883616,17.049018]]],[[[-61.838938,17.593329],[-61.851796,17.586575],[-61.857289,17.600979],[-61.859364,17.641791],[-61.87385,17.691148],[-61.873036,17.710639],[-61.838938,17.655422],[-61.84317,17.620185],[-61.831451,17.613837],[-61.825022,17.657945],[-61.831207,17.680487],[-61.856435,17.701077],[-61.851674,17.720282],[-61.837799,17.727688],[-61.81786,17.703192],[-61.831451,17.696357],[-61.784291,17.696357],[-61.754262,17.668769],[-61.735911,17.634914],[-61.727773,17.588446],[-61.736399,17.554023],[-61.77066,17.545559],[-61.776967,17.563422],[-61.794749,17.576117],[-61.838938,17.593329]]],[[[-62.345589,16.93914],[-62.343059,16.935063],[-62.347065,16.93197],[-62.345589,16.93914]]]]}}