{"type":"Feature","properties":{"iso3":"AUS","name":"Australia","continent":"Oceania"},"geometry":{"type":"MultiPolygon","coordinates":[[[[131.535899,-31.605564],[131.177501,-31.477634],[130.833751,-31.601739],[129.221365,-31.654392],[127.288748,-32.27337],[126.007579,-32.27337],[124.833991,-32.867698],[124.201182,-33.038018],[123.961111,-33.547133],[123.526622,-33.938653],[123.383311,-33.890883],[123.154633,-34.009454],[123.023123,-33.86061],[122.560313,-33.959161],[122.312266,-33.9249],[122.257823,-34.022068],[122.094737,-34.019138],[122.015636,-33.825372],[121.812999,-33.895115],[121.333751,-33.815199],[120.572276,-33.891534],[120.422699,-33.969903],[120.002208,-33.926039],[119.640636,-34.085219],[119.474946,-34.285903],[119.535004,-34.371515],[119.408458,-34.37005],[119.364024,-34.49505],[118.845958,-34.452569],[118.882009,-34.490655],[118.705903,-34.647719],[118.442638,-34.740004],[118.398448,-34.900974],[118.202403,-34.939223],[118.20102,-35.002374],[117.849294,-35.025567],[117.951996,-35.089532],[117.890473,-35.117364],[117.684337,-35.046319],[117.61964,-35.137872],[117.340587,-35.017836],[116.465099,-35.000665],[116.387543,-34.857517],[116.37615,-34.917413],[116.019786,-34.82936],[115.489268,-34.382094],[115.262869,-34.298517],[115.137543,-34.349867],[115.017833,-34.26214],[114.974457,-34.091892],[114.990001,-33.541925],[115.323741,-33.643813],[115.677094,-33.308038],[115.600922,-32.661716],[115.675792,-32.534926],[115.714122,-32.78045],[115.721528,-31.772638],[115.060802,-30.522393],[114.94752,-30.066827],[114.97934,-29.523207],[114.842459,-29.108575],[114.614513,-28.857517],[114.531098,-28.522393],[114.166026,-28.106703],[114.097179,-27.819431],[114.142345,-27.709161],[114.012543,-27.315362],[113.176286,-26.177308],[113.275971,-26.234857],[113.291314,-26.024567],[113.36201,-26.357447],[113.356698,-26.042086],[113.396642,-26.17658],[113.451631,-26.159384],[113.492788,-26.434715],[113.51384,-26.295082],[113.671084,-26.635582],[113.886567,-26.492838],[113.884773,-26.342673],[113.684138,-26.221604],[113.420781,-25.728215],[113.489869,-25.545269],[113.756951,-25.885217],[113.728004,-26.197035],[113.795386,-26.206715],[113.862315,-25.988946],[114.069083,-26.43656],[114.234371,-26.316584],[114.191742,-26.004002],[114.263194,-25.862237],[113.677908,-25.081638],[113.618663,-24.77044],[113.400238,-24.45794],[113.385265,-24.249119],[113.526378,-23.764744],[113.756847,-23.479099],[113.807384,-22.930597],[113.658946,-22.727797],[113.660818,-22.553399],[113.947032,-21.952569],[114.067149,-21.819024],[114.176036,-21.822198],[114.077485,-22.17547],[114.163829,-22.355564],[114.11085,-22.477716],[114.356944,-22.486017],[114.496104,-22.016046],[114.550304,-22.041925],[114.637706,-21.857354],[115.4546,-21.513767],[115.936697,-21.059015],[116.174083,-20.943048],[116.189301,-20.858819],[116.451508,-20.814711],[116.824474,-20.52809],[116.835948,-20.704278],[117.160167,-20.596368],[117.35377,-20.727716],[117.689952,-20.668145],[118.13559,-20.362074],[118.805675,-20.28102],[119.09547,-19.966729],[119.589854,-20.065851],[119.734386,-19.96266],[120.3685,-19.86712],[121.128266,-19.520685],[121.519379,-19.069594],[121.649669,-18.776788],[121.613292,-18.712498],[121.769054,-18.657403],[121.796641,-18.486912],[122.363048,-18.087986],[122.313731,-17.971449],[122.197113,-17.998793],[122.172048,-17.261163],[122.412771,-16.972752],[122.594981,-16.970961],[122.526134,-16.861749],[122.601248,-16.772231],[122.820974,-16.779718],[122.7588,-16.604425],[122.902843,-16.450616],[123.006602,-16.374444],[122.959809,-16.580336],[123.132172,-16.686293],[123.143565,-16.892348],[123.566905,-17.576349],[123.594981,-16.985121],[123.90268,-17.21852],[123.794607,-17.000095],[123.854015,-17.018487],[123.953298,-16.828546],[123.768077,-16.878513],[123.716807,-16.75742],[123.509939,-16.653904],[123.595063,-16.574884],[123.458507,-16.525974],[123.465831,-16.4638],[123.643321,-16.525974],[123.538748,-16.426446],[123.711681,-16.429783],[123.698253,-16.330011],[123.547374,-16.27752],[123.581309,-16.16961],[123.785818,-16.180434],[123.853282,-16.415948],[123.98463,-16.384698],[123.942393,-16.252862],[123.996267,-16.244806],[124.300629,-16.402439],[124.903982,-16.402439],[124.394786,-16.299249],[124.430919,-16.070001],[124.510916,-16.158298],[124.569672,-16.109959],[124.609711,-15.898696],[124.708751,-15.820733],[124.631684,-15.794203],[124.515147,-15.970147],[124.45045,-15.843194],[124.404307,-15.87477],[124.403331,-15.559259],[124.472911,-15.468683],[124.66863,-15.478448],[124.708751,-15.250421],[124.976248,-15.469171],[125.15797,-15.505141],[125.07252,-15.418878],[125.144298,-15.319268],[124.897146,-15.299412],[125.055431,-15.162286],[124.887218,-15.239679],[124.84197,-15.141209],[125.013031,-15.084649],[125.000173,-14.970392],[125.165294,-15.162286],[125.165294,-15.011407],[125.419932,-15.149347],[125.366466,-15.051446],[125.430837,-15.019708],[125.22169,-14.951918],[125.29477,-14.914727],[125.141368,-14.759861],[125.341075,-14.503106],[125.437999,-14.631931],[125.501313,-14.486261],[125.589203,-14.545343],[125.635265,-14.231541],[125.718435,-14.324314],[125.658051,-14.333103],[125.636974,-14.598077],[125.712738,-14.425877],[125.822113,-14.461196],[125.889659,-14.626886],[125.920095,-14.525974],[126.026703,-14.519952],[126.010997,-14.36712],[126.141856,-14.158461],[125.974946,-14.030938],[126.096365,-14.025079],[126.074474,-13.899102],[126.151622,-13.969903],[126.110606,-14.017755],[126.22047,-13.956231],[126.180349,-14.133233],[126.295584,-14.230076],[126.315929,-14.086847],[126.516938,-13.937433],[126.569184,-13.94199],[126.453298,-14.077569],[126.62086,-14.169203],[126.651866,-14.066095],[126.733735,-14.072931],[126.700043,-13.993829],[126.85727,-13.949395],[126.755544,-13.804946],[126.952891,-13.723565],[127.107432,-13.952813],[127.165212,-13.880548],[127.418468,-13.94199],[127.823578,-14.425877],[128.208669,-14.700779],[128.014903,-15.487481],[128.101329,-15.424574],[128.125173,-15.182061],[128.280284,-15.383559],[128.195811,-15.056817],[128.295177,-14.924981],[128.450206,-15.042657],[128.388438,-14.803399],[128.55421,-14.758722],[129.102306,-14.905369],[129.18393,-14.981866],[129.152599,-15.223728],[129.243663,-15.113377],[129.222992,-14.867771],[129.324392,-14.862074],[129.476573,-14.93377],[129.587576,-15.15309],[129.727061,-15.193617],[129.629893,-15.019464],[129.645518,-14.84059],[129.982432,-14.805922],[129.993337,-14.72503],[129.798595,-14.816827],[129.669932,-14.753106],[129.590099,-14.627374],[129.77768,-14.543634],[129.566661,-14.55462],[129.367361,-14.418634],[129.372895,-14.329278],[129.483246,-14.060235],[129.585216,-14.092869],[129.735606,-13.991795],[129.875336,-13.467055],[129.968923,-13.53045],[130.316661,-13.343357],[130.160492,-13.171482],[130.129893,-12.940525],[130.335134,-12.885431],[130.347423,-12.712823],[130.506847,-12.596449],[130.657481,-12.708103],[130.571544,-12.636651],[130.57838,-12.400811],[130.766124,-12.424737],[130.784434,-12.564874],[130.930512,-12.603285],[130.923595,-12.483331],[130.824718,-12.447931],[130.893565,-12.344903],[131.025157,-12.360528],[131.010916,-12.15602],[131.23227,-12.238539],[131.287364,-12.047296],[131.42628,-12.281183],[131.885509,-12.217055],[132.057872,-12.306736],[132.236176,-12.160577],[132.371837,-12.206964],[132.387543,-12.380304],[132.439626,-12.15488],[132.757579,-12.133396],[132.626964,-12.004327],[132.599864,-11.792087],[132.666759,-11.674249],[132.511567,-11.506606],[132.369884,-11.434991],[132.084727,-11.517999],[131.976085,-11.351251],[131.76588,-11.307224],[131.819102,-11.201593],[131.882498,-11.17197],[131.936046,-11.246759],[132.014334,-11.139581],[132.203868,-11.410333],[132.161306,-11.123712],[132.255219,-11.240411],[132.332367,-11.153253],[132.37794,-11.283136],[132.474946,-11.234145],[132.715994,-11.51629],[132.922048,-11.344985],[133.185069,-11.717055],[133.34669,-11.688246],[133.365082,-11.76336],[133.543224,-11.767348],[133.533946,-11.834161],[133.901622,-11.738865],[133.834158,-11.831476],[133.943126,-11.91367],[134.040375,-11.841567],[134.087087,-11.927911],[134.132172,-11.886407],[134.189464,-12.040785],[134.266287,-11.975763],[134.522227,-12.064386],[134.747569,-11.9485],[134.880626,-12.133884],[135.237804,-12.291599],[135.18889,-12.251444],[135.349294,-12.236017],[135.241498,-12.206796],[135.324728,-12.11087],[135.711997,-12.018483],[135.592947,-12.055597],[135.570717,-11.994575],[135.809825,-11.889907],[135.878184,-11.75628],[135.936778,-11.777032],[135.903417,-11.849899],[135.746918,-11.982843],[135.897227,-11.962579],[135.652138,-12.203286],[135.731944,-12.311456],[136.028575,-12.082208],[135.953868,-12.184747],[135.957367,-12.257501],[136.060232,-12.232192],[135.990245,-12.353692],[136.033946,-12.465916],[136.252696,-12.441095],[136.363943,-12.256443],[136.177013,-12.170831],[136.572215,-11.896443],[136.469447,-11.966811],[136.690603,-12.28281],[136.760916,-12.164483],[136.983653,-12.345473],[136.793987,-12.516123],[136.805512,-12.456476],[136.740245,-12.475763],[136.62322,-12.807061],[136.479259,-12.766697],[136.657494,-12.995739],[136.496755,-12.975193],[136.567231,-13.058201],[136.478038,-13.227634],[136.335078,-13.259059],[136.388194,-13.225763],[136.343553,-13.046855],[136.158618,-13.262878],[136.156505,-13.146905],[136.059093,-13.292657],[135.977545,-13.231961],[135.907169,-13.302557],[135.883429,-13.367306],[135.969435,-13.425652],[135.880528,-13.430094],[135.844837,-13.600186],[135.936778,-13.750177],[136.03297,-13.675063],[135.909434,-14.195245],[135.759125,-14.265395],[135.47934,-14.670831],[135.378266,-14.712335],[135.447765,-14.916274],[136.22462,-15.408624],[136.267914,-15.545017],[136.658214,-15.787774],[136.751964,-15.928481],[136.925548,-15.934666],[136.991873,-15.86419],[137.361176,-16.122166],[137.730235,-16.243829],[138.153494,-16.676853],[139.037283,-16.915623],[139.274181,-17.348321],[139.999522,-17.70615],[140.523204,-17.630304],[140.833263,-17.450779],[140.947032,-17.018324],[141.283702,-16.518731],[141.424815,-16.08172],[141.378754,-15.937921],[141.439708,-15.648858],[141.658946,-15.093927],[141.526134,-14.503676],[141.604259,-14.161065],[141.474132,-13.7763],[141.673106,-13.346124],[141.605479,-12.943455],[141.809744,-12.667657],[141.938731,-12.908461],[141.91391,-12.770603],[141.989024,-12.730239],[141.831798,-12.65781],[141.974132,-12.585138],[141.78297,-12.571466],[141.693614,-12.503188],[141.75115,-12.461114],[141.621837,-12.562107],[141.708263,-12.248305],[141.770763,-12.243259],[141.871349,-11.966241],[141.916352,-12.066095],[142.021983,-12.071873],[141.944184,-11.944106],[142.174571,-10.930108],[142.340343,-10.890232],[142.463227,-10.711196],[142.600841,-10.734959],[142.50172,-10.947849],[142.590831,-10.864923],[142.789806,-11.084893],[142.86964,-11.39129],[142.857921,-11.82171],[142.974294,-11.925226],[143.228038,-11.954848],[143.077159,-12.32879],[143.25294,-12.38893],[143.310395,-12.550958],[143.43393,-12.613051],[143.364268,-12.861749],[143.543793,-12.832778],[143.50294,-13.075128],[143.594412,-13.427179],[143.530121,-13.750177],[143.782725,-14.402276],[143.941173,-14.511163],[144.161632,-14.373142],[144.185395,-14.262628],[144.268077,-14.303643],[144.514903,-14.172784],[144.677582,-14.555841],[144.885997,-14.609633],[145.013845,-14.784112],[145.345714,-14.94256],[145.23585,-15.165948],[145.310069,-15.25449],[145.248057,-15.40602],[145.355805,-15.903416],[145.462413,-16.060479],[145.409028,-16.465427],[145.671235,-16.734796],[145.772472,-16.964776],[145.955089,-16.873142],[145.888031,-17.074802],[146.144298,-17.613946],[146.010509,-18.198989],[146.213715,-18.49212],[146.339366,-18.527032],[146.278087,-18.828709],[146.333263,-18.95908],[146.875011,-19.288344],[147.022309,-19.197686],[147.133962,-19.410821],[147.421397,-19.412774],[147.398774,-19.312758],[147.684255,-19.828058],[147.785004,-19.835382],[147.750824,-19.691502],[147.823904,-19.714288],[147.949474,-19.90781],[148.072439,-19.877048],[148.253917,-19.963474],[148.41627,-20.202244],[148.437511,-20.090753],[148.542817,-20.065362],[148.68214,-20.263442],[148.803884,-20.266697],[148.937022,-20.534926],[148.724132,-20.445571],[148.689301,-20.61004],[148.832042,-20.76393],[148.83253,-20.884861],[149.025727,-20.898045],[149.231212,-21.089776],[149.286469,-21.483331],[149.469005,-21.53753],[149.445079,-21.810642],[149.673839,-22.474216],[149.812755,-22.378106],[150.046723,-22.645278],[149.923513,-22.298272],[150.053559,-22.141534],[150.194021,-22.378676],[150.609141,-22.610528],[150.543712,-22.366957],[150.677501,-22.358005],[150.739919,-22.452244],[150.671641,-22.520603],[150.722667,-22.623793],[150.763682,-22.534763],[150.823253,-22.733575],[150.741466,-22.929132],[150.875824,-23.475844],[150.813975,-23.502537],[151.102715,-23.65327],[151.540294,-24.08408],[151.691661,-24.098321],[151.62143,-24.006036],[151.677989,-23.981622],[151.886974,-24.159845],[152.123057,-24.591729],[152.469737,-24.805597],[152.632335,-25.142755],[152.585297,-25.16839],[152.913829,-25.287693],[152.908376,-25.698907],[153.02003,-25.937433],[153.06422,-25.852797],[153.180675,-25.944757],[153.075206,-26.335056],[153.206228,-27.046075],[153.038259,-27.193455],[153.409841,-27.781915],[153.449474,-28.073175],[153.581228,-28.246759],[153.620942,-28.644464],[153.582286,-28.896091],[153.340343,-29.322686],[153.271495,-29.901625],[153.02307,-30.575506],[153.059501,-31.07721],[152.934502,-31.482811],[152.546373,-32.043679],[152.52156,-32.427494],[152.235862,-32.606999],[152.219249,-32.697198],[152.060883,-32.697931],[152.185069,-32.766778],[151.799237,-32.89368],[151.530686,-33.319119],[151.51611,-33.261109],[151.453795,-33.304199],[151.504995,-33.343743],[151.414317,-33.532892],[151.255544,-33.546808],[151.291502,-33.636533],[151.325472,-33.592058],[151.281423,-33.952325],[151.106293,-34.000909],[151.221446,-34.024998],[150.968953,-34.262675],[150.918868,-34.486404],[150.805837,-34.557224],[150.897227,-34.60117],[150.753429,-34.858087],[150.844737,-35.077244],[150.731456,-35.017267],[150.677501,-35.075779],[150.759451,-35.178888],[150.585948,-35.196222],[150.306895,-35.700291],[150.190929,-35.726821],[150.238617,-35.833103],[150.106781,-36.048598],[150.140391,-36.309747],[149.909679,-36.905532],[149.89031,-37.08408],[150.053559,-37.268731],[149.951345,-37.299737],[149.972097,-37.510268],[149.718435,-37.515802],[149.761485,-37.566339],[149.678477,-37.691013],[149.272227,-37.8235],[148.306407,-37.823419],[147.757579,-37.985121],[146.847667,-38.684991],[146.182384,-38.755955],[146.302908,-38.911879],[146.468516,-38.840265],[146.483409,-39.06463],[146.410655,-39.143162],[146.181651,-38.868341],[146.017345,-38.831638],[145.938975,-38.908787],[145.777354,-38.640883],[145.570811,-38.661716],[145.391612,-38.542739],[145.531586,-38.399021],[145.464366,-38.234552],[145.271739,-38.233168],[145.223806,-38.386],[144.955333,-38.498793],[144.676768,-38.333185],[144.952891,-38.347914],[145.119314,-38.159356],[144.934825,-37.867934],[144.362559,-38.14658],[144.704763,-38.146091],[144.652843,-38.285821],[144.422374,-38.29339],[143.573253,-38.84295],[143.241547,-38.762791],[142.502452,-38.374444],[142.175466,-38.398696],[141.761974,-38.261814],[141.564626,-38.43141],[141.37086,-38.386489],[141.374766,-38.291192],[141.134288,-38.127618],[140.713552,-38.070571],[140.416515,-37.927667],[140.131684,-37.537367],[139.794932,-37.268731],[139.686209,-36.976495],[139.842133,-36.84588],[139.857107,-36.634942],[139.729015,-36.372328],[139.567393,-36.075291],[138.917817,-35.576755],[139.44752,-35.927341],[139.665212,-36.227797],[139.475434,-35.896417],[139.053396,-35.611993],[139.113455,-35.511163],[139.184825,-35.528253],[139.297618,-35.700616],[139.360362,-35.607843],[139.236176,-35.524591],[139.350434,-35.492934],[139.364268,-35.38893],[139.223155,-35.31878],[138.9817,-35.400079],[139.014008,-35.486749],[138.803722,-35.475763],[138.999766,-35.538751],[138.74586,-35.538751],[138.437022,-35.65781],[138.107432,-35.620701],[138.444509,-35.322035],[138.493907,-34.791599],[138.548025,-34.801446],[138.100271,-34.144138],[137.930919,-34.414809],[137.718761,-35.144708],[137.444184,-35.116388],[137.1692,-35.242283],[136.855968,-35.271091],[137.014171,-34.917901],[137.417735,-34.945489],[137.512706,-34.617771],[137.431163,-34.46502],[137.453868,-34.163995],[137.937492,-33.52784],[137.830089,-33.226007],[138.041189,-33.089288],[137.938487,-32.752618],[137.783214,-32.545831],[137.78712,-32.901137],[137.452159,-33.140069],[137.201427,-33.671157],[136.965343,-33.684503],[136.899425,-33.790948],[136.607432,-33.902927],[136.138031,-34.35475],[136.10141,-34.534845],[136.069347,-34.481866],[135.936778,-34.534601],[135.943614,-34.637465],[135.79949,-34.805271],[135.991384,-34.740004],[135.977306,-34.997003],[135.741466,-34.861017],[135.632579,-34.952895],[135.287852,-34.592462],[135.121349,-34.604425],[135.196056,-34.445082],[135.351573,-34.614679],[135.497895,-34.623956],[135.395518,-34.576104],[135.189789,-33.892999],[134.849864,-33.63836],[134.865245,-33.49977],[134.686046,-33.250095],[134.706228,-33.172947],[134.607758,-33.14365],[134.628266,-33.246677],[134.47755,-33.157322],[134.333507,-33.205011],[134.170665,-33.043145],[134.190684,-32.946466],[134.08253,-32.935968],[134.132823,-32.835626],[134.069591,-32.733087],[134.193207,-32.721368],[134.195486,-32.782973],[134.283539,-32.702244],[134.148285,-32.456964],[133.901215,-32.543064],[133.859141,-32.45908],[133.946625,-32.40838],[133.671235,-32.11004],[133.244884,-32.201104],[132.798025,-31.956313],[132.58725,-31.934747],[132.462738,-31.964939],[132.483165,-32.026462],[132.233735,-32.032973],[131.535899,-31.605564]]],[[[128.158865,-15.090265],[128.186778,-15.190199],[128.12379,-15.048598],[128.158865,-15.090265]]],[[[128.416189,-14.956231],[128.441254,-15.01629],[128.348399,-14.882989],[128.416189,-14.956231]]],[[[129.632498,-14.846938],[129.626638,-14.875258],[129.581309,-14.80877],[129.632498,-14.846938]]],[[[129.533458,-14.798517],[129.591482,-14.963637],[129.504649,-14.802911],[129.533458,-14.798517]]],[[[126.500987,-13.873712],[126.61085,-13.89422],[126.52589,-13.903741],[126.500987,-13.873712]]],[[[134.885265,-12.05755],[134.932872,-12.087335],[134.888357,-12.112237],[134.885265,-12.05755]]],[[[134.965256,-12.026465],[134.985986,-12.04145],[134.920789,-12.040263],[134.965256,-12.026465]]],[[[135.121962,-11.929696],[135.057697,-11.953185],[135.053888,-11.919437],[135.121962,-11.929696]]],[[[133.408702,-11.592055],[133.475434,-11.587172],[133.385753,-11.666192],[133.408702,-11.592055]]],[[[133.476899,-11.454848],[133.510997,-11.503188],[133.402599,-11.532647],[133.476899,-11.454848]]],[[[147.998546,-43.230401],[147.882823,-43.131524],[147.821462,-43.214288],[147.700206,-43.162774],[147.733897,-43.118259],[147.627208,-43.042739],[147.678233,-42.939223],[147.875499,-43.040948],[147.831554,-42.931899],[147.533539,-42.836602],[147.559093,-42.977227],[147.454356,-43.038263],[147.403494,-43.010431],[147.477306,-42.908868],[147.299083,-42.788751],[147.359141,-42.910821],[147.333181,-43.042657],[147.271739,-43.011326],[147.257579,-43.254327],[147.15447,-43.264581],[146.972911,-43.131117],[147.099783,-43.299412],[146.996755,-43.316583],[147.055186,-43.348891],[146.921641,-43.42962],[147.00115,-43.455662],[146.855724,-43.639581],[146.710704,-43.629002],[146.582042,-43.494724],[146.024181,-43.552504],[145.943858,-43.386407],[146.237804,-43.384373],[146.233897,-43.333673],[146.04363,-43.325942],[145.917166,-43.195896],[145.860037,-43.30462],[145.688243,-43.049737],[145.472423,-42.915134],[145.247244,-42.504327],[145.188731,-42.195733],[145.42449,-42.370701],[145.463145,-42.502537],[145.535004,-42.377211],[145.346039,-42.182224],[145.27003,-42.223728],[145.206554,-41.966567],[144.776703,-41.438653],[144.605805,-40.996515],[144.703787,-40.871352],[144.721365,-40.640313],[145.075369,-40.807061],[145.263927,-40.752862],[145.79127,-41.017022],[146.35377,-41.167901],[146.572113,-41.17669],[146.730642,-41.068536],[146.916515,-41.157647],[146.819347,-41.075372],[146.881521,-41.026137],[147.285981,-40.941339],[147.444835,-41.008396],[147.650564,-40.828546],[147.849457,-40.888767],[147.969249,-40.743748],[148.287364,-40.923028],[148.271983,-41.308282],[148.333263,-41.292169],[148.260997,-41.800388],[148.364268,-42.20436],[148.264659,-42.250258],[148.320079,-42.119399],[148.162446,-42.059177],[148.242442,-41.990899],[148.202403,-41.948419],[148.15504,-42.045587],[148.217052,-42.093357],[148.119395,-42.091404],[147.983409,-42.319024],[148.011078,-42.489435],[147.915294,-42.517267],[147.955333,-42.691664],[147.850597,-42.851821],[148.004731,-42.908868],[147.949555,-43.072849],[147.998546,-43.230401]]],[[[158.893403,-54.510837],[158.948497,-54.486017],[158.955577,-54.551202],[158.880544,-54.745701],[158.893403,-54.510837]]],[[[147.336599,-43.340265],[147.315929,-43.500665],[147.094086,-43.439874],[147.161632,-43.454034],[147.304454,-43.261814],[147.336599,-43.340265]]],[[[147.40211,-43.131117],[147.437511,-43.238946],[147.379242,-43.247817],[147.344574,-43.082208],[147.40211,-43.131117]]],[[[148.141856,-42.603774],[148.176036,-42.648207],[148.043468,-42.729181],[148.024587,-42.613458],[148.141856,-42.603774]]],[[[148.299001,-42.305597],[148.340587,-42.354099],[148.242686,-42.318129],[148.299001,-42.305597]]],[[[145.013682,-40.668227],[145.058116,-40.696466],[144.876475,-40.719985],[144.917491,-40.623224],[145.013682,-40.668227]]],[[[148.114024,-40.524184],[148.25115,-40.489435],[148.194184,-40.596287],[148.114024,-40.524184]]],[[[144.790863,-40.421157],[144.764659,-40.584568],[144.72877,-40.513604],[144.790863,-40.421157]]],[[[144.900727,-40.469496],[144.846934,-40.441502],[144.941091,-40.386407],[144.900727,-40.469496]]],[[[148.429942,-40.373305],[148.468028,-40.415297],[148.370942,-40.484308],[148.082042,-40.454278],[148.013031,-40.378106],[148.319591,-40.307387],[148.429942,-40.373305]]],[[[148.014903,-40.150567],[147.888682,-39.917576],[147.75766,-39.879327],[147.953298,-39.711684],[148.299001,-39.961847],[148.240001,-40.107029],[148.333751,-40.174737],[148.146658,-40.264907],[148.014903,-40.150567]]],[[[144.105479,-39.892999],[144.112478,-40.030857],[143.88087,-40.09238],[143.854259,-39.761326],[143.944591,-39.578871],[144.112478,-39.677911],[144.105479,-39.892999]]],[[[146.626801,-38.755955],[146.53891,-38.797052],[146.471365,-38.747247],[146.626801,-38.755955]]],[[[145.335216,-38.509454],[145.361339,-38.561782],[145.112966,-38.530532],[145.202403,-38.461114],[145.335216,-38.509454]]],[[[145.441905,-38.316502],[145.494395,-38.365167],[145.282481,-38.390558],[145.297862,-38.324477],[145.441905,-38.316502]]],[[[138.129649,-35.816339],[138.059825,-35.909763],[137.821788,-35.864028],[137.613292,-35.924249],[137.602306,-36.025811],[137.493175,-36.070408],[137.227875,-35.97975],[136.728526,-36.060805],[136.532563,-35.911879],[136.59783,-35.757501],[137.335134,-35.58294],[137.622895,-35.582127],[137.580821,-35.726821],[137.794444,-35.804783],[137.935557,-35.726495],[138.129649,-35.816339]]],[[[136.447276,-35.148126],[136.498546,-35.172052],[136.44752,-35.169366],[136.447276,-35.148126]]],[[[136.173595,-35.011326],[136.206554,-35.061212],[136.099294,-34.968194],[136.173595,-35.011326]]],[[[137.369151,-34.472426],[137.367198,-34.524102],[137.336192,-34.515313],[137.369151,-34.472426]]],[[[134.546397,-33.712172],[134.479015,-33.783624],[134.499278,-33.705336],[134.546397,-33.712172]]],[[[133.565684,-32.321222],[133.560395,-32.274591],[133.650645,-32.239435],[133.565684,-32.321222]]],[[[159.044444,-31.51922],[159.106456,-31.567641],[159.064789,-31.588149],[159.044444,-31.51922]]],[[[153.487315,-27.415216],[153.548839,-27.415216],[153.403331,-27.726251],[153.39796,-27.493097],[153.434093,-27.392999],[153.487315,-27.415216]]],[[[153.411469,-27.339532],[153.36378,-27.163344],[153.439626,-27.022556],[153.411469,-27.339532]]],[[[113.216645,-26.068048],[113.219005,-26.128839],[112.964529,-25.794041],[112.959483,-25.482517],[113.216645,-26.068048]]],[[[152.962413,-25.269627],[153.006358,-25.327732],[152.963715,-25.299086],[152.962413,-25.269627]]],[[[113.055675,-25.262791],[113.079112,-25.062433],[113.117686,-25.009454],[113.055675,-25.262791]]],[[[113.151866,-24.926935],[113.120942,-24.974054],[113.151866,-24.755629],[113.151866,-24.926935]]],[[[153.369965,-24.989028],[153.083263,-25.786879],[152.9463,-25.58294],[153.050059,-25.366388],[153.021821,-25.223403],[153.242524,-24.993259],[153.137218,-24.817071],[153.272472,-24.699884],[153.369965,-24.989028]]],[[[151.372325,-23.820245],[151.383067,-23.879571],[151.322602,-23.771905],[151.372325,-23.820245]]],[[[151.269867,-23.666274],[151.298513,-23.735447],[151.213878,-23.77809],[150.979607,-23.487386],[151.239106,-23.488865],[151.269867,-23.666274]]],[[[149.727794,-22.340509],[149.766287,-22.364679],[149.731212,-22.428155],[149.727794,-22.340509]]],[[[150.536632,-22.275323],[150.48227,-22.344985],[150.488455,-22.237481],[150.536632,-22.275323]]],[[[149.916515,-22.041925],[149.908702,-22.216404],[149.869395,-22.142267],[149.916515,-22.041925]]],[[[150.293224,-21.740899],[150.368907,-21.726739],[150.351736,-21.760675],[150.293224,-21.740899]]],[[[150.300059,-21.678888],[150.246104,-21.678888],[150.246104,-21.62363],[150.300059,-21.678888]]],[[[115.464529,-20.730157],[115.306977,-20.870538],[115.399425,-20.69378],[115.464529,-20.730157]]],[[[149.094086,-20.418227],[149.092621,-20.486098],[149.039317,-20.509454],[149.094086,-20.418227]]],[[[149.067393,-20.315199],[148.971202,-20.28102],[148.969493,-20.164483],[149.067393,-20.315199]]],[[[148.95753,-20.143813],[148.902192,-20.164972],[148.958832,-20.052016],[148.95753,-20.143813]]],[[[148.45045,-19.965753],[148.477306,-20.027114],[148.45045,-20.041599],[148.45045,-19.965753]]],[[[146.860199,-19.115981],[146.820079,-19.175063],[146.780284,-19.132013],[146.860199,-19.115981]]],[[[146.319021,-18.382989],[146.320323,-18.464776],[146.239513,-18.474867],[146.097341,-18.245212],[146.288259,-18.23211],[146.319021,-18.382989]]],[[[139.562185,-17.039239],[139.569347,-17.100356],[139.403982,-17.100681],[139.489513,-17.010431],[139.562185,-17.039239]]],[[[139.089203,-16.827569],[139.158051,-16.827569],[139.107677,-16.862481],[139.089203,-16.827569]]],[[[139.734141,-16.443292],[139.734141,-16.505466],[139.528087,-16.512302],[139.318614,-16.717543],[139.136729,-16.707208],[139.287852,-16.470636],[139.60377,-16.39837],[139.734141,-16.443292]]],[[[136.670421,-15.663181],[136.663585,-15.778578],[136.61964,-15.732599],[136.670421,-15.663181]]],[[[136.800629,-15.642022],[136.741466,-15.749444],[136.731781,-15.648858],[136.800629,-15.642022]]],[[[137.077891,-15.751235],[137.072894,-15.846961],[136.951508,-15.655694],[137.047176,-15.638769],[137.077891,-15.751235]]],[[[136.615733,-15.538995],[136.600352,-15.611586],[136.507172,-15.596287],[136.615733,-15.538995]]],[[[136.895681,-15.587498],[136.861339,-15.626072],[136.857432,-15.520196],[136.895681,-15.587498]]],[[[124.417979,-15.254083],[124.444591,-15.299412],[124.342133,-15.306248],[124.417979,-15.254083]]],[[[124.575694,-15.33294],[124.62794,-15.387384],[124.549164,-15.436293],[124.567068,-15.379327],[124.458832,-15.360935],[124.552013,-15.249444],[124.575694,-15.33294]]],[[[124.928233,-14.973565],[124.93629,-15.026056],[124.87143,-14.95672],[124.928233,-14.973565]]],[[[135.766754,-14.86821],[135.692553,-14.908794],[135.720088,-14.841026],[135.766754,-14.86821]]],[[[125.195079,-14.470147],[125.204926,-14.593032],[125.10377,-14.616469],[125.195079,-14.470147]]],[[[136.807465,-13.818536],[136.810313,-13.808282],[136.818126,-13.801365],[136.807465,-13.818536]]],[[[136.286876,-13.705824],[136.245128,-13.839532],[136.177013,-13.763849],[136.156505,-13.821222],[136.114757,-13.723565],[136.286876,-13.705824]]],[[[136.951508,-14.181573],[136.932953,-14.276544],[136.329845,-14.233087],[136.421397,-14.139337],[136.41505,-13.848891],[136.628591,-13.7763],[136.593516,-13.724705],[136.677094,-13.664809],[136.714854,-13.818617],[136.797211,-13.853204],[136.903087,-13.757582],[136.7046,-14.126886],[136.951508,-14.181573]]],[[[136.135916,-13.434828],[136.118988,-13.3742],[136.197765,-13.454848],[136.142956,-13.56045],[136.135916,-13.434828]]],[[[136.816956,-12.076077],[136.829356,-12.132257],[136.797069,-12.108355],[136.816956,-12.076077]]],[[[132.387543,-12.071873],[132.405772,-12.132989],[132.339854,-12.098565],[132.387543,-12.071873]]],[[[136.290212,-11.975681],[136.269298,-12.038995],[136.134939,-12.037774],[136.290212,-11.975681]]],[[[136.464203,-11.893731],[136.498546,-11.79811],[136.478038,-11.899835],[136.464203,-11.893731]]],[[[136.605235,-11.746026],[136.581554,-11.79811],[136.528005,-11.798517],[136.605235,-11.746026]]],[[[135.955906,-11.707165],[135.980865,-11.661368],[136.055205,-11.650048],[135.955906,-11.707165]]],[[[132.619802,-11.646661],[132.6338,-11.701918],[132.528168,-11.691664],[132.531016,-11.632989],[132.619802,-11.646661]]],[[[136.42335,-11.509535],[136.468516,-11.476007],[136.195649,-11.680434],[136.42335,-11.509535]]],[[[130.536794,-11.705011],[130.628184,-11.80462],[130.024099,-11.79518],[130.064301,-11.691339],[130.185395,-11.676528],[130.170584,-11.447035],[130.308604,-11.33294],[130.456798,-11.67669],[130.536794,-11.705011]]],[[[131.537364,-11.413263],[131.432384,-11.607029],[131.386567,-11.577813],[131.293142,-11.724054],[130.979991,-11.926446],[130.514903,-11.657892],[130.367442,-11.204278],[130.400157,-11.153253],[130.695567,-11.43434],[130.888031,-11.313165],[131.018728,-11.400567],[131.153087,-11.249282],[131.217947,-11.391046],[131.274425,-11.18963],[131.414317,-11.242608],[131.537364,-11.413263]]],[[[136.763685,-11.04007],[136.716482,-11.206231],[136.494098,-11.455346],[136.763685,-11.04007]]],[[[132.489431,-11.160089],[132.472667,-11.040216],[132.566661,-10.98211],[132.600759,-11.315688],[132.489431,-11.160089]]],[[[142.255382,-10.666681],[142.283051,-10.714532],[142.190278,-10.758477],[142.112315,-10.68434],[142.193207,-10.591485],[142.255382,-10.666681]]],[[[142.262218,-10.577813],[142.318858,-10.588637],[142.274425,-10.640802],[142.262218,-10.577813]]],[[[142.293468,-10.13893],[142.289806,-10.260186],[142.193207,-10.193617],[142.293468,-10.13893]]],[[[142.190115,-10.080987],[142.154796,-10.188084],[142.1421,-10.050388],[142.190115,-10.080987]]],[[[115.660004,-32.149835],[115.680512,-32.239353],[115.660004,-32.232517],[115.660004,-32.149835]]],[[[115.492107,-31.995649],[115.54261,-32.000031],[115.440142,-32.021834],[115.492107,-31.995649]]],[[[113.679618,-28.452241],[113.749539,-28.427576],[113.684598,-28.486277],[113.679618,-28.452241]]],[[[146.651134,-18.745782],[146.57016,-18.760837],[146.582774,-18.717706],[146.651134,-18.745782]]],[[[142.754568,-9.369806],[142.741954,-9.419203],[142.601248,-9.399509],[142.754568,-9.369806]]],[[[142.206879,-9.240167],[142.280121,-9.261651],[142.15089,-9.271417],[142.206879,-9.240167]]]]}}