{"type":"Feature","properties":{"iso3":"AUT","name":"Austria","continent":"Europe"},"geometry":{"type":"Polygon","coordinates":[[[16.945043,48.604166],[16.954345,48.557399],[16.946903,48.539726],[16.913934,48.519339],[16.864944,48.458077],[16.84448,48.365602],[16.901945,48.339402],[16.906492,48.33147],[16.898431,48.316173],[16.916621,48.2908],[16.954345,48.273127],[16.98194,48.161299],[17.007158,48.142799],[17.047465,48.130991],[17.080228,48.097608],[17.059144,48.060427],[17.075061,48.052081],[17.069686,48.035674],[17.148338,48.005443],[17.085603,47.970148],[17.095731,47.95573],[17.076818,47.934956],[17.075164,47.927773],[17.085396,47.924621],[17.083329,47.904829],[17.067619,47.881626],[17.004057,47.863281],[17.004367,47.852377],[17.039507,47.837365],[17.05563,47.812354],[17.040644,47.801114],[17.050566,47.730989],[17.075371,47.708484],[16.902668,47.682026],[16.864738,47.686729],[16.850165,47.712929],[16.797455,47.675463],[16.730379,47.685902],[16.702474,47.7236],[16.689865,47.729568],[16.567805,47.754192],[16.531115,47.742978],[16.526877,47.720137],[16.512924,47.706004],[16.45453,47.681768],[16.43913,47.690475],[16.407815,47.66133],[16.481919,47.638954],[16.509617,47.64314],[16.575453,47.624949],[16.608422,47.628773],[16.63023,47.622004],[16.656172,47.585934],[16.65059,47.566555],[16.68139,47.550561],[16.689141,47.53803],[16.677359,47.509866],[16.636845,47.4932],[16.640875,47.452919],[16.589406,47.425633],[16.481919,47.392302],[16.456597,47.411836],[16.433963,47.39685],[16.436443,47.358506],[16.424351,47.345199],[16.43882,47.336569],[16.473237,47.276805],[16.466622,47.263421],[16.421354,47.243138],[16.424661,47.225594],[16.409262,47.203683],[16.412776,47.187173],[16.441818,47.177121],[16.433653,47.145754],[16.447089,47.139708],[16.497318,47.149681],[16.509514,47.137537],[16.481919,47.10524],[16.460835,47.0963],[16.454323,47.081701],[16.461765,47.068498],[16.493701,47.059816],[16.493184,47.049145],[16.424661,47.024082],[16.467553,47.018423],[16.486363,46.998554],[16.410398,46.990415],[16.387764,47.002042],[16.274903,47.004315],[16.261054,46.97809],[16.232942,46.966075],[16.22395,46.941064],[16.170723,46.918533],[16.110055,46.867916],[16.032024,46.837556],[15.981691,46.827685],[15.971976,46.820632],[15.978177,46.809134],[15.970529,46.743014],[15.982001,46.718545],[16.003291,46.709191],[16.014557,46.693714],[16.016723,46.670691],[15.986962,46.69219],[15.850743,46.724488],[15.728683,46.70299],[15.635975,46.717563],[15.626984,46.680873],[15.603729,46.673018],[15.545955,46.671881],[15.530659,46.663845],[15.513939,46.632545],[15.492625,46.618293],[15.462653,46.614649],[15.388135,46.645578],[15.204891,46.638963],[15.061954,46.649557],[15.004386,46.636844],[14.967179,46.600257],[14.947955,46.619274],[14.933589,46.621135],[14.897726,46.605554],[14.85039,46.601136],[14.822278,46.567546],[14.788585,46.506646],[14.760887,46.496284],[14.709727,46.492512],[14.679961,46.458871],[14.666629,46.460524],[14.631696,46.440577],[14.590148,46.434428],[14.557695,46.38394],[14.540332,46.378643],[14.502194,46.418356],[14.450931,46.414481],[14.395844,46.440991],[14.149865,46.440061],[14.050026,46.484399],[13.98233,46.481918],[13.860683,46.51525],[13.782135,46.507782],[13.670256,46.518712],[13.549229,46.545842],[13.506751,46.546927],[13.478019,46.563567],[13.373323,46.565789],[13.271417,46.550777],[13.231109,46.552173],[13.146463,46.584961],[13.064504,46.598035],[12.83041,46.609637],[12.739873,46.642994],[12.706593,46.637749],[12.671368,46.652466],[12.62019,46.656481],[12.547327,46.652192],[12.499888,46.672139],[12.40501,46.690123],[12.370387,46.711155],[12.342688,46.765131],[12.269101,46.788566],[12.275819,46.846289],[12.26662,46.868148],[12.1951,46.880085],[12.172156,46.89918],[12.126887,46.908869],[12.141563,46.918843],[12.141667,46.927989],[12.111178,46.992998],[12.12172,47.010517],[12.182284,47.033616],[12.203575,47.053331],[12.204195,47.079686],[12.180631,47.085215],[12.116242,47.076559],[12.014956,47.040489],[11.943643,47.038164],[11.899511,47.027725],[11.822513,46.993257],[11.777141,46.988296],[11.73487,46.970622],[11.683814,46.991913],[11.59648,47.00044],[11.524443,46.988347],[11.471837,47.00708],[11.411169,46.970493],[11.31381,46.987262],[11.174491,46.963853],[11.091912,46.912435],[11.054291,46.834145],[11.052844,46.814921],[10.99693,46.76911],[10.930888,46.773994],[10.870426,46.764072],[10.83415,46.780246],[10.795082,46.776888],[10.754775,46.790763],[10.722942,46.786448],[10.716947,46.795207],[10.748677,46.819443],[10.738962,46.829546],[10.647081,46.863756],[10.527708,46.843214],[10.486264,46.846366],[10.453811,46.864427],[10.451434,46.88577],[10.463836,46.919747],[10.458462,46.936619],[10.373403,46.996254],[10.338883,46.98411],[10.313665,46.964318],[10.296198,46.941374],[10.295681,46.922693],[10.235116,46.923313],[10.201423,46.86683],[10.157808,46.851612],[10.1113,46.847116],[10.045567,46.865564],[10.006913,46.890757],[9.899943,46.914398],[9.875138,46.927421],[9.862426,46.939772],[9.870591,46.998838],[9.860566,47.001602],[9.857982,47.015478],[9.669053,47.056199],[9.581203,47.05687],[9.608798,47.080771],[9.615723,47.106764],[9.605594,47.132266],[9.581823,47.154901],[9.552057,47.16689],[9.562909,47.19774],[9.540378,47.229108],[9.547096,47.243035],[9.521155,47.262801],[9.587404,47.32781],[9.601047,47.36127],[9.649519,47.409717],[9.650346,47.452092],[9.58451,47.480721],[9.554951,47.5109],[9.547482,47.534547],[9.612622,47.521881],[9.676701,47.52263],[9.703986,47.531415],[9.752665,47.582058],[9.782121,47.588414],[9.807959,47.576322],[9.813127,47.54175],[9.833487,47.534619],[9.858912,47.541337],[9.918753,47.53219],[9.945935,47.540769],[9.948726,47.524232],[9.97167,47.506404],[9.982625,47.481031],[9.993581,47.476586],[10.022623,47.487955],[10.080604,47.42739],[10.075953,47.416874],[10.053215,47.40486],[10.082878,47.359074],[10.11037,47.367394],[10.130833,47.362666],[10.146956,47.373802],[10.190881,47.379228],[10.209278,47.372484],[10.190778,47.298251],[10.172691,47.292308],[10.155431,47.272878],[10.239354,47.277735],[10.305913,47.302178],[10.34343,47.330756],[10.371646,47.367394],[10.411643,47.381037],[10.428283,47.396049],[10.451951,47.438759],[10.44761,47.472581],[10.419601,47.493045],[10.43097,47.542164],[10.414227,47.573015],[10.429213,47.57702],[10.453604,47.581102],[10.461563,47.569914],[10.453501,47.546246],[10.482543,47.532862],[10.536907,47.529865],[10.583726,47.562473],[10.739892,47.52847],[10.760769,47.513638],[10.858644,47.530666],[10.892234,47.514879],[10.851616,47.493097],[10.858438,47.485165],[10.909907,47.46899],[10.959827,47.432506],[10.957656,47.409717],[10.965511,47.396075],[10.979464,47.390545],[11.083747,47.389512],[11.193818,47.428941],[11.215212,47.422998],[11.213041,47.395816],[11.237019,47.393956],[11.258827,47.400725],[11.305645,47.4354],[11.383884,47.444857],[11.392462,47.454779],[11.388638,47.46222],[11.365487,47.469326],[11.412616,47.506094],[11.482585,47.50258],[11.551212,47.51369],[11.569402,47.527384],[11.589142,47.570379],[11.617048,47.586761],[11.820343,47.575288],[11.851969,47.599163],[11.935891,47.610738],[12.173603,47.60508],[12.202128,47.629833],[12.206779,47.645568],[12.205125,47.672285],[12.1766,47.705823],[12.239749,47.731687],[12.223315,47.695901],[12.238715,47.6789],[12.293699,47.69001],[12.351473,47.68169],[12.42413,47.69156],[12.444697,47.656291],[12.49658,47.628903],[12.538232,47.631331],[12.598383,47.66288],[12.653057,47.675127],[12.761991,47.666859],[12.751655,47.649392],[12.81315,47.611824],[12.785865,47.602677],[12.773669,47.5795],[12.77894,47.554825],[12.828446,47.537255],[12.931593,47.473512],[12.96973,47.475734],[13.001873,47.466019],[13.037323,47.493045],[13.028124,47.541647],[13.040113,47.560457],[13.038253,47.584022],[13.057063,47.597664],[13.069569,47.620247],[13.072049,47.659469],[13.044557,47.696573],[13.019856,47.712929],[12.964045,47.705358],[12.908338,47.71236],[12.892009,47.723548],[12.917227,47.750161],[12.926735,47.777395],[12.991227,47.847106],[12.964976,47.871963],[12.931076,47.924879],[12.862036,47.962552],[12.830617,48.015468],[12.750932,48.074741],[12.736979,48.099959],[12.745041,48.12063],[12.764058,48.123756],[12.782351,48.142024],[12.822142,48.160679],[12.862553,48.196646],[12.93304,48.209255],[13.032775,48.263567],[13.136438,48.291059],[13.274207,48.307104],[13.405569,48.376583],[13.436161,48.430585],[13.438228,48.478541],[13.459209,48.516394],[13.440709,48.557347],[13.454558,48.573445],[13.520704,48.584581],[13.624367,48.565357],[13.65806,48.551094],[13.673356,48.535488],[13.714336,48.523215],[13.733869,48.559776],[13.77428,48.569207],[13.802392,48.611711],[13.800945,48.675221],[13.803529,48.687159],[13.816862,48.695582],[13.783582,48.71527],[13.815725,48.76643],[13.855929,48.759299],[13.98233,48.706485],[14.034729,48.661165],[14.008064,48.642407],[14.015196,48.620393],[14.040827,48.601169],[14.07483,48.591712],[14.216527,48.58117],[14.325358,48.558639],[14.405353,48.586286],[14.421166,48.597061],[14.443593,48.636516],[14.458166,48.643182],[14.482144,48.624475],[14.53382,48.608714],[14.594179,48.621323],[14.605134,48.600316],[14.634693,48.602332],[14.659187,48.576959],[14.675621,48.576235],[14.695671,48.589542],[14.703836,48.673103],[14.722749,48.693411],[14.775356,48.724004],[14.800367,48.776507],[14.86765,48.775577],[14.939584,48.762813],[14.951056,48.780331],[14.938137,48.80281],[14.968213,48.885028],[14.964595,48.971741],[14.978858,49.00626],[15.003973,49.009774],[15.059576,48.997217],[15.137401,48.993031],[15.148977,48.965333],[15.141949,48.937479],[15.238067,48.95076],[15.257084,48.963886],[15.266902,48.986675],[15.27455,48.986727],[15.28871,48.975358],[15.357853,48.97081],[15.450354,48.944817],[15.521254,48.908489],[15.681347,48.858466],[15.726823,48.854952],[15.779222,48.870868],[15.818497,48.872315],[15.833276,48.852006],[15.885986,48.842033],[15.875754,48.833093],[15.899629,48.834746],[15.908103,48.819709],[15.930324,48.818313],[15.931771,48.806428],[16.032334,48.758059],[16.085354,48.742866],[16.177751,48.746535],[16.339498,48.735579],[16.358309,48.727259],[16.384974,48.737078],[16.43572,48.794542],[16.453083,48.80219],[16.519539,48.805601],[16.643149,48.778264],[16.661959,48.740023],[16.675085,48.733926],[16.729035,48.733099],[16.798902,48.709224],[16.873006,48.718991],[16.896674,48.696977],[16.910523,48.63078],[16.945043,48.604166]]]}}