{"type":"Feature","properties":{"iso3":"AZE","name":"Azerbaijan","continent":"Asia"},"geometry":{"type":"MultiPolygon","coordinates":[[[[44.979456,41.082041],[45.018885,41.07491],[45.029995,41.046281],[45.015732,41.023234],[44.979456,41.032639],[44.96695,41.044834],[44.963953,41.073773],[44.979456,41.082041]]],[[[45.0024,41.290452],[45.24962,41.4445],[45.314422,41.451631],[45.396794,41.423261],[45.464801,41.430185],[45.511826,41.39458],[45.65559,41.352361],[45.74406,41.335359],[45.7453,41.329158],[45.708093,41.317117],[45.685872,41.29624],[45.709747,41.267715],[45.820748,41.208804],[45.969163,41.168289],[46.017428,41.163793],[46.061353,41.170925],[46.113133,41.19604],[46.210595,41.200174],[46.228578,41.195419],[46.332345,41.115889],[46.41265,41.09186],[46.456988,41.052431],[46.496779,41.044834],[46.522411,41.087002],[46.543546,41.097027],[46.601786,41.09403],[46.621113,41.114597],[46.64447,41.207977],[46.669482,41.229888],[46.674649,41.261669],[46.691703,41.268542],[46.688499,41.284355],[46.631034,41.345539],[46.607367,41.345023],[46.591554,41.372928],[46.445103,41.425948],[46.398284,41.458711],[46.366244,41.466566],[46.313948,41.493747],[46.29674,41.510387],[46.278394,41.578393],[46.2539,41.615911],[46.24005,41.615497],[46.21969,41.593302],[46.192767,41.610174],[46.180002,41.655159],[46.179537,41.705879],[46.188994,41.740141],[46.208321,41.755514],[46.276947,41.749313],[46.313741,41.756651],[46.371309,41.805692],[46.430892,41.890442],[46.525511,41.882303],[46.543546,41.874293],[46.549127,41.855379],[46.544321,41.814761],[46.549851,41.79776],[46.567576,41.786675],[46.586593,41.786779],[46.636512,41.816518],[46.69749,41.828223],[46.740795,41.851245],[46.754024,41.800886],[46.769114,41.77572],[46.834795,41.730245],[46.902232,41.712752],[46.915978,41.680945],[46.97923,41.635496],[47.003932,41.60542],[47.012613,41.5755],[47.027031,41.556948],[47.107491,41.569919],[47.125578,41.566301],[47.141391,41.5524],[47.159323,41.503514],[47.187073,41.485634],[47.200509,41.45685],[47.239059,41.415716],[47.24092,41.338925],[47.250842,41.316032],[47.268411,41.302803],[47.375588,41.259447],[47.500955,41.246321],[47.547309,41.205651],[47.567773,41.205496],[47.622498,41.229061],[47.743731,41.192681],[47.828739,41.198417],[47.894627,41.219294],[47.892146,41.283269],[47.929456,41.313552],[47.942686,41.3474],[47.953228,41.355771],[47.979169,41.352412],[48.001648,41.362076],[48.053532,41.461295],[48.086553,41.476643],[48.201843,41.493489],[48.370153,41.58015],[48.393046,41.598883],[48.455419,41.714406],[48.578949,41.845282],[48.655447,41.800605],[48.777843,41.68301],[48.79184,41.667426],[48.797618,41.643134],[48.865896,41.585395],[48.904063,41.523383],[48.941173,41.504625],[48.994477,41.440416],[49.027599,41.43122],[49.042491,41.414374],[49.135916,41.27497],[49.154307,41.166449],[49.178477,41.128852],[49.195486,41.057278],[49.243175,40.997219],[49.363129,40.894232],[49.382009,40.866645],[49.448741,40.831285],[49.471039,40.835761],[49.538829,40.788072],[49.509532,40.699042],[49.510753,40.687934],[49.53891,40.653998],[49.58961,40.62519],[49.652599,40.619208],[49.723806,40.580756],[49.816742,40.565375],[49.858653,40.566636],[49.938162,40.58747],[50.052013,40.584296],[50.109386,40.527086],[50.237559,40.496161],[50.27589,40.436591],[50.317393,40.42121],[50.350597,40.385891],[50.360525,40.36518],[50.370779,40.28262],[50.391124,40.235012],[50.387869,40.221137],[50.32309,40.296576],[50.273692,40.327338],[50.229991,40.34276],[50.127696,40.358954],[50.055186,40.351508],[50.003754,40.324205],[49.983735,40.324205],[49.955821,40.351508],[49.893403,40.369045],[49.840343,40.337836],[49.847179,40.314154],[49.819021,40.29206],[49.778331,40.275824],[49.711925,40.26435],[49.653656,40.23843],[49.577159,40.216742],[49.492524,40.153998],[49.496593,40.09455],[49.442638,40.078437],[49.432628,40.062974],[49.435069,40.042792],[49.448741,40.022528],[49.483897,39.988674],[49.435395,39.957668],[49.423676,39.935492],[49.443126,39.873358],[49.416515,39.843736],[49.421397,39.810248],[49.40089,39.796617],[49.394786,39.782457],[49.40089,39.769273],[49.396332,39.756171],[49.424815,39.718085],[49.423595,39.70954],[49.383962,39.690131],[49.318044,39.621405],[49.319021,39.604193],[49.29713,39.565579],[49.284923,39.522203],[49.285818,39.495185],[49.295746,39.476711],[49.388845,39.410793],[49.408946,39.38642],[49.397309,39.34516],[49.407074,39.323676],[49.366873,39.350979],[49.37908,39.31981],[49.407074,39.296942],[49.407074,39.289496],[49.384532,39.293687],[49.357677,39.320136],[49.306407,39.346503],[49.273123,39.336575],[49.247325,39.310696],[49.237071,39.278957],[49.237804,39.169501],[49.210785,39.090766],[49.203298,39.034125],[49.193858,39.016343],[49.118826,38.975328],[49.079275,38.963324],[49.051524,38.981024],[49.055837,39.007514],[49.125499,39.028144],[49.146821,39.063422],[49.147716,39.083441],[49.136404,39.102281],[49.116384,39.110297],[49.068614,39.111396],[49.05893,39.172797],[49.041189,39.184394],[48.967621,39.183824],[48.949555,39.151272],[48.946951,39.127509],[48.934825,39.124416],[48.936371,39.053127],[48.952647,39.031643],[48.921723,38.935452],[48.898692,38.893052],[48.867931,38.863837],[48.831798,38.871161],[48.834727,38.819281],[48.863129,38.756659],[48.874278,38.434231],[48.777725,38.444812],[48.683209,38.398019],[48.607865,38.395978],[48.575929,38.420369],[48.433715,38.569972],[48.415267,38.618109],[48.391754,38.618109],[48.341059,38.599583],[48.310312,38.600151],[48.228043,38.662189],[48.230317,38.698621],[48.222979,38.721462],[48.077974,38.780941],[48.012966,38.821559],[47.993122,38.850085],[47.990745,38.891219],[48.000046,38.902588],[48.052446,38.927909],[48.058544,38.948373],[48.243184,38.973875],[48.293672,39.004597],[48.306798,39.045396],[48.271296,39.108312],[48.199104,39.138232],[48.142157,39.181201],[48.104329,39.234841],[48.10619,39.26918],[48.124587,39.297602],[48.153525,39.319048],[48.187218,39.332587],[48.24985,39.342354],[48.302457,39.369898],[48.33894,39.378941],[48.288608,39.445035],[48.220085,39.494025],[48.052033,39.650087],[47.971418,39.704554],[47.957708,39.707256],[47.922945,39.684142],[47.823106,39.680318],[47.745282,39.623784],[47.606995,39.563581],[47.54116,39.51516],[47.448762,39.494696],[47.406904,39.476816],[47.291356,39.379613],[47.10222,39.308403],[47.020468,39.18996],[46.953754,39.16066],[46.898718,39.171744],[46.866391,39.165445],[46.837378,39.143245],[46.806011,39.102395],[46.773765,39.085367],[46.744826,39.040254],[46.65217,38.992944],[46.585352,38.907704],[46.553726,38.889824],[46.514039,38.882176],[46.475075,38.95106],[46.475798,38.975607],[46.494609,39.025526],[46.491921,39.081905],[46.479312,39.114771],[46.396268,39.164432],[46.395286,39.19518],[46.418334,39.211923],[46.453371,39.208409],[46.514142,39.184431],[46.572795,39.21151],[46.602612,39.215489],[46.59114,39.231069],[46.517656,39.278844],[46.49528,39.324009],[46.374616,39.378838],[46.36087,39.410257],[46.373996,39.435992],[46.405725,39.451185],[46.491405,39.466429],[46.498588,39.483121],[46.492025,39.510199],[46.518276,39.525444],[46.527268,39.538156],[46.524271,39.554641],[46.495435,39.575932],[46.396423,39.576655],[46.343713,39.618616],[46.309504,39.620528],[46.241187,39.593502],[46.206461,39.587921],[46.18424,39.593243],[46.131685,39.652154],[46.076546,39.668122],[46.045127,39.687553],[46.006576,39.747911],[45.97924,39.768478],[45.861882,39.804548],[45.816821,39.839171],[45.764421,39.92206],[45.742768,39.940509],[45.715431,39.950896],[45.611148,39.959164],[45.579419,39.970171],[45.576267,39.993891],[45.63957,40.025413],[45.803901,40.004484],[45.873768,40.009755],[45.894025,40.029082],[45.909528,40.082671],[45.950766,40.117191],[45.962961,40.141685],[45.9811,40.205971],[45.97924,40.223592],[45.924618,40.266174],[45.861676,40.261265],[45.819152,40.297141],[45.585413,40.398724],[45.526192,40.441047],[45.48542,40.505281],[45.455447,40.523626],[45.444647,40.566362],[45.387803,40.609512],[45.37354,40.632715],[45.373643,40.675296],[45.39881,40.708937],[45.437929,40.73338],[45.555855,40.776582],[45.58221,40.799371],[45.600968,40.840557],[45.599159,40.862675],[45.537871,40.875904],[45.47927,40.929906],[45.416432,40.961325],[45.425217,40.993675],[45.419119,41.017342],[45.391523,41.015069],[45.335351,40.99383],[45.312562,40.99662],[45.221611,41.014449],[45.120016,41.079613],[45.111024,41.049537],[45.070044,41.062094],[45.057177,41.078786],[45.067822,41.110928],[45.166731,41.107776],[45.201044,41.126741],[45.199752,41.142658],[45.134433,41.187875],[45.034853,41.197693],[45.029323,41.210096],[45.0394,41.23118],[45.0024,41.290452]],[[45.513687,40.601967],[45.547173,40.621553],[45.560712,40.647649],[45.520198,40.660413],[45.47927,40.650233],[45.471312,40.629873],[45.47927,40.609822],[45.513687,40.601967]]],[[[46.135871,38.863701],[46.067968,38.874114],[46.001822,38.897472],[45.791086,38.932095],[45.716878,38.954781],[45.627788,38.955504],[45.535565,38.968453],[45.438601,39.004235],[45.425268,39.025629],[45.434518,39.052785],[45.396381,39.073327],[45.379328,39.111154],[45.345273,39.138439],[45.353903,39.153193],[45.348219,39.163916],[45.311115,39.176292],[45.311115,39.200528],[45.28569,39.194921],[45.178927,39.219829],[45.152727,39.213525],[45.135828,39.278482],[45.096038,39.341114],[45.051699,39.386848],[45.006379,39.417957],[44.982505,39.420179],[44.957028,39.434493],[44.953307,39.441625],[44.961627,39.453769],[44.940698,39.468083],[44.928399,39.488237],[44.886438,39.605956],[44.865354,39.617583],[44.872279,39.625076],[44.809647,39.636962],[44.795746,39.652361],[44.774559,39.702797],[44.802929,39.712409],[44.927159,39.724708],[44.995992,39.760468],[45.033509,39.77039],[45.067512,39.757213],[45.151538,39.667709],[45.148334,39.57526],[45.16792,39.565545],[45.204765,39.572314],[45.233187,39.592727],[45.259955,39.599703],[45.312975,39.533815],[45.374884,39.525857],[45.434828,39.488857],[45.47927,39.497177],[45.586447,39.545391],[45.714656,39.569472],[45.737859,39.569782],[45.788088,39.548957],[45.79708,39.536348],[45.794031,39.493973],[45.803075,39.448188],[45.758633,39.369484],[45.767004,39.354395],[45.823745,39.343078],[45.887204,39.299669],[45.958827,39.272436],[45.985802,39.24944],[45.986009,39.234686],[45.955107,39.203241],[45.949009,39.177791],[45.958104,39.151513],[46.02549,39.063767],[46.07758,38.950492],[46.135871,38.863701]]],[[[45.209932,40.967991],[45.186781,40.970834],[45.17717,40.99383],[45.191846,40.997809],[45.220474,40.97905],[45.209932,40.967991]]],[[[50.618907,40.299994],[50.587576,40.300605],[50.572765,40.310045],[50.562999,40.324856],[50.565278,40.337836],[50.578298,40.330024],[50.606944,40.337836],[50.621267,40.326077],[50.625743,40.31037],[50.618907,40.299994]]],[[[50.388438,40.401679],[50.353689,40.399888],[50.358653,40.424221],[50.32602,40.458075],[50.326427,40.481879],[50.360525,40.474433],[50.362804,40.453559],[50.395274,40.420396],[50.388438,40.401679]]]]}}