{"type":"Feature","properties":{"iso3":"BDI","name":"Burundi","continent":"Africa"},"geometry":{"type":"Polygon","coordinates":[[[30.5546,-2.400628],[30.508091,-2.463466],[30.457655,-2.598032],[30.416003,-2.645574],[30.412128,-2.670172],[30.423238,-2.680921],[30.442668,-2.681127],[30.52256,-2.649398],[30.516101,-2.668311],[30.450523,-2.741795],[30.446906,-2.782723],[30.413626,-2.8344],[30.415797,-2.851659],[30.456001,-2.898272],[30.474191,-2.903233],[30.469644,-2.914188],[30.488325,-2.94316],[30.513052,-2.913981],[30.53889,-2.898995],[30.62953,-2.947674],[30.637592,-2.974443],[30.683687,-2.969998],[30.732057,-2.99346],[30.825488,-2.978577],[30.778255,-3.04741],[30.817684,-3.099086],[30.812258,-3.123477],[30.832929,-3.147662],[30.832205,-3.172777],[30.809364,-3.216805],[30.814842,-3.247708],[30.799753,-3.274579],[30.775671,-3.291012],[30.747921,-3.294113],[30.721463,-3.280987],[30.712006,-3.301865],[30.640538,-3.33287],[30.603279,-3.372558],[30.640434,-3.392815],[30.639142,-3.41948],[30.612891,-3.444905],[30.565968,-3.466712],[30.544988,-3.48914],[30.511502,-3.497718],[30.508246,-3.50888],[30.46892,-3.513014],[30.462616,-3.527897],[30.432282,-3.551875],[30.428871,-3.602208],[30.373112,-3.703597],[30.384998,-3.770776],[30.381587,-3.788346],[30.33699,-3.773774],[30.31172,-3.789897],[30.273273,-3.856249],[30.208781,-3.930457],[30.191418,-4.002494],[30.149766,-4.08683],[30.119587,-4.12352],[30.051478,-4.180157],[30.003005,-4.271935],[29.936343,-4.312035],[29.900479,-4.345625],[29.847356,-4.370533],[29.80033,-4.363919],[29.784104,-4.37384],[29.775009,-4.402262],[29.751651,-4.416112],[29.744365,-4.454456],[29.732841,-4.463344],[29.638273,-4.446808],[29.404179,-4.449805],[29.37276,-4.208166],[29.33948,-4.093237],[29.277727,-3.988954],[29.224552,-3.926529],[29.215043,-3.899864],[29.206568,-3.781939],[29.22326,-3.66701],[29.225172,-3.588565],[29.206672,-3.334524],[29.213079,-3.291943],[29.240881,-3.266311],[29.223828,-3.252669],[29.216904,-3.233135],[29.214113,-3.166472],[29.225017,-3.129369],[29.242328,-3.110765],[29.234629,-3.046583],[29.211529,-3.021158],[29.156752,-3.004828],[29.138407,-2.950361],[29.08978,-2.926074],[29.049058,-2.827475],[28.994902,-2.813626],[28.986892,-2.796779],[28.995522,-2.758435],[29.008234,-2.74748],[29.028595,-2.744896],[29.015365,-2.720711],[29.032574,-2.620666],[29.05526,-2.598445],[29.113447,-2.594621],[29.294418,-2.651052],[29.306614,-2.660147],[29.309481,-2.690127],[29.337516,-2.723812],[29.318086,-2.762569],[29.339687,-2.826441],[29.425366,-2.803394],[29.480867,-2.813729],[29.504121,-2.826855],[29.541845,-2.808561],[29.574091,-2.806081],[29.619256,-2.787684],[29.678684,-2.805357],[29.719922,-2.805461],[29.729637,-2.79957],[29.744727,-2.759985],[29.803379,-2.767324],[29.842395,-2.752441],[29.876191,-2.71358],[29.897896,-2.671102],[29.907921,-2.5354],[29.929573,-2.459849],[29.92239,-2.382954],[29.931692,-2.316912],[29.949934,-2.321149],[29.976134,-2.34368],[30.013341,-2.348331],[30.072975,-2.408792],[30.116797,-2.43153],[30.139121,-2.430807],[30.156174,-2.419024],[30.20134,-2.362387],[30.207489,-2.339236],[30.262731,-2.358356],[30.297974,-2.353705],[30.331151,-2.340269],[30.362518,-2.307817],[30.37859,-2.303062],[30.423238,-2.317325],[30.434142,-2.339236],[30.488454,-2.383781],[30.521733,-2.399387],[30.5546,-2.400628]]]}}