{"type":"Feature","properties":{"iso3":"BEL","name":"Belgium","continent":"Europe"},"geometry":{"type":"Polygon","coordinates":[[[2.5218,51.087541],[2.579926,51.104804],[2.715668,51.169501],[3.124848,51.329657],[3.348969,51.375149],[3.358068,51.336713],[3.353211,51.288602],[3.36737,51.263487],[3.391658,51.24677],[3.453877,51.235633],[3.501212,51.240284],[3.503383,51.273952],[3.514338,51.281031],[3.609526,51.290436],[3.776234,51.254521],[3.781402,51.219872],[3.808687,51.205325],[3.927026,51.206255],[4.118952,51.272401],[4.168562,51.29687],[4.207939,51.330589],[4.220962,51.363817],[4.241059,51.356594],[4.256114,51.328437],[4.302989,51.296088],[4.308116,51.283637],[4.298676,51.269599],[4.30836,51.271226],[4.330821,51.296088],[4.289317,51.309149],[4.283051,51.350084],[4.261068,51.369379],[4.290105,51.368752],[4.345605,51.352293],[4.392217,51.350407],[4.411234,51.356737],[4.416195,51.373971],[4.379918,51.409525],[4.38922,51.434588],[4.377128,51.442882],[4.429424,51.461976],[4.525232,51.475929],[4.533191,51.467583],[4.521512,51.428645],[4.540632,51.420067],[4.630136,51.418206],[4.653907,51.426216],[4.731215,51.485618],[4.778654,51.495359],[4.823922,51.475645],[4.815447,51.431074],[4.822682,51.413685],[4.779067,51.426423],[4.767802,51.425389],[4.762117,51.413375],[4.853274,51.40614],[4.910325,51.391903],[4.957144,51.410997],[4.995798,51.446706],[5.012128,51.474327],[5.027527,51.476807],[5.06029,51.461976],[5.079927,51.438541],[5.065251,51.405907],[5.061737,51.384255],[5.068145,51.37454],[5.102561,51.350665],[5.122922,51.313381],[5.197336,51.308342],[5.214906,51.294338],[5.215423,51.258733],[5.389056,51.258707],[5.471635,51.288085],[5.493235,51.286535],[5.535197,51.26204],[5.545532,51.219924],[5.568373,51.207651],[5.62501,51.196902],[5.659013,51.179074],[5.730844,51.18375],[5.781383,51.152409],[5.829132,51.156465],[5.840501,51.138921],[5.823241,51.118741],[5.845979,51.103393],[5.804948,51.096624],[5.811769,51.082309],[5.79885,51.061484],[5.791305,51.054998],[5.771461,51.058125],[5.76402,51.035181],[5.777559,51.023553],[5.722369,50.959423],[5.76402,50.959423],[5.722369,50.911674],[5.694463,50.903664],[5.622323,50.852659],[5.624493,50.830284],[5.64072,50.815039],[5.700458,50.795557],[5.688366,50.76083],[5.706556,50.754216],[5.727846,50.754164],[5.752444,50.773439],[5.793165,50.752149],[5.99491,50.749927],[5.99274,50.744449],[6.010826,50.737059],[6.01155,50.708534],[6.081003,50.713495],[6.100227,50.701299],[6.161102,50.642181],[6.147769,50.636755],[6.159448,50.622389],[6.180015,50.615516],[6.249055,50.614431],[6.244301,50.599548],[6.179085,50.561979],[6.160688,50.543583],[6.177328,50.530198],[6.169473,50.522499],[6.190557,50.515212],[6.182599,50.506582],[6.207197,50.486325],[6.255566,50.494593],[6.336905,50.481003],[6.323262,50.466016],[6.331634,50.446896],[6.351167,50.433564],[6.337732,50.368089],[6.372458,50.329436],[6.374525,50.315483],[6.362019,50.306956],[6.285952,50.303856],[6.269415,50.286492],[6.271792,50.267424],[6.189627,50.242722],[6.157174,50.222724],[6.146839,50.214042],[6.160171,50.204534],[6.165132,50.181899],[6.151696,50.169342],[6.123171,50.164898],[6.115833,50.145467],[6.129476,50.134047],[6.117487,50.120456],[6.102604,50.124745],[6.097126,50.151307],[6.084207,50.159317],[6.038628,50.148413],[6.014134,50.153581],[5.998321,50.174975],[5.96163,50.165621],[5.941063,50.128311],[5.872437,50.096892],[5.864375,50.067488],[5.83771,50.047437],[5.836367,50.01855],[5.802674,50.002479],[5.801537,49.988681],[5.812596,49.977571],[5.80164,49.963825],[5.76371,49.946823],[5.718958,49.891374],[5.714927,49.881866],[5.758129,49.858198],[5.731877,49.859955],[5.728673,49.848845],[5.736528,49.83944],[5.720198,49.824712],[5.727743,49.800217],[5.738285,49.788848],[5.778489,49.773035],[5.811769,49.718517],[5.850216,49.714021],[5.857347,49.70043],[5.842258,49.67392],[5.845772,49.666582],[5.879878,49.657745],[5.885459,49.643534],[5.829959,49.582763],[5.846909,49.576717],[5.8374,49.56111],[5.790685,49.537753],[5.746346,49.549431],[5.710276,49.531086],[5.644647,49.543799],[5.619739,49.53553],[5.602273,49.513723],[5.547599,49.523438],[5.477732,49.495223],[5.456132,49.498944],[5.44993,49.507832],[5.450241,49.545762],[5.402078,49.602451],[5.334899,49.625809],[5.32167,49.61258],[5.297898,49.613252],[5.290664,49.626378],[5.293764,49.640537],[5.306373,49.647513],[5.299449,49.662499],[5.259244,49.691335],[5.192478,49.682808],[5.169431,49.687201],[5.136358,49.705339],[5.081891,49.752727],[5.026287,49.766731],[4.970993,49.797065],[4.884177,49.784146],[4.849037,49.794171],[4.849244,49.831585],[4.834878,49.85303],[4.859372,49.891684],[4.860199,49.913337],[4.844593,49.931734],[4.797257,49.944291],[4.783925,49.958295],[4.826713,50.036017],[4.827229,50.064077],[4.84604,50.09069],[4.862886,50.084076],[4.871878,50.139783],[4.862679,50.147586],[4.820098,50.146449],[4.815551,50.161332],[4.788575,50.153374],[4.681915,50.083921],[4.67344,50.066196],[4.680572,50.048316],[4.672924,50.01638],[4.656697,49.989095],[4.604194,49.980206],[4.464771,49.935609],[4.435109,49.93225],[4.277599,49.960156],[4.201118,49.953024],[4.131665,49.974987],[4.139623,49.974522],[4.132285,50.017568],[4.137349,50.025061],[4.210006,50.06015],[4.180551,50.127226],[4.125774,50.128156],[4.152749,50.204534],[4.167942,50.222465],[4.201325,50.241534],[4.197604,50.258484],[4.162774,50.272953],[4.150268,50.269543],[4.150992,50.256262],[4.143654,50.251611],[4.125257,50.25714],[4.097868,50.294812],[4.0033,50.34406],[3.895917,50.325301],[3.84021,50.345197],[3.755047,50.346334],[3.733446,50.337239],[3.696859,50.298223],[3.661719,50.319307],[3.644356,50.445501],[3.608286,50.476507],[3.563741,50.486532],[3.499145,50.48679],[3.486743,50.492681],[3.498008,50.511853],[3.477131,50.519863],[3.429175,50.501828],[3.361066,50.489787],[3.299881,50.507461],[3.271045,50.526943],[3.264327,50.570196],[3.229808,50.65541],[3.24376,50.672102],[3.232391,50.695925],[3.224433,50.705175],[3.188983,50.715097],[3.146195,50.768892],[3.129245,50.779072],[3.103304,50.784085],[2.971425,50.757833],[2.930188,50.736232],[2.886883,50.696648],[2.786734,50.723365],[2.768234,50.733235],[2.743842,50.766205],[2.706635,50.788787],[2.691856,50.808838],[2.620439,50.816486],[2.60659,50.834831],[2.58995,50.842014],[2.596668,50.867646],[2.576928,50.911519],[2.611654,50.941233],[2.60845,50.961128],[2.55698,51.001177],[2.537033,51.06461],[2.5218,51.087541]]]}}