{"type":"Feature","properties":{"iso3":"BEN","name":"Benin","continent":"Africa"},"geometry":{"type":"Polygon","coordinates":[[[3.5964,11.695773],[3.574386,11.673035],[3.504933,11.556557],[3.466692,11.442481],[3.468449,11.419485],[3.662546,11.143145],[3.686731,11.120485],[3.713706,11.120304],[3.722077,11.112346],[3.711845,11.051859],[3.733549,10.996462],[3.754117,10.907139],[3.75298,10.877683],[3.730035,10.807714],[3.759491,10.771592],[3.783262,10.71697],[3.82295,10.70325],[3.837109,10.654829],[3.837419,10.599897],[3.795354,10.496492],[3.794321,10.444867],[3.772513,10.407635],[3.756907,10.405257],[3.692828,10.438382],[3.671744,10.442077],[3.652107,10.435798],[3.625959,10.407273],[3.618208,10.369342],[3.572422,10.285704],[3.573352,10.266997],[3.587615,10.244182],[3.655621,10.174781],[3.667507,10.146565],[3.654898,10.101116],[3.612317,10.070291],[3.605805,10.054116],[3.599604,9.968695],[3.589476,9.948825],[3.513098,9.846609],[3.452946,9.853095],[3.413982,9.842837],[3.325926,9.801728],[3.314867,9.759095],[3.338638,9.678222],[3.33161,9.652022],[3.299054,9.633961],[3.245724,9.633702],[3.238179,9.609053],[3.243554,9.584403],[3.182575,9.505338],[3.151776,9.488156],[3.132553,9.457279],[3.128625,9.429581],[3.151466,9.353565],[3.151363,9.288633],[3.076019,9.095157],[3.051421,9.078207],[2.983104,9.060611],[2.929878,9.078362],[2.888433,9.075364],[2.859701,9.052627],[2.846265,9.050767],[2.769164,9.057045],[2.770197,8.967154],[2.76472,8.939766],[2.75025,8.916873],[2.749527,8.906615],[2.762549,8.895686],[2.745909,8.836516],[2.751077,8.803417],[2.723172,8.782928],[2.744773,8.498294],[2.736918,8.464523],[2.703741,8.417885],[2.697127,8.320708],[2.734954,8.211903],[2.734437,8.189966],[2.708392,8.13798],[2.687102,7.933522],[2.671082,7.897917],[2.691546,7.848669],[2.715524,7.822056],[2.727203,7.793324],[2.715317,7.625789],[2.720588,7.586566],[2.792315,7.477633],[2.786527,7.421254],[2.751284,7.423631],[2.741155,7.408179],[2.762136,7.1622],[2.735264,7.096002],[2.747666,7.072231],[2.779706,7.041328],[2.775778,7.030528],[2.741052,7.0158],[2.71511,6.979833],[2.736918,6.863303],[2.723585,6.799715],[2.736298,6.769846],[2.773298,6.755041],[2.778569,6.698765],[2.73113,6.641844],[2.737331,6.558025],[2.71542,6.494488],[2.704258,6.429299],[2.703841,6.368352],[2.306977,6.331488],[2.226817,6.313666],[1.884532,6.274807],[1.61964,6.213894],[1.612439,6.234763],[1.633109,6.245692],[1.782351,6.277267],[1.74411,6.425733],[1.718375,6.466997],[1.681685,6.489838],[1.680755,6.530068],[1.657811,6.552263],[1.653883,6.570659],[1.627425,6.573347],[1.597349,6.600813],[1.596316,6.636418],[1.566033,6.678146],[1.60107,6.746437],[1.58319,6.808268],[1.590114,6.867334],[1.588047,6.881235],[1.551357,6.920871],[1.531927,6.991926],[1.625668,6.996783],[1.625564,8.270478],[1.614919,8.356261],[1.60107,8.371635],[1.607581,8.421864],[1.644168,8.493488],[1.614092,8.535785],[1.607581,8.558755],[1.601173,9.049526],[1.587841,9.100893],[1.567273,9.13673],[1.425267,9.284499],[1.401185,9.321267],[1.386716,9.361135],[1.379895,9.462473],[1.368422,9.490843],[1.351266,9.482549],[1.326358,9.521952],[1.323154,9.542313],[1.351266,9.595074],[1.35602,9.647474],[1.348165,9.694164],[1.343825,9.962442],[1.331009,9.996471],[0.768769,10.367094],[0.759881,10.405154],[0.78851,10.563852],[0.781275,10.693044],[0.795641,10.726478],[0.862924,10.796086],[0.869538,10.839908],[0.885144,10.869389],[0.872949,10.911299],[0.875843,10.931169],[0.901474,10.992741],[0.931963,10.976101],[0.963279,10.974137],[0.969067,11.002895],[0.955321,11.01199],[0.952427,11.042402],[0.976922,11.078369],[1.007928,11.075062],[1.041311,11.049585],[1.052163,11.055011],[1.097018,11.049275],[1.114174,11.027674],[1.118619,11.048241],[1.100945,11.070411],[1.097018,11.104491],[1.085649,11.108729],[1.083892,11.12772],[1.07335,11.133947],[1.067046,11.12834],[1.062291,11.14206],[1.100429,11.15162],[1.117482,11.178983],[1.158409,11.165935],[1.149314,11.217249],[1.130608,11.247583],[1.135568,11.260115],[1.156342,11.28554],[1.172155,11.261484],[1.218974,11.268047],[1.268377,11.247893],[1.28264,11.278873],[1.268377,11.30621],[1.273338,11.318225],[1.302483,11.288847],[1.316333,11.29988],[1.330389,11.288847],[1.347855,11.303497],[1.330389,11.347164],[1.33907,11.366103],[1.398085,11.398685],[1.389817,11.428399],[1.411107,11.449845],[1.433845,11.459405],[1.439633,11.473771],[1.475289,11.460774],[1.56934,11.453307],[1.563243,11.426022],[1.580606,11.427056],[1.601587,11.388686],[1.719099,11.427779],[1.782247,11.426022],[1.840642,11.445478],[1.879812,11.444858],[1.948025,11.41672],[1.983372,11.414007],[2.010761,11.426901],[2.14698,11.56374],[2.22005,11.622548],[2.273587,11.652055],[2.291054,11.674792],[2.290847,11.703214],[2.301596,11.731533],[2.354099,11.799849],[2.390169,11.896536],[2.376526,11.924079],[2.380867,11.947902],[2.407429,11.95121],[2.428926,11.980355],[2.456728,11.979063],[2.455281,12.008674],[2.428616,12.020353],[2.405568,12.046708],[2.371875,12.140449],[2.36123,12.218894],[2.370015,12.236257],[2.3942,12.247212],[2.443706,12.249228],[2.459519,12.266746],[2.477709,12.257599],[2.495072,12.283231],[2.516259,12.281422],[2.523701,12.269175],[2.586126,12.294031],[2.598632,12.288347],[2.628604,12.300801],[2.663847,12.291551],[2.700434,12.347103],[2.732267,12.346793],[2.768544,12.380072],[2.832416,12.384051],[2.844301,12.399244],[2.912618,12.346328],[2.944967,12.292481],[3.009356,12.276306],[3.063409,12.193779],[3.252028,12.024125],[3.269908,11.956532],[3.307012,11.902375],[3.341635,11.882893],[3.369127,11.897311],[3.380909,11.895037],[3.495424,11.837521],[3.553715,11.76967],[3.571699,11.72187],[3.5964,11.695773]]]}}