{"type":"Feature","properties":{"iso3":"BFA","name":"Burkina Faso","continent":"Africa"},"geometry":{"type":"Polygon","coordinates":[[[2.390169,11.896536],[2.273587,11.652055],[2.015429,11.43159],[1.821521,11.441602],[1.601587,11.388686],[1.567273,11.446693],[1.439633,11.473771],[1.398085,11.440311],[1.398085,11.398685],[1.33907,11.366103],[1.330389,11.288847],[1.2845,11.312721],[1.268377,11.247893],[1.145904,11.269856],[1.153242,11.183169],[1.067459,11.144282],[1.117482,11.032196],[0.986017,11.078498],[0.945399,10.974293],[0.675338,10.988529],[0.487649,10.933236],[0.490647,10.996358],[-0.301682,11.162937],[-0.306126,11.113535],[-0.368939,11.065217],[-0.405888,11.101468],[-0.509706,10.991449],[-0.576213,10.987754],[-0.634763,10.907966],[-0.68277,10.953596],[-0.667991,10.976515],[-0.839401,10.996462],[-0.883171,10.968634],[-1.070343,11.013902],[-2.837341,10.998012],[-2.821399,10.90626],[-2.864239,10.864273],[-2.929661,10.644209],[-2.867391,10.47825],[-2.771428,10.425489],[-2.841295,10.343272],[-2.754375,10.247954],[-2.798455,10.189534],[-2.736753,9.832579],[-2.795303,9.720002],[-2.740164,9.650833],[-2.761093,9.566239],[-2.689211,9.488724],[-2.763677,9.391883],[-2.810418,9.411106],[-2.910154,9.542726],[-2.989994,9.708427],[-3.094561,9.733851],[-3.136936,9.82953],[-3.200007,9.845369],[-3.21476,9.915623],[-3.301732,9.841132],[-3.317183,9.901335],[-3.755037,9.93588],[-4.050317,9.810307],[-4.168294,9.804829],[-4.283636,9.732017],[-4.315933,9.616623],[-4.349678,9.620034],[-4.371175,9.582956],[-4.433368,9.653469],[-4.50171,9.655019],[-4.503958,9.742016],[-4.535946,9.746615],[-4.552198,9.696464],[-4.592712,9.717832],[-4.686608,9.692407],[-4.810115,9.77434],[-4.775905,9.788008],[-4.824274,9.856971],[-4.966075,9.901025],[-4.963336,10.040319],[-5.056483,10.097111],[-5.037595,10.126489],[-5.090718,10.177933],[-5.084414,10.227439],[-5.11821,10.212479],[-5.135677,10.304282],[-5.279802,10.32242],[-5.385739,10.296479],[-5.474157,10.350325],[-5.522578,10.425489],[-5.431421,10.844688],[-5.479118,10.975533],[-5.501804,10.97021],[-5.504233,11.072684],[-5.332512,11.12157],[-5.262852,11.251588],[-5.267865,11.37202],[-5.219186,11.435143],[-5.233914,11.575987],[-5.307604,11.617638],[-5.28714,11.758922],[-5.412352,11.82853],[-5.282489,11.836436],[-5.103947,11.972759],[-4.761281,12.006607],[-4.570233,12.138898],[-4.585529,12.197241],[-4.497421,12.26871],[-4.490703,12.313823],[-4.406135,12.307467],[-4.451636,12.435314],[-4.392647,12.537427],[-4.482538,12.646258],[-4.485251,12.714677],[-4.36885,12.738991],[-4.276298,12.714677],[-4.213278,12.807178],[-4.229324,12.948952],[-4.345363,13.097057],[-4.327044,13.168551],[-4.227773,13.184442],[-4.253508,13.22909],[-4.16602,13.278157],[-4.087549,13.397995],[-3.97691,13.460627],[-3.984481,13.496051],[-3.923399,13.453754],[-3.984042,13.39647],[-3.817101,13.35469],[-3.553913,13.180256],[-3.449475,13.16881],[-3.448544,13.265781],[-3.262406,13.283919],[-3.283955,13.542198],[-3.259719,13.658315],[-3.286952,13.69777],[-3.267057,13.717045],[-3.195821,13.674903],[-3.125102,13.67728],[-3.05601,13.61085],[-2.895245,13.651648],[-2.928059,13.799624],[-2.840855,14.042994],[-2.69319,14.123196],[-2.597382,14.222311],[-2.46168,14.280912],[-2.151879,14.15614],[-2.035918,14.181229],[-1.997057,14.470694],[-1.69692,14.496119],[-1.350275,14.714969],[-1.07856,14.796359],[-0.719719,15.078461],[-0.4679,15.079908],[-0.397671,15.002135],[-0.236699,15.065619],[0.218467,14.910977],[0.184102,14.819562],[0.219707,14.731221],[0.158832,14.496119],[0.388792,14.251612],[0.343575,14.114333],[0.448634,13.909617],[0.593689,13.778101],[0.59431,13.688881],[0.75337,13.684101],[0.795331,13.625965],[0.896927,13.614932],[0.991391,13.541113],[1.015266,13.465665],[1.268687,13.34606],[1.182387,13.358695],[1.167608,13.313426],[0.983536,13.36841],[0.974648,13.048326],[1.113968,12.996236],[1.563863,12.63215],[1.826069,12.604193],[1.962495,12.719121],[2.109049,12.705634],[2.2,12.595925],[2.244958,12.424152],[2.069258,12.383328],[2.051792,12.341935],[2.390169,11.896536]]]}}