{"type":"Feature","properties":{"iso3":"BGD","name":"Bangladesh","continent":"Asia"},"geometry":{"type":"MultiPolygon","coordinates":[[[[92.575879,21.977574],[92.593035,21.886934],[92.575568,21.733972],[92.590245,21.495537],[92.603267,21.420089],[92.639234,21.3187],[92.642851,21.298443],[92.633756,21.282216],[92.590865,21.248885],[92.570608,21.247283],[92.558722,21.25984],[92.543943,21.320922],[92.524512,21.361126],[92.498674,21.366604],[92.465394,21.359834],[92.400282,21.370996],[92.381162,21.384794],[92.367933,21.435437],[92.354703,21.451818],[92.322664,21.461895],[92.284527,21.419055],[92.236261,21.417092],[92.21156,21.354873],[92.17828,21.299735],[92.185205,21.24041],[92.174973,21.175608],[92.224272,21.093184],[92.265147,21.061103],[92.257091,20.981106],[92.261485,20.940253],[92.271983,20.90351],[92.305431,20.851955],[92.333263,20.767727],[92.333995,20.746405],[92.325531,20.738715],[92.301036,20.762274],[92.209727,20.930813],[92.18629,21.005845],[92.134125,21.047512],[92.096853,21.105862],[92.052501,21.154771],[92.043956,21.192043],[92.052257,21.256659],[92.045258,21.299547],[91.952973,21.44184],[91.949718,21.458401],[91.960134,21.45425],[91.982921,21.488837],[91.999034,21.499498],[92.017914,21.493109],[91.995372,21.52261],[91.990001,21.561998],[92.022146,21.599351],[92.017914,21.616034],[92.035818,21.640448],[92.035899,21.668158],[92.022797,21.676825],[92.029307,21.704901],[92.025401,21.712836],[92.01238,21.664211],[92.000743,21.649807],[91.983897,21.650133],[91.976085,21.662055],[91.983897,21.70539],[91.977061,21.70539],[91.971934,21.688218],[91.962657,21.689521],[91.949718,21.715969],[91.952973,21.738349],[91.990001,21.759996],[91.983897,21.766832],[91.967296,21.755439],[91.960297,21.763821],[91.966563,21.778876],[91.990001,21.787909],[91.990001,21.794827],[91.908702,21.781155],[91.899262,21.789496],[91.911388,21.834703],[91.929373,21.843166],[91.921641,21.85342],[91.925548,21.86286],[91.949718,21.876695],[91.949718,21.884182],[91.929942,21.878648],[91.915701,21.862454],[91.898204,21.944892],[91.88087,21.969184],[91.88087,22.007025],[91.855235,22.109198],[91.853526,22.143622],[91.863943,22.139594],[91.862071,22.150621],[91.853282,22.148749],[91.846039,22.116889],[91.839854,22.116889],[91.812999,22.180325],[91.816905,22.220282],[91.839854,22.246649],[91.83839,22.263088],[91.812022,22.281399],[91.808849,22.306342],[91.874034,22.336005],[91.908051,22.42475],[91.887706,22.42475],[91.877452,22.363349],[91.791352,22.301907],[91.793956,22.286038],[91.826345,22.267768],[91.825938,22.248481],[91.80893,22.236274],[91.78712,22.237942],[91.771658,22.260321],[91.743663,22.411078],[91.676036,22.534613],[91.548106,22.700344],[91.516368,22.712226],[91.476817,22.761176],[91.462413,22.761908],[91.458344,22.797065],[91.490001,22.880561],[91.490489,22.904527],[91.483084,22.904527],[91.462413,22.833441],[91.430431,22.816311],[91.416759,22.799994],[91.414724,22.75373],[91.38502,22.770697],[91.346446,22.774848],[91.346446,22.767401],[91.367442,22.761664],[91.370128,22.752183],[91.360118,22.743394],[91.290782,22.73843],[91.332774,22.720201],[91.329926,22.705715],[91.317393,22.697211],[91.284434,22.692288],[91.244802,22.698391],[91.243907,22.717434],[91.231212,22.724311],[91.181895,22.726467],[91.199229,22.698798],[91.192149,22.691636],[91.168956,22.692288],[91.168956,22.684882],[91.253429,22.660712],[91.264496,22.640815],[91.241569,22.575396],[91.202743,22.54322],[91.127343,22.527026],[91.089201,22.54443],[91.06958,22.571557],[91.058604,22.614325],[91.018321,22.683092],[91.003754,22.678656],[91.032237,22.636868],[91.037934,22.588609],[90.985118,22.574368],[90.954926,22.575832],[90.941742,22.585883],[90.935557,22.599677],[90.908214,22.617865],[90.884125,22.654486],[90.876475,22.682807],[90.835948,22.684882],[90.819509,22.726467],[90.794932,22.74136],[90.771007,22.784817],[90.717459,22.940619],[90.640147,23.038031],[90.629405,23.064399],[90.640147,23.18887],[90.665212,23.248765],[90.661143,23.267646],[90.667328,23.267646],[90.65089,23.300238],[90.650157,23.313544],[90.661143,23.322252],[90.653656,23.329739],[90.628429,23.321519],[90.611339,23.342475],[90.599132,23.391181],[90.600271,23.449937],[90.608735,23.472724],[90.633311,23.486762],[90.69158,23.486477],[90.715017,23.498358],[90.715831,23.535142],[90.705577,23.554511],[90.678233,23.55508],[90.702159,23.528388],[90.695323,23.50788],[90.666759,23.518215],[90.607758,23.491116],[90.588145,23.534166],[90.592052,23.562486],[90.608165,23.585761],[90.633311,23.596625],[90.627126,23.603461],[90.61964,23.596625],[90.61199,23.606106],[90.558767,23.590399],[90.564464,23.576402],[90.547211,23.563788],[90.514659,23.563788],[90.476329,23.582953],[90.498383,23.557278],[90.568696,23.547512],[90.576834,23.539496],[90.578949,23.449856],[90.559906,23.418402],[90.551931,23.384955],[90.518321,23.398261],[90.322439,23.433295],[90.250336,23.466946],[90.24936,23.45539],[90.38852,23.372382],[90.428477,23.326117],[90.503591,23.301744],[90.569102,23.294989],[90.606619,23.247219],[90.61085,23.23078],[90.614513,23.195461],[90.593516,23.219875],[90.602875,23.141303],[90.599132,23.117499],[90.571951,23.081732],[90.553722,23.078559],[90.555919,23.096829],[90.565603,23.103827],[90.558767,23.110663],[90.522797,23.080146],[90.453624,23.072333],[90.448904,23.055732],[90.468272,22.99608],[90.507009,22.942084],[90.510427,22.918199],[90.54005,22.896552],[90.52003,22.880194],[90.476329,22.884101],[90.457205,22.861762],[90.436046,22.800605],[90.40797,22.794664],[90.424001,22.781684],[90.419932,22.768256],[90.406423,22.763088],[90.394298,22.774848],[90.372569,22.76142],[90.435232,22.733303],[90.444591,22.751654],[90.461681,22.748847],[90.492931,22.709906],[90.512706,22.611477],[90.500173,22.592353],[90.459239,22.579291],[90.442068,22.493638],[90.462657,22.520982],[90.46046,22.551174],[90.472504,22.575588],[90.487315,22.583726],[90.524099,22.583075],[90.559744,22.562323],[90.606619,22.465766],[90.586192,22.473212],[90.586436,22.450588],[90.618419,22.376654],[90.613455,22.314887],[90.581554,22.238227],[90.557953,22.203355],[90.50115,22.176703],[90.488292,22.138617],[90.450043,22.080797],[90.43865,22.075995],[90.408458,22.085924],[90.387462,22.102607],[90.421641,22.198879],[90.40797,22.240424],[90.410899,22.284247],[90.394298,22.288235],[90.398692,22.267483],[90.39088,22.208808],[90.410492,22.195705],[90.412852,22.178046],[90.392589,22.143012],[90.3838,22.145738],[90.377126,22.133612],[90.369884,22.08983],[90.334727,22.041815],[90.308604,21.984036],[90.290701,21.890326],[90.272716,21.857408],[90.217621,21.813463],[90.184825,21.800971],[90.092947,21.830268],[90.088552,21.846747],[90.095388,21.859442],[90.112478,21.856269],[90.104991,21.870266],[90.126231,21.90119],[90.126231,21.931952],[90.098481,21.878607],[90.066905,21.85342],[90.049327,21.85102],[90.024425,21.862454],[90.033946,21.943549],[90.044932,21.966132],[90.085785,22.00023],[90.105642,22.054267],[90.164073,22.113227],[90.195079,22.109524],[90.216156,22.123236],[90.239106,22.172268],[90.236095,22.198879],[90.205821,22.132961],[90.148285,22.110785],[90.088878,22.051174],[90.057953,21.99372],[90.038097,21.986558],[89.996349,22.00023],[90.010753,22.041205],[90.035411,22.059801],[90.034679,22.10517],[90.042735,22.131252],[90.07838,22.164049],[90.052582,22.155463],[90.024425,22.089016],[89.982758,22.044623],[89.982758,21.986558],[89.967784,21.974555],[89.949718,21.980902],[89.934418,21.997707],[89.914561,22.061672],[89.90089,22.201972],[89.880382,22.240424],[89.876801,22.274726],[89.900157,22.33393],[90.010102,22.49022],[89.947439,22.439683],[89.920421,22.391832],[89.872895,22.418606],[89.884125,22.363511],[89.880382,22.342231],[89.838715,22.267768],[89.861339,22.211005],[89.872895,22.143622],[89.871349,22.091864],[89.846202,22.070624],[89.797211,22.075995],[89.797211,22.068508],[89.835948,22.049465],[89.847911,22.033881],[89.852387,22.010443],[89.846202,21.972317],[89.887218,21.900092],[89.880382,21.884182],[89.850922,21.877509],[89.81422,21.840806],[89.786388,21.828925],[89.775727,21.827582],[89.76588,21.846747],[89.725841,21.828925],[89.709158,21.830064],[89.661306,21.849351],[89.652599,21.878852],[89.663341,21.896308],[89.646983,21.925116],[89.618988,21.869859],[89.64975,21.826361],[89.700694,21.784857],[89.689952,21.765204],[89.668224,21.750881],[89.631521,21.764065],[89.59547,21.759996],[89.605968,21.719062],[89.586925,21.700832],[89.565684,21.713365],[89.53712,21.753811],[89.527354,21.812812],[89.530284,21.835761],[89.564464,21.884182],[89.563487,21.973131],[89.5713,22.031236],[89.605968,22.113227],[89.593761,22.155422],[89.567882,22.18891],[89.567231,22.202826],[89.605968,22.256903],[89.610606,22.298896],[89.626475,22.336005],[89.580821,22.277248],[89.577159,22.2685],[89.586192,22.245429],[89.549164,22.205268],[89.576345,22.145494],[89.579356,22.113227],[89.566742,22.082099],[89.551443,21.994045],[89.532888,21.984687],[89.52475,22.000149],[89.523448,22.044623],[89.53712,22.089016],[89.492035,22.188381],[89.493012,22.273505],[89.483165,22.295071],[89.475759,22.295071],[89.467459,22.22899],[89.475759,22.102607],[89.483165,22.102607],[89.494151,22.136868],[89.518321,22.081],[89.509125,22.041205],[89.491873,22.034573],[89.490408,22.023993],[89.521821,21.962307],[89.512543,21.909125],[89.46461,21.859198],[89.465831,21.781317],[89.442719,21.746649],[89.406423,21.717353],[89.395193,21.716376],[89.36964,21.743313],[89.362804,21.78384],[89.365896,21.828925],[89.386974,21.90119],[89.35963,21.972317],[89.352224,21.972317],[89.345958,21.957017],[89.35963,21.91767],[89.355968,21.892524],[89.328868,21.864651],[89.30128,21.809394],[89.283946,21.822089],[89.294688,21.757799],[89.273692,21.698798],[89.276622,21.687567],[89.297537,21.678127],[89.248709,21.645901],[89.229259,21.643948],[89.21046,21.65412],[89.204438,21.672675],[89.220714,21.709418],[89.187673,21.81151],[89.174083,21.810045],[89.154552,21.786851],[89.119395,21.800971],[89.104666,21.815863],[89.07781,21.914252],[89.091482,22.00023],[89.057384,22.06509],[89.060395,22.129869],[89.078159,22.150845],[89.076196,22.17503],[89.062295,22.211565],[89.00912,22.285618],[89.023537,22.294816],[89.001523,22.333677],[88.989482,22.39667],[89.002505,22.427986],[88.970982,22.527928],[88.927988,22.548134],[88.950312,22.561983],[88.95641,22.584979],[88.908144,22.740784],[88.936876,22.782331],[88.944524,22.848012],[88.905147,22.866435],[88.893468,22.879638],[88.838794,22.975808],[88.8513,23.07513],[88.864787,23.100271],[88.954704,23.183806],[88.959975,23.202693],[88.822671,23.237963],[88.775697,23.221633],[88.710016,23.241218],[88.69658,23.252354],[88.685935,23.293308],[88.719266,23.348292],[88.767894,23.467277],[88.770168,23.488826],[88.756835,23.498799],[88.719421,23.468104],[88.704642,23.495182],[88.647643,23.535076],[88.609247,23.588794],[88.57142,23.592334],[88.561705,23.602023],[88.566356,23.62874],[88.541551,23.638765],[88.561188,23.741007],[88.552713,23.774984],[88.577518,23.818521],[88.577621,23.85516],[88.593589,23.866916],[88.653121,23.869784],[88.71415,23.925156],[88.714357,23.964404],[88.701593,23.995281],[88.725002,24.038379],[88.700921,24.04365],[88.674101,24.08264],[88.68299,24.124291],[88.67808,24.154289],[88.69379,24.175321],[88.731456,24.189771],[88.746397,24.214079],[88.737508,24.287097],[88.714564,24.315416],[88.660149,24.338257],[88.634517,24.294125],[88.475405,24.315468],[88.401301,24.369418],[88.138785,24.49525],[88.10995,24.500986],[88.086023,24.53672],[88.081838,24.599869],[88.05724,24.634105],[88.02179,24.645603],[88.027164,24.67573],[88.048455,24.711206],[88.053209,24.754976],[88.07698,24.761177],[88.088245,24.796136],[88.094808,24.803112],[88.107779,24.801097],[88.140955,24.844583],[88.114911,24.912021],[88.16452,24.941114],[88.20245,24.9453],[88.232836,24.918273],[88.242758,24.880601],[88.313606,24.868302],[88.322753,24.874684],[88.37567,24.94561],[88.391018,24.99509],[88.414117,25.021523],[88.425796,25.051056],[88.434168,25.116659],[88.43148,25.173038],[88.441299,25.18973],[88.475405,25.195104],[88.554677,25.171126],[88.570697,25.173245],[88.599119,25.19314],[88.634259,25.192262],[88.724537,25.166475],[88.784224,25.160946],[88.81709,25.196809],[88.898635,25.169318],[88.924163,25.167871],[88.909642,25.189161],[88.927884,25.192727],[88.929073,25.229417],[88.975323,25.265229],[88.984935,25.284969],[88.975323,25.302643],[88.902873,25.303418],[88.880187,25.323468],[88.841998,25.332822],[88.799623,25.395609],[88.816315,25.437208],[88.814919,25.458602],[88.772338,25.501959],[88.741952,25.512759],[88.742572,25.495189],[88.706192,25.491675],[88.66635,25.462891],[88.593589,25.495086],[88.530286,25.500202],[88.485586,25.542628],[88.475405,25.562575],[88.423781,25.592237],[88.41944,25.653784],[88.392981,25.680759],[88.320273,25.725253],[88.259915,25.789021],[88.227462,25.804266],[88.127726,25.774914],[88.087574,25.830983],[88.074396,25.908135],[88.088039,25.923225],[88.125866,26.0134],[88.151032,26.031332],[88.156407,26.061408],[88.139922,26.085334],[88.163796,26.140473],[88.218884,26.18016],[88.326267,26.21592],[88.334535,26.230803],[88.336602,26.281808],[88.366781,26.313434],[88.413807,26.340202],[88.431687,26.362216],[88.448637,26.353431],[88.497626,26.352708],[88.495456,26.378081],[88.461143,26.45389],[88.353552,26.484586],[88.34301,26.477196],[88.335621,26.448206],[88.322546,26.451772],[88.315105,26.465052],[88.313865,26.481537],[88.352829,26.578689],[88.385282,26.623544],[88.394377,26.618015],[88.397891,26.55869],[88.411016,26.545099],[88.462383,26.528821],[88.526823,26.475388],[88.591161,26.461228],[88.611521,26.430843],[88.656273,26.415133],[88.652242,26.391517],[88.66852,26.385729],[88.667435,26.368159],[88.709706,26.340616],[88.712238,26.328265],[88.702988,26.309661],[88.645834,26.27602],[88.663404,26.264444],[88.747947,26.292505],[88.784017,26.279947],[88.807995,26.233439],[88.824841,26.226566],[88.840654,26.232043],[88.855641,26.265116],[88.875794,26.277364],[88.902718,26.272919],[88.946849,26.232922],[88.975323,26.224344],[89.019455,26.234472],[89.039712,26.247185],[89.034338,26.265788],[89.004365,26.27571],[89.007983,26.297156],[88.981731,26.291833],[88.966021,26.328472],[88.912433,26.348935],[88.891866,26.368779],[88.891246,26.385781],[88.911968,26.421231],[88.94101,26.439421],[89.010877,26.390173],[89.043743,26.381078],[89.057282,26.36263],[89.055215,26.347023],[89.102912,26.327335],[89.103532,26.313692],[89.094799,26.309506],[89.068857,26.314261],[89.069426,26.287389],[89.103377,26.22517],[89.11919,26.146622],[89.131593,26.133755],[89.212621,26.098977],[89.237633,26.0581],[89.272979,26.043476],[89.296906,26.018155],[89.335301,25.998569],[89.351476,25.996864],[89.391422,26.015467],[89.411266,25.993195],[89.485628,25.998724],[89.518184,25.962086],[89.541697,25.959709],[89.559163,26.022237],[89.602882,26.055258],[89.611357,26.072208],[89.603864,26.084662],[89.567018,26.087091],[89.566915,26.098977],[89.604225,26.120732],[89.569395,26.130086],[89.562781,26.142591],[89.586759,26.169205],[89.614406,26.164192],[89.606396,26.211011],[89.61332,26.219383],[89.653008,26.22269],[89.658175,26.159231],[89.706545,26.154167],[89.718482,26.145537],[89.728766,26.114169],[89.749849,26.083887],[89.755844,26.032417],[89.789434,25.987976],[89.814135,25.99614],[89.828656,25.979397],[89.825607,25.965703],[89.792017,25.949115],[89.834392,25.931752],[89.830051,25.90798],[89.786953,25.839147],[89.783129,25.814446],[89.801526,25.724684],[89.834392,25.634767],[89.82323,25.489143],[89.795015,25.374163],[89.807365,25.304503],[89.819044,25.284969],[89.908134,25.296907],[90.130085,25.211589],[90.286923,25.180066],[90.364644,25.149991],[90.399784,25.149009],[90.50138,25.168801],[90.583339,25.162031],[90.62344,25.171436],[90.707672,25.152988],[90.737955,25.169421],[90.753974,25.167561],[90.793972,25.145391],[90.82198,25.142291],[91.135346,25.191228],[91.190847,25.189471],[91.235702,25.201925],[91.283968,25.178981],[91.431866,25.13795],[91.480752,25.135263],[91.523436,25.145185],[91.548758,25.161101],[91.566121,25.159964],[91.596197,25.128907],[91.638675,25.124049],[91.662033,25.127201],[91.677432,25.152626],[91.710712,25.144668],[91.730142,25.167457],[91.793704,25.165338],[91.900571,25.177586],[91.956278,25.169783],[92.001753,25.18296],[92.033999,25.181668],[92.092911,25.164718],[92.116165,25.139449],[92.150995,25.129733],[92.172699,25.131955],[92.208046,25.098107],[92.233677,25.084956],[92.303544,25.074285],[92.328142,25.048007],[92.381058,25.023435],[92.386876,24.995444],[92.41186,24.987527],[92.453769,24.958231],[92.457828,24.953558],[92.450028,24.946636],[92.483791,24.928221],[92.49454,24.894864],[92.477693,24.86391],[92.380748,24.836702],[92.363592,24.841017],[92.358321,24.853652],[92.290418,24.891298],[92.252177,24.902977],[92.223032,24.891376],[92.217658,24.874581],[92.234928,24.824991],[92.233781,24.777533],[92.182931,24.647256],[92.163604,24.5592],[92.110894,24.514293],[92.107587,24.405979],[92.08826,24.38164],[92.062732,24.37102],[91.949974,24.375387],[91.948837,24.363527],[91.971368,24.329679],[91.972194,24.316062],[91.921862,24.34451],[91.899847,24.33805],[91.905945,24.260639],[91.87711,24.158036],[91.864501,24.150594],[91.844244,24.155323],[91.813755,24.183124],[91.807037,24.221133],[91.732933,24.234284],[91.723011,24.220977],[91.732623,24.164314],[91.72115,24.148992],[91.703684,24.142946],[91.666167,24.155917],[91.639502,24.211702],[91.629063,24.215319],[91.606015,24.118865],[91.581831,24.096101],[91.517545,24.085198],[91.404581,24.103129],[91.363033,24.099848],[91.350837,24.074242],[91.339055,23.995229],[91.327066,23.987865],[91.291616,23.994816],[91.274149,23.988227],[91.250378,23.964042],[91.216272,23.908387],[91.212758,23.88074],[91.228157,23.84498],[91.205213,23.771573],[91.194981,23.755166],[91.141754,23.739896],[91.132349,23.720646],[91.136587,23.69889],[91.168936,23.685377],[91.175241,23.670313],[91.166456,23.654087],[91.139687,23.65357],[91.140824,23.6121],[91.169866,23.561974],[91.195084,23.495182],[91.22733,23.468775],[91.25813,23.373639],[91.287275,23.355552],[91.265778,23.329352],[91.27725,23.303256],[91.300504,23.142309],[91.313527,23.101046],[91.337401,23.071074],[91.370887,23.062779],[91.374608,23.095723],[91.355901,23.179646],[91.355695,23.224139],[91.372128,23.261889],[91.394349,23.262664],[91.413572,23.248634],[91.436517,23.214863],[91.439617,23.22264],[91.446438,23.215535],[91.446438,23.197887],[91.461218,23.184426],[91.503283,23.044408],[91.515582,23.038802],[91.523643,22.995213],[91.536562,22.981854],[91.576766,22.968806],[91.582968,22.947903],[91.602398,22.952967],[91.625756,22.981544],[91.646943,22.976583],[91.706991,22.995368],[91.738307,23.024668],[91.760941,23.065492],[91.773757,23.064898],[91.795564,23.089496],[91.749159,23.232407],[91.743681,23.272327],[91.762595,23.321549],[91.817682,23.400924],[91.905118,23.446632],[91.940775,23.495182],[91.942325,23.53443],[91.915971,23.65016],[91.91442,23.688323],[91.922688,23.722972],[91.936641,23.72354],[92.00351,23.647421],[92.019013,23.640057],[92.042371,23.64556],[92.059631,23.659487],[92.108414,23.718243],[92.150788,23.731653],[92.1943,23.648144],[92.209389,23.661606],[92.222102,23.707779],[92.238741,23.716848],[92.259309,23.706487],[92.261686,23.685119],[92.250007,23.642615],[92.252797,23.609309],[92.291038,23.495285],[92.301477,23.431801],[92.325351,23.403508],[92.326695,23.375267],[92.348606,23.354105],[92.347055,23.315426],[92.357494,23.278942],[92.332689,23.226258],[92.327625,23.171429],[92.35305,23.029913],[92.352223,22.960331],[92.359871,22.926612],[92.378681,22.900438],[92.411858,22.887932],[92.426327,22.87106],[92.442037,22.762927],[92.480691,22.726159],[92.495883,22.695618],[92.500844,22.560536],[92.517381,22.51258],[92.577015,22.168674],[92.575568,22.143301],[92.537328,22.128625],[92.559962,22.061342],[92.575879,21.977574]]],[[[91.935557,21.759996],[91.938731,21.71483],[91.974864,21.648749],[91.983897,21.609198],[91.970225,21.523586],[91.961111,21.506171],[91.894542,21.506781],[91.899669,21.486029],[91.877126,21.481024],[91.862559,21.49494],[91.855235,21.519477],[91.871104,21.547675],[91.874034,21.581855],[91.847911,21.688788],[91.853526,21.725816],[91.872325,21.754828],[91.89796,21.743313],[91.902843,21.730292],[91.887706,21.684963],[91.903331,21.702867],[91.909516,21.726793],[91.901215,21.774319],[91.935557,21.781155],[91.935557,21.759996]]],[[[89.115733,21.781155],[89.139008,21.766832],[89.144705,21.739325],[89.132498,21.721625],[89.102306,21.736762],[89.051524,21.793199],[89.06422,21.822089],[89.063813,21.841457],[89.045665,21.91706],[89.057384,21.91767],[89.067638,21.904364],[89.092784,21.793402],[89.115733,21.781155]]],[[[91.887706,21.866156],[91.83253,21.725816],[91.823985,21.742621],[91.839854,21.825507],[91.83253,21.876695],[91.843435,21.906968],[91.867198,21.931952],[91.887706,21.866156]]],[[[90.593516,21.986558],[90.593516,21.966132],[90.606619,21.938788],[90.590831,21.935126],[90.580821,21.912502],[90.565603,21.91767],[90.540782,21.875922],[90.521251,21.861477],[90.503591,21.862454],[90.503591,21.869859],[90.531505,21.876695],[90.510427,21.897854],[90.521983,21.938788],[90.593516,21.986558]]],[[[90.332205,21.938788],[90.37143,21.994778],[90.394298,22.00023],[90.390636,21.978258],[90.365489,21.938707],[90.341563,21.860297],[90.322927,21.843899],[90.318614,21.892808],[90.332205,21.938788]]],[[[90.387462,22.048041],[90.381114,22.023098],[90.33961,21.972317],[90.358653,22.022691],[90.373871,22.045559],[90.387462,22.048041]]],[[[90.435232,22.041205],[90.473318,22.003648],[90.486176,21.976793],[90.476329,21.945014],[90.415538,21.900539],[90.402354,21.906887],[90.394298,21.938788],[90.411876,21.97602],[90.415538,22.038316],[90.428477,22.048041],[90.435232,22.041205]]],[[[90.544444,22.061672],[90.538341,22.068508],[90.483653,22.03498],[90.49171,22.080146],[90.503103,22.09634],[90.533458,22.110053],[90.560069,22.137681],[90.57252,22.137397],[90.592784,22.15941],[90.613455,22.164049],[90.593516,22.102607],[90.586192,22.130561],[90.559744,22.023749],[90.538341,22.00023],[90.519542,21.994696],[90.509044,21.999416],[90.503591,22.024115],[90.544444,22.061672]]],[[[90.941742,22.205024],[90.947113,22.211615],[90.956716,22.198879],[90.956716,22.144843],[90.948985,22.121649],[90.929373,22.116889],[90.9192,22.132148],[90.920258,22.160061],[90.935557,22.21247],[90.941742,22.205024]]],[[[90.97641,22.185777],[90.982921,22.259182],[90.996918,22.253485],[90.997813,22.235093],[90.987804,22.19538],[90.97641,22.185777]]],[[[90.952891,22.226752],[90.937185,22.232733],[90.956716,22.277655],[90.960216,22.322984],[90.97641,22.363349],[90.989513,22.340766],[90.994395,22.302069],[90.990082,22.281399],[90.952891,22.226752]]],[[[91.148847,22.357057],[91.15645,22.332079],[91.171397,22.319648],[91.186785,22.227757],[91.141468,22.146201],[91.093689,22.118859],[91.063294,22.089848],[91.022472,22.094875],[91.005111,22.116822],[91.059093,22.192043],[91.068274,22.240733],[91.074801,22.38859],[91.092257,22.391338],[91.148847,22.357057]]],[[[90.61964,22.42475],[90.60141,22.429185],[90.601573,22.44831],[90.614431,22.449042],[90.633149,22.431627],[90.658702,22.379543],[90.661143,22.355902],[90.647472,22.383775],[90.640391,22.366034],[90.646739,22.326077],[90.640147,22.308743],[90.633311,22.349677],[90.640147,22.349677],[90.61964,22.42475]]],[[[90.647472,22.42475],[90.653494,22.483466],[90.665294,22.469143],[90.667328,22.439032],[90.647472,22.42475]]],[[[91.158619,22.503423],[91.199988,22.514694],[91.21083,22.495521],[91.201017,22.472196],[91.159533,22.450674],[91.134163,22.44948],[91.11371,22.461415],[91.123562,22.489146],[91.158619,22.503423]]],[[[91.467557,22.58631],[91.556361,22.47821],[91.563633,22.435621],[91.555179,22.402031],[91.507519,22.396797],[91.476052,22.413317],[91.446517,22.453242],[91.423786,22.525302],[91.446765,22.576304],[91.467557,22.58631]]],[[[90.790553,22.495333],[90.855024,22.434665],[90.835022,22.339616],[90.836192,22.178168],[90.827891,22.152411],[90.77475,22.075914],[90.757335,22.061672],[90.750011,22.075995],[90.717784,22.048407],[90.691661,22.007025],[90.647472,21.994045],[90.639415,22.016099],[90.681814,22.102607],[90.625987,22.027167],[90.610037,22.024115],[90.603526,22.044013],[90.607758,22.072333],[90.633311,22.123114],[90.622244,22.145087],[90.631847,22.182115],[90.678477,22.282782],[90.687999,22.377631],[90.677745,22.426703],[90.681814,22.445258],[90.647472,22.548285],[90.574962,22.598863],[90.558767,22.602932],[90.556326,22.674709],[90.58546,22.768052],[90.613455,22.781684],[90.650564,22.787421],[90.684095,22.694373],[90.746979,22.596907],[90.76694,22.517531],[90.790553,22.495333]]],[[[90.645254,22.849289],[90.678233,22.808336],[90.590956,22.813919],[90.531559,22.769237],[90.534612,22.728775],[90.520993,22.711765],[90.49822,22.733832],[90.492849,22.753241],[90.45574,22.767401],[90.464203,22.778876],[90.463145,22.834052],[90.473399,22.865139],[90.537608,22.866767],[90.544444,22.880683],[90.592296,22.881903],[90.645254,22.849289]]],[[[90.667328,22.95303],[90.633311,22.95303],[90.667328,22.918199],[90.636241,22.921332],[90.599132,22.959174],[90.524099,22.95303],[90.508067,22.975775],[90.528005,23.007636],[90.56129,23.03262],[90.586192,23.034898],[90.667328,22.95303]]],[[[90.510427,23.069037],[90.515636,23.051947],[90.469493,23.007636],[90.45574,23.062812],[90.510427,23.069037]]],[[[90.524099,23.322252],[90.506114,23.314195],[90.487071,23.319037],[90.437266,23.361802],[90.426606,23.375963],[90.429698,23.385159],[90.45574,23.384955],[90.539399,23.350002],[90.577647,23.323635],[90.586192,23.301744],[90.529552,23.333564],[90.524099,23.322252]]]]}}