{"type":"Feature","properties":{"iso3":"BGR","name":"Bulgaria","continent":"Europe"},"geometry":{"type":"Polygon","coordinates":[[[26.333359,41.713036],[26.273931,41.714897],[26.23445,41.745825],[26.211816,41.750476],[26.189905,41.734689],[26.108359,41.727893],[26.053686,41.701513],[26.047485,41.674615],[26.055029,41.648751],[26.066915,41.635496],[26.115284,41.616634],[26.13027,41.582683],[26.1312,41.552659],[26.158072,41.542323],[26.16293,41.50646],[26.145877,41.478038],[26.174299,41.445998],[26.175642,41.431891],[26.159002,41.421814],[26.120865,41.357787],[26.021853,41.341664],[25.959635,41.314999],[25.921187,41.316032],[25.882017,41.304043],[25.811013,41.341044],[25.763471,41.319029],[25.717479,41.31412],[25.679962,41.29717],[25.639758,41.311071],[25.551494,41.31567],[25.537955,41.312208],[25.505089,41.280582],[25.453464,41.280427],[25.285722,41.239396],[25.23911,41.240895],[25.21968,41.249731],[25.177098,41.293863],[25.116534,41.320735],[25.104855,41.334067],[25.08036,41.334067],[24.886367,41.400627],[24.803271,41.392668],[24.802858,41.361921],[24.794279,41.3474],[24.774436,41.348072],[24.699195,41.408946],[24.638217,41.41768],[24.644314,41.427653],[24.595842,41.429772],[24.580442,41.440521],[24.581062,41.460209],[24.549436,41.485428],[24.530936,41.547543],[24.510162,41.56165],[24.459209,41.549506],[24.438849,41.527699],[24.296119,41.515245],[24.286817,41.517622],[24.286403,41.54036],[24.250747,41.563459],[24.197698,41.547711],[24.181604,41.537362],[24.173129,41.515297],[24.162793,41.512041],[24.146257,41.526769],[24.076597,41.536019],[24.047348,41.525735],[24.051999,41.463],[24.034739,41.451321],[24.000736,41.464137],[23.964666,41.43835],[23.949887,41.437575],[23.894799,41.464344],[23.851598,41.439591],[23.777081,41.429049],[23.754446,41.400678],[23.672177,41.402952],[23.612439,41.371016],[23.578953,41.371998],[23.513014,41.397733],[23.414519,41.399903],[23.347236,41.371223],[23.326049,41.369311],[23.287705,41.398198],[23.224246,41.379026],[23.209777,41.368587],[23.199545,41.332982],[23.15717,41.316342],[23.115209,41.312673],[22.916978,41.335773],[22.940852,41.349829],[22.937339,41.410755],[22.954598,41.432408],[22.946227,41.453233],[22.943023,41.538551],[22.948707,41.560978],[22.932068,41.597953],[22.936098,41.626168],[22.945813,41.641077],[22.967001,41.647046],[22.998627,41.693115],[23.009582,41.71637],[23.008859,41.739934],[22.991185,41.760992],[22.945917,41.769338],[22.918322,41.814348],[22.901372,41.860418],[22.880804,41.872691],[22.85476,41.982632],[22.838223,42.019478],[22.821273,42.025369],[22.798949,42.021235],[22.780862,42.043171],[22.718437,42.044463],[22.705725,42.055935],[22.617771,42.082704],[22.531058,42.129109],[22.494678,42.164559],[22.481449,42.193317],[22.443622,42.214427],[22.345023,42.313439],[22.423985,42.325893],[22.46977,42.391703],[22.508838,42.404932],[22.533125,42.45759],[22.536536,42.47839],[22.524857,42.507665],[22.429669,42.571408],[22.428842,42.592776],[22.449203,42.667965],[22.442072,42.681685],[22.482896,42.733775],[22.45313,42.763592],[22.425845,42.809843],[22.430446,42.817077],[22.481449,42.84674],[22.506047,42.870123],[22.53757,42.868341],[22.563615,42.884283],[22.5909,42.886892],[22.666244,42.871932],[22.727015,42.886892],[22.738798,42.897383],[22.776418,42.979729],[22.828818,42.993449],[22.884215,43.036651],[22.901682,43.069749],[22.935271,43.085562],[22.955632,43.108274],[22.984571,43.174627],[22.981367,43.198992],[22.897754,43.220335],[22.826958,43.28139],[22.817139,43.315497],[22.80453,43.328984],[22.73301,43.381513],[22.702934,43.394045],[22.664694,43.396732],[22.637822,43.426369],[22.596274,43.429159],[22.565785,43.453344],[22.518863,43.474247],[22.478452,43.559229],[22.481449,43.598529],[22.466256,43.64912],[22.404865,43.687179],[22.386054,43.725498],[22.388535,43.758286],[22.362593,43.780843],[22.349467,43.807921],[22.377063,43.883524],[22.379026,43.913496],[22.394529,43.936337],[22.399594,43.993336],[22.411789,44.006927],[22.43432,44.013955],[22.50367,44.019898],[22.534159,44.057157],[22.592967,44.063926],[22.604749,44.079378],[22.597101,44.119065],[22.6094,44.159941],[22.606196,44.174566],[22.648777,44.213995],[22.69164,44.228435],[22.906436,44.122889],[23.030976,44.093072],[23.040071,44.062325],[23.023018,44.031629],[22.885869,43.994525],[22.850522,43.896986],[22.851039,43.874352],[22.863441,43.855412],[22.888763,43.839522],[22.919562,43.834225],[23.131849,43.847945],[23.234478,43.877297],[23.325151,43.886592],[23.484695,43.880604],[23.592699,43.837429],[23.636107,43.832158],[23.720753,43.845826],[23.742871,43.8427],[23.799922,43.818463],[24.159383,43.752938],[24.358234,43.760017],[24.431201,43.794176],[24.466341,43.802418],[24.500137,43.799498],[24.705603,43.743765],[24.752628,43.738804],[24.963675,43.749605],[25.0816,43.718935],[25.252339,43.704646],[25.35962,43.654287],[25.403131,43.65005],[25.467417,43.667749],[25.556558,43.670359],[25.616503,43.687748],[25.671384,43.717359],[25.739596,43.718935],[25.781144,43.732009],[25.839332,43.788439],[25.869304,43.800893],[25.934003,43.870321],[26.054306,43.934322],[26.079317,43.969049],[26.116214,43.998866],[26.150734,44.012405],[26.231453,44.027495],[26.310518,44.052609],[26.614168,44.084855],[26.708685,44.10811],[26.753695,44.10811],[26.789455,44.115965],[26.884126,44.156531],[27.001535,44.165109],[27.027476,44.177046],[27.100237,44.14449],[27.226741,44.120719],[27.251132,44.122373],[27.269012,44.112399],[27.26431,44.089765],[27.285342,44.072453],[27.341669,44.053074],[27.383837,44.015092],[27.574523,44.016281],[27.633434,44.029768],[27.656275,44.023877],[27.721698,43.94874],[27.787327,43.960419],[27.85647,43.988634],[27.912074,43.993336],[27.935845,43.964398],[27.98101,43.84934],[28.014806,43.830039],[28.221254,43.761981],[28.434574,43.735213],[28.57838,43.741278],[28.57309,43.606147],[28.602712,43.55272],[28.603526,43.538153],[28.560313,43.453843],[28.488617,43.40644],[28.473888,43.384263],[28.473155,43.366848],[28.393809,43.414293],[28.321625,43.42829],[28.243175,43.407782],[28.157237,43.407782],[28.118826,43.391547],[28.091563,43.363959],[28.017589,43.232733],[27.903982,43.202338],[27.903982,43.195502],[27.945567,43.16885],[27.911388,43.065172],[27.883556,43.030992],[27.903982,42.942288],[27.898448,42.874661],[27.903982,42.859687],[27.883962,42.848375],[27.897146,42.784003],[27.892263,42.710517],[27.732677,42.714504],[27.719005,42.694566],[27.71697,42.674506],[27.739513,42.661078],[27.646739,42.64057],[27.628429,42.628974],[27.630382,42.602729],[27.650157,42.558051],[27.540863,42.565497],[27.511485,42.553046],[27.480154,42.482896],[27.46225,42.489569],[27.452891,42.480129],[27.45338,42.465237],[27.465668,42.455634],[27.465668,42.42829],[27.472667,42.461859],[27.514171,42.435126],[27.544444,42.460028],[27.562022,42.448188],[27.571056,42.458482],[27.595551,42.448188],[27.629405,42.458645],[27.643321,42.455634],[27.636485,42.448188],[27.652192,42.418524],[27.667735,42.416083],[27.691661,42.42829],[27.699067,42.413886],[27.719005,42.4147],[27.719005,42.407213],[27.698009,42.400377],[27.719005,42.386705],[27.709483,42.376776],[27.714366,42.349189],[27.740408,42.334296],[27.780447,42.338935],[27.774425,42.321723],[27.787852,42.310981],[27.76295,42.2956],[27.75115,42.277045],[27.75587,42.25849],[27.780447,42.243354],[27.773692,42.235907],[27.809744,42.218411],[27.856212,42.181301],[27.85141,42.170111],[27.886729,42.147366],[27.903982,42.119818],[27.986583,42.072089],[27.982432,42.061103],[28.007009,42.037909],[28.000173,42.030463],[28.019054,42.00845],[28.016775,41.972561],[27.96592,41.982141],[27.917035,41.977904],[27.852232,41.995448],[27.815955,41.995138],[27.807997,41.993484],[27.802726,41.96005],[27.818281,41.952867],[27.815335,41.946795],[27.789807,41.942686],[27.723971,41.967595],[27.687074,41.968602],[27.609301,41.953487],[27.603359,41.93863],[27.590543,41.942893],[27.550752,41.924212],[27.560674,41.917675],[27.551269,41.913102],[27.562741,41.906435],[27.546411,41.901164],[27.494321,41.942841],[27.39686,41.989324],[27.332471,42.057434],[27.273353,42.091747],[27.216405,42.095623],[27.178165,42.058364],[27.11605,42.061826],[27.0837,42.078415],[27.047903,42.08292],[27.022619,42.073893],[27.000398,42.04281],[26.96717,42.028495],[26.938903,41.996223],[26.911463,41.996792],[26.890327,41.985423],[26.860768,41.987903],[26.819427,41.965657],[26.780566,41.983433],[26.736745,41.958965],[26.605693,41.967414],[26.542958,41.920362],[26.558978,41.901733],[26.547816,41.856283],[26.526112,41.824244],[26.478363,41.813289],[26.375527,41.816622],[26.334185,41.789543],[26.316305,41.743758],[26.333359,41.713036]]]}}