{"type":"Feature","properties":{"iso3":"BHR","name":"Bahrain","continent":"Asia"},"geometry":{"type":"MultiPolygon","coordinates":[[[[50.551606,26.194241],[50.594737,26.160305],[50.619898,26.185466],[50.632779,26.146823],[50.64566,26.14575],[50.635507,26.134382],[50.634926,26.115694],[50.614757,26.111151],[50.618419,25.964748],[50.603526,25.85456],[50.56544,25.7897],[50.531423,25.88524],[50.467784,25.957587],[50.46046,25.985297],[50.490896,26.048],[50.485199,26.085639],[50.448904,26.161607],[50.461192,26.225246],[50.481456,26.24258],[50.516368,26.239691],[50.545421,26.227729],[50.586681,26.242499],[50.593272,26.238593],[50.609141,26.208279],[50.603526,26.197659],[50.551606,26.194241]]],[[[50.397704,26.174732],[50.419172,26.166144],[50.423466,26.119988],[50.385897,26.123208],[50.382676,26.159704],[50.397704,26.174732]]],[[[50.60165,26.278852],[50.632779,26.287439],[50.65532,26.276705],[50.656394,26.24665],[50.684302,26.221961],[50.678935,26.208007],[50.673568,26.20264],[50.657467,26.211227],[50.647807,26.239136],[50.612384,26.241283],[50.599504,26.262751],[50.60165,26.278852]]],[[[50.77431,25.721648],[50.80089,25.73114],[50.78317,25.696967],[50.795827,25.684943],[50.762286,25.667856],[50.776209,25.638745],[50.765451,25.629886],[50.77431,25.612166],[50.757224,25.588751],[50.759755,25.582422],[50.7452,25.584954],[50.737606,25.595712],[50.748997,25.621026],[50.740137,25.662161],[50.7452,25.687474],[50.77431,25.721648]]],[[[50.775576,25.752657],[50.790132,25.755188],[50.791397,25.74886],[50.780639,25.745063],[50.775576,25.752657]]],[[[50.804687,25.679247],[50.819875,25.678614],[50.816711,25.669122],[50.808484,25.664059],[50.804687,25.679247]]],[[[50.793296,25.652035],[50.816711,25.644441],[50.811648,25.631784],[50.790764,25.630518],[50.785069,25.648238],[50.793296,25.652035]]]]}}