{"type":"Feature","properties":{"iso3":"BIH","name":"Bosnia and Herzegovina","continent":"Europe"},"geometry":{"type":"Polygon","coordinates":[[[17.653331,42.890937],[17.556488,42.93476],[17.617931,42.92178],[17.580658,42.942084],[17.63451,42.950403],[17.662725,42.965699],[17.659314,42.993398],[17.628412,43.046573],[17.587381,43.082126],[17.442067,43.152432],[17.42677,43.165713],[17.400209,43.216045],[17.328689,43.260358],[17.289931,43.30343],[17.267607,43.353324],[17.286417,43.437376],[17.270501,43.463214],[17.239495,43.478407],[17.142757,43.489336],[17.084569,43.513237],[17.030516,43.54848],[16.82381,43.707307],[16.712602,43.771515],[16.698236,43.788078],[16.678599,43.840684],[16.555816,43.937474],[16.501039,43.992716],[16.439647,44.014007],[16.414016,44.055813],[16.367197,44.058139],[16.326889,44.082375],[16.275523,44.157357],[16.215785,44.208155],[16.18757,44.282414],[16.189533,44.308511],[16.203176,44.333057],[16.202866,44.359774],[16.138787,44.385406],[16.159871,44.400702],[16.159664,44.416101],[16.116463,44.52147],[16.104887,44.532373],[16.0837,44.534905],[16.04732,44.52333],[16.026649,44.52519],[16.006082,44.541003],[16.043186,44.588442],[16.028303,44.624719],[15.968978,44.63924],[15.955646,44.653193],[15.948101,44.678101],[15.937352,44.688953],[15.913064,44.684509],[15.905416,44.690141],[15.888776,44.724248],[15.876271,44.724816],[15.856427,44.703577],[15.805681,44.696653],[15.728476,44.769103],[15.716074,44.80321],[15.730647,44.817007],[15.76868,44.827342],[15.773435,44.845016],[15.734264,44.902118],[15.730853,44.927233],[15.763616,44.97555],[15.76744,44.993224],[15.755968,45.042213],[15.78377,45.100917],[15.780049,45.160294],[15.792348,45.189801],[15.824801,45.210988],[15.878855,45.217241],[16.020448,45.213934],[16.029233,45.205045],[16.024996,45.188922],[16.033057,45.179724],[16.067474,45.169595],[16.121527,45.096163],[16.212994,45.031464],[16.316244,45.001234],[16.340635,45.005936],[16.356965,45.048621],[16.381976,45.083709],[16.38177,45.107584],[16.389211,45.116834],[16.435513,45.132853],[16.481919,45.199516],[16.528944,45.222254],[16.587028,45.220858],[16.786293,45.178846],[16.811718,45.181223],[16.824223,45.189077],[16.830734,45.216983],[16.86174,45.232227],[16.924372,45.284524],[16.93264,45.278788],[16.947317,45.23569],[16.967987,45.237292],[16.961166,45.250934],[16.998683,45.2314],[17.008295,45.244165],[17.013566,45.230574],[17.008295,45.216156],[17.036303,45.23047],[17.055734,45.200446],[17.098418,45.177657],[17.187095,45.148563],[17.24549,45.155384],[17.268951,45.189543],[17.382432,45.139623],[17.434109,45.148563],[17.443307,45.162051],[17.458086,45.146134],[17.447751,45.1343],[17.472349,45.13275],[17.496224,45.14169],[17.481858,45.114405],[17.572395,45.120399],[17.629962,45.157348],[17.651563,45.165358],[17.684739,45.163963],[17.741377,45.133267],[17.797497,45.081952],[17.835738,45.064434],[17.911185,45.081074],[18.003479,45.149338],[18.035002,45.143344],[18.090296,45.107997],[18.153651,45.097558],[18.192512,45.108514],[18.20233,45.144067],[18.213286,45.153782],[18.237884,45.157451],[18.322323,45.12288],[18.412033,45.112441],[18.466087,45.074046],[18.51704,45.055856],[18.541121,45.055287],[18.534803,45.088412],[18.549596,45.094768],[18.616672,45.097662],[18.648711,45.062677],[18.678167,45.087378],[18.738318,45.01591],[18.791752,45.001544],[18.803017,44.977307],[18.80157,44.963975],[18.772631,44.942478],[18.78338,44.913745],[18.817797,44.887545],[18.889627,44.86119],[19.004969,44.863309],[19.068427,44.874833],[19.18687,44.927543],[19.201856,44.908371],[19.239476,44.915141],[19.283815,44.908371],[19.31017,44.91235],[19.368667,44.887132],[19.376626,44.862999],[19.363707,44.854628],[19.318025,44.715463],[19.277614,44.684871],[19.255703,44.645648],[19.208677,44.588391],[19.188317,44.57604],[19.179635,44.538264],[19.165269,44.526689],[19.129922,44.518317],[19.127339,44.502556],[19.143358,44.458218],[19.141394,44.430829],[19.115763,44.403596],[19.108942,44.36365],[19.138914,44.309338],[19.157001,44.293577],[19.249502,44.270736],[19.307379,44.274198],[19.341589,44.245828],[19.362363,44.191206],[19.381173,44.177098],[19.442565,44.143198],[19.465716,44.15281],[19.476361,44.127023],[19.522043,44.08501],[19.580231,44.051524],[19.598938,44.062583],[19.611443,44.054521],[19.618885,44.035711],[19.61041,44.019278],[19.552222,43.983415],[19.528554,43.977213],[19.364637,43.973286],[19.300558,44.009511],[19.272756,44.012405],[19.243507,44.002018],[19.240717,43.965741],[19.229348,43.95768],[19.275443,43.933263],[19.359469,43.842209],[19.461685,43.762136],[19.505713,43.67364],[19.507367,43.647182],[19.481735,43.628914],[19.477498,43.616977],[19.476878,43.588684],[19.491761,43.568608],[19.481735,43.560831],[19.431816,43.57114],[19.410732,43.540754],[19.38045,43.585584],[19.34655,43.608838],[19.300868,43.588297],[19.252706,43.588633],[19.217462,43.532796],[19.122791,43.535948],[19.096023,43.512901],[19.054991,43.5067],[19.038145,43.511015],[19.000214,43.547886],[18.977477,43.546232],[18.911021,43.507268],[18.905647,43.490628],[18.937893,43.478949],[18.951225,43.463808],[18.946264,43.443938],[18.968278,43.448098],[19.00993,43.410995],[19.069668,43.30883],[19.024709,43.298728],[18.992463,43.267102],[18.959493,43.303456],[18.957323,43.325858],[18.923423,43.346838],[18.899135,43.351903],[18.821207,43.341387],[18.833506,43.324153],[18.807151,43.318029],[18.679511,43.24948],[18.664318,43.233176],[18.688399,43.224469],[18.645301,43.180182],[18.621128,43.124578],[18.638996,43.020243],[18.538951,43.023887],[18.483037,43.014637],[18.452754,42.993398],[18.433531,42.954201],[18.434047,42.936889],[18.473322,42.862553],[18.443659,42.834467],[18.444589,42.817078],[18.46743,42.769199],[18.539674,42.695457],[18.550009,42.668069],[18.549596,42.638923],[18.538434,42.618304],[18.486654,42.58983],[18.492132,42.564767],[18.458956,42.569728],[18.437355,42.559212],[18.385265,42.566524],[18.338653,42.602517],[18.311574,42.601225],[18.224138,42.628071],[17.995315,42.740441],[17.904467,42.804546],[17.858475,42.816974],[17.827159,42.853122],[17.826229,42.888649],[17.81176,42.909863],[17.786748,42.901388],[17.701586,42.9195],[17.679468,42.915676],[17.653331,42.890937]]]}}