{"type":"Feature","properties":{"iso3":"BLR","name":"Belarus","continent":"Europe"},"geometry":{"type":"Polygon","coordinates":[[[23.606238,51.517399],[23.56035,51.555304],[23.532444,51.6515],[23.56035,51.671963],[23.552288,51.736636],[23.628666,51.809759],[23.594559,51.843297],[23.676415,51.994088],[23.641482,52.072921],[23.531928,52.120644],[23.487693,52.181622],[23.212257,52.231671],[23.176099,52.285136],[23.392298,52.509638],[23.868961,52.670042],[23.922498,52.742596],[23.909682,53.012734],[23.860693,53.087484],[23.893663,53.151951],[23.800645,53.242462],[23.590942,53.611251],[23.485625,53.939293],[23.642618,53.898985],[24.169615,53.95893],[24.276378,53.891802],[24.377871,53.886841],[24.666845,53.993863],[24.788698,53.969678],[24.819084,53.992313],[24.787148,54.077631],[24.821565,54.134526],[25.071989,54.132201],[25.156531,54.175712],[25.224124,54.25855],[25.369748,54.247904],[25.459355,54.298909],[25.553975,54.231265],[25.501678,54.221756],[25.523382,54.204238],[25.493307,54.157522],[25.516044,54.144758],[25.653503,54.128739],[25.763057,54.156437],[25.786829,54.231781],[25.695981,54.320975],[25.564,54.303146],[25.529997,54.346141],[25.612576,54.421796],[25.630869,54.508354],[25.740423,54.568505],[25.708384,54.663021],[25.7212,54.766736],[25.778457,54.805286],[25.782695,54.869675],[25.870234,54.938818],[26.138642,54.968946],[26.264422,55.140098],[26.600939,55.120823],[26.656956,55.215339],[26.789661,55.257197],[26.768629,55.300243],[26.445496,55.337502],[26.543268,55.459613],[26.532106,55.516251],[26.595565,55.56803],[26.615615,55.687971],[26.822838,55.70611],[26.979426,55.826291],[27.151448,55.832459],[27.263018,55.787216],[27.349627,55.831219],[27.592713,55.794244],[27.64501,55.922841],[27.744435,55.959738],[27.781229,56.016375],[27.92706,56.109367],[28.110976,56.156806],[28.310912,56.042679],[28.389771,56.088567],[28.594719,56.092391],[28.73192,55.946793],[28.830881,55.937672],[28.859716,55.976455],[29.030765,56.024178],[29.377411,55.954028],[29.444435,55.906925],[29.380718,55.871242],[29.350745,55.766055],[29.480867,55.681099],[29.684162,55.770602],[29.805705,55.771455],[29.907817,55.843208],[30.106255,55.821917],[30.200254,55.857987],[30.468817,55.793521],[30.587466,55.718306],[30.596354,55.665286],[30.679967,55.656346],[30.742185,55.594385],[30.886156,55.600483],[30.919745,55.534492],[30.887189,55.468088],[30.918298,55.387783],[30.797169,55.304274],[30.975039,55.13953],[31.006407,55.04243],[30.913234,55.024601],[30.917368,54.953959],[30.814842,54.928018],[30.826108,54.877478],[30.762649,54.801979],[31.167947,54.621577],[31.064646,54.492282],[31.20903,54.448047],[31.324682,54.229249],[31.808477,54.055978],[31.84651,53.992313],[31.744656,53.794857],[31.873175,53.777132],[32.083602,53.809637],[32.442133,53.713932],[32.487815,53.669645],[32.406115,53.639414],[32.429421,53.56159],[32.719532,53.439478],[32.717465,53.334937],[32.454845,53.300443],[32.479133,53.274915],[32.423633,53.204402],[32.126545,53.084229],[31.806823,53.110015],[31.756283,53.186574],[31.614018,53.209751],[31.378529,53.182026],[31.363698,53.088776],[31.247064,53.014388],[31.560843,52.787063],[31.570248,52.725258],[31.480641,52.68247],[31.624302,52.53806],[31.558156,52.519999],[31.608592,52.354428],[31.567354,52.311382],[31.68342,52.257199],[31.682386,52.201931],[31.749049,52.163949],[31.764345,52.100568],[31.383076,52.117492],[31.228977,52.03822],[31.134823,52.076667],[30.934421,52.069717],[30.91127,52.022562],[30.941243,51.993804],[30.888739,51.994347],[30.672732,51.829602],[30.624983,51.706096],[30.582815,51.702297],[30.515119,51.603673],[30.60762,51.469831],[30.587879,51.427353],[30.64555,51.36746],[30.555323,51.243462],[30.355129,51.305267],[30.30738,51.409602],[30.14863,51.48443],[29.896552,51.464198],[29.828649,51.429963],[29.637756,51.490889],[29.519004,51.441797],[29.466294,51.385056],[29.319946,51.365574],[29.221038,51.466963],[29.226515,51.519053],[29.160421,51.603311],[29.083682,51.631217],[28.980846,51.569463],[28.799875,51.532618],[28.728768,51.401256],[28.637301,51.449626],[28.612703,51.53993],[28.578079,51.56011],[28.461239,51.571659],[28.333857,51.52838],[28.21004,51.651965],[28.090151,51.562048],[27.973155,51.55781],[27.831252,51.612923],[27.792546,51.517296],[27.714256,51.463707],[27.666182,51.490194],[27.692655,51.589229],[27.477268,51.623672],[27.267462,51.587498],[27.27449,51.6338],[27.20359,51.655143],[27.151086,51.756764],[26.854774,51.749349],[26.665741,51.801387],[26.4456,51.805599],[26.419762,51.846862],[26.175332,51.856707],[26.080764,51.900657],[25.767915,51.928511],[25.351971,51.921483],[25.138031,51.948949],[24.721829,51.882338],[24.39079,51.880013],[24.311518,51.827561],[24.244132,51.718214],[23.981306,51.586],[23.749692,51.644472],[23.628976,51.629046],[23.593319,51.596955],[23.626289,51.540886],[23.606238,51.517399]]]}}