{"type":"Feature","properties":{"iso3":"BLZ","name":"Belize","continent":"Americas"},"geometry":{"type":"MultiPolygon","coordinates":[[[[-89.19314,16.392626],[-89.149205,17.036271],[-89.161375,17.901441],[-89.153933,17.941077],[-89.132565,17.970274],[-89.049444,17.999213],[-89.028024,17.992081],[-88.979758,17.949448],[-88.947021,17.948466],[-88.933301,17.920354],[-88.880332,17.88847],[-88.871367,17.89095],[-88.856406,17.928312],[-88.80535,17.965003],[-88.776876,18.023759],[-88.726647,18.066728],[-88.717707,18.110033],[-88.69285,18.150004],[-88.692954,18.175171],[-88.668149,18.198244],[-88.62704,18.22031],[-88.616989,18.235426],[-88.607713,18.283381],[-88.554797,18.352214],[-88.527822,18.454146],[-88.489245,18.484506],[-88.459635,18.475721],[-88.413229,18.490759],[-88.390776,18.475695],[-88.303822,18.48135],[-88.28661,18.462795],[-88.306264,18.4383],[-88.383697,18.384955],[-88.390981,18.370592],[-88.379547,18.354926],[-88.365387,18.354071],[-88.317494,18.374823],[-88.357981,18.303697],[-88.275746,18.358222],[-88.236806,18.35814],[-88.194651,18.340644],[-88.09675,18.375434],[-88.091542,18.371731],[-88.099029,18.348375],[-88.141713,18.324449],[-88.146474,18.309272],[-88.130523,18.310452],[-88.114858,18.327826],[-88.09496,18.333808],[-88.083567,18.21011],[-88.094797,18.102769],[-88.149648,17.97134],[-88.166737,17.96015],[-88.208323,17.881985],[-88.20226,17.856147],[-88.214345,17.773098],[-88.238759,17.690375],[-88.283193,17.625637],[-88.287709,17.604234],[-88.283315,17.580268],[-88.235585,17.550727],[-88.218577,17.527289],[-88.176666,17.52025],[-88.167307,17.51203],[-88.179351,17.492621],[-88.230784,17.496527],[-88.24234,17.487494],[-88.286285,17.339667],[-88.300526,17.177924],[-88.279408,17.091457],[-88.248606,17.079413],[-88.228179,17.044867],[-88.215077,16.967108],[-88.217437,16.955471],[-88.24234,16.949652],[-88.266957,16.92475],[-88.283315,16.891343],[-88.248606,16.813137],[-88.265492,16.81387],[-88.282379,16.803412],[-88.301625,16.771715],[-88.296986,16.723782],[-88.306223,16.652899],[-88.331166,16.620673],[-88.348053,16.567328],[-88.344838,16.524563],[-88.362864,16.505845],[-88.365875,16.52143],[-88.334543,16.635077],[-88.311269,16.662299],[-88.337636,16.649237],[-88.364654,16.583686],[-88.386383,16.559272],[-88.365875,16.551825],[-88.393178,16.551825],[-88.38329,16.537787],[-88.372792,16.538153],[-88.39094,16.515041],[-88.386383,16.490383],[-88.405181,16.476793],[-88.425649,16.437242],[-88.444447,16.4289],[-88.448232,16.399644],[-88.453521,16.391425],[-88.468495,16.390692],[-88.488596,16.351264],[-88.526682,16.308824],[-88.535959,16.274115],[-88.57136,16.263821],[-88.578196,16.243964],[-88.578196,16.285549],[-88.585032,16.285549],[-88.591908,16.263821],[-88.605946,16.260647],[-88.629872,16.287502],[-88.646637,16.286607],[-88.65392,16.257636],[-88.694895,16.2508],[-88.740061,16.23017],[-88.745717,16.154853],[-88.769276,16.130357],[-88.791819,16.124661],[-88.807037,16.093207],[-88.847483,16.065172],[-88.856272,16.028266],[-88.899648,16.01081],[-88.927642,15.983873],[-88.931142,15.959052],[-88.910268,15.917385],[-88.913971,15.893948],[-88.951878,15.879652],[-89.040323,15.901718],[-89.177446,15.900271],[-89.225996,15.884044],[-89.236512,15.893915],[-89.19314,16.392626]]],[[[-87.838287,17.388495],[-87.825795,17.399156],[-87.814198,17.381293],[-87.797353,17.333238],[-87.803578,17.292304],[-87.81607,17.304267],[-87.824615,17.292304],[-87.827219,17.378119],[-87.838287,17.388495]]],[[[-87.827748,17.545559],[-87.801503,17.541815],[-87.789215,17.531968],[-87.78718,17.496894],[-87.831288,17.423733],[-87.845774,17.414618],[-87.865631,17.429511],[-87.900054,17.391791],[-87.926503,17.278632],[-87.940745,17.292304],[-87.909535,17.426256],[-87.858795,17.470404],[-87.821278,17.463609],[-87.803944,17.491929],[-87.802073,17.512926],[-87.810414,17.525621],[-87.838287,17.51203],[-87.827748,17.545559]]],[[[-88.07726,17.641791],[-88.063547,17.630561],[-88.053619,17.606269],[-88.043813,17.552965],[-88.055653,17.562649],[-88.07726,17.641791]]],[[[-88.160471,17.682766],[-88.071116,17.73428],[-88.080312,17.701809],[-88.103668,17.68183],[-88.167307,17.669094],[-88.160471,17.682766]]],[[[-87.913442,18.025946],[-87.907216,18.025946],[-87.91511,17.982733],[-87.93456,17.942939],[-87.96581,17.913764],[-88.009023,17.902493],[-88.009023,17.909247],[-87.958892,17.934272],[-87.945912,17.951809],[-87.940745,17.977525],[-87.956532,17.976752],[-87.952301,18.007758],[-87.933909,18.070299],[-87.922353,18.082953],[-87.904856,18.153225],[-87.895009,18.162095],[-87.879303,18.155707],[-87.857289,18.169664],[-87.84732,18.155992],[-87.848988,18.133775],[-87.869618,18.110826],[-87.89977,18.039008],[-87.913442,18.046454],[-87.919667,18.02851],[-87.933909,18.01911],[-87.926503,17.997992],[-87.913442,18.025946]]],[[[-88.095611,17.517401],[-88.067698,17.490546],[-88.077056,17.461086],[-88.083974,17.461819],[-88.087148,17.490912],[-88.105133,17.498114],[-88.117177,17.518785],[-88.095611,17.517401]]],[[[-87.969065,18.090888],[-87.963287,18.093207],[-87.962514,18.079983],[-87.981435,18.071275],[-87.984364,18.077582],[-87.969065,18.090888]]],[[[-87.939524,18.118638],[-87.936391,18.103909],[-87.95051,18.087592],[-87.95523,18.100816],[-87.939524,18.118638]]],[[[-87.878407,18.208238],[-87.874745,18.197333],[-87.887807,18.175605],[-87.893544,18.180365],[-87.890777,18.197455],[-87.878407,18.208238]]]]}}