{"type":"Feature","properties":{"iso3":"BMU","name":"Bermuda","continent":"Americas"},"geometry":{"type":"MultiPolygon","coordinates":[[[[-64.676096,32.388658],[-64.647631,32.368228],[-64.65577,32.350399],[-64.691428,32.363965],[-64.708094,32.351562],[-64.704993,32.343035],[-64.677862,32.334508],[-64.809253,32.256217],[-64.834058,32.248077],[-64.860801,32.248853],[-64.876304,32.257767],[-64.885994,32.282572],[-64.876634,32.278912],[-64.879793,32.30544],[-64.86894,32.308928],[-64.858088,32.297688],[-64.869806,32.279785],[-64.867002,32.272883],[-64.848786,32.270945],[-64.863131,32.269008],[-64.8577,32.254666],[-64.832895,32.259705],[-64.780914,32.287543],[-64.805377,32.293425],[-64.813967,32.303978],[-64.780141,32.303412],[-64.740263,32.324044],[-64.718558,32.323656],[-64.705381,32.336059],[-64.713132,32.342648],[-64.734739,32.327702],[-64.74166,32.333073],[-64.736387,32.34381],[-64.676096,32.388658]]],[[[-64.815454,32.288774],[-64.799951,32.283347],[-64.829795,32.281797],[-64.832508,32.287223],[-64.815454,32.288774]]]]}}