{"type":"Feature","properties":{"iso3":"BOL","name":"Bolivia","continent":"Americas"},"geometry":{"type":"Polygon","coordinates":[[[-69.510089,-17.506588],[-69.522599,-17.36912],[-69.597272,-17.300493],[-69.664416,-17.288562],[-69.6228,-17.185565],[-69.427437,-17.086863],[-69.413588,-17.022267],[-69.224452,-16.818249],[-69.191663,-16.743008],[-69.037073,-16.670247],[-69.036815,-16.4715],[-68.833494,-16.328976],[-68.982038,-16.210017],[-69.120815,-16.231205],[-69.184868,-16.195031],[-69.430021,-15.62628],[-69.343411,-15.442209],[-69.292923,-15.409859],[-69.275198,-15.330278],[-69.1481,-15.233333],[-69.384313,-14.981772],[-69.36142,-14.787985],[-69.25383,-14.721839],[-69.234658,-14.574251],[-69.170399,-14.577559],[-69.158203,-14.498494],[-68.990254,-14.379018],[-69.01015,-14.245899],[-68.864448,-14.191226],[-68.899976,-14.0548],[-68.982968,-13.972221],[-69.015964,-13.753113],[-69.101591,-13.666607],[-69.023844,-13.634981],[-68.970747,-13.501449],[-68.980953,-12.867947],[-68.876566,-12.754983],[-68.77373,-12.719429],[-68.742957,-12.665789],[-68.793419,-12.62021],[-68.684252,-12.502492],[-69.570503,-10.964601],[-69.39594,-10.935042],[-68.884034,-11.016381],[-68.804659,-10.994677],[-68.774557,-11.003462],[-68.787011,-11.126038],[-68.61573,-11.112499],[-68.29332,-10.978967],[-68.112091,-10.714074],[-68.043775,-10.666945],[-67.862649,-10.65878],[-67.721727,-10.705495],[-67.684675,-10.610514],[-67.58463,-10.501787],[-67.468048,-10.452281],[-67.418335,-10.381484],[-67.342836,-10.372492],[-67.323509,-10.318852],[-67.201759,-10.32681],[-67.0643,-10.256944],[-66.902656,-10.09313],[-66.631871,-9.904304],[-66.43271,-9.886114],[-66.101981,-9.787412],[-66.010385,-9.804052],[-65.834065,-9.758266],[-65.822127,-9.781831],[-65.794506,-9.737699],[-65.596121,-9.837951],[-65.45184,-9.681372],[-65.416235,-9.680132],[-65.29911,-9.841259],[-65.336834,-9.967246],[-65.286837,-10.196482],[-65.327817,-10.314408],[-65.44998,-10.468094],[-65.435639,-10.610824],[-65.381069,-10.698054],[-65.404737,-10.799236],[-65.327119,-10.850499],[-65.299601,-10.969665],[-65.341976,-11.032814],[-65.333294,-11.088521],[-65.394738,-11.153427],[-65.366057,-11.234042],[-65.38727,-11.277553],[-65.334819,-11.321168],[-65.354766,-11.382353],[-65.319548,-11.476404],[-65.233042,-11.50834],[-65.219244,-11.584511],[-65.173976,-11.606526],[-65.201855,-11.727965],[-65.143538,-11.763829],[-65.127855,-11.694582],[-65.043312,-11.80765],[-65.033674,-11.879791],[-64.998121,-11.908936],[-65.009438,-11.98428],[-64.809295,-12.025828],[-64.739532,-12.144581],[-64.689923,-12.104376],[-64.640572,-12.19512],[-64.489392,-12.239459],[-64.48363,-12.377641],[-64.411335,-12.445131],[-64.312659,-12.461874],[-64.287544,-12.497117],[-64.215223,-12.473759],[-64.155252,-12.516961],[-64.119828,-12.489676],[-64.022832,-12.537838],[-63.921236,-12.544349],[-63.814989,-12.457223],[-63.657738,-12.475413],[-63.476198,-12.564813],[-63.435219,-12.630339],[-63.330419,-12.697002],[-63.247323,-12.701342],[-63.139475,-12.63561],[-63.075034,-12.652663],[-62.999173,-12.829087],[-62.928893,-12.846036],[-62.789832,-13.000652],[-62.698985,-12.966649],[-62.64519,-13.025354],[-62.472125,-13.068452],[-62.389701,-13.137078],[-62.173952,-13.140799],[-62.172454,-13.117855],[-62.114679,-13.150204],[-62.099228,-13.2626],[-61.879913,-13.449152],[-61.847977,-13.530801],[-61.597114,-13.5061],[-61.503425,-13.548164],[-61.347724,-13.493697],[-61.149105,-13.519845],[-61.047225,-13.464552],[-61.022007,-13.535245],[-60.896743,-13.552918],[-60.579579,-13.761071],[-60.472635,-13.797865],[-60.387188,-13.98328],[-60.419434,-14.076917],[-60.473513,-14.117225],[-60.464341,-14.278352],[-60.399926,-14.340777],[-60.343806,-14.490949],[-60.338431,-14.5326],[-60.369204,-14.542832],[-60.291716,-14.630062],[-60.269805,-15.083368],[-60.582241,-15.098871],[-60.246395,-15.478279],[-60.16069,-16.264794],[-58.464721,-16.33125],[-58.349741,-16.2804],[-58.342661,-16.473154],[-58.480276,-16.683683],[-58.399144,-17.237448],[-58.010175,-17.49676],[-57.814425,-17.519705],[-57.777941,-17.695508],[-57.724456,-17.736642],[-57.696809,-17.825112],[-57.730089,-17.846093],[-57.551082,-18.183643],[-57.466798,-18.239557],[-57.56674,-18.256094],[-57.782334,-18.910421],[-57.727557,-18.941943],[-57.715826,-19.044573],[-57.789,-19.059249],[-58.124639,-19.729906],[-57.859745,-19.980123],[-58.158797,-20.165125],[-58.141847,-20.000897],[-58.175282,-19.821373],[-59.089541,-19.286729],[-60.006384,-19.298097],[-61.761213,-19.657765],[-61.94425,-20.104146],[-62.26883,-20.553111],[-62.275703,-21.066568],[-62.650357,-22.234456],[-62.769368,-22.144745],[-62.818564,-22.000878],[-63.639392,-21.997468],[-63.74042,-22.050591],[-63.813129,-22.003049],[-63.933173,-22.001808],[-64.160549,-22.438474],[-64.250828,-22.54069],[-64.326947,-22.859224],[-64.355731,-22.751943],[-64.456242,-22.628023],[-64.429835,-22.557123],[-64.572023,-22.343183],[-64.542257,-22.291506],[-64.58688,-22.212752],[-65.020368,-22.096583],[-65.579894,-22.086454],[-65.744613,-22.11405],[-65.932689,-21.944551],[-66.046532,-21.917989],[-66.094488,-21.83293],[-66.222465,-21.786938],[-66.307602,-22.077049],[-66.377468,-22.127072],[-66.735896,-22.225051],[-66.796461,-22.434857],[-67.015672,-22.523844],[-67.026628,-22.639392],[-67.193904,-22.822223],[-67.547113,-22.892503],[-67.77144,-22.888679],[-67.876343,-22.833592],[-67.891484,-22.792871],[-67.858721,-22.566838],[-67.951894,-22.334088],[-67.934789,-22.251716],[-67.97303,-22.170584],[-67.960627,-22.102887],[-68.096226,-21.953956],[-68.107595,-21.789625],[-68.198442,-21.57186],[-68.207537,-21.284333],[-68.41631,-20.959805],[-68.555113,-20.913916],[-68.572786,-20.742867],[-68.481629,-20.643028],[-68.707559,-20.500918],[-68.76541,-20.421233],[-68.757685,-20.364286],[-68.678516,-20.328629],[-68.729469,-20.228687],[-68.723268,-20.16099],[-68.789466,-20.125851],[-68.775539,-20.089677],[-68.579349,-20.045442],[-68.544623,-19.934751],[-68.561108,-19.844317],[-68.703218,-19.71554],[-68.455016,-19.415403],[-68.894782,-19.076509],[-68.989609,-18.946491],[-68.951445,-18.867323],[-69.033844,-18.649455],[-69.034386,-18.478303],[-69.07782,-18.398824],[-69.100351,-18.234286],[-69.155438,-18.140235],[-69.081722,-18.039983],[-69.317857,-17.951616],[-69.334239,-17.805785],[-69.497123,-17.621404],[-69.510089,-17.506588]]]}}