{"type":"Feature","properties":{"iso3":"BRA","name":"Brazil","continent":"Americas"},"geometry":{"type":"MultiPolygon","coordinates":[[[[-57.602793,-30.190517],[-57.325153,-29.981011],[-57.262572,-29.792599],[-57.112866,-29.766037],[-56.819034,-29.474996],[-56.617289,-29.160906],[-56.444276,-29.078121],[-56.011589,-28.496554],[-55.842349,-28.346382],[-55.718842,-28.38452],[-55.6636,-28.326539],[-55.747936,-28.215744],[-55.177558,-27.853596],[-55.02581,-27.84016],[-55.071259,-27.794375],[-54.932999,-27.743835],[-54.827527,-27.545088],[-54.306939,-27.428919],[-54.18953,-27.260867],[-53.848776,-27.157514],[-53.710696,-26.873811],[-53.77431,-26.714337],[-53.66672,-26.219174],[-53.833428,-25.962238],[-53.887533,-25.661275],[-54.016517,-25.565053],[-54.299239,-25.552651],[-54.447344,-25.68918],[-54.600203,-25.574945],[-54.597981,-25.397518],[-54.435665,-25.167042],[-54.462278,-25.03723],[-54.262187,-24.358512],[-54.334637,-24.148912],[-54.245289,-24.050624],[-54.612553,-23.811155],[-55.165439,-24.016827],[-55.420669,-23.954506],[-55.637814,-23.000714],[-55.62151,-22.667091],[-55.86103,-22.289543],[-56.196798,-22.279311],[-56.397302,-22.086248],[-56.842856,-22.289026],[-57.986249,-22.074465],[-57.82538,-20.998562],[-58.158797,-20.165125],[-57.86977,-19.992939],[-58.116939,-19.758018],[-57.789,-19.059249],[-57.715826,-19.044573],[-57.782334,-18.910421],[-57.56674,-18.256094],[-57.466798,-18.239557],[-57.730089,-17.846093],[-57.790757,-17.555775],[-58.38116,-17.267214],[-58.476658,-16.726988],[-58.356097,-16.509534],[-58.339561,-16.289289],[-60.129839,-16.273062],[-60.237972,-15.50267],[-60.582241,-15.098871],[-60.274972,-15.09515],[-60.291716,-14.630062],[-60.478939,-14.1627],[-60.396515,-14.008394],[-60.465271,-13.816572],[-61.041256,-13.474577],[-61.847977,-13.530801],[-62.162377,-13.120748],[-62.389701,-13.137078],[-62.667462,-12.976364],[-62.770453,-13.010471],[-63.125057,-12.63592],[-63.317913,-12.701963],[-63.654844,-12.478307],[-63.801398,-12.454949],[-63.939064,-12.544143],[-64.376763,-12.465905],[-64.469058,-12.261059],[-64.689923,-12.104376],[-64.728396,-12.149852],[-64.7925,-12.032546],[-64.983445,-12.003917],[-65.065559,-11.75308],[-65.196197,-11.741814],[-65.215989,-11.530148],[-65.319548,-11.476404],[-65.398148,-11.178025],[-65.312779,-10.950958],[-65.435691,-10.499203],[-65.296811,-10.173331],[-65.29911,-9.841259],[-65.397993,-9.686746],[-65.571884,-9.818831],[-65.92933,-9.770255],[-66.631871,-9.904304],[-67.0643,-10.256944],[-67.323509,-10.318852],[-67.58463,-10.501787],[-67.755782,-10.714177],[-68.043775,-10.666945],[-68.313836,-10.993436],[-68.588031,-11.09865],[-68.758331,-11.141128],[-68.804659,-10.994677],[-69.363074,-10.940106],[-69.956113,-10.919332],[-70.2894,-11.06475],[-70.555559,-10.942793],[-70.641342,-11.0108],[-70.638448,-9.851801],[-70.543415,-9.72695],[-70.614677,-9.584117],[-70.535664,-9.464434],[-71.2997,-9.993394],[-72.195666,-10.00559],[-72.173859,-9.845806],[-72.305634,-9.55063],[-72.409503,-9.486345],[-73.214984,-9.409037],[-72.982388,-9.147141],[-72.970037,-9.00193],[-73.350583,-8.598337],[-73.37053,-8.465219],[-73.526541,-8.372408],[-73.668031,-8.013773],[-73.784949,-7.940393],[-73.702551,-7.827841],[-73.742238,-7.764073],[-74.018475,-7.543518],[-73.979433,-7.374536],[-73.713093,-7.304669],[-73.803552,-7.126489],[-73.765493,-6.904177],[-73.147804,-6.476193],[-73.234776,-6.077561],[-72.97691,-5.651747],[-72.921978,-5.146868],[-72.654191,-5.063152],[-72.396842,-4.805649],[-71.93315,-4.536725],[-71.349568,-4.453525],[-71.264818,-4.375494],[-70.968687,-4.385313],[-70.784564,-4.156283],[-70.343066,-4.139436],[-70.216743,-4.328882],[-70.116516,-4.258292],[-70.037038,-4.340871],[-69.962572,-4.264286],[-69.399454,-1.182717],[-69.618356,-0.756904],[-69.632076,-0.506893],[-70.056365,-0.181021],[-70.054246,0.588131],[-69.523426,0.720939],[-69.226183,0.614796],[-69.152079,0.690553],[-69.204324,0.943664],[-69.338786,1.064122],[-69.829351,1.057249],[-69.807543,1.707365],[-69.580296,1.770229],[-68.163302,1.721291],[-68.280246,1.829398],[-68.200819,2.007837],[-68.031786,1.777515],[-67.89319,1.749713],[-67.424639,2.138114],[-67.117165,1.709793],[-67.094479,1.20122],[-66.856767,1.206077],[-66.285071,0.745847],[-66.111128,0.741816],[-65.720971,0.981905],[-65.570851,0.968572],[-65.517004,0.862791],[-65.585217,0.691483],[-65.472872,0.672518],[-65.327196,0.910281],[-65.178988,0.955395],[-65.136769,1.126909],[-64.604217,1.331289],[-64.433091,1.494044],[-64.364594,1.497093],[-64.389579,1.369297],[-64.340745,1.384206],[-64.092957,1.622615],[-63.99503,1.958021],[-63.802277,1.97231],[-63.443435,2.137183],[-63.386546,2.235889],[-63.361115,2.40001],[-64.056628,2.488531],[-64.012238,2.74402],[-64.222923,3.123996],[-64.195741,3.570067],[-64.642897,3.972963],[-64.791622,4.284417],[-64.621064,4.14688],[-64.172693,4.123393],[-64.037663,3.882503],[-63.87514,3.949812],[-63.46886,3.867233],[-63.391449,3.971567],[-62.907706,3.560972],[-62.749576,3.660372],[-62.727458,4.038514],[-62.588656,4.030711],[-62.466544,4.168739],[-62.192659,4.094738],[-61.908232,4.146156],[-61.542104,4.263023],[-61.458182,4.419137],[-61.308243,4.433322],[-61.322945,4.508847],[-61.011956,4.518304],[-60.903435,4.699585],[-60.612626,4.900581],[-60.711018,5.198159],[-60.448967,5.174233],[-60.213426,5.267225],[-59.981502,5.057419],[-60.148779,4.513007],[-59.69046,4.384462],[-59.726737,4.176465],[-59.536826,3.957692],[-59.863034,3.552368],[-59.828488,3.383412],[-59.993724,2.857294],[-59.884066,2.346008],[-59.740225,2.229477],[-59.758751,1.862136],[-59.655475,1.839708],[-59.658964,1.734081],[-59.551477,1.720516],[-59.272424,1.404153],[-58.815966,1.187267],[-58.709202,1.272275],[-58.527146,1.266849],[-58.513659,1.43888],[-58.331913,1.593392],[-58.027229,1.516859],[-57.989763,1.634604],[-57.561159,1.708967],[-57.341482,1.968847],[-57.104494,2.021454],[-57.011167,1.918566],[-56.806476,1.873582],[-56.639561,1.93686],[-55.953815,1.853273],[-55.925806,2.061684],[-56.135251,2.248546],[-55.989239,2.520829],[-55.744112,2.401043],[-55.37106,2.442539],[-54.976872,2.606922],[-54.880289,2.447345],[-54.702548,2.425745],[-54.704124,2.32482],[-54.157387,2.121655],[-53.748265,2.364663],[-53.547347,2.25175],[-53.344104,2.349625],[-53.234188,2.250975],[-53.279715,2.204983],[-52.980922,2.173253],[-52.590403,2.504706],[-52.299103,3.225334],[-51.783191,3.980947],[-51.631744,4.067816],[-51.596906,4.215504],[-51.450999,3.970526],[-51.561025,4.357123],[-51.490674,4.427744],[-51.18693,4.078849],[-51.176137,3.648342],[-51.116363,3.906195],[-51.016779,3.035572],[-50.68603,2.198477],[-50.778066,2.083157],[-50.659983,2.130683],[-50.466542,1.815416],[-49.950597,1.721326],[-49.883026,1.307714],[-50.102193,1.214744],[-49.887563,1.174872],[-50.302805,0.825426],[-50.790639,0.169501],[-50.928944,0.155422],[-51.069163,-0.019342],[-51.326975,-0.079522],[-51.370717,-0.34295],[-51.697499,-0.747166],[-51.719106,-1.03338],[-51.908315,-1.157973],[-51.964426,-1.36061],[-52.249176,-1.353774],[-52.711049,-1.590265],[-52.291249,-1.523614],[-52.208892,-1.691827],[-51.2683,-1.220392],[-51.032948,-1.038018],[-51.009755,-0.935968],[-50.854237,-0.911391],[-50.824452,-1.030938],[-50.95641,-1.128513],[-50.818593,-1.252374],[-50.818105,-1.4249],[-50.670481,-1.696466],[-50.767009,-1.882057],[-50.858428,-1.865648],[-50.818607,-1.969007],[-50.610581,-1.814203],[-50.484039,-1.977634],[-50.443023,-1.935968],[-50.435902,-2.045099],[-50.312539,-1.908774],[-49.952707,-1.833429],[-49.824941,-2.097752],[-49.83788,-1.92669],[-49.676096,-1.908624],[-49.592763,-2.011651],[-49.598012,-1.842706],[-49.428212,-1.798761],[-49.367421,-1.925714],[-49.542104,-2.497166],[-49.660634,-2.631768],[-49.619862,-2.67018],[-49.442616,-2.492364],[-49.232004,-1.948175],[-48.965589,-1.599719],[-48.856369,-1.559031],[-49.018289,-1.827901],[-48.676371,-1.417571],[-48.452626,-1.625665],[-48.4829,-1.511407],[-48.325307,-1.470473],[-48.496571,-1.461358],[-48.489817,-1.326918],[-48.454007,-1.24416],[-48.339711,-1.316013],[-48.248158,-1.122817],[-48.291127,-1.079522],[-48.185536,-1.009942],[-48.159169,-0.796645],[-48.037913,-0.661716],[-47.969635,-0.779474],[-47.824616,-0.606652],[-47.652821,-0.723891],[-47.584514,-0.578247],[-47.393056,-0.812595],[-47.470041,-0.62184],[-47.430165,-0.580011],[-47.407338,-0.681573],[-47.294016,-0.592869],[-47.143056,-0.786065],[-47.102895,-0.674981],[-47.062611,-0.85589],[-46.969106,-0.695896],[-46.963002,-0.865004],[-46.832916,-0.730076],[-46.797597,-0.860528],[-46.719635,-0.864841],[-46.749379,-0.942966],[-46.656733,-0.813973],[-46.598541,-0.86712],[-46.749379,-1.01865],[-46.465696,-0.876602],[-46.475581,-1.006917],[-46.256256,-1.077081],[-46.267769,-0.971354],[-46.171783,-0.920994],[-46.262115,-1.183201],[-46.1256,-1.103936],[-46.040598,-1.175226],[-45.993134,-1.07909],[-45.955719,-1.219985],[-45.88989,-1.090745],[-45.899648,-1.257582],[-45.838206,-1.202895],[-45.820953,-1.315688],[-45.721588,-1.134942],[-45.675535,-1.366316],[-45.559804,-1.283136],[-45.523427,-1.385675],[-45.41983,-1.292413],[-45.542714,-1.490981],[-45.460805,-1.546157],[-45.309967,-1.32643],[-45.296295,-1.415785],[-45.391957,-1.484145],[-45.323638,-1.744806],[-45.227895,-1.683038],[-45.227284,-1.547459],[-45.062978,-1.428888],[-44.967356,-1.594008],[-44.878245,-1.441176],[-44.915273,-1.647231],[-44.837026,-1.586602],[-44.773183,-1.724298],[-44.824045,-1.751642],[-44.724965,-1.723403],[-44.810374,-1.805759],[-44.598012,-1.744806],[-44.659535,-1.839776],[-44.553822,-1.844415],[-44.590647,-1.901788],[-44.488149,-1.987481],[-44.588124,-2.030694],[-44.521718,-2.032322],[-44.655426,-2.231134],[-44.824045,-2.279229],[-44.665639,-2.270929],[-44.663482,-2.420587],[-44.497304,-2.147882],[-44.363596,-2.333917],[-44.382314,-2.394789],[-44.551422,-2.391046],[-44.510854,-2.469985],[-44.637074,-2.579848],[-44.580068,-2.563572],[-44.686147,-2.916681],[-44.63976,-3.069024],[-44.79601,-3.300226],[-44.432973,-2.950291],[-44.368072,-2.549574],[-44.28893,-2.580255],[-44.278961,-2.475518],[-44.053049,-2.399998],[-44.049387,-2.552911],[-44.33849,-2.784926],[-44.296376,-2.834161],[-44.218373,-2.767755],[-44.213857,-2.840997],[-44.082875,-2.752211],[-44.082875,-2.806817],[-43.94636,-2.573989],[-43.740102,-2.486912],[-43.658315,-2.546157],[-43.668446,-2.483331],[-43.558176,-2.530857],[-43.536733,-2.478204],[-43.45287,-2.552911],[-43.426298,-2.33785],[-42.70995,-2.560317],[-42.267405,-2.814223],[-41.968984,-2.833673],[-42.001617,-2.74977],[-41.838565,-2.72948],[-41.601552,-2.9013],[-41.343088,-2.920343],[-41.256459,-3.004815],[-41.287262,-2.903009],[-41.198557,-2.875177],[-41.089263,-2.916681],[-40.527415,-2.803399],[-40.001047,-2.845636],[-38.960357,-3.418145],[-38.671132,-3.669041],[-38.477406,-3.697442],[-38.029612,-4.2374],[-37.607249,-4.608087],[-37.324818,-4.696466],[-37.182932,-4.910903],[-36.898752,-4.938246],[-36.544423,-5.127618],[-36.579986,-5.080987],[-35.917592,-5.058282],[-35.403798,-5.226495],[-35.112213,-5.976658],[-35.092844,-6.185805],[-35.14977,-6.206801],[-35.04894,-6.227227],[-34.972279,-6.433364],[-34.860097,-6.96266],[-34.914662,-7.130548],[-34.839589,-6.972914],[-34.802113,-7.154067],[-34.804799,-7.514093],[-34.928944,-7.555759],[-34.820489,-7.599687],[-34.899998,-7.718045],[-34.811635,-7.93255],[-35.305084,-9.193048],[-35.696156,-9.672947],[-35.765045,-9.610772],[-35.853179,-9.731215],[-35.941884,-9.599786],[-35.878977,-9.7492],[-35.819569,-9.735528],[-36.40807,-10.50213],[-36.903066,-10.772882],[-37.124013,-11.11533],[-37.258412,-11.019789],[-37.155385,-11.187433],[-37.374867,-11.429864],[-37.288442,-11.208185],[-37.336781,-11.190525],[-37.654652,-12.049737],[-38.339996,-12.950291],[-38.532704,-13.016534],[-38.508901,-12.722914],[-38.694569,-12.614028],[-38.824452,-12.838149],[-38.848012,-12.674493],[-38.923695,-12.736586],[-38.827504,-12.866957],[-38.724477,-12.873224],[-38.896881,-13.094659],[-38.806996,-13.143813],[-39.062489,-13.399998],[-39.084218,-13.57879],[-39.01183,-13.497003],[-38.994211,-13.79461],[-39.110951,-13.708185],[-38.997711,-13.851739],[-39.06371,-13.935805],[-38.980824,-14.069513],[-39.045644,-14.161391],[-38.935658,-13.88893],[-39.065582,-14.65488],[-38.864369,-15.843357],[-39.202056,-17.14422],[-39.137115,-17.67962],[-39.281361,-17.871026],[-39.450185,-17.948012],[-39.659413,-18.273614],[-39.744862,-18.681736],[-39.701405,-19.376153],[-39.786204,-19.601983],[-40.009429,-19.747003],[-40.222768,-20.25156],[-40.369293,-20.23268],[-40.370473,-20.301039],[-40.259511,-20.321466],[-40.418324,-20.61533],[-40.628438,-20.839218],[-40.758463,-20.864194],[-41.05724,-21.483819],[-40.995269,-22.014255],[-41.666493,-22.281834],[-41.966298,-22.535414],[-41.993031,-22.699884],[-41.880035,-22.738865],[-42.003733,-22.959161],[-43.031402,-22.974298],[-43.130767,-22.91961],[-43.034535,-22.775567],[-43.065785,-22.671645],[-43.27538,-22.768162],[-43.173329,-22.886977],[-43.196767,-22.985935],[-43.988759,-23.097426],[-43.987131,-23.041681],[-43.603749,-23.007745],[-43.901967,-22.912205],[-44.237294,-23.04697],[-44.352651,-22.999282],[-44.325917,-22.921645],[-44.6551,-23.043145],[-44.712148,-23.174981],[-44.651357,-23.284763],[-44.510569,-23.27337],[-44.563303,-23.337335],[-44.952626,-23.368097],[-45.070424,-23.515395],[-45.412994,-23.617852],[-45.406606,-23.820408],[-45.864369,-23.756443],[-46.235422,-23.912693],[-46.145497,-23.870782],[-46.26773,-24.010512],[-46.385406,-23.873468],[-46.37206,-24.015802],[-46.936635,-24.27337],[-47.181386,-24.53338],[-47.63386,-24.755629],[-47.933746,-25.033461],[-48.016916,-25.010837],[-48.051625,-25.05283],[-47.927724,-25.065606],[-47.921986,-25.158624],[-48.225087,-25.459731],[-48.127309,-25.279962],[-48.297434,-25.341241],[-48.42394,-25.252211],[-48.478912,-25.331638],[-48.414052,-25.410089],[-48.575063,-25.462009],[-48.730946,-25.359633],[-48.683583,-25.46266],[-48.406321,-25.555108],[-48.535024,-25.839451],[-48.743031,-25.851739],[-48.578521,-25.872817],[-48.582631,-26.157159],[-48.667877,-26.236017],[-48.770334,-26.109308],[-48.773305,-26.159845],[-48.635854,-26.418552],[-48.6822,-26.719171],[-48.579213,-26.786554],[-48.588043,-27.150649],[-48.476145,-27.153985],[-48.606435,-27.223403],[-48.551869,-27.387302],[-48.636952,-27.446954],[-48.635121,-27.632582],[-48.565541,-27.860284],[-48.651723,-28.247166],[-48.757395,-28.444594],[-48.835276,-28.33766],[-48.862294,-28.380466],[-48.851796,-28.479262],[-48.749867,-28.511407],[-49.342763,-28.923517],[-49.810658,-29.443129],[-50.315663,-30.461521],[-50.721425,-31.044529],[-51.151845,-31.481541],[-51.863515,-31.931736],[-52.068593,-32.162367],[-52.048451,-31.808282],[-51.836334,-31.854913],[-51.457265,-31.615492],[-51.434967,-31.496515],[-51.256703,-31.472589],[-51.158559,-31.286391],[-51.162831,-31.09295],[-50.95287,-31.095473],[-50.971832,-30.904067],[-50.692616,-30.726495],[-50.70995,-30.354181],[-50.572174,-30.461114],[-50.539866,-30.267511],[-50.614817,-30.186212],[-50.66218,-30.275486],[-50.912994,-30.316664],[-50.915395,-30.436212],[-51.034088,-30.375665],[-51.023101,-30.263767],[-51.233022,-30.189874],[-51.283518,-30.00742],[-51.306467,-30.186944],[-51.187734,-30.360121],[-51.114654,-30.347345],[-51.250478,-30.462335],[-51.281728,-30.796563],[-51.332834,-30.636407],[-51.38329,-30.658868],[-51.370717,-30.886489],[-51.477773,-30.922784],[-51.443023,-31.080987],[-51.623606,-31.135349],[-51.637522,-31.256524],[-51.953847,-31.328058],[-52.001536,-31.624282],[-52.083323,-31.558689],[-52.063344,-31.66546],[-52.203725,-31.727309],[-52.235707,-31.879653],[-52.136098,-31.92254],[-52.252065,-32.038181],[-52.108225,-32.025567],[-52.101552,-32.122654],[-52.375315,-32.498712],[-52.621693,-33.101983],[-53.378814,-33.740492],[-53.539647,-33.649263],[-53.536857,-33.170842],[-53.11404,-32.740584],[-53.58197,-32.425772],[-53.771829,-32.047087],[-54.274228,-31.823379],[-54.591521,-31.471049],[-55.227554,-31.253492],[-55.591873,-30.848348],[-55.86426,-31.076758],[-55.985157,-31.078825],[-55.995311,-30.825818],[-56.831281,-30.102037],[-57.102272,-30.121158],[-57.212601,-30.287349],[-57.510981,-30.276704],[-57.602793,-30.190517]]],[[[-38.944203,-13.394627],[-38.902013,-13.671812],[-39.042551,-13.423923],[-38.944203,-13.394627]]],[[[-38.614613,-12.924981],[-38.587473,-12.986912],[-38.752431,-13.112726],[-38.793365,-13.075128],[-38.678944,-12.910089],[-38.614613,-12.924981]]],[[[-44.497792,-2.806817],[-44.583811,-3.046482],[-44.576324,-2.799981],[-44.480784,-2.70436],[-44.497792,-2.806817]]],[[[-42.041412,-2.70436],[-42.052358,-2.757094],[-42.144154,-2.70086],[-42.041412,-2.70436]]],[[[-43.627309,-2.252048],[-43.630745,-2.359582],[-43.724755,-2.422092],[-43.715403,-2.289239],[-43.627309,-2.252048]]],[[[-49.287953,-1.758477],[-49.367421,-1.895115],[-49.426259,-1.877618],[-49.352162,-1.722426],[-49.287953,-1.758477]]],[[[-44.892242,-1.271905],[-44.926381,-1.36061],[-45.026967,-1.360528],[-44.984609,-1.269952],[-44.892242,-1.271905]]],[[[-48.338979,-1.066502],[-48.318105,-1.181248],[-48.462066,-1.164483],[-48.338979,-1.066502]]],[[[-48.194936,-0.819431],[-48.162465,-0.920831],[-48.287709,-1.024835],[-48.194936,-0.819431]]],[[[-47.948557,-0.64129],[-47.895619,-0.653497],[-47.962148,-0.730645],[-47.948557,-0.64129]]],[[[-50.819203,-0.620212],[-50.822255,-0.699884],[-51.078033,-0.81227],[-51.081776,-0.701104],[-50.840932,-0.558689],[-50.819203,-0.620212]]],[[[-47.660512,-0.579197],[-47.643422,-0.692966],[-47.701527,-0.709568],[-47.761379,-0.575771],[-47.660512,-0.579197]]],[[[-51.186025,-0.613946],[-51.271148,-1.017673],[-51.556264,-1.28867],[-51.912709,-1.481378],[-51.889272,-1.268162],[-51.668365,-1.05755],[-51.686106,-0.884373],[-51.534047,-0.634698],[-51.370432,-0.534275],[-51.384755,-0.644789],[-51.253774,-0.531508],[-51.186025,-0.613946]]],[[[-51.165273,-0.140313],[-51.201283,-0.343683],[-51.393788,-0.466485],[-51.165273,-0.140313]]],[[[-48.462514,-0.576104],[-48.496571,-0.743748],[-48.572336,-0.681573],[-48.527659,-0.872654],[-48.672434,-1.10117],[-48.796132,-1.192071],[-48.897694,-1.158136],[-48.796254,-1.268487],[-48.832997,-1.415785],[-48.942209,-1.295831],[-48.983266,-1.332696],[-48.839223,-1.44256],[-49.024892,-1.52158],[-49.197743,-1.38836],[-49.229604,-1.5735],[-49.168202,-1.586602],[-49.222768,-1.621189],[-49.387318,-1.484145],[-49.358306,-1.637587],[-49.424862,-1.63243],[-49.496571,-1.497735],[-49.654164,-1.760024],[-49.750111,-1.624933],[-49.800282,-1.817315],[-50.028472,-1.720473],[-50.02595,-1.66074],[-50.155019,-1.778985],[-50.278554,-1.597426],[-50.259429,-1.493341],[-50.260243,-1.725274],[-50.299062,-1.65545],[-50.366689,-1.772149],[-50.312123,-1.793715],[-50.405181,-1.830987],[-50.603871,-1.772149],[-50.58788,-1.684503],[-50.803212,-1.434991],[-50.799224,-1.12656],[-50.559722,-1.183201],[-50.616689,-1.119887],[-50.476633,-1.039158],[-50.735178,-1.089532],[-50.798004,-0.984308],[-50.737294,-0.551853],[-50.551991,-0.67962],[-50.673492,-0.631036],[-50.721059,-0.46502],[-50.574452,-0.188084],[-50.327382,-0.100925],[-49.398508,-0.253513],[-49.326487,-0.154555],[-48.927049,-0.158809],[-48.375559,-0.288507],[-48.462514,-0.576104]]],[[[-50.973744,-0.291192],[-51.037953,-0.235935],[-50.947266,-0.011974],[-50.766004,0.046367],[-50.640859,-0.049574],[-50.675852,-0.154555],[-50.973744,-0.291192]]],[[[-49.832346,-0.103123],[-49.524526,0.073879],[-49.391265,0.051093],[-49.359975,-0.058445],[-49.463368,-0.128025],[-49.832346,-0.103123]]],[[[-50.634267,0.071275],[-50.610585,0.183417],[-50.490224,0.159362],[-50.437729,-0.000033],[-50.634267,0.071275]]],[[[-50.090784,0.305945],[-50.220461,0.246212],[-50.138539,0.326565],[-50.090784,0.305945]]],[[[-50.036888,0.299741],[-49.650227,0.386373],[-49.560157,0.385757],[-49.52895,0.300815],[-49.867055,-0.010675],[-50.345123,0.047431],[-50.380971,0.194648],[-50.036888,0.299741]]],[[[-50.378021,0.24499],[-50.482655,0.182359],[-50.516347,0.243354],[-50.37975,0.611802],[-50.32315,0.340644],[-50.378021,0.24499]]],[[[-50.312123,0.413967],[-50.278554,0.558539],[-50.065663,0.647284],[-50.02477,0.541164],[-50.229843,0.377638],[-50.312123,0.413967]]],[[[-50.202416,0.749692],[-50.274952,0.809114],[-50.058572,0.901799],[-50.103383,0.755683],[-50.202416,0.749692]]],[[[-50.062585,0.923252],[-50.100317,0.959063],[-49.916208,1.056563],[-50.062585,0.923252]]],[[[-50.454358,2.110941],[-50.312496,1.947065],[-50.376578,1.878332],[-50.508188,1.995235],[-50.454358,2.110941]]],[[[-50.543521,2.146197],[-50.463348,2.186938],[-50.417832,2.144795],[-50.543521,2.146197]]],[[[-29.338246,-20.584161],[-29.348256,-20.561293],[-29.316884,-20.56878],[-29.338246,-20.584161]]],[[[-28.88329,-20.518731],[-28.880483,-20.510837],[-28.877838,-20.514255],[-28.88329,-20.518731]]],[[[-48.43456,-27.404718],[-48.379872,-27.435724],[-48.534657,-27.807875],[-48.547109,-27.577244],[-48.43456,-27.404718]]],[[[-48.544423,-26.341892],[-48.699696,-26.316664],[-48.493398,-26.218927],[-48.544423,-26.341892]]],[[[-47.517161,-24.700942],[-47.459055,-24.690199],[-47.877431,-25.027114],[-47.831858,-24.913263],[-47.517161,-24.700942]]],[[[-46.327952,-23.926446],[-46.291615,-23.979181],[-46.391591,-23.977309],[-46.327952,-23.926446]]],[[[-45.213735,-23.906508],[-45.224599,-23.957696],[-45.452952,-23.891371],[-45.287017,-23.728204],[-45.213735,-23.906508]]],[[[-44.100901,-23.149021],[-44.354482,-23.180352],[-44.248036,-23.090997],[-44.100901,-23.149021]]],[[[-32.403391,-3.837823],[-32.399729,-3.861993],[-32.462799,-3.878351],[-32.403391,-3.837823]]],[[[-29.40803,0.884833],[-29.357737,0.841132],[-29.410268,0.834866],[-29.40803,0.884833]]],[[[-48.322324,-25.383708],[-48.268961,-25.348155],[-48.291107,-25.489117],[-48.322324,-25.383708]]],[[[-34.85275,-7.697379],[-34.836877,-7.795757],[-34.884229,-7.804026],[-34.85275,-7.697379]]],[[[-42.228703,-2.693311],[-42.126924,-2.754553],[-42.249767,-2.736441],[-42.228703,-2.693311]]],[[[-43.832879,-2.454079],[-43.775106,-2.428925],[-43.770658,-2.496004],[-43.832879,-2.454079]]],[[[-43.564764,-2.361293],[-43.560809,-2.417049],[-43.607248,-2.396841],[-43.564764,-2.361293]]],[[[-49.479514,-1.655372],[-49.422844,-1.674181],[-49.522774,-1.73521],[-49.479514,-1.655372]]]]}}