{"type":"Feature","properties":{"iso3":"BRB","name":"Barbados","continent":"Americas"},"geometry":{"type":"Polygon","coordinates":[[[-59.42691,13.160386],[-59.430043,13.125922],[-59.50886,13.057318],[-59.536122,13.051174],[-59.545969,13.067694],[-59.564443,13.07803],[-59.608144,13.084662],[-59.621571,13.09398],[-59.646067,13.160386],[-59.654205,13.295111],[-59.645131,13.323717],[-59.612864,13.34455],[-59.594472,13.334784],[-59.53661,13.231391],[-59.491811,13.197943],[-59.438629,13.174872],[-59.42691,13.160386]]]}}