{"type":"Feature","properties":{"iso3":"BRN","name":"Brunei","continent":"Asia"},"geometry":{"type":"MultiPolygon","coordinates":[[[[115.146169,4.908515],[115.146801,4.88562],[115.182251,4.861229],[115.207365,4.825598],[115.272684,4.636772],[115.277025,4.613053],[115.266897,4.516857],[115.272478,4.474663],[115.285603,4.435363],[115.358261,4.350278],[115.360741,4.329556],[115.346272,4.313769],[115.324361,4.314596],[115.274338,4.34002],[115.255114,4.339245],[115.220698,4.359761],[115.169952,4.361259],[115.113004,4.382369],[115.091817,4.405417],[115.079828,4.503964],[115.026808,4.660027],[115.022777,4.741365],[115.029778,4.820642],[115.048106,4.801825],[115.086192,4.835639],[115.130219,4.852037],[115.116466,4.896064],[115.125173,4.90766],[115.146169,4.908515]]],[[[114.9817,4.889065],[114.958905,4.866293],[114.948363,4.818932],[114.932447,4.809139],[114.878186,4.812808],[114.855759,4.806659],[114.805426,4.764568],[114.743192,4.730585],[114.741347,4.712943],[114.773903,4.636824],[114.788166,4.461202],[114.806046,4.433322],[114.847904,4.423736],[114.84563,4.395108],[114.828991,4.340486],[114.781965,4.284933],[114.782585,4.264418],[114.813798,4.277104],[114.817208,4.259664],[114.787133,4.207212],[114.766875,4.131816],[114.674891,4.04407],[114.627762,4.016681],[114.586628,4.021435],[114.569368,4.064404],[114.477384,4.144968],[114.453303,4.183699],[114.432529,4.246925],[114.41992,4.260129],[114.360492,4.253876],[114.282667,4.264909],[114.276259,4.289016],[114.296723,4.316663],[114.289902,4.361311],[114.276259,4.381853],[114.268508,4.437741],[114.245564,4.481433],[114.216728,4.48766],[114.20908,4.50815],[114.118956,4.561635],[114.064179,4.570032],[113.99879,4.601142],[114.25172,4.592678],[114.326671,4.606879],[114.395763,4.645738],[114.529307,4.693793],[114.601817,4.779975],[114.722667,4.876044],[114.928396,5.000556],[115.057791,5.054104],[115.082856,5.057196],[115.101736,5.049872],[115.103201,5.036851],[115.057384,5.012641],[115.022797,4.933743],[114.9817,4.889065]]]]}}