{"type":"Feature","properties":{"iso3":"BTN","name":"Bhutan","continent":"Asia"},"geometry":{"type":"Polygon","coordinates":[[[90.475232,28.072344],[90.575277,28.065833],[90.621889,28.072965],[90.667468,28.090328],[90.726896,28.061699],[90.90952,28.032657],[90.975149,27.982092],[91.008842,27.96677],[91.051941,27.96279],[91.092558,27.971679],[91.194671,28.070587],[91.269705,28.072861],[91.290169,28.091413],[91.309599,28.056402],[91.341432,28.030564],[91.418843,27.994726],[91.600641,27.959276],[91.637951,27.939743],[91.652834,27.916747],[91.628339,27.852694],[91.564355,27.851372],[91.566023,27.821074],[91.605336,27.810658],[91.63577,27.782525],[91.626686,27.716423],[91.579867,27.657977],[91.573252,27.619711],[91.59506,27.546382],[91.657382,27.479151],[91.727041,27.460005],[91.779555,27.456475],[91.856578,27.466239],[91.900591,27.45973],[91.975088,27.472433],[92.023598,27.44678],[92.088776,27.29234],[92.081852,27.275132],[92.03679,27.236478],[92.027075,27.19984],[91.995862,27.158033],[91.987697,27.104031],[91.999893,27.071527],[92.049709,27.026827],[92.066969,26.994943],[92.083919,26.937323],[92.072757,26.887766],[92.03586,26.854848],[91.975088,26.846631],[91.925686,26.878671],[91.908219,26.885182],[91.89313,26.881358],[91.895507,26.853504],[91.874009,26.844306],[91.885895,26.83087],[91.886928,26.814437],[91.87866,26.803016],[91.863054,26.804773],[91.843934,26.84937],[91.825123,26.858465],[91.795254,26.853504],[91.702133,26.803481],[91.637951,26.798985],[91.593716,26.810768],[91.520646,26.79759],[91.507417,26.808029],[91.475067,26.865545],[91.420187,26.871539],[91.388457,26.858465],[91.345566,26.794696],[91.296577,26.774594],[91.27601,26.774077],[91.198185,26.802344],[91.062069,26.804567],[91.007395,26.782139],[90.717077,26.767049],[90.587783,26.780072],[90.475232,26.83242],[90.382627,26.891796],[90.348831,26.896654],[90.328574,26.890659],[90.284442,26.85707],[90.210907,26.851489],[90.17742,26.832058],[90.152202,26.771752],[90.127191,26.751392],[89.890409,26.714856],[89.839043,26.731238],[89.829741,26.72762],[89.817287,26.696201],[89.738739,26.703281],[89.685151,26.724571],[89.609806,26.712221],[89.597507,26.720954],[89.613475,26.748549],[89.611357,26.765964],[89.586087,26.784051],[89.50542,26.803688],[89.442891,26.797022],[89.341657,26.854331],[89.273599,26.843892],[89.240837,26.819759],[89.212828,26.813041],[89.128079,26.813455],[89.096504,26.821413],[89.060693,26.881461],[89.021574,26.912674],[88.996614,26.922751],[88.954549,26.912622],[88.932328,26.919237],[88.9253,26.929365],[88.924474,26.961663],[88.906645,26.981093],[88.88644,26.978975],[88.851713,26.945437],[88.845615,27.049565],[88.827632,27.097882],[88.733082,27.148972],[88.754355,27.212604],[88.775852,27.240871],[88.801174,27.256425],[88.861428,27.270378],[88.884631,27.286346],[88.892331,27.315543],[88.91516,27.330869],[88.950808,27.328229],[88.971933,27.312385],[88.997019,27.330869],[88.95106,27.433144],[88.966202,27.47803],[88.982966,27.492632],[88.972955,27.517659],[88.978366,27.530283],[89.004966,27.54967],[89.002712,27.560491],[89.016238,27.57582],[89.03337,27.578976],[89.050954,27.608282],[89.064029,27.615946],[89.091531,27.625865],[89.124655,27.614852],[89.198203,27.730582],[89.22492,27.807813],[89.336025,27.869075],[89.370131,27.909357],[89.444545,28.031184],[89.475344,28.061337],[89.515032,28.081905],[89.561489,28.13464],[89.597817,28.149807],[89.71781,28.169083],[89.755844,28.184379],[89.780855,28.228769],[89.829741,28.259155],[89.862918,28.295793],[89.91613,28.315601],[89.952524,28.308247],[90.07086,28.34523],[90.153164,28.322185],[90.176209,28.325478],[90.199254,28.348523],[90.225591,28.358399],[90.261804,28.335354],[90.261804,28.299141],[90.29147,28.261351],[90.329504,28.255796],[90.353984,28.299141],[90.386905,28.299141],[90.416535,28.28268],[90.45604,28.28268],[90.505422,28.249758],[90.54822,28.246466],[90.587726,28.233298],[90.597602,28.200376],[90.567973,28.1905],[90.54822,28.157579],[90.515299,28.154287],[90.485669,28.124657],[90.475232,28.072344]]]}}