{"type":"Feature","properties":{"iso3":"BWA","name":"Botswana","continent":"Africa"},"geometry":{"type":"Polygon","coordinates":[[[25.259781,-17.794107],[25.21937,-17.879786],[25.255026,-18.001122],[25.387525,-18.138995],[25.508499,-18.399134],[25.761921,-18.630335],[25.815251,-18.813993],[25.940721,-18.921273],[25.967449,-18.999925],[25.948576,-19.103277],[26.155488,-19.537153],[26.313205,-19.584178],[26.312481,-19.649601],[26.549263,-19.784063],[26.581922,-19.842147],[26.713904,-19.927413],[27.02665,-20.010095],[27.109642,-20.073244],[27.201781,-20.092984],[27.266015,-20.234164],[27.268392,-20.49575],[27.590853,-20.473323],[27.698133,-20.509083],[27.682475,-20.637344],[27.709605,-20.756716],[27.674775,-20.879913],[27.674775,-21.090133],[27.884995,-21.310171],[27.950211,-21.438329],[27.953208,-21.510469],[28.002559,-21.564212],[28.321919,-21.603486],[28.464598,-21.660331],[28.6157,-21.647101],[28.860853,-21.757379],[29.038723,-21.797893],[29.013815,-21.940417],[29.040532,-22.020929],[29.10797,-22.069194],[29.239331,-22.072605],[29.350074,-22.186707],[29.047818,-22.220296],[28.960227,-22.310213],[28.967926,-22.38039],[28.912529,-22.453667],[28.84659,-22.449946],[28.831191,-22.482296],[28.623865,-22.562808],[28.301817,-22.603839],[28.196191,-22.671638],[28.154953,-22.771994],[28.047156,-22.8369],[28.037441,-22.911417],[27.937498,-22.963817],[27.930057,-23.057041],[27.78495,-23.127011],[27.739164,-23.227573],[27.698443,-23.193467],[27.608009,-23.216721],[27.548892,-23.360795],[27.425178,-23.412678],[27.349989,-23.391491],[27.202505,-23.492053],[27.205657,-23.523059],[27.137651,-23.523369],[27.13672,-23.570188],[27.063133,-23.624242],[27.070058,-23.656074],[27.00417,-23.645842],[26.96717,-23.718706],[26.839168,-24.265598],[26.692923,-24.326576],[26.531176,-24.458661],[26.404362,-24.632811],[26.278788,-24.62847],[25.881707,-24.742158],[25.835198,-25.016353],[25.587254,-25.61952],[25.458425,-25.711194],[25.177822,-25.763284],[25.013284,-25.743027],[24.828903,-25.826019],[24.664985,-25.823332],[24.456729,-25.743027],[24.338907,-25.751812],[24.183464,-25.625928],[24.005697,-25.65466],[23.988024,-25.61952],[23.924772,-25.629236],[23.752069,-25.477617],[23.444904,-25.278146],[23.216081,-25.26719],[23.071697,-25.325998],[23.030666,-25.299437],[22.851349,-25.471312],[22.810214,-25.677398],[22.740451,-25.77703],[22.764119,-25.820335],[22.719471,-25.874285],[22.710479,-25.996862],[22.672238,-26.012881],[22.545114,-26.207391],[22.450857,-26.210079],[22.342853,-26.317359],[22.257277,-26.340923],[22.057702,-26.617599],[21.780613,-26.678164],[21.76232,-26.804461],[21.664548,-26.863062],[21.42663,-26.822651],[21.122462,-26.865336],[20.907695,-26.800017],[20.693548,-26.889004],[20.61469,-26.753198],[20.632363,-26.595275],[20.605284,-26.493265],[20.837932,-26.146827],[20.803929,-26.071276],[20.79411,-25.893922],[20.767135,-25.834391],[20.726517,-25.827363],[20.716699,-25.732588],[20.643318,-25.613216],[20.663369,-25.564743],[20.618514,-25.528466],[20.656547,-25.467798],[20.606628,-25.462011],[20.535831,-25.371163],[20.375531,-25.046119],[20.107847,-24.880341],[19.981447,-24.752493],[19.978346,-22.000671],[20.97198,-22.000671],[20.984796,-21.963981],[20.975081,-18.319346],[21.475722,-18.299502],[22.981367,-18.020036],[23.292769,-17.998952],[23.394468,-18.186227],[23.501542,-18.23749],[23.560763,-18.348491],[23.57916,-18.467864],[23.609856,-18.477682],[23.837232,-18.305807],[23.915987,-18.201213],[24.218294,-18.012595],[24.287437,-18.02448],[24.350586,-17.95606],[24.421589,-17.956474],[24.505615,-18.060344],[24.564423,-18.052799],[24.820841,-17.839272],[24.948585,-17.79328],[25.057002,-17.827696],[25.153947,-17.781808],[25.259781,-17.794107]]]}}