{"type":"Feature","properties":{"iso3":"CAF","name":"Central African Republic","continent":"Africa"},"geometry":{"type":"Polygon","coordinates":[[[22.861064,10.919154],[23.005551,10.686817],[23.291219,10.439726],[23.644789,9.863068],[23.674038,9.69034],[23.606135,9.537171],[23.646339,9.425033],[23.630733,9.292173],[23.549498,9.185254],[23.462821,9.153725],[23.435706,9.018934],[23.478081,8.958912],[23.542573,8.997281],[23.567481,8.974828],[23.553632,8.883154],[23.482318,8.783393],[23.505262,8.710736],[23.59642,8.734145],[23.72127,8.702002],[23.803436,8.72213],[24.217674,8.691512],[24.243719,8.570176],[24.137162,8.438866],[24.121556,8.372307],[24.152872,8.317891],[24.326814,8.248567],[24.431097,8.271408],[24.51285,8.207149],[24.800171,8.180277],[24.917993,8.087027],[24.958094,7.989178],[25.059173,7.896108],[25.216889,7.864069],[25.264535,7.777718],[25.274974,7.641964],[25.165213,7.5799],[25.190431,7.501197],[25.455118,7.278213],[25.786209,7.142666],[25.888735,7.05187],[26.026091,6.99668],[26.091203,6.830334],[26.378007,6.65329],[26.27021,6.465653],[26.28964,6.387208],[26.508955,6.205462],[26.424826,6.072447],[26.48105,6.104951],[26.602179,6.010616],[26.776329,5.981884],[26.842165,5.884267],[26.894255,5.889667],[26.916475,5.849644],[26.981071,5.859204],[27.036055,5.785126],[27.11481,5.775282],[27.218369,5.645315],[27.211341,5.594879],[27.257127,5.586068],[27.220126,5.413082],[27.264465,5.260145],[27.431173,5.083618],[27.073675,5.203327],[26.961641,5.151185],[26.872654,5.041786],[26.815706,5.040184],[26.739432,5.094393],[26.519807,5.045972],[26.390616,5.149015],[26.272484,5.159066],[26.198276,5.238389],[26.12996,5.258879],[26.026917,5.189969],[25.971934,5.227667],[25.910852,5.170099],[25.849357,5.217874],[25.836231,5.20002],[25.792306,5.262832],[25.757993,5.244436],[25.532787,5.372231],[25.370678,5.316834],[25.316211,5.202242],[25.343807,5.121885],[25.307633,5.032278],[25.140201,5.017964],[25.084804,4.954221],[24.969359,4.991402],[24.77826,4.918538],[24.664365,4.924403],[24.670773,4.957218],[24.601216,5.026103],[24.487218,5.100801],[24.436679,5.100594],[24.433475,5.075531],[24.401642,5.111472],[24.361231,5.062948],[24.396888,5.048194],[24.386139,5.022356],[24.296635,5.003262],[24.25302,4.929881],[24.209612,4.956184],[24.162897,4.907789],[24.08962,4.920218],[23.963116,4.868696],[23.924358,4.817795],[23.798475,4.814746],[23.588048,4.73395],[23.437153,4.646565],[23.42258,4.594062],[23.273132,4.632018],[23.183732,4.725268],[23.099396,4.711652],[23.029323,4.744931],[22.965037,4.835287],[22.888763,4.813222],[22.895584,4.765395],[22.853829,4.711264],[22.78603,4.724648],[22.723605,4.62884],[22.689498,4.491665],[22.59245,4.473707],[22.61126,4.381853],[22.510491,4.19127],[22.43184,4.13856],[22.303269,4.128716],[22.00892,4.242378],[21.86774,4.241551],[21.737308,4.293382],[21.651112,4.295656],[21.538147,4.244652],[21.37485,4.278164],[21.288344,4.33338],[21.210932,4.291574],[21.084222,4.388235],[20.871521,4.453373],[20.580273,4.415003],[20.456713,4.524816],[20.456456,4.621502],[20.338944,4.771906],[20.236625,4.806349],[20.171719,4.87836],[20.003977,4.974478],[19.890909,5.002125],[19.838613,5.087546],[19.568759,5.15519],[19.408975,5.130386],[19.195655,4.950345],[19.08331,4.90934],[19.011583,4.765033],[18.828235,4.559981],[18.753304,4.400611],[18.654086,4.357229],[18.595795,4.371259],[18.541948,4.327851],[18.646541,4.045982],[18.593004,3.709775],[18.626387,3.476869],[18.582462,3.477386],[18.472081,3.632053],[18.383715,3.578],[18.255867,3.577225],[18.181556,3.477386],[18.082028,3.563453],[17.842146,3.540147],[17.793156,3.617506],[17.586761,3.632234],[17.458913,3.708276],[17.334373,3.618514],[17.244973,3.620607],[17.197224,3.58172],[17.017596,3.5418],[16.853162,3.560094],[16.833008,3.522861],[16.639428,3.528597],[16.567701,3.464389],[16.511477,3.227246],[16.465485,3.156501],[16.490807,3.067824],[16.445538,2.95765],[16.479128,2.836314],[16.196665,2.236454],[16.094345,2.497523],[16.101373,2.687847],[16.062616,2.703195],[16.056208,2.759833],[16.095172,2.836779],[16.055381,2.93977],[15.974249,2.985762],[15.913995,3.097952],[15.793175,3.103274],[15.171301,3.758971],[15.084898,3.885836],[15.025987,4.026086],[15.192075,4.052234],[15.091202,4.121791],[15.072806,4.265942],[15.000562,4.403195],[14.779697,4.545047],[14.717272,4.622019],[14.658877,5.164544],[14.624461,5.224049],[14.523899,5.279679],[14.614126,5.48486],[14.590148,5.608289],[14.624358,5.723605],[14.617433,5.864966],[14.584773,5.923412],[14.465711,5.920673],[14.389436,6.031054],[14.525966,6.174069],[14.719029,6.257862],[14.772255,6.318323],[14.932452,6.710289],[15.042213,6.790775],[15.136161,7.045308],[15.190214,7.098793],[15.223908,7.247517],[15.428443,7.388801],[15.415524,7.42084],[15.473298,7.509103],[15.668532,7.516287],[15.758345,7.455567],[15.92526,7.488175],[16.0652,7.591217],[16.370814,7.672504],[16.392208,7.783609],[16.548685,7.870012],[16.54486,7.813013],[16.613073,7.74821],[16.61421,7.679584],[16.805516,7.543675],[16.880654,7.632869],[17.116298,7.68687],[17.250864,7.822831],[17.419122,7.898227],[17.466355,7.884119],[17.639884,7.985043],[17.858785,7.960445],[18.070452,8.019202],[18.589283,8.047882],[18.638583,8.177642],[18.813042,8.276421],[19.124135,8.675079],[18.869783,8.849409],[18.892727,8.897933],[19.021919,8.985215],[19.253429,9.027951],[19.352234,9.002061],[19.700017,9.020587],[19.889463,9.046374],[20.109604,9.151174],[20.154563,9.116421],[20.222982,9.14195],[20.359408,9.116421],[20.455423,9.159313],[20.538208,9.311939],[20.667916,9.302017],[20.654894,9.342971],[20.820258,9.416222],[20.841446,9.484409],[20.996062,9.648301],[21.019936,9.747933],[21.09311,9.77434],[21.256924,9.975749],[21.374333,9.973113],[21.513239,10.200515],[21.65628,10.233666],[21.708886,10.293533],[21.751054,10.41182],[21.705476,10.53202],[21.722632,10.636716],[22.003855,10.743273],[22.048607,10.836988],[22.176351,10.816214],[22.253039,10.915304],[22.460468,11.000828],[22.861064,10.919154]]]}}