{"type":"Feature","properties":{"iso3":"CHL","name":"Chile","continent":"Americas"},"geometry":{"type":"MultiPolygon","coordinates":[[[[-69.510089,-17.506588],[-69.497123,-17.621404],[-69.334239,-17.805785],[-69.302406,-17.976214],[-69.092057,-18.023343],[-69.089215,-18.083081],[-69.155438,-18.140235],[-69.034386,-18.478303],[-69.033844,-18.649455],[-68.954649,-18.856987],[-68.989609,-18.946491],[-68.894782,-19.076509],[-68.815407,-19.113303],[-68.663324,-19.273603],[-68.447626,-19.434627],[-68.496357,-19.458398],[-68.703218,-19.71554],[-68.553511,-19.857857],[-68.544623,-19.934751],[-68.588341,-20.055571],[-68.792592,-20.106627],[-68.726265,-20.150965],[-68.729469,-20.228687],[-68.678516,-20.328629],[-68.757685,-20.364286],[-68.76541,-20.421233],[-68.685544,-20.516834],[-68.480957,-20.624735],[-68.572786,-20.742867],[-68.555113,-20.913916],[-68.41631,-20.959805],[-68.207537,-21.284333],[-68.198442,-21.57186],[-68.107595,-21.789625],[-68.096226,-21.953956],[-67.960627,-22.102887],[-67.94528,-22.354242],[-67.859187,-22.547305],[-67.887092,-22.818709],[-67.77144,-22.888679],[-67.616772,-22.897258],[-67.193904,-22.822223],[-67.013967,-23.000714],[-67.362369,-24.030367],[-68.244486,-24.385384],[-68.314043,-24.48729],[-68.397655,-24.500519],[-68.451502,-24.629297],[-68.503695,-24.612347],[-68.572373,-24.769856],[-68.555165,-24.862151],[-68.473051,-24.907936],[-68.443544,-25.021107],[-68.366649,-25.123427],[-68.516046,-25.183578],[-68.605963,-25.436999],[-68.409024,-26.144243],[-68.575164,-26.30351],[-68.595317,-26.457299],[-68.570151,-26.550626],[-68.305361,-26.897995],[-68.328409,-27.037418],[-68.518009,-27.076899],[-68.610717,-27.165679],[-68.718617,-27.106665],[-68.829024,-27.136017],[-68.931447,-27.395226],[-69.01741,-27.460442],[-69.028573,-27.551289],[-69.09322,-27.656502],[-69.081102,-27.703838],[-69.124329,-27.73443],[-69.190191,-27.951368],[-69.303233,-27.99953],[-69.411882,-28.202515],[-69.476168,-28.187942],[-69.553528,-28.317857],[-69.653031,-28.397852],[-69.674838,-28.563113],[-69.753386,-28.673391],[-69.732767,-28.794314],[-69.802789,-28.939938],[-69.803926,-29.098688],[-69.91472,-29.148814],[-70.040655,-29.297539],[-69.973192,-29.666095],[-69.915599,-29.805621],[-69.927975,-29.976774],[-69.973244,-30.089428],[-69.880717,-30.099764],[-69.835758,-30.161879],[-69.890742,-30.228955],[-69.912136,-30.329517],[-69.964588,-30.374786],[-70.030191,-30.39711],[-70.173412,-30.364657],[-70.143931,-30.439588],[-70.217105,-30.515139],[-70.339216,-30.938162],[-70.266559,-31.036451],[-70.339785,-31.041722],[-70.423397,-31.153756],[-70.467787,-31.089367],[-70.535922,-31.172566],[-70.568969,-31.304238],[-70.580261,-31.592282],[-70.496778,-31.714549],[-70.464144,-31.838262],[-70.255681,-31.925699],[-70.275422,-32.037785],[-70.373323,-32.030395],[-70.389084,-32.053081],[-70.338958,-32.133386],[-70.321801,-32.280147],[-70.242374,-32.330274],[-70.24532,-32.403964],[-70.160829,-32.485303],[-70.13773,-32.569019],[-70.181086,-32.607569],[-70.155739,-32.738414],[-70.000167,-32.888999],[-70.034248,-32.976952],[-70.111194,-33.038447],[-70.109463,-33.169602],[-70.010011,-33.299103],[-69.940558,-33.242879],[-69.836844,-33.26572],[-69.787674,-33.379408],[-69.877074,-33.566787],[-69.89392,-33.642752],[-69.859685,-33.711378],[-69.914772,-33.793543],[-69.909552,-33.955704],[-69.855809,-33.984746],[-69.872371,-34.13099],[-69.828885,-34.23331],[-70.05758,-34.291187],[-70.067579,-34.414591],[-70.227828,-34.58533],[-70.252219,-34.695814],[-70.316298,-34.74563],[-70.276713,-34.798237],[-70.353711,-34.953266],[-70.386629,-35.16669],[-70.542899,-35.209271],[-70.578891,-35.259707],[-70.560417,-35.298361],[-70.47528,-35.314071],[-70.428384,-35.357066],[-70.469182,-35.394686],[-70.40823,-35.506204],[-70.422725,-35.64387],[-70.357329,-35.815229],[-70.420245,-35.868352],[-70.420787,-35.903802],[-70.390737,-35.905869],[-70.412571,-35.957339],[-70.386939,-36.058728],[-70.451483,-36.152262],[-70.568324,-36.139033],[-70.714878,-36.275252],[-70.708909,-36.403203],[-70.807198,-36.433382],[-70.890371,-36.400413],[-70.953158,-36.482475],[-71.043282,-36.484335],[-71.068913,-36.566397],[-71.055322,-36.671301],[-71.073021,-36.696829],[-71.129943,-36.676882],[-71.195159,-36.839146],[-71.140175,-36.937538],[-71.143327,-36.965443],[-71.200688,-36.971437],[-71.089119,-37.103419],[-71.147616,-37.154785],[-71.146479,-37.214833],[-71.204615,-37.315396],[-71.117696,-37.466497],[-71.127307,-37.572641],[-71.183893,-37.625868],[-71.18503,-37.706069],[-71.009976,-38.065531],[-71.016694,-38.264692],[-70.973751,-38.424682],[-70.848668,-38.527621],[-70.837584,-38.584465],[-70.92949,-38.735774],[-71.228025,-38.808845],[-71.399901,-38.910544],[-71.430235,-38.999117],[-71.412045,-39.317961],[-71.476537,-39.38297],[-71.461654,-39.433819],[-71.541959,-39.532315],[-71.495657,-39.565594],[-71.503512,-39.601664],[-71.600767,-39.619544],[-71.677403,-39.568488],[-71.718744,-39.623368],[-71.684586,-39.833485],[-71.616632,-39.909863],[-71.680504,-40.009495],[-71.683708,-40.098998],[-71.800703,-40.079671],[-71.822356,-40.202868],[-71.75006,-40.291545],[-71.705463,-40.281933],[-71.674044,-40.324101],[-71.719054,-40.412984],[-71.804165,-40.42642],[-71.858787,-40.542382],[-71.853103,-40.616383],[-71.949635,-40.709297],[-71.921213,-40.827739],[-71.851449,-40.938327],[-71.903953,-41.367655],[-71.856875,-41.555964],[-71.925915,-41.653012],[-71.794037,-41.867469],[-71.736263,-42.08389],[-71.909482,-42.172257],[-71.977488,-42.125335],[-72.039913,-42.144662],[-72.133706,-42.287599],[-72.060687,-42.368886],[-72.076655,-42.423353],[-72.041929,-42.491049],[-72.122647,-42.529909],[-72.148434,-42.592645],[-72.112674,-42.863842],[-72.148537,-42.998718],[-72.129314,-43.04223],[-72.054434,-43.105378],[-71.861888,-43.13318],[-71.750164,-43.172454],[-71.745668,-43.199223],[-71.760861,-43.306916],[-71.907363,-43.329654],[-71.955112,-43.443549],[-71.858322,-43.477448],[-71.873825,-43.538943],[-71.800703,-43.544214],[-71.710683,-43.614081],[-71.703655,-43.671648],[-71.813415,-43.739448],[-71.815483,-43.774381],[-71.755021,-43.771384],[-71.764271,-43.817273],[-71.659885,-43.92631],[-71.762204,-44.064079],[-71.858736,-44.107798],[-71.812485,-44.187793],[-71.80401,-44.314813],[-71.860596,-44.377135],[-71.822045,-44.40318],[-71.209783,-44.427571],[-71.122657,-44.530304],[-71.131648,-44.570612],[-71.234898,-44.638825],[-71.238153,-44.747862],[-71.29784,-44.795611],[-71.497104,-44.742901],[-71.631204,-44.780005],[-71.762669,-44.754373],[-71.85455,-44.79096],[-72.04782,-44.754786],[-72.088748,-44.782795],[-72.080944,-44.886561],[-72.053297,-44.906819],[-71.889432,-44.94723],[-71.782461,-44.927386],[-71.588726,-44.978132],[-71.497052,-45.111664],[-71.317167,-45.26721],[-71.311534,-45.299456],[-71.374321,-45.359194],[-71.508318,-45.40839],[-71.489094,-45.498514],[-71.713732,-45.53324],[-71.765098,-45.572411],[-71.746546,-45.587294],[-71.799515,-45.717105],[-71.749027,-45.786765],[-71.758483,-45.848156],[-71.665879,-45.88402],[-71.612291,-45.970526],[-71.79228,-46.121938],[-71.912634,-46.142092],[-71.763341,-46.244515],[-71.751869,-46.393033],[-71.684896,-46.519227],[-71.68717,-46.690069],[-71.819565,-46.778952],[-71.9501,-46.813989],[-71.969633,-46.933982],[-71.92669,-46.983798],[-72.005187,-47.061932],[-71.874135,-47.142548],[-71.880698,-47.221923],[-72.030301,-47.197531],[-72.029423,-47.269672],[-72.170551,-47.407544],[-72.361186,-47.450953],[-72.370487,-47.474517],[-72.319638,-47.511931],[-72.344443,-47.602261],[-72.543914,-47.9148],[-72.509445,-47.972988],[-72.343047,-48.07045],[-72.302326,-48.347539],[-72.371418,-48.346402],[-72.537867,-48.431255],[-72.61471,-48.510009],[-72.584221,-48.615946],[-72.592334,-48.791129],[-72.781212,-48.93386],[-73.009725,-48.990394],[-73.18434,-49.214256],[-73.162584,-49.258181],[-73.097627,-49.266552],[-73.145014,-49.303656],[-73.457863,-49.307687],[-73.462049,-49.37497],[-73.540442,-49.427783],[-73.542586,-49.491035],[-73.586589,-49.529999],[-73.518195,-49.628494],[-73.539512,-49.692676],[-73.462979,-49.787141],[-73.534499,-49.847602],[-73.57274,-49.932352],[-73.478585,-50.009453],[-73.541475,-50.113736],[-73.301438,-50.299564],[-73.261854,-50.556603],[-73.202685,-50.626469],[-73.177725,-50.749459],[-73.051738,-50.757831],[-72.755787,-50.616444],[-72.662614,-50.667811],[-72.505983,-50.601251],[-72.302843,-50.648897],[-72.347388,-50.743155],[-72.263466,-50.836276],[-72.265946,-50.960713],[-72.293438,-51.029236],[-72.350747,-51.046702],[-72.403095,-51.126077],[-72.257574,-51.230619],[-72.313437,-51.298005],[-72.348318,-51.46833],[-72.450069,-51.552666],[-72.330903,-51.599382],[-72.300724,-51.691469],[-72.142129,-51.739425],[-71.981726,-51.844948],[-71.948498,-51.896004],[-71.965241,-51.970625],[-69.952754,-52.007419],[-69.485289,-52.132476],[-69.212256,-52.137953],[-68.820497,-52.243167],[-68.454499,-52.299907],[-68.44861,-52.346617],[-68.898461,-52.303537],[-69.130116,-52.208103],[-69.234708,-52.203143],[-69.470937,-52.272719],[-69.496938,-52.385349],[-69.545318,-52.399347],[-69.574859,-52.46795],[-69.672351,-52.530857],[-69.871736,-52.496325],[-70.151982,-52.586508],[-70.207716,-52.651003],[-70.321793,-52.638147],[-70.517734,-52.723255],[-70.548235,-52.722722],[-70.501773,-52.677495],[-70.525878,-52.659927],[-70.592163,-52.687966],[-70.586823,-52.714284],[-70.698178,-52.739432],[-70.723459,-52.704278],[-70.863759,-52.721368],[-70.742747,-52.778416],[-70.822743,-52.838067],[-70.841248,-52.903427],[-70.878214,-52.901428],[-70.810455,-52.927179],[-70.809153,-52.961602],[-70.95759,-53.222833],[-70.994781,-53.404392],[-70.939443,-53.592218],[-70.979482,-53.679295],[-70.973622,-53.756036],[-71.03425,-53.809747],[-71.285024,-53.886],[-71.479848,-53.82936],[-71.644643,-53.823663],[-71.865142,-53.733168],[-71.87442,-53.696547],[-71.943023,-53.724379],[-71.99234,-53.678399],[-72.04247,-53.706801],[-72.103871,-53.68906],[-72.284088,-53.581231],[-72.443593,-53.421319],[-72.406484,-53.361586],[-72.418813,-53.317315],[-72.301259,-53.248793],[-72.097239,-53.267755],[-72.083404,-53.372491],[-72.135732,-53.37127],[-72.241689,-53.434503],[-72.211415,-53.44199],[-72.022857,-53.395196],[-72.021718,-53.247328],[-71.980946,-53.222263],[-71.855621,-53.225356],[-71.789174,-53.441339],[-71.993804,-53.522231],[-72.005442,-53.561619],[-71.814198,-53.520685],[-71.759999,-53.472263],[-71.775502,-53.341729],[-71.742421,-53.223403],[-71.360219,-53.116143],[-71.198582,-52.923904],[-71.118764,-52.919636],[-71.169285,-52.812813],[-71.249182,-52.788756],[-71.352115,-52.807111],[-71.398793,-52.728204],[-71.421427,-52.837277],[-71.490956,-52.82822],[-71.577199,-52.88998],[-71.906233,-53.010889],[-72.033355,-53.126397],[-72.117055,-53.128595],[-72.275746,-53.032159],[-72.313629,-53.03338],[-72.268951,-53.071466],[-72.364125,-53.052016],[-72.56314,-53.078871],[-72.367096,-53.068129],[-72.321645,-53.132094],[-72.197499,-53.169529],[-72.225575,-53.205987],[-72.364573,-53.180759],[-72.327626,-53.221287],[-72.488026,-53.187595],[-72.450063,-53.204767],[-72.461985,-53.229913],[-72.538197,-53.197361],[-72.412343,-53.256443],[-72.466949,-53.283136],[-72.535878,-53.270115],[-72.503774,-53.313897],[-72.522206,-53.366306],[-72.593495,-53.364028],[-72.645131,-53.317804],[-72.637278,-53.358494],[-72.539296,-53.420831],[-72.49828,-53.400486],[-72.364573,-53.536879],[-72.522532,-53.544366],[-72.711985,-53.464614],[-72.763173,-53.387791],[-72.794667,-53.440118],[-72.82844,-53.384373],[-73.171376,-53.256443],[-73.292795,-53.165704],[-73.13915,-53.187595],[-72.95637,-53.160577],[-72.752349,-53.24212],[-72.756825,-53.294854],[-72.713287,-53.290297],[-72.699859,-53.251397],[-72.795969,-53.173272],[-72.727651,-53.187595],[-72.754872,-53.155532],[-72.726796,-53.139581],[-72.652577,-53.153416],[-72.713979,-53.105564],[-72.829742,-53.142348],[-72.933746,-53.10475],[-72.876088,-53.036391],[-72.926422,-53.024591],[-72.947662,-52.926365],[-72.92398,-52.886407],[-72.968617,-52.851251],[-72.960357,-52.824965],[-72.762441,-52.769789],[-72.703481,-52.707696],[-72.61913,-52.738946],[-72.611318,-52.774102],[-72.721425,-52.851739],[-72.588206,-52.795994],[-72.56314,-52.803888],[-72.593658,-52.824395],[-72.576812,-52.838067],[-72.490631,-52.804376],[-72.447011,-52.854913],[-72.398061,-52.783461],[-72.198598,-52.693292],[-72.177544,-52.65773],[-72.014514,-52.67273],[-71.98014,-52.645461],[-71.850529,-52.69471],[-71.478103,-52.646138],[-71.571611,-52.561278],[-72.027731,-52.559261],[-72.124827,-52.513279],[-72.309926,-52.516534],[-72.418528,-52.606703],[-72.413645,-52.648858],[-72.549143,-52.591567],[-72.389638,-52.507582],[-72.589223,-52.554132],[-72.656117,-52.521661],[-72.779449,-52.543878],[-72.848378,-52.502862],[-72.972646,-52.717055],[-72.819203,-52.586521],[-72.680165,-52.66253],[-72.860422,-52.788832],[-73.005279,-52.833266],[-72.953603,-52.893324],[-72.953603,-53.023614],[-72.979563,-53.054783],[-73.139719,-53.099216],[-73.177968,-53.0735],[-73.176666,-53.015232],[-73.20816,-53.053155],[-73.198476,-53.104913],[-73.45287,-52.996677],[-73.366363,-52.996515],[-73.313873,-52.934259],[-73.255035,-52.957127],[-73.262074,-52.927423],[-73.223541,-52.901462],[-73.56371,-52.797052],[-73.494496,-52.775323],[-73.458852,-52.784845],[-73.468129,-52.810724],[-73.424631,-52.782403],[-73.233062,-52.790623],[-73.310455,-52.724786],[-73.262359,-52.713149],[-73.225982,-52.649347],[-73.152699,-52.633966],[-73.127309,-52.558282],[-73.02302,-52.56406],[-73.108144,-52.536391],[-73.091624,-52.493829],[-72.885854,-52.525649],[-72.896474,-52.503839],[-73.055776,-52.471449],[-73.143544,-52.490004],[-73.194976,-52.429864],[-73.228179,-52.482354],[-73.159657,-52.563735],[-73.256215,-52.660414],[-73.337758,-52.646661],[-73.303049,-52.591567],[-73.351674,-52.590753],[-73.393625,-52.544122],[-73.38622,-52.625746],[-73.557932,-52.685317],[-73.616444,-52.749119],[-73.697825,-52.704278],[-73.570546,-52.632013],[-73.669586,-52.643243],[-73.687856,-52.597833],[-73.553375,-52.551039],[-73.615224,-52.52337],[-73.5655,-52.478936],[-73.494862,-52.475518],[-73.530181,-52.444268],[-73.515289,-52.420343],[-73.581125,-52.448337],[-73.654408,-52.430759],[-73.649037,-52.37477],[-73.606923,-52.386977],[-73.56786,-52.333266],[-73.61266,-52.277439],[-73.580556,-52.208429],[-73.680409,-52.145929],[-73.744985,-52.065362],[-73.735015,-52.029962],[-73.676991,-52.043064],[-73.625478,-52.130141],[-73.58137,-52.134373],[-73.528879,-52.195571],[-73.468332,-52.169041],[-73.522776,-52.139093],[-73.495717,-52.131931],[-73.303049,-52.221775],[-73.221791,-52.179864],[-73.204091,-52.108087],[-73.145375,-52.125584],[-72.997792,-52.064874],[-72.987457,-52.142999],[-73.045888,-52.155532],[-73.079254,-52.237074],[-72.994537,-52.186944],[-72.866444,-52.256768],[-72.754303,-52.075128],[-72.768381,-52.051202],[-72.841176,-52.105727],[-72.86856,-52.197198],[-72.931467,-52.17783],[-72.950307,-52.06463],[-72.932729,-52.039483],[-72.910227,-52.05755],[-72.870595,-51.968194],[-72.814931,-51.937595],[-72.69579,-51.981378],[-72.703481,-52.060317],[-72.598256,-52.11712],[-72.535878,-52.221775],[-72.601715,-52.339288],[-72.669667,-52.327813],[-72.933746,-52.440851],[-72.721425,-52.406671],[-72.522206,-52.448337],[-72.505686,-52.433689],[-72.632069,-52.406671],[-72.497141,-52.315362],[-72.475657,-52.187433],[-72.648671,-52.049005],[-72.664703,-51.970636],[-72.468984,-51.929295],[-72.453277,-51.913263],[-72.508372,-51.837091],[-72.466949,-51.789727],[-72.712514,-51.582208],[-72.926259,-51.542657],[-72.969472,-51.498468],[-73.053538,-51.487481],[-73.084381,-51.435642],[-73.245473,-51.46502],[-73.267649,-51.480564],[-73.245595,-51.506606],[-73.054311,-51.502618],[-73.046742,-51.546075],[-73.098256,-51.60475],[-72.977773,-51.53281],[-72.772328,-51.608168],[-72.702952,-51.698012],[-72.54955,-51.741306],[-72.578033,-51.795994],[-72.72411,-51.838149],[-72.829742,-51.767999],[-72.988352,-51.762384],[-72.983144,-51.733331],[-73.048818,-51.696873],[-73.150787,-51.703058],[-73.182444,-51.637465],[-73.289622,-51.611423],[-73.227935,-51.666762],[-73.224477,-51.71087],[-73.070058,-51.724542],[-72.994537,-51.789727],[-73.106028,-51.744887],[-73.13915,-51.76922],[-73.074086,-51.762953],[-73.046742,-51.818617],[-73.082346,-51.853611],[-73.207428,-51.879083],[-73.077138,-51.872247],[-72.972401,-51.82171],[-72.919423,-51.858575],[-73.145334,-51.940037],[-73.176666,-52.081231],[-73.223704,-52.091485],[-73.272613,-52.039646],[-73.326772,-51.726983],[-73.38622,-51.65252],[-73.341298,-51.752699],[-73.285024,-52.104425],[-73.292836,-52.165704],[-73.316233,-52.166111],[-73.563547,-52.039972],[-73.585764,-51.931248],[-73.645579,-51.848728],[-73.649729,-51.827895],[-73.599273,-51.822686],[-73.436431,-52.015232],[-73.39981,-52.01572],[-73.589182,-51.749607],[-73.460683,-51.6867],[-73.55012,-51.721449],[-73.55012,-51.680434],[-73.611643,-51.719985],[-73.654856,-51.688572],[-73.699452,-51.785252],[-73.812001,-51.688572],[-73.714589,-51.638849],[-73.899526,-51.625177],[-73.891225,-51.586684],[-73.826039,-51.546563],[-73.90925,-51.526951],[-73.920644,-51.498305],[-73.928293,-51.415216],[-73.88036,-51.367934],[-73.71345,-51.469822],[-73.620839,-51.628188],[-73.604482,-51.611423],[-73.638824,-51.536554],[-73.616444,-51.522882],[-73.659983,-51.494887],[-73.59968,-51.451267],[-73.692209,-51.414483],[-73.717681,-51.288507],[-73.775461,-51.240899],[-73.759592,-51.195001],[-73.682729,-51.275974],[-73.673573,-51.19378],[-73.728831,-51.17962],[-73.694081,-51.139255],[-73.769846,-51.118097],[-73.769195,-51.166111],[-73.879384,-51.237888],[-73.967275,-51.194106],[-74.00829,-51.118585],[-74.029897,-51.207615],[-74.129506,-51.187677],[-74.148061,-51.052179],[-74.081166,-50.966241],[-74.232249,-51.035577],[-74.232574,-50.907485],[-74.151031,-50.872817],[-73.951731,-50.893162],[-73.926829,-50.864353],[-73.803334,-50.960545],[-73.816965,-50.878025],[-73.879709,-50.834161],[-73.854604,-50.797296],[-73.747914,-50.82936],[-73.777821,-50.802341],[-73.772939,-50.670668],[-73.636708,-50.639907],[-73.533355,-50.706476],[-73.474355,-50.672459],[-73.725087,-50.559503],[-73.697825,-50.514825],[-73.625152,-50.501153],[-73.56371,-50.404962],[-73.669993,-50.488458],[-73.759389,-50.51572],[-73.82551,-50.679457],[-73.81078,-50.741957],[-73.846099,-50.775811],[-73.947011,-50.829767],[-74.042714,-50.822035],[-74.126088,-50.762465],[-74.06017,-50.712009],[-74.118642,-50.686782],[-74.134104,-50.733005],[-74.235951,-50.604181],[-74.202626,-50.572035],[-74.297353,-50.480645],[-74.221059,-50.4638],[-74.1079,-50.587823],[-74.14981,-50.483087],[-73.897288,-50.549086],[-74.005686,-50.508559],[-74.024648,-50.44671],[-74.081654,-50.466241],[-74.121327,-50.432306],[-74.016225,-50.363946],[-74.06725,-50.354587],[-74.252553,-50.440525],[-74.31786,-50.399347],[-74.269154,-50.325616],[-74.282704,-50.264907],[-74.310414,-50.265313],[-74.354848,-50.359552],[-74.43932,-50.35711],[-74.536366,-50.296319],[-74.493031,-50.261489],[-74.549143,-50.25449],[-74.531484,-50.232192],[-74.618886,-50.234959],[-74.591624,-50.200779],[-74.65567,-50.214451],[-74.694651,-50.183038],[-74.57372,-50.099298],[-74.504384,-50.131931],[-74.495432,-50.076593],[-74.347646,-50.086114],[-74.299428,-50.124933],[-74.317535,-50.161391],[-74.224965,-50.197035],[-74.194407,-50.259698],[-74.121449,-50.223077],[-73.958567,-50.287774],[-73.8579,-50.289483],[-73.97525,-50.254815],[-74.024485,-50.20086],[-74.193715,-50.186456],[-74.250722,-50.080987],[-74.364858,-49.99033],[-74.364858,-49.951104],[-74.32844,-49.927504],[-74.228139,-49.940525],[-74.149648,-50.011407],[-73.885325,-50.056085],[-73.913197,-50.007745],[-74.00768,-49.991388],[-73.960194,-49.930597],[-73.879709,-49.919041],[-73.904164,-49.915704],[-73.906361,-49.856866],[-74.035959,-49.964776],[-74.324696,-49.871189],[-74.335764,-49.787042],[-74.071441,-49.741469],[-74.098866,-49.712579],[-74.27892,-49.740899],[-74.316274,-49.719496],[-74.322255,-49.632501],[-74.221669,-49.562677],[-74.053822,-49.539321],[-74.02302,-49.617852],[-73.98351,-49.552911],[-73.940745,-49.559666],[-73.901357,-49.649998],[-73.808827,-49.688409],[-73.735015,-49.771173],[-73.69579,-49.739679],[-73.772694,-49.668552],[-73.853668,-49.64544],[-73.876332,-49.544366],[-73.915273,-49.510512],[-74.102162,-49.491876],[-74.123525,-49.422621],[-74.083852,-49.27809],[-74.052398,-49.258559],[-73.963531,-49.329767],[-73.844879,-49.349786],[-73.985097,-49.27337],[-74.008778,-49.226251],[-73.979726,-49.164239],[-74.043528,-49.08294],[-73.94225,-49.023533],[-73.821848,-49.04225],[-73.889231,-49.00742],[-74.057485,-49.012465],[-74.036041,-49.144952],[-74.106435,-49.221287],[-74.186676,-49.202732],[-74.152455,-49.313653],[-74.214915,-49.523126],[-74.241119,-49.527927],[-74.42276,-49.384698],[-74.394683,-49.333185],[-74.412709,-49.218845],[-74.371897,-49.186619],[-74.413442,-49.116957],[-74.405507,-49.067804],[-74.453969,-49.080173],[-74.467275,-49.0499],[-74.403147,-48.987237],[-74.422475,-48.934991],[-74.382639,-48.928643],[-74.434641,-48.895685],[-74.447906,-48.807794],[-74.371897,-48.719171],[-74.341054,-48.752374],[-74.200551,-48.719171],[-74.066721,-48.741957],[-74.169342,-48.703302],[-74.306223,-48.727716],[-74.330922,-48.712986],[-74.289906,-48.692478],[-74.364329,-48.682306],[-74.392161,-48.599054],[-74.205678,-48.475193],[-73.993479,-48.597263],[-73.975413,-48.58408],[-74.028554,-48.448012],[-73.89269,-48.41131],[-74.029897,-48.41131],[-74.227284,-48.353936],[-74.103342,-48.317315],[-74.261586,-48.335138],[-74.31786,-48.212091],[-74.442494,-48.182387],[-74.50178,-48.105645],[-74.468658,-48.027765],[-74.588036,-48.079985],[-74.632571,-48.034924],[-74.625409,-48.004227],[-74.537465,-47.963067],[-74.427398,-47.979913],[-74.334381,-48.032159],[-74.283762,-48.171075],[-74.205637,-48.231052],[-74.180328,-48.222914],[-74.32787,-48.015232],[-74.309967,-47.990411],[-74.060618,-48.000421],[-73.972971,-48.045343],[-73.891103,-48.022231],[-73.857737,-48.048761],[-73.882883,-48.086602],[-73.769846,-48.027765],[-73.804189,-48.108087],[-73.738393,-48.084405],[-73.611887,-48.126886],[-73.556264,-48.24684],[-73.467519,-48.171075],[-73.35143,-48.219496],[-73.276682,-48.13836],[-73.281809,-48.079278],[-73.305653,-48.134535],[-73.374827,-48.16253],[-73.481801,-48.123305],[-73.647206,-47.973728],[-73.64269,-47.89658],[-73.582102,-47.907647],[-73.507069,-47.97796],[-73.245961,-48.007257],[-73.235341,-47.986749],[-73.35558,-47.955662],[-73.468332,-47.965916],[-73.526194,-47.932061],[-73.511098,-47.886407],[-73.612172,-47.867771],[-73.55012,-47.808038],[-73.698394,-47.785903],[-73.731923,-47.743097],[-73.740956,-47.703058],[-73.666168,-47.616306],[-73.701527,-47.629815],[-73.682485,-47.559259],[-73.721425,-47.527439],[-73.77599,-47.588962],[-73.730946,-47.623712],[-73.786529,-47.792657],[-73.913197,-47.840102],[-74.02302,-47.828546],[-74.067738,-47.770766],[-74.350697,-47.788507],[-74.407216,-47.767673],[-74.343861,-47.760512],[-74.378407,-47.744806],[-74.532582,-47.781996],[-74.735585,-47.718683],[-74.656728,-47.644138],[-74.567616,-47.680922],[-74.550649,-47.663995],[-74.632192,-47.62127],[-74.556711,-47.550063],[-74.502838,-47.595798],[-74.471181,-47.550551],[-74.437652,-47.554783],[-74.41218,-47.603611],[-74.371897,-47.588962],[-74.351959,-47.62656],[-74.48176,-47.698826],[-74.344553,-47.670831],[-74.295888,-47.725356],[-74.205068,-47.756606],[-74.159657,-47.746515],[-74.252675,-47.739679],[-74.303578,-47.678318],[-74.132883,-47.663995],[-74.262603,-47.642022],[-74.229807,-47.625095],[-74.0537,-47.622166],[-74.140004,-47.586196],[-74.0572,-47.534275],[-74.283599,-47.603774],[-74.328359,-47.585707],[-74.339101,-47.537286],[-74.392323,-47.534763],[-74.453521,-47.481052],[-74.385569,-47.459161],[-74.45519,-47.421563],[-74.506581,-47.469659],[-74.528554,-47.431736],[-74.407216,-47.342462],[-74.324696,-47.218927],[-74.283762,-47.24627],[-74.177602,-47.205255],[-74.119374,-47.333103],[-74.139068,-47.222345],[-74.115387,-47.192966],[-74.03189,-47.176446],[-73.9735,-47.254978],[-73.998931,-47.164972],[-74.0572,-47.156915],[-73.941274,-47.027927],[-74.040598,-46.971856],[-74.139068,-46.978692],[-74.206451,-46.907892],[-74.126088,-46.835382],[-74.243316,-46.864679],[-74.289906,-46.82171],[-74.266835,-46.781671],[-74.591624,-46.725518],[-74.477651,-46.772393],[-74.526723,-46.801202],[-74.640004,-46.780043],[-74.673492,-46.849054],[-74.450185,-46.856052],[-74.479156,-46.902276],[-74.680979,-46.883884],[-74.815256,-46.768487],[-74.869537,-46.805922],[-75.0065,-46.753513],[-75.083363,-46.640883],[-74.934193,-46.502699],[-74.934193,-46.437595],[-75.014068,-46.520115],[-75.051503,-46.513279],[-75.111643,-46.586847],[-75.201731,-46.629978],[-75.207753,-46.604913],[-75.386545,-46.655532],[-75.404652,-46.629815],[-75.561757,-46.680759],[-75.646596,-46.755955],[-75.631337,-46.785414],[-75.540598,-46.698175],[-75.422475,-46.713962],[-75.476064,-46.774021],[-75.400014,-46.776951],[-75.382314,-46.806329],[-75.433909,-46.863377],[-75.37206,-46.84881],[-75.346995,-46.879164],[-75.410553,-46.931573],[-75.551747,-46.948337],[-75.642242,-46.880141],[-75.707021,-46.786554],[-75.708323,-46.654718],[-75.636057,-46.573012],[-75.517079,-46.554295],[-75.540598,-46.513279],[-75.389068,-46.476739],[-75.390452,-46.427341],[-75.345326,-46.394789],[-75.254262,-46.365492],[-75.226959,-46.389825],[-75.187001,-46.295994],[-75.105784,-46.347101],[-75.029775,-46.341974],[-75.12975,-46.322035],[-75.106109,-46.225844],[-75.049306,-46.20908],[-74.928049,-46.273614],[-74.961537,-46.230157],[-74.879547,-46.146742],[-74.777211,-46.212172],[-74.766347,-46.177341],[-74.824452,-46.125909],[-74.781484,-46.04697],[-74.701487,-46.032892],[-74.725331,-46.026544],[-74.728749,-45.944024],[-74.665598,-45.823337],[-74.60676,-45.84588],[-74.559967,-45.826267],[-74.558095,-45.90309],[-74.452992,-45.944024],[-74.464711,-46.022149],[-74.39977,-45.937188],[-74.463694,-45.865818],[-74.468658,-45.834731],[-74.43456,-45.841567],[-74.461822,-45.815037],[-74.359609,-45.790297],[-74.305409,-45.827732],[-74.156484,-45.797296],[-74.103139,-45.836847],[-74.192779,-45.881931],[-74.059193,-45.929864],[-74.080068,-45.981866],[-74.167063,-46.005548],[-74.083852,-46.029718],[-74.167063,-46.136407],[-74.076283,-46.096124],[-74.06135,-45.98089],[-73.982045,-46.029718],[-73.97057,-46.084161],[-74.063588,-46.172052],[-74.313222,-46.249933],[-74.480621,-46.168634],[-74.489898,-46.189386],[-74.358795,-46.260024],[-74.049713,-46.191095],[-74.071441,-46.23268],[-74.041656,-46.270766],[-74.077707,-46.322035],[-74.008534,-46.288995],[-73.844879,-46.341974],[-73.974599,-46.222263],[-74.016225,-46.218438],[-73.96817,-46.144708],[-73.896108,-46.136407],[-73.769846,-46.234552],[-73.762318,-46.273614],[-73.794179,-46.361586],[-73.989166,-46.559747],[-73.873891,-46.602227],[-73.791331,-46.50506],[-73.741851,-46.533787],[-73.766469,-46.472589],[-73.74234,-46.420994],[-73.601308,-46.318455],[-73.488637,-46.300958],[-73.568349,-46.27044],[-73.523915,-46.175226],[-73.344594,-46.026544],[-73.430287,-46.029718],[-73.687856,-46.322035],[-73.691803,-46.256443],[-73.632639,-46.218438],[-73.619008,-46.102309],[-73.660553,-45.975681],[-73.586049,-45.885512],[-73.522776,-45.875746],[-73.56371,-45.841567],[-73.402089,-45.701918],[-73.188873,-45.655857],[-73.296213,-45.649835],[-73.32726,-45.619073],[-73.420318,-45.649835],[-73.591664,-45.780206],[-73.510854,-45.451755],[-73.445872,-45.413507],[-73.412913,-45.451267],[-73.399078,-45.387872],[-73.370961,-45.366876],[-73.323557,-45.395929],[-73.313873,-45.333917],[-73.22643,-45.300877],[-73.014312,-45.444757],[-72.859527,-45.464451],[-72.837758,-45.427992],[-72.858469,-45.389255],[-72.981516,-45.400974],[-73.256663,-45.248224],[-73.375356,-45.292901],[-73.448069,-45.279474],[-73.450063,-45.199477],[-73.355946,-45.190688],[-73.317047,-45.153985],[-73.405263,-45.006117],[-73.348256,-44.957778],[-73.117096,-44.948337],[-72.810048,-44.767755],[-72.727651,-44.758559],[-72.731516,-44.674249],[-72.669016,-44.531996],[-72.616526,-44.508966],[-72.591135,-44.340753],[-72.721913,-44.501397],[-72.750234,-44.448989],[-72.924631,-44.373712],[-72.926584,-44.320571],[-72.961334,-44.298761],[-73.183502,-44.248142],[-73.192047,-44.226821],[-73.122182,-44.189223],[-73.13976,-44.145196],[-73.221099,-44.196873],[-73.290028,-44.152439],[-73.262603,-44.108494],[-73.223012,-44.127048],[-73.201772,-44.061456],[-73.127187,-44.096856],[-73.13915,-43.985121],[-73.070424,-43.914483],[-73.015614,-43.782485],[-72.967275,-43.820082],[-72.898915,-43.776951],[-72.824615,-43.807875],[-72.842275,-43.689711],[-72.896881,-43.753106],[-72.970937,-43.765395],[-73.045888,-43.728448],[-72.973012,-43.621352],[-72.905832,-43.60768],[-73.038726,-43.574151],[-73.111318,-43.461033],[-73.084584,-43.316339],[-72.906321,-43.214939],[-72.934438,-43.09824],[-72.864858,-43.018731],[-72.804677,-43.01393],[-72.734486,-43.079685],[-72.761057,-43.009047],[-72.747141,-42.909763],[-72.842193,-42.838067],[-72.864858,-42.751235],[-72.864858,-42.696547],[-72.823842,-42.665297],[-72.867055,-42.590427],[-72.840321,-42.524835],[-72.795522,-42.493829],[-72.710764,-42.496026],[-72.539418,-42.558282],[-72.678456,-42.478448],[-72.716135,-42.400567],[-72.843739,-42.278253],[-72.809722,-42.243259],[-72.594553,-42.182061],[-72.456166,-42.440851],[-72.419789,-42.43963],[-72.476186,-42.307794],[-72.4735,-42.269789],[-72.412343,-42.2374],[-72.460032,-42.234308],[-72.481313,-42.199151],[-72.426015,-42.147231],[-72.488026,-42.127537],[-72.462554,-41.985528],[-72.48469,-41.959242],[-72.517201,-41.950942],[-72.608266,-42.033136],[-72.737294,-42.01393],[-72.88801,-41.916599],[-72.645131,-41.722833],[-72.483795,-41.713556],[-72.30309,-41.648207],[-72.343414,-41.61297],[-72.306142,-41.528578],[-72.325103,-41.456964],[-72.30309,-41.380792],[-72.344146,-41.386814],[-72.323598,-41.407973],[-72.37267,-41.590102],[-72.426178,-41.663995],[-72.609446,-41.70672],[-72.67748,-41.673598],[-72.751576,-41.548435],[-72.957265,-41.483575],[-73.104115,-41.576593],[-73.06371,-41.686456],[-73.141713,-41.754815],[-73.201405,-41.784763],[-73.363189,-41.773533],[-73.515045,-41.803643],[-73.759946,-41.748841],[-73.696632,-41.637125],[-73.554758,-41.608494],[-73.494862,-41.510431],[-73.615224,-41.599867],[-73.806803,-41.556233],[-73.848651,-41.440529],[-73.854823,-41.279049],[-73.940585,-41.049964],[-73.946904,-40.972841],[-73.85464,-40.916163],[-73.89323,-40.863782],[-73.808885,-40.705986],[-73.831255,-40.657762],[-73.728498,-40.54418],[-73.779652,-40.41546],[-73.735015,-40.174737],[-73.659983,-40.109552],[-73.714182,-39.978448],[-73.443959,-39.831476],[-73.378774,-39.900486],[-73.406077,-39.69492],[-73.297963,-39.582696],[-73.224477,-39.41725],[-73.245025,-39.390313],[-73.211659,-39.213474],[-73.252105,-39.177911],[-73.43342,-38.686944],[-73.427154,-38.7763],[-73.445058,-38.761407],[-73.543284,-38.420668],[-73.462961,-38.051202],[-73.557688,-37.846124],[-73.666575,-37.725518],[-73.685129,-37.598403],[-73.59789,-37.491876],[-73.61148,-37.412693],[-73.675689,-37.326267],[-73.644643,-37.20143],[-73.594472,-37.152439],[-73.448801,-37.241388],[-73.282582,-37.214044],[-73.209055,-37.160252],[-73.145375,-36.833917],[-73.207428,-36.775323],[-73.131703,-36.736423],[-73.152821,-36.706964],[-73.121897,-36.614353],[-73.092437,-36.618341],[-73.070221,-36.7138],[-72.981923,-36.690362],[-72.961171,-36.614028],[-72.988108,-36.528985],[-72.93224,-36.523614],[-72.826161,-36.287042],[-72.804311,-35.988865],[-72.583567,-35.770603],[-72.646596,-35.566583],[-72.538686,-35.498793],[-72.398061,-35.233494],[-72.23058,-35.116143],[-72.187815,-34.885512],[-72.05724,-34.658787],[-72.048085,-34.403904],[-71.989084,-34.355239],[-72.018544,-34.140802],[-71.906606,-34.009454],[-71.816518,-33.787286],[-71.671864,-33.6985],[-71.627512,-33.546563],[-71.705922,-33.43434],[-71.671864,-33.325779],[-71.752268,-33.113539],[-71.74352,-33.086358],[-71.690338,-33.085626],[-71.645741,-33.018976],[-71.572865,-33.010186],[-71.5183,-32.873142],[-71.548695,-32.784845],[-71.509429,-32.769708],[-71.448313,-32.665704],[-71.476715,-32.535252],[-71.412465,-32.369561],[-71.542144,-32.205173],[-71.505605,-31.894301],[-71.539622,-31.83766],[-71.514963,-31.775486],[-71.666168,-31.169854],[-71.65099,-31.022393],[-71.707265,-30.779474],[-71.703481,-30.508559],[-71.639231,-30.252211],[-71.587473,-30.284926],[-71.517568,-30.278578],[-71.445912,-30.162367],[-71.398793,-30.17669],[-71.376454,-30.078871],[-71.412465,-29.991795],[-71.350697,-29.930841],[-71.29776,-29.933852],[-71.282582,-29.880141],[-71.335927,-29.728123],[-71.288075,-29.603123],[-71.336049,-29.524998],[-71.30724,-29.421157],[-71.360911,-29.295587],[-71.486928,-29.211847],[-71.521962,-28.940118],[-71.487782,-28.845147],[-71.401845,-28.806573],[-71.301869,-28.6749],[-71.307485,-28.5617],[-71.17394,-28.36061],[-71.173085,-28.09295],[-71.132639,-27.923517],[-71.031606,-27.657403],[-70.971099,-27.660333],[-70.912221,-27.61004],[-70.895579,-27.469822],[-70.94579,-27.37184],[-70.961049,-27.168064],[-70.941314,-27.113377],[-70.884185,-27.127211],[-70.794179,-27.002537],[-70.822418,-26.865818],[-70.748938,-26.760557],[-70.754506,-26.702081],[-70.695302,-26.568536],[-70.697662,-26.400649],[-70.629954,-26.340977],[-70.681443,-26.304496],[-70.648264,-26.235772],[-70.665435,-26.149672],[-70.635976,-25.974705],[-70.733388,-25.803969],[-70.700313,-25.773377],[-70.686676,-25.668064],[-70.634775,-25.625502],[-70.65038,-25.528578],[-70.530914,-25.456801],[-70.521352,-25.403253],[-70.449371,-25.355157],[-70.437001,-25.193455],[-70.497182,-25.104262],[-70.468739,-25.000095],[-70.555898,-24.810805],[-70.576405,-24.653253],[-70.554799,-24.60589],[-70.58259,-24.537205],[-70.506098,-24.167381],[-70.526357,-23.99627],[-70.498525,-23.784601],[-70.421254,-23.684666],[-70.390736,-23.576918],[-70.413085,-23.511253],[-70.496983,-23.469472],[-70.539315,-23.532273],[-70.60583,-23.510653],[-70.621338,-23.53109],[-70.625027,-23.474749],[-70.591786,-23.435724],[-70.600123,-23.244225],[-70.567795,-23.200222],[-70.562245,-23.059828],[-70.51183,-23.014907],[-70.468034,-23.096231],[-70.425423,-23.08853],[-70.297027,-22.917739],[-70.312571,-22.790623],[-70.278554,-22.556736],[-70.243153,-22.496515],[-70.248199,-22.327569],[-70.174428,-21.945896],[-70.192128,-21.884373],[-70.150054,-21.861993],[-70.151967,-21.664809],[-70.103645,-21.608699],[-70.058695,-21.433377],[-70.092698,-21.36534],[-70.080094,-21.233325],[-70.171295,-21.014581],[-70.130469,-20.946578],[-70.141133,-20.880917],[-70.212327,-20.813703],[-70.190418,-20.791783],[-70.203826,-20.541958],[-70.166686,-20.448069],[-70.186879,-20.354262],[-70.145742,-20.330415],[-70.130727,-20.266778],[-70.162343,-20.196547],[-70.125356,-20.066176],[-70.149322,-19.737237],[-70.177887,-19.640232],[-70.238224,-19.60328],[-70.199574,-19.534356],[-70.28775,-19.300958],[-70.266225,-19.178399],[-70.356597,-18.77337],[-70.306369,-18.460555],[-70.392575,-18.339559],[-70.159067,-18.32597],[-69.970345,-18.250625],[-69.865338,-18.144585],[-69.783095,-17.981598],[-69.849835,-17.69159],[-69.818054,-17.659137],[-69.683902,-17.656036],[-69.510089,-17.506588]]],[[[-68.641998,-54.799168],[-68.654135,-54.886245],[-68.965688,-54.784438],[-68.744496,-54.886407],[-68.787994,-54.92018],[-69.067006,-54.948826],[-69.648305,-54.822524],[-69.672353,-54.778009],[-69.624379,-54.760837],[-69.627065,-54.692071],[-69.663564,-54.753513],[-69.716054,-54.68906],[-69.730784,-54.803155],[-69.761301,-54.803643],[-69.761708,-54.727309],[-69.790842,-54.721449],[-69.80899,-54.810968],[-69.91161,-54.818617],[-69.966624,-54.778416],[-69.959381,-54.681573],[-70.000356,-54.733331],[-69.978505,-54.822198],[-70.080068,-54.849867],[-70.087148,-54.778578],[-70.164866,-54.845961],[-70.309438,-54.838556],[-70.308339,-54.779962],[-70.226308,-54.695082],[-70.322418,-54.746515],[-70.355214,-54.827081],[-70.581166,-54.778985],[-70.758778,-54.84059],[-70.824941,-54.821466],[-70.837026,-54.787693],[-70.624582,-54.731541],[-70.45287,-54.633722],[-70.54308,-54.623468],[-70.630971,-54.667739],[-70.594553,-54.682794],[-70.606353,-54.70379],[-70.815907,-54.750421],[-70.927235,-54.738214],[-70.922109,-54.712579],[-70.774322,-54.681573],[-70.926381,-54.670017],[-70.95995,-54.68906],[-70.950185,-54.721368],[-71.042348,-54.775567],[-70.960846,-54.632013],[-71.044057,-54.595961],[-71.06078,-54.662205],[-71.090077,-54.634942],[-71.179677,-54.702569],[-71.302602,-54.667739],[-71.192698,-54.626886],[-71.240387,-54.621026],[-71.262929,-54.580743],[-71.23998,-54.540297],[-71.323069,-54.545017],[-71.337961,-54.52158],[-71.360911,-54.52752],[-71.336049,-54.565525],[-71.412465,-54.579197],[-71.350901,-54.594985],[-71.506581,-54.683526],[-71.521799,-54.637791],[-71.494293,-54.592706],[-71.549631,-54.65488],[-71.591135,-54.589288],[-71.645172,-54.65488],[-71.685048,-54.634698],[-71.652008,-54.599542],[-71.739735,-54.594822],[-71.759592,-54.622817],[-71.816518,-54.62005],[-71.822662,-54.65488],[-71.944325,-54.654555],[-71.980946,-54.613214],[-71.905263,-54.613214],[-71.88976,-54.568129],[-72.001454,-54.57171],[-71.998362,-54.517022],[-71.940012,-54.510837],[-72.002349,-54.45908],[-71.921457,-54.464288],[-71.831858,-54.542413],[-71.671864,-54.57171],[-71.740305,-54.518324],[-71.583119,-54.545017],[-71.693593,-54.469334],[-71.830678,-54.469008],[-71.842885,-54.419122],[-71.749135,-54.397149],[-71.563222,-54.510837],[-71.495229,-54.493748],[-71.604156,-54.448663],[-71.598256,-54.401056],[-71.544179,-54.443455],[-71.517934,-54.445001],[-71.535308,-54.407159],[-71.396962,-54.457208],[-71.335846,-54.438572],[-71.344879,-54.417657],[-71.432932,-54.400974],[-71.364613,-54.372979],[-71.18928,-54.428481],[-71.09024,-54.510837],[-71.139556,-54.451349],[-71.125152,-54.433526],[-70.972401,-54.469008],[-70.936391,-54.389093],[-70.952504,-54.3388],[-70.800649,-54.315851],[-70.724843,-54.346856],[-70.628041,-54.332452],[-70.723459,-54.425714],[-70.711578,-54.480727],[-70.774078,-54.544122],[-70.771962,-54.594903],[-70.748158,-54.562677],[-70.641469,-54.602797],[-70.701161,-54.533461],[-70.696929,-54.494806],[-70.585194,-54.390558],[-70.24942,-54.575372],[-70.233144,-54.551202],[-70.301991,-54.496515],[-70.130727,-54.545017],[-70.427642,-54.437677],[-70.577707,-54.274835],[-70.843251,-54.263116],[-70.898508,-54.181817],[-70.822743,-54.195489],[-70.928212,-54.126723],[-70.322499,-54.325291],[-70.150461,-54.423923],[-70.144643,-54.391371],[-70.086049,-54.383233],[-70.095937,-54.359308],[-70.199045,-54.320571],[-70.090199,-54.253188],[-70.034495,-54.256931],[-69.983225,-54.283868],[-69.966868,-54.379815],[-69.91161,-54.379815],[-69.870595,-54.435154],[-69.883656,-54.503351],[-69.785227,-54.484145],[-69.77538,-54.554864],[-69.741322,-54.47796],[-69.815541,-54.421157],[-69.808013,-54.384373],[-69.87682,-54.297296],[-69.85912,-54.280369],[-69.691884,-54.317804],[-69.536,-54.442071],[-69.570872,-54.372817],[-69.500478,-54.342218],[-69.23412,-54.44964],[-69.226674,-54.476983],[-69.41747,-54.623305],[-69.377187,-54.681573],[-69.373036,-54.615899],[-69.269439,-54.532403],[-69.15746,-54.558526],[-69.17516,-54.487726],[-69.147532,-54.448663],[-69.009674,-54.471449],[-68.989003,-54.43141],[-69.279612,-54.321547],[-70.014027,-54.113539],[-70.056752,-54.087009],[-70.185292,-53.811293],[-70.136952,-53.738702],[-69.879277,-53.657886],[-69.65144,-53.636231],[-69.360842,-53.521675],[-69.318613,-53.450523],[-69.350901,-53.363214],[-69.675473,-53.358358],[-70.202707,-53.468683],[-70.442535,-53.362481],[-70.473541,-53.309259],[-70.418993,-53.011716],[-70.314865,-52.968048],[-70.323945,-53.061536],[-70.243452,-53.061725],[-70.134229,-53.011951],[-70.089175,-52.911063],[-70.204823,-52.866306],[-70.300891,-52.91493],[-70.257202,-52.868296],[-70.28266,-52.798449],[-70.416127,-52.758071],[-70.128615,-52.732282],[-70.001133,-52.841734],[-69.9114,-52.847904],[-69.824403,-52.78252],[-69.734351,-52.774459],[-69.591011,-52.641873],[-69.623606,-52.560317],[-69.603871,-52.521173],[-69.417565,-52.451472],[-69.225942,-52.639255],[-69.140248,-52.68377],[-68.920657,-52.640175],[-68.779026,-52.548254],[-68.628407,-52.639255],[-68.641882,-54.782971],[-68.700063,-54.767836],[-68.641998,-54.799168]]],[[[-80.759348,-33.766778],[-80.777333,-33.73447],[-80.740834,-33.685154],[-80.704701,-33.766778],[-80.759348,-33.766778]]],[[[-78.788971,-33.609063],[-78.757639,-33.643243],[-78.884999,-33.632745],[-78.979482,-33.669122],[-78.870025,-33.576837],[-78.788971,-33.609063]]],[[[-109.231597,-27.092462],[-109.226552,-27.118748],[-109.451324,-27.195489],[-109.396881,-27.069268],[-109.231597,-27.092462]]],[[[-105.459543,-26.464776],[-105.470937,-26.457696],[-105.465932,-26.455499],[-105.459543,-26.464776]]],[[[-79.901763,-26.347426],[-79.890207,-26.356052],[-79.909413,-26.358168],[-79.901763,-26.347426]]],[[[-80.095693,-26.266046],[-80.090443,-26.274509],[-80.107777,-26.274998],[-80.095693,-26.266046]]],[[[-67.245107,-55.839614],[-67.204172,-55.880629],[-67.22411,-55.897556],[-67.402211,-55.836684],[-67.358551,-55.810479],[-67.245107,-55.839614]]],[[[-67.094309,-55.826104],[-67.072377,-55.902927],[-67.114329,-55.912693],[-67.169179,-55.851658],[-67.121165,-55.80755],[-67.094309,-55.826104]]],[[[-67.501617,-55.821059],[-67.475592,-55.829064],[-67.531554,-55.840833],[-67.543857,-55.889846],[-67.640783,-55.914116],[-67.63203,-55.859396],[-67.693558,-55.889521],[-67.732094,-55.85428],[-67.824155,-55.88994],[-67.909282,-55.85083],[-67.800649,-55.812433],[-67.583499,-55.840512],[-67.560618,-55.837986],[-67.5867,-55.809909],[-67.501617,-55.821059]]],[[[-67.232086,-55.771417],[-67.164906,-55.760837],[-67.211659,-55.795343],[-67.232086,-55.771417]]],[[[-67.376088,-55.750909],[-67.445546,-55.762628],[-67.581532,-55.716241],[-67.505849,-55.654067],[-67.420644,-55.707452],[-67.403432,-55.647882],[-67.436879,-55.61004],[-67.35912,-55.573907],[-67.327748,-55.644708],[-67.361806,-55.706231],[-67.269928,-55.716241],[-67.255849,-55.753025],[-67.341379,-55.791925],[-67.376088,-55.750909]]],[[[-67.643137,-55.497328],[-67.59557,-55.533136],[-67.595204,-55.572198],[-67.738596,-55.616876],[-67.692291,-55.57936],[-67.699371,-55.505466],[-67.643137,-55.497328]]],[[[-69.714508,-55.344985],[-69.64037,-55.377048],[-69.801747,-55.40781],[-69.780914,-55.365411],[-69.801747,-55.332615],[-69.714508,-55.344985]]],[[[-70.014027,-55.305922],[-69.947825,-55.283868],[-70.006459,-55.374444],[-70.027659,-55.318943],[-70.110219,-55.29225],[-70.014027,-55.305922]]],[[[-66.855336,-55.271173],[-66.839589,-55.302504],[-66.938059,-55.334568],[-67.06017,-55.326349],[-67.069407,-55.267185],[-66.992258,-55.228692],[-66.875111,-55.23089],[-66.855336,-55.271173]]],[[[-66.426747,-55.185479],[-66.504018,-55.257989],[-66.569325,-55.281671],[-66.643056,-55.264337],[-66.632192,-55.205987],[-66.546132,-55.16839],[-66.426747,-55.185479]]],[[[-66.869008,-55.024102],[-66.806874,-55.112888],[-67.066029,-55.001153],[-66.869008,-55.024102]]],[[[-67.999257,-55.627537],[-68.033355,-55.661554],[-67.998199,-55.660414],[-68.089223,-55.715265],[-68.150054,-55.661554],[-68.151967,-55.603611],[-68.289784,-55.610121],[-68.252512,-55.524509],[-68.353627,-55.475274],[-68.425038,-55.503839],[-68.500478,-55.490981],[-68.603017,-55.411798],[-68.602528,-55.462335],[-68.711781,-55.466078],[-68.801137,-55.421319],[-68.776519,-55.482192],[-68.865346,-55.505304],[-68.965688,-55.40781],[-68.772328,-55.38006],[-68.808665,-55.359959],[-68.760243,-55.332615],[-68.971303,-55.37713],[-68.808502,-55.194513],[-68.986684,-55.265232],[-69.056793,-55.253513],[-69.12267,-55.196059],[-69.118804,-55.159845],[-69.151438,-55.170831],[-69.109039,-55.243829],[-69.134104,-55.247735],[-69.212717,-55.216485],[-69.249745,-55.144301],[-69.438629,-55.161879],[-69.305572,-55.16546],[-69.272125,-55.213474],[-69.479604,-55.236993],[-69.459096,-55.305922],[-69.405832,-55.284438],[-69.280385,-55.318943],[-69.303212,-55.351983],[-69.24059,-55.369561],[-69.298899,-55.413751],[-69.137034,-55.441827],[-69.172231,-55.461684],[-69.16161,-55.514337],[-69.226389,-55.469822],[-69.329416,-55.479913],[-69.362864,-55.38893],[-69.40331,-55.488051],[-69.437082,-55.491306],[-69.451527,-55.408868],[-69.508046,-55.408624],[-69.504058,-55.380466],[-69.397694,-55.359959],[-69.48705,-55.359959],[-69.465932,-55.339451],[-69.493764,-55.336114],[-69.607655,-55.365492],[-69.620188,-55.329522],[-69.788075,-55.305922],[-69.568959,-55.271173],[-69.668284,-55.264337],[-69.503896,-55.180597],[-69.848053,-55.257908],[-69.910553,-55.229181],[-69.835276,-55.202325],[-69.894032,-55.201104],[-69.842681,-55.168145],[-70.020009,-55.164239],[-70.02184,-55.143162],[-69.885976,-55.063572],[-69.587473,-55.041192],[-69.561513,-55.12713],[-69.582021,-55.154474],[-69.541493,-55.145115],[-69.527577,-55.031996],[-69.445709,-55.018324],[-69.445465,-55.04461],[-69.344635,-55.049249],[-69.383412,-55.016697],[-69.285634,-54.987074],[-69.185536,-55.013279],[-69.200551,-54.996759],[-68.441151,-54.939711],[-68.345693,-54.998468],[-68.334828,-55.062433],[-68.431264,-55.04461],[-68.510813,-55.1124],[-68.60261,-55.066095],[-68.623036,-55.07879],[-68.569447,-55.135431],[-68.616078,-55.152276],[-68.825917,-55.115167],[-69.027984,-55.024591],[-69.061879,-55.04461],[-68.78661,-55.165216],[-68.383127,-55.184503],[-68.274241,-55.230157],[-68.328847,-55.236993],[-68.217844,-55.259698],[-68.22761,-55.291762],[-68.500071,-55.311456],[-68.592519,-55.312758],[-68.701731,-55.25506],[-68.745961,-55.271173],[-68.680043,-55.267185],[-68.631703,-55.326593],[-68.561594,-55.326349],[-68.602528,-55.359959],[-68.447987,-55.326349],[-68.335072,-55.353123],[-68.324371,-55.399509],[-68.276235,-55.379164],[-68.146474,-55.404392],[-68.177358,-55.462335],[-68.057485,-55.469008],[-68.090728,-55.535903],[-67.980133,-55.587579],[-67.999257,-55.627537]]],[[[-67.883168,-55.243829],[-67.738596,-55.236993],[-67.885487,-55.178969],[-67.985585,-55.223565],[-68.135081,-55.218845],[-68.15689,-55.196059],[-68.115956,-55.174981],[-68.1881,-55.104425],[-68.16747,-55.0617],[-68.18635,-54.978204],[-68.328847,-54.990655],[-68.360504,-54.930922],[-67.941803,-54.90545],[-67.724192,-54.935154],[-67.301829,-54.928888],[-67.183095,-54.968032],[-67.053375,-55.093683],[-67.08849,-55.190525],[-67.270619,-55.306899],[-67.433827,-55.281427],[-67.456654,-55.266778],[-67.430328,-55.227797],[-67.444,-55.182306],[-67.502919,-55.172133],[-67.608795,-55.188653],[-67.663442,-55.264337],[-67.883168,-55.243829]]],[[[-70.295155,-55.082452],[-70.267242,-55.112888],[-70.33845,-55.128513],[-70.399892,-55.080662],[-70.446034,-55.12713],[-70.370269,-55.161879],[-70.4794,-55.203871],[-70.538482,-55.154474],[-70.524037,-55.193943],[-70.548085,-55.213556],[-70.564076,-55.140313],[-70.513661,-55.112888],[-70.575307,-55.060235],[-70.606313,-55.048923],[-70.589996,-55.073175],[-70.69929,-55.112888],[-70.735015,-55.111993],[-70.728993,-55.053969],[-70.815338,-55.086196],[-70.856842,-55.058526],[-70.929758,-55.076837],[-71.007151,-55.04461],[-70.993479,-55.003595],[-70.930328,-55.001235],[-71.012847,-54.96502],[-70.850087,-54.934177],[-70.866119,-54.957615],[-70.795481,-54.976332],[-70.788564,-54.932224],[-70.562652,-54.968927],[-70.603342,-54.958591],[-70.593129,-54.933689],[-70.350453,-54.893731],[-70.315663,-54.900567],[-70.493804,-54.942153],[-70.509674,-54.988214],[-70.719716,-54.983168],[-70.730295,-55.004815],[-70.651438,-55.030938],[-70.507924,-55.016778],[-70.408111,-55.052016],[-70.309438,-55.027927],[-70.27774,-55.048517],[-70.327219,-55.062677],[-70.295155,-55.082452]]],[[[-69.904164,-54.996759],[-69.948842,-54.972589],[-69.842681,-54.948419],[-69.928293,-54.897638],[-69.836334,-54.872247],[-69.778554,-54.93906],[-69.698354,-54.939386],[-69.733469,-54.914239],[-69.691884,-54.914239],[-69.713612,-54.895766],[-69.774403,-54.87949],[-69.728342,-54.864516],[-69.513743,-54.893731],[-69.513743,-54.948419],[-69.426381,-54.899591],[-69.172353,-54.954034],[-69.356068,-54.955824],[-69.338124,-54.971612],[-69.426869,-54.997491],[-69.500071,-54.976332],[-69.484853,-54.995538],[-69.525054,-55.009861],[-69.776438,-55.034601],[-69.917795,-55.038344],[-69.904164,-54.996759]]],[[[-70.421783,-54.845961],[-70.401967,-54.859633],[-70.580881,-54.897882],[-70.74767,-54.866469],[-70.541615,-54.832289],[-70.421783,-54.845961]]],[[[-70.983795,-54.928481],[-71.151723,-54.934177],[-71.09024,-54.907973],[-71.204823,-54.906427],[-71.210317,-54.878513],[-71.282094,-54.869887],[-71.357818,-54.948419],[-71.336415,-54.911554],[-71.402821,-54.942641],[-71.459584,-54.87949],[-71.357777,-54.825128],[-71.180287,-54.831476],[-71.07787,-54.880141],[-71.006174,-54.85768],[-70.925771,-54.916436],[-70.983795,-54.928481]]],[[[-71.946848,-54.702569],[-71.921254,-54.705255],[-71.926381,-54.736749],[-71.984975,-54.755304],[-72.033599,-54.657892],[-72.08788,-54.671319],[-72.104319,-54.644789],[-72.037709,-54.628513],[-71.946848,-54.702569]]],[[[-72.339833,-54.331476],[-72.311513,-54.329034],[-72.305328,-54.365167],[-72.378814,-54.352634],[-72.361969,-54.367364],[-72.435211,-54.377211],[-72.470693,-54.427667],[-72.541737,-54.343032],[-72.426869,-54.330173],[-72.424957,-54.305922],[-72.339833,-54.331476]]],[[[-70.384592,-54.188084],[-70.28775,-54.188084],[-70.218658,-54.234633],[-70.269439,-54.271091],[-70.339752,-54.265802],[-70.459096,-54.235935],[-70.521108,-54.174412],[-70.491689,-54.14837],[-70.384592,-54.188084]]],[[[-72.296946,-54.07879],[-72.206288,-54.147719],[-72.25475,-54.16131],[-72.319895,-54.256931],[-72.378529,-54.22381],[-72.443715,-54.256931],[-72.501698,-54.242771],[-72.481313,-54.215427],[-72.51537,-54.202325],[-72.344797,-54.159601],[-72.330434,-54.140313],[-72.391835,-54.147719],[-72.296946,-54.113539],[-72.386708,-54.099216],[-72.296946,-54.07879]]],[[[-73.180084,-54.071954],[-73.178456,-54.127211],[-73.313385,-54.121189],[-73.35143,-54.064711],[-73.474355,-54.071954],[-73.358266,-54.023614],[-73.180084,-54.071954]]],[[[-71.63093,-54.07879],[-71.657053,-53.983168],[-71.612172,-53.948012],[-71.554351,-53.941827],[-71.514801,-53.989435],[-71.463287,-53.941583],[-71.396352,-54.062758],[-71.376943,-54.004002],[-71.398793,-53.975763],[-71.337961,-53.976251],[-71.282094,-54.009942],[-71.261138,-54.074314],[-71.282541,-54.094822],[-71.211903,-54.184177],[-71.188344,-54.098077],[-71.163645,-54.086521],[-71.172231,-54.150811],[-71.143422,-54.152765],[-71.112457,-54.070489],[-71.028879,-54.085626],[-71.021392,-54.148045],[-71.062367,-54.202325],[-70.996693,-54.174574],[-70.990142,-54.265802],[-71.062367,-54.291111],[-71.056467,-54.330011],[-71.157948,-54.297296],[-71.087392,-54.331801],[-71.106516,-54.376642],[-71.148305,-54.379815],[-71.176829,-54.327732],[-71.220815,-54.362726],[-71.357818,-54.297296],[-71.240549,-54.277439],[-71.231191,-54.21559],[-71.300771,-54.261407],[-71.325307,-54.219822],[-71.411,-54.233331],[-71.445953,-54.185317],[-71.371449,-54.153904],[-71.413442,-54.151951],[-71.416615,-54.11004],[-71.492584,-54.135186],[-71.542144,-54.269952],[-71.596791,-54.229099],[-71.549631,-54.181817],[-71.651519,-54.232029],[-71.699818,-54.166192],[-71.596344,-54.087823],[-71.63093,-54.07879]]],[[[-72.015126,-54.202325],[-72.110707,-54.153904],[-72.058502,-54.14544],[-72.124379,-54.133477],[-72.042388,-54.113539],[-72.09789,-54.065525],[-72.205312,-54.091892],[-72.203033,-54.005141],[-72.258168,-53.945082],[-72.128041,-53.934177],[-72.07787,-53.983819],[-72.055491,-53.975763],[-72.083404,-53.9485],[-72.042388,-53.962091],[-72.020741,-53.917169],[-71.96052,-53.893813],[-71.995229,-53.865899],[-71.945709,-53.852797],[-71.830149,-53.920587],[-71.851796,-53.958266],[-71.830149,-53.969496],[-71.798004,-53.904555],[-71.667633,-53.918145],[-71.780263,-53.987726],[-71.693593,-54.006931],[-71.768666,-54.051446],[-71.727122,-54.058364],[-71.736073,-54.079197],[-71.663157,-54.072442],[-71.71345,-54.147719],[-71.808095,-54.148126],[-71.919342,-54.017022],[-71.953684,-54.025974],[-71.920155,-54.108575],[-71.744618,-54.246352],[-71.836985,-54.249444],[-71.871083,-54.283624],[-71.830149,-54.297296],[-71.830149,-54.331476],[-71.970611,-54.325291],[-71.905263,-54.229099],[-72.015126,-54.202325]]],[[[-70.455036,-53.611598],[-70.473156,-53.665345],[-70.419719,-53.871226],[-70.452219,-53.886895],[-70.342795,-54.028069],[-70.439252,-54.060409],[-70.610504,-53.948419],[-70.669962,-53.950342],[-70.568918,-54.065118],[-70.549062,-54.183364],[-70.513661,-54.215427],[-70.540435,-54.221612],[-70.685618,-54.188084],[-70.822743,-54.113539],[-70.806467,-54.095961],[-70.884185,-54.027032],[-70.897328,-53.947931],[-70.863759,-53.920587],[-70.89269,-53.891046],[-70.857533,-53.86004],[-70.881505,-53.842264],[-70.606114,-53.865125],[-70.600541,-53.829152],[-70.69929,-53.787205],[-70.712392,-53.706964],[-70.566453,-53.626053],[-70.535553,-53.560479],[-70.462611,-53.576361],[-70.455036,-53.611598]]],[[[-73.824452,-53.472101],[-73.687856,-53.523207],[-73.848541,-53.588311],[-73.832509,-53.550877],[-73.892323,-53.5263],[-73.833363,-53.505792],[-73.860585,-53.458917],[-73.824452,-53.472101]]],[[[-73.392445,-53.413995],[-73.509104,-53.475518],[-73.392445,-53.530694],[-73.507232,-53.568617],[-73.543284,-53.510349],[-73.577992,-53.544366],[-73.799224,-53.435968],[-73.593414,-53.490004],[-73.56371,-53.482354],[-73.619008,-53.455011],[-73.537017,-53.455011],[-73.59789,-53.424005],[-73.598053,-53.392673],[-73.392445,-53.413995]]],[[[-72.529652,-54.075372],[-72.574371,-54.095473],[-72.644643,-54.026951],[-72.706899,-54.103285],[-72.786285,-54.092462],[-72.843088,-54.133559],[-72.926259,-54.119806],[-72.878489,-54.092462],[-73.00886,-54.092462],[-73.026845,-54.074884],[-73.004506,-54.064548],[-72.795969,-54.058364],[-72.880727,-54.034438],[-72.762441,-54.03045],[-72.840159,-53.960382],[-72.645131,-53.859633],[-72.768625,-53.872735],[-72.727651,-53.838637],[-72.80956,-53.859633],[-72.782867,-53.831801],[-72.801666,-53.817478],[-72.897206,-53.867283],[-73.007314,-53.873712],[-73.040639,-53.808038],[-73.101674,-53.910414],[-73.046213,-53.97381],[-73.083119,-54.031915],[-73.308949,-53.97381],[-73.337758,-53.955255],[-73.240712,-53.899998],[-73.313059,-53.844496],[-73.257151,-53.798272],[-73.310455,-53.750421],[-73.262074,-53.70143],[-73.591664,-53.756036],[-73.484853,-53.70086],[-73.526235,-53.664483],[-73.608754,-53.656834],[-73.615346,-53.614028],[-73.584706,-53.582778],[-73.420318,-53.564874],[-73.204213,-53.666192],[-72.95287,-53.664483],[-72.958485,-53.633233],[-73.0808,-53.648207],[-73.037262,-53.600518],[-73.058339,-53.598403],[-73.134836,-53.646254],[-73.258656,-53.635186],[-73.291249,-53.60589],[-73.262074,-53.558038],[-73.339996,-53.547947],[-73.421254,-53.47088],[-73.077138,-53.530694],[-73.134918,-53.440362],[-73.17398,-53.430271],[-73.05724,-53.386814],[-73.032623,-53.390313],[-73.011383,-53.48919],[-72.988352,-53.46559],[-73.015614,-53.413995],[-72.913238,-53.427016],[-72.940989,-53.518324],[-72.872548,-53.534845],[-72.913238,-53.623224],[-72.884145,-53.681329],[-72.814931,-53.539239],[-72.844553,-53.459405],[-72.734486,-53.516534],[-72.676096,-53.611586],[-72.678578,-53.673272],[-72.642323,-53.671482],[-72.634429,-53.597589],[-72.673004,-53.544366],[-72.533518,-53.591404],[-72.464182,-53.575128],[-72.397288,-53.633477],[-72.474436,-53.661065],[-72.484446,-53.687107],[-72.438059,-53.705499],[-72.453277,-53.742364],[-72.373036,-53.687758],[-72.234242,-53.728774],[-72.273264,-53.75921],[-72.15274,-53.796157],[-72.250885,-53.877537],[-72.348622,-53.831313],[-72.391835,-53.845392],[-72.350901,-53.859633],[-72.344065,-53.910089],[-72.409535,-53.893162],[-72.371409,-53.9485],[-72.419789,-53.969496],[-72.323598,-53.989435],[-72.320546,-54.018976],[-72.343414,-54.044041],[-72.454213,-54.038263],[-72.453277,-53.989435],[-72.51537,-53.982599],[-72.529652,-54.075372]]],[[[-74.145904,-53.242771],[-74.058095,-53.250258],[-74.116119,-53.307387],[-74.238881,-53.31463],[-74.145904,-53.242771]]],[[[-73.43342,-52.865411],[-73.385325,-52.897638],[-73.402903,-52.952407],[-73.476308,-52.945245],[-73.491689,-52.888279],[-73.81078,-52.913751],[-73.693512,-52.852797],[-73.592437,-52.86061],[-73.632639,-52.831231],[-73.611724,-52.82171],[-73.43342,-52.865411]]],[[[-73.207428,-53.317804],[-73.09081,-53.355727],[-73.317291,-53.352634],[-73.420318,-53.283136],[-73.478098,-53.32464],[-73.584218,-53.317804],[-73.609609,-53.300063],[-73.507883,-53.300958],[-73.577992,-53.270115],[-73.61148,-53.187595],[-73.658681,-53.202732],[-73.728831,-53.132908],[-73.714589,-53.167087],[-73.744537,-53.165785],[-73.769846,-53.109063],[-73.819814,-53.113051],[-73.880442,-53.057712],[-73.912099,-53.07936],[-74.0572,-53.057794],[-74.016225,-53.085138],[-74.067738,-53.105564],[-74.169749,-53.089776],[-74.248931,-53.037286],[-74.239858,-53.08294],[-74.327382,-53.092218],[-74.345855,-53.029555],[-74.397125,-53.03631],[-74.425038,-52.97381],[-74.580637,-52.932387],[-74.571156,-52.851739],[-74.749867,-52.755548],[-74.674428,-52.721287],[-74.489166,-52.797052],[-74.43399,-52.868748],[-74.382436,-52.865411],[-74.407216,-52.913751],[-74.358795,-52.947931],[-74.342641,-52.925714],[-74.248931,-52.961602],[-74.188303,-52.940525],[-74.142974,-52.989679],[-74.083852,-52.961602],[-74.132883,-52.934259],[-74.029897,-52.982029],[-74.007802,-52.966567],[-73.947133,-52.993097],[-73.97525,-53.009373],[-73.954742,-53.023614],[-73.899526,-53.037286],[-73.875885,-53.003188],[-73.807037,-53.06463],[-73.755523,-53.05755],[-73.610341,-53.14186],[-73.659983,-53.057794],[-73.62328,-53.059828],[-73.551178,-53.118422],[-73.577992,-53.187595],[-73.516347,-53.261407],[-73.482249,-53.225844],[-73.497711,-53.143243],[-73.459543,-53.132908],[-73.318023,-53.229913],[-73.366038,-53.271173],[-73.266469,-53.268731],[-73.207428,-53.317804]]],[[[-73.330963,-52.694024],[-73.369211,-52.728611],[-73.39981,-52.728204],[-73.330963,-52.694024]]],[[[-73.837392,-52.70086],[-73.954742,-52.707696],[-73.844879,-52.597833],[-73.982045,-52.653009],[-73.884185,-52.565118],[-74.123419,-52.706617],[-74.146965,-52.696617],[-74.127781,-52.665915],[-74.181549,-52.647949],[-74.184368,-52.586801],[-74.049713,-52.563735],[-73.943999,-52.482788],[-74.03421,-52.475987],[-74.029729,-52.429918],[-73.725168,-52.404718],[-73.677887,-52.473321],[-73.739654,-52.545505],[-73.779408,-52.550063],[-73.736887,-52.592869],[-73.748525,-52.627862],[-73.837392,-52.70086]]],[[[-74.672566,-52.390549],[-74.703521,-52.385928],[-74.70192,-52.349563],[-74.815413,-52.350447],[-74.800722,-52.301755],[-74.906321,-52.234796],[-74.91161,-52.202813],[-74.878977,-52.186944],[-74.815175,-52.236586],[-74.620676,-52.204278],[-74.544422,-52.246159],[-74.593839,-52.39482],[-74.672566,-52.390549]]],[[[-73.769846,-52.379327],[-73.87267,-52.376153],[-73.824452,-52.344659],[-74.092885,-52.185235],[-74.079172,-52.147719],[-73.815338,-52.241143],[-73.780263,-52.274835],[-73.796051,-52.319024],[-73.759389,-52.348077],[-73.769846,-52.379327]]],[[[-74.122548,-52.397719],[-74.187327,-52.367364],[-74.187489,-52.324151],[-74.245351,-52.316583],[-74.205312,-52.295343],[-74.235951,-52.248305],[-74.207102,-52.226332],[-74.10497,-52.248305],[-74.273549,-52.149184],[-74.390492,-52.155532],[-74.401926,-52.118259],[-74.322174,-52.084649],[-74.236684,-52.10947],[-73.935699,-52.324884],[-74.122548,-52.397719]]],[[[-74.790842,-52.179457],[-74.797027,-52.129002],[-74.599233,-52.070245],[-74.683583,-52.166681],[-74.790842,-52.179457]]],[[[-74.344553,-52.06406],[-74.372792,-52.078302],[-74.407826,-52.051039],[-74.344553,-52.06406]]],[[[-74.492299,-51.978692],[-74.720448,-52.084161],[-74.707143,-52.0263],[-74.543813,-51.920668],[-74.492299,-51.978692]]],[[[-73.707672,-52.186944],[-73.694081,-52.242283],[-73.871246,-52.094903],[-74.09024,-52.010024],[-74.112416,-51.994561],[-74.043528,-52.008884],[-74.109771,-51.958917],[-74.034983,-51.914483],[-73.951039,-51.961033],[-73.758901,-52.08115],[-73.707672,-52.186944]]],[[[-74.749867,-52.043064],[-74.838002,-52.090753],[-74.850575,-52.130141],[-74.896352,-52.113051],[-74.783355,-52.008884],[-74.844879,-51.996759],[-74.750885,-51.833917],[-74.669545,-51.87005],[-74.598459,-51.837498],[-74.735585,-51.98211],[-74.697499,-51.969822],[-74.749867,-52.043064]]],[[[-75.061147,-51.882257],[-75.116851,-51.894138],[-75.107574,-51.806899],[-75.054596,-51.724867],[-74.998606,-51.714939],[-74.96996,-51.736749],[-75.000885,-51.843845],[-75.061147,-51.882257]]],[[[-74.43456,-51.844903],[-74.411122,-51.820977],[-74.494008,-51.722752],[-74.31786,-51.762384],[-74.297271,-51.821873],[-74.18224,-51.835382],[-74.163075,-51.855564],[-74.201894,-51.871026],[-74.102203,-51.873468],[-74.10497,-51.899591],[-74.135976,-51.939711],[-74.221791,-51.946059],[-74.43456,-51.844903]]],[[[-73.789662,-51.73504],[-73.77123,-51.76572],[-73.820709,-51.817071],[-73.940785,-51.677911],[-73.930409,-51.656427],[-73.850575,-51.683852],[-73.853342,-51.720147],[-73.789662,-51.73504]]],[[[-74.889801,-52.002048],[-74.975168,-52.111912],[-74.947865,-52.056573],[-75.013987,-52.104099],[-74.975168,-52.036228],[-75.065256,-51.994561],[-74.977691,-51.935805],[-75.037221,-51.920668],[-74.957509,-51.815606],[-74.865346,-51.879083],[-74.83845,-51.848321],[-74.886383,-51.773045],[-74.857777,-51.765313],[-74.852284,-51.707208],[-74.900054,-51.700942],[-74.886383,-51.680434],[-74.92516,-51.636],[-74.865346,-51.618341],[-74.793446,-51.644301],[-74.769439,-51.767673],[-74.84142,-51.954767],[-74.889801,-52.002048]]],[[[-73.943918,-51.741306],[-73.932973,-51.779474],[-74.049631,-51.79339],[-74.235585,-51.681899],[-74.139068,-51.666762],[-74.149648,-51.615004],[-74.090932,-51.605645],[-74.098134,-51.538995],[-74.063791,-51.545831],[-73.992665,-51.663181],[-74.008778,-51.714614],[-73.943918,-51.741306]]],[[[-74.197133,-51.42669],[-74.238596,-51.409601],[-74.221669,-51.378839],[-74.259999,-51.353123],[-74.262603,-51.299981],[-74.177968,-51.283461],[-74.10969,-51.427992],[-74.197133,-51.42669]]],[[[-75.02359,-51.330987],[-74.996246,-51.361749],[-75.016184,-51.413507],[-75.078765,-51.409845],[-75.109527,-51.470961],[-75.160756,-51.42669],[-75.141754,-51.565037],[-75.215403,-51.549493],[-75.208648,-51.591974],[-75.312896,-51.629164],[-75.314687,-51.543145],[-75.225331,-51.490655],[-75.187408,-51.375421],[-75.219838,-51.305434],[-75.142405,-51.263849],[-75.15453,-51.363702],[-75.092356,-51.298435],[-75.02359,-51.330987]]],[[[-73.79308,-51.258722],[-73.758901,-51.313653],[-73.793691,-51.371026],[-73.89037,-51.345636],[-73.83849,-51.315199],[-73.920644,-51.303643],[-73.864735,-51.258722],[-73.79308,-51.258722]]],[[[-74.739003,-51.368585],[-74.831858,-51.438735],[-75.016184,-51.467543],[-75.017934,-51.442804],[-74.790842,-51.317478],[-74.921783,-51.363702],[-74.963775,-51.343683],[-74.934193,-51.303643],[-74.838002,-51.275811],[-74.79308,-51.211196],[-74.601918,-51.205987],[-74.555735,-51.250421],[-74.54898,-51.284356],[-74.626332,-51.26214],[-74.549062,-51.354587],[-74.594228,-51.399509],[-74.64623,-51.392511],[-74.687367,-51.299086],[-74.735585,-51.296157],[-74.739003,-51.368585]]],[[[-74.865346,-51.121515],[-74.876943,-51.158461],[-75.022694,-51.161879],[-74.968984,-51.104425],[-74.865346,-51.121515]]],[[[-74.420277,-51.111261],[-74.385365,-51.143731],[-74.423899,-51.205173],[-74.574371,-51.15488],[-74.605214,-51.080255],[-74.470448,-51.025649],[-74.473459,-51.069106],[-74.512685,-51.059503],[-74.506256,-51.104425],[-74.420277,-51.111261]]],[[[-74.248931,-51.234796],[-74.27599,-51.243341],[-74.351959,-50.925714],[-74.30134,-50.939223],[-74.196929,-51.175388],[-74.248931,-51.234796]]],[[[-74.385569,-50.981052],[-74.398305,-51.086847],[-74.48941,-50.997328],[-74.615468,-51.035577],[-74.626332,-51.087091],[-74.708323,-51.104425],[-74.739613,-51.101495],[-74.749867,-51.042413],[-74.680979,-51.008233],[-74.774566,-50.993341],[-74.831858,-51.07643],[-74.889882,-51.05755],[-74.838002,-50.974216],[-74.966542,-50.963637],[-74.944447,-50.920994],[-74.900054,-50.919529],[-74.930898,-50.894627],[-74.903188,-50.885431],[-74.660471,-50.933201],[-74.597279,-50.895278],[-74.640452,-50.885431],[-74.643056,-50.847833],[-74.569,-50.83294],[-74.677968,-50.74627],[-74.660471,-50.727716],[-74.550649,-50.751642],[-74.39977,-50.844415],[-74.43456,-50.925714],[-74.385569,-50.981052]]],[[[-74.906321,-50.796563],[-74.947743,-50.779962],[-74.958974,-50.728285],[-74.844838,-50.748224],[-74.901112,-50.676039],[-74.831858,-50.707208],[-74.804514,-50.666274],[-74.742421,-50.707208],[-74.756012,-50.75506],[-74.723785,-50.790297],[-74.777211,-50.80283],[-74.721913,-50.854669],[-74.673492,-50.810235],[-74.678456,-50.871677],[-74.931264,-50.851007],[-74.85912,-50.823907],[-74.94164,-50.796563],[-74.906321,-50.796563]]],[[[-74.981516,-50.797784],[-75.067779,-50.791192],[-75.112538,-50.732517],[-75.055247,-50.720798],[-75.080393,-50.671075],[-75.051503,-50.652602],[-74.982655,-50.676202],[-74.981516,-50.797784]]],[[[-74.608713,-50.514825],[-74.584096,-50.530938],[-74.602651,-50.563084],[-74.673492,-50.576918],[-74.666493,-50.503106],[-74.608713,-50.514825]]],[[[-75.126047,-50.494317],[-75.105336,-50.495782],[-75.129547,-50.542739],[-75.246083,-50.597345],[-75.34557,-50.560724],[-75.270863,-50.620538],[-75.277496,-50.709161],[-75.304758,-50.714044],[-75.274648,-50.754083],[-75.290598,-50.781834],[-75.325063,-50.788995],[-75.336293,-50.740818],[-75.386464,-50.772068],[-75.461822,-50.762465],[-75.407053,-50.673761],[-75.482289,-50.675063],[-75.503326,-50.645766],[-75.359364,-50.590509],[-75.468617,-50.494317],[-75.381988,-50.463962],[-75.26891,-50.500095],[-75.126047,-50.494317]]],[[[-74.310414,-50.834161],[-74.373769,-50.827407],[-74.41686,-50.776137],[-74.39977,-50.748224],[-74.517079,-50.731622],[-74.502838,-50.700372],[-74.581207,-50.633559],[-74.420277,-50.528497],[-74.658274,-50.480564],[-74.610585,-50.438572],[-74.53718,-50.424574],[-74.489166,-50.47381],[-74.365631,-50.47381],[-74.332672,-50.577325],[-74.239003,-50.676202],[-74.408762,-50.646905],[-74.222646,-50.721612],[-74.181304,-50.782322],[-74.199208,-50.848321],[-74.236724,-50.841078],[-74.256418,-50.789727],[-74.3155,-50.800714],[-74.310414,-50.834161]]],[[[-74.783355,-50.480645],[-74.736724,-50.37184],[-74.549387,-50.378188],[-74.720286,-50.489353],[-74.783355,-50.480645]]],[[[-75.040639,-50.289483],[-75.119781,-50.316827],[-75.22289,-50.436456],[-75.324208,-50.419203],[-75.194895,-50.302504],[-75.296986,-50.346449],[-75.304596,-50.305271],[-75.454945,-50.363946],[-75.445058,-50.276625],[-75.400868,-50.257989],[-75.421457,-50.234959],[-75.367096,-50.147393],[-75.267893,-50.158624],[-75.259267,-50.177992],[-75.339182,-50.192804],[-75.331899,-50.219008],[-75.179311,-50.255792],[-75.146474,-50.24863],[-75.119781,-50.138767],[-75.215077,-50.15545],[-75.397857,-50.047784],[-75.296986,-50.002862],[-75.259592,-50.060154],[-75.23351,-50.031996],[-75.128733,-50.029555],[-75.121816,-50.093032],[-75.096791,-50.07936],[-75.055409,-50.123224],[-74.953277,-50.079767],[-74.952138,-50.108819],[-75.071401,-50.17962],[-75.051015,-50.185642],[-74.928049,-50.172784],[-74.844838,-50.138767],[-74.85912,-50.117608],[-74.790842,-50.145603],[-74.833852,-50.219496],[-74.942372,-50.220147],[-75.040639,-50.289483]]],[[[-75.44811,-49.774998],[-75.617387,-49.864223],[-75.634854,-49.827943],[-75.626786,-49.756343],[-75.510757,-49.718223],[-75.563547,-49.707452],[-75.581494,-49.64265],[-75.61352,-49.636375],[-75.508741,-49.563789],[-75.355339,-49.610176],[-75.211293,-49.792739],[-75.180653,-49.905369],[-75.284291,-49.829522],[-75.263173,-49.887872],[-75.339711,-49.859552],[-75.375722,-49.798598],[-75.345774,-49.781834],[-75.3662,-49.72031],[-75.44811,-49.774998]]],[[[-75.521308,-49.379099],[-75.429433,-49.466365],[-75.44042,-49.517811],[-75.531352,-49.464452],[-75.537105,-49.440588],[-75.501575,-49.438411],[-75.535785,-49.421362],[-75.521308,-49.379099]]],[[[-74.903188,-49.076755],[-74.920522,-49.272638],[-75.012847,-49.237726],[-75.078765,-49.172296],[-75.057729,-49.16546],[-75.201731,-49.172296],[-75.130523,-49.136814],[-75.157623,-49.128595],[-75.235585,-49.144952],[-75.158437,-49.051039],[-75.095448,-49.02988],[-74.990061,-49.076593],[-74.983306,-49.030938],[-74.903188,-49.076755]]],[[[-75.557973,-49.247328],[-75.661041,-49.205743],[-75.620107,-49.212579],[-75.630116,-49.184747],[-75.568715,-49.122735],[-75.504994,-49.132582],[-75.523834,-49.124444],[-75.422353,-49.071873],[-75.442983,-49.055597],[-75.406972,-49.007745],[-75.351308,-48.985528],[-75.33141,-49.010919],[-75.366526,-49.040785],[-75.312978,-49.055352],[-75.293202,-49.106703],[-75.389312,-49.179132],[-75.420522,-49.181329],[-75.40038,-49.13128],[-75.421986,-49.145278],[-75.508046,-49.267999],[-75.557973,-49.247328]]],[[[-75.215403,-49.014581],[-75.228139,-49.066095],[-75.276031,-49.063246],[-75.315053,-48.965509],[-75.373036,-48.952569],[-75.499338,-49.039158],[-75.527252,-49.004083],[-75.468617,-48.952569],[-75.597401,-48.987726],[-75.647369,-48.966892],[-75.654856,-48.911065],[-75.614735,-48.858657],[-75.537506,-48.863214],[-75.540679,-48.833673],[-75.468617,-48.842706],[-75.520985,-48.897068],[-75.486724,-48.897719],[-75.404897,-48.827732],[-75.42162,-48.88421],[-75.378977,-48.916111],[-75.379262,-48.852227],[-75.305979,-48.864923],[-75.215403,-49.014581]]],[[[-75.105824,-48.969903],[-75.223012,-48.978936],[-75.235911,-48.870701],[-75.290435,-48.842706],[-75.308176,-48.794854],[-75.09142,-48.870701],[-75.090728,-48.914483],[-75.135569,-48.917657],[-75.064443,-48.948337],[-75.105824,-48.969903]]],[[[-75.198313,-49.771173],[-75.205149,-49.716078],[-75.298166,-49.621026],[-75.235911,-49.555841],[-75.305409,-49.560154],[-75.256337,-49.493829],[-75.348785,-49.496352],[-75.325266,-49.459649],[-75.373036,-49.466485],[-75.359364,-49.432306],[-75.4232,-49.411058],[-75.461985,-49.306573],[-75.38329,-49.28045],[-75.288686,-49.416111],[-75.166982,-49.501153],[-75.187408,-49.439142],[-75.259674,-49.401462],[-75.320546,-49.315362],[-75.30606,-49.254571],[-75.259755,-49.264093],[-75.152211,-49.377699],[-75.092437,-49.370294],[-75.145619,-49.358494],[-75.187408,-49.29518],[-75.111155,-49.319431],[-75.112538,-49.273207],[-75.037221,-49.260431],[-75.086415,-49.217218],[-75.066884,-49.209731],[-74.893219,-49.364028],[-74.885081,-49.254571],[-74.844838,-49.239923],[-74.878977,-49.202732],[-74.844838,-49.179132],[-74.85912,-49.110772],[-74.804514,-49.103936],[-74.954701,-49.007094],[-74.856923,-48.976495],[-74.818186,-49.007094],[-74.823638,-48.950372],[-74.968984,-48.986586],[-74.986318,-48.96738],[-74.954701,-48.91839],[-75.016184,-48.911554],[-75.002309,-48.886326],[-74.883778,-48.848321],[-75.01183,-48.873224],[-75.051503,-48.857029],[-75.057973,-48.816664],[-75.026682,-48.794854],[-74.950429,-48.822442],[-74.997182,-48.780694],[-74.985015,-48.759047],[-74.848541,-48.695571],[-74.807851,-48.736505],[-74.783315,-48.687758],[-74.696645,-48.679864],[-74.618804,-48.734145],[-74.659291,-48.843032],[-74.634836,-48.855239],[-74.616322,-48.76336],[-74.543813,-48.70615],[-74.530141,-48.866876],[-74.558095,-48.91839],[-74.505849,-48.905694],[-74.475494,-48.946384],[-74.530141,-49.028253],[-74.461781,-49.119317],[-74.44579,-49.302341],[-74.476796,-49.442641],[-74.539418,-49.519301],[-74.503651,-49.587498],[-74.605214,-49.713556],[-74.577463,-49.71559],[-74.50829,-49.620294],[-74.430084,-49.657892],[-74.420318,-49.734145],[-74.536366,-49.747003],[-74.43456,-49.78867],[-74.444488,-49.870375],[-74.523305,-49.856866],[-74.468414,-49.925877],[-74.517323,-49.959731],[-74.595937,-49.919692],[-74.536366,-49.994724],[-74.660634,-50.050551],[-74.694651,-50.042413],[-74.673492,-49.994724],[-74.768422,-50.053318],[-74.80427,-50.039483],[-74.804514,-49.987237],[-74.831858,-50.028904],[-74.867747,-50.016209],[-74.739654,-49.921808],[-74.677805,-49.944513],[-74.704905,-49.908624],[-74.770334,-49.905369],[-74.881215,-49.958917],[-74.911,-49.933282],[-74.902211,-49.876886],[-74.742299,-49.852472],[-74.838002,-49.836358],[-74.781117,-49.781427],[-74.806956,-49.764418],[-74.872874,-49.802911],[-74.889963,-49.760837],[-74.865346,-49.741469],[-74.917307,-49.693943],[-74.906158,-49.671563],[-74.863515,-49.688084],[-74.891957,-49.614435],[-74.708323,-49.63836],[-74.766591,-49.621026],[-74.758412,-49.589939],[-74.864003,-49.589451],[-74.886952,-49.534601],[-74.79186,-49.481541],[-74.749176,-49.515313],[-74.735585,-49.445977],[-74.67809,-49.438735],[-74.735585,-49.432306],[-74.64623,-49.349786],[-74.728749,-49.39129],[-74.799713,-49.382013],[-74.748891,-49.4249],[-74.851633,-49.498142],[-74.880238,-49.503595],[-74.886383,-49.473891],[-74.944732,-49.542169],[-74.987701,-49.479262],[-75.002797,-49.580173],[-75.044057,-49.59002],[-75.006744,-49.63006],[-75.010976,-49.676039],[-74.95287,-49.640883],[-75.016184,-49.761326],[-74.992747,-49.737563],[-74.962026,-49.774184],[-75.035024,-49.819024],[-75.009918,-49.898533],[-75.133941,-49.858331],[-75.198313,-49.771173]]],[[[-75.085032,-48.637302],[-75.060658,-48.699395],[-75.119252,-48.817153],[-75.246083,-48.784763],[-75.085032,-48.637302]]],[[[-75.02359,-48.688735],[-74.975168,-48.684991],[-75.009918,-48.637302],[-74.824941,-48.65838],[-74.988271,-48.740492],[-75.044057,-48.732843],[-75.02359,-48.688735]]],[[[-75.338938,-48.6242],[-75.290435,-48.678155],[-75.314687,-48.732843],[-75.397817,-48.705743],[-75.493235,-48.775567],[-75.61262,-48.794854],[-75.653635,-48.760837],[-75.653554,-48.715997],[-75.507558,-48.717543],[-75.338938,-48.6242]]],[[[-75.328359,-48.552179],[-75.339915,-48.614841],[-75.541656,-48.70086],[-75.606557,-48.661065],[-75.499379,-48.660089],[-75.440663,-48.610528],[-75.626129,-48.632013],[-75.675364,-48.583185],[-75.661041,-48.504083],[-75.595367,-48.440037],[-75.547719,-48.472914],[-75.450592,-48.428888],[-75.430735,-48.458429],[-75.393544,-48.424981],[-75.355824,-48.435642],[-75.3662,-48.541681],[-75.328359,-48.552179]]],[[[-74.472076,-48.455987],[-74.510243,-48.408298],[-74.407216,-48.418145],[-74.306549,-48.489435],[-74.429026,-48.525811],[-74.472076,-48.455987]]],[[[-74.090688,-48.479587],[-74.245513,-48.39422],[-74.235219,-48.368097],[-74.0572,-48.425551],[-74.090688,-48.479587]]],[[[-74.495432,-48.349867],[-74.358795,-48.370294],[-74.395172,-48.330173],[-74.314117,-48.280938],[-74.302317,-48.363377],[-74.223297,-48.44492],[-74.271718,-48.46266],[-74.495432,-48.349867]]],[[[-74.499135,-48.583185],[-74.483022,-48.60711],[-74.514068,-48.666111],[-74.621002,-48.691827],[-74.739003,-48.634047],[-74.996246,-48.603692],[-75.03307,-48.50449],[-74.945627,-48.417576],[-74.845937,-48.390232],[-74.781565,-48.48504],[-74.717152,-48.453546],[-74.813588,-48.342543],[-74.764312,-48.152602],[-74.722239,-48.130548],[-74.697621,-48.18434],[-74.721303,-48.221938],[-74.584788,-48.37656],[-74.586903,-48.403416],[-74.673492,-48.418145],[-74.605214,-48.459161],[-74.591461,-48.575372],[-74.547434,-48.615981],[-74.499135,-48.583185]]],[[[-74.543813,-48.321954],[-74.558095,-48.243422],[-74.529449,-48.209893],[-74.595041,-48.24684],[-74.601796,-48.209568],[-74.599599,-48.158868],[-74.558176,-48.122328],[-74.381418,-48.235528],[-74.40392,-48.289972],[-74.543813,-48.321954]]],[[[-75.160756,-48.298435],[-75.129058,-48.272882],[-75.20108,-48.220961],[-75.188588,-48.195245],[-75.252594,-48.082452],[-75.071401,-48.109633],[-75.085032,-48.089776],[-75.017505,-48.08302],[-74.812327,-48.172784],[-74.852284,-48.370294],[-75.031117,-48.44378],[-75.160756,-48.298435]]],[[[-75.149892,-48.65838],[-75.224477,-48.706476],[-75.24942,-48.686944],[-75.233266,-48.646742],[-75.276845,-48.637302],[-75.320668,-48.492446],[-75.270619,-48.424981],[-75.325266,-48.39422],[-75.328359,-48.343032],[-75.486562,-48.423028],[-75.554189,-48.397149],[-75.345774,-48.301446],[-75.407135,-48.315688],[-75.394154,-48.274102],[-75.543772,-48.321954],[-75.551503,-48.293715],[-75.433909,-48.198989],[-75.54011,-48.226251],[-75.583241,-48.097426],[-75.551137,-48.055759],[-75.475087,-48.0263],[-75.456451,-48.065525],[-75.350982,-48.00449],[-75.350942,-48.051202],[-75.26891,-48.165948],[-75.290761,-48.206313],[-75.164784,-48.369561],[-75.187408,-48.41131],[-75.134267,-48.42254],[-75.098704,-48.465916],[-75.138783,-48.476251],[-75.083404,-48.507745],[-75.082753,-48.613458],[-75.149892,-48.65838]]],[[[-75.270619,-48.027765],[-75.167773,-47.893604],[-75.087897,-47.867306],[-74.942926,-47.883666],[-74.872792,-47.815525],[-74.788324,-47.812324],[-74.765737,-47.884212],[-74.807242,-47.928348],[-74.777182,-47.970612],[-74.834869,-48.007908],[-74.764419,-48.021441],[-74.727379,-48.105892],[-75.012847,-48.041436],[-75.038726,-47.988377],[-75.19811,-48.039972],[-75.270619,-48.027765]]],[[[-74.413726,-47.938246],[-74.502838,-47.917901],[-74.364247,-47.830824],[-74.248931,-47.876886],[-74.330922,-47.822198],[-74.289906,-47.807387],[-73.907582,-47.883884],[-73.836903,-47.856866],[-73.808909,-47.887384],[-73.861684,-47.952569],[-73.930002,-47.957696],[-73.951039,-47.924574],[-74.318471,-47.981215],[-74.413726,-47.938246]]],[[[-75.182362,-47.831476],[-75.266162,-47.776107],[-75.342546,-47.782862],[-75.355913,-47.73614],[-75.318486,-47.706584],[-75.245685,-47.723738],[-75.091638,-47.680492],[-75.062789,-47.733961],[-75.116363,-47.770766],[-75.023682,-47.803325],[-75.227314,-47.854714],[-75.182362,-47.831476]]],[[[-74.885229,-47.712063],[-74.86804,-47.763242],[-74.957723,-47.774795],[-75.054421,-47.689572],[-75.000384,-47.6622],[-74.885229,-47.712063]]],[[[-74.468658,-47.074965],[-74.356679,-47.045017],[-74.315785,-47.078058],[-74.466949,-47.166192],[-74.492177,-47.098891],[-74.468658,-47.074965]]],[[[-74.074574,-47.020278],[-73.97525,-47.047621],[-74.067372,-47.137465],[-74.172515,-47.169203],[-74.153391,-47.150649],[-74.230702,-47.102146],[-74.212392,-47.057794],[-74.167063,-47.012872],[-74.111195,-47.053888],[-74.074574,-47.020278]]],[[[-73.725087,-46.05047],[-73.680409,-46.088067],[-73.758046,-46.197035],[-73.822011,-46.18141],[-73.809682,-46.138116],[-73.927073,-46.078058],[-73.896474,-46.011489],[-73.725087,-46.05047]]],[[[-73.707672,-45.923598],[-73.683176,-46.017673],[-73.819488,-45.998712],[-73.772125,-45.898696],[-73.707672,-45.923598]]],[[[-74.752919,-45.80755],[-74.721099,-45.809828],[-74.715077,-45.848403],[-74.780751,-46.011489],[-74.919667,-46.104181],[-75.07433,-46.093845],[-75.106109,-46.047052],[-75.084381,-46.026788],[-74.85912,-45.998712],[-75.078765,-45.98504],[-75.029775,-45.971938],[-75.088735,-45.950291],[-75.096588,-45.866957],[-74.883534,-45.929376],[-74.85912,-45.923598],[-74.964589,-45.870782],[-74.836008,-45.858819],[-74.831858,-45.80755],[-74.752919,-45.80755]]],[[[-73.741851,-45.793878],[-73.694081,-45.888849],[-73.789662,-45.875746],[-73.856557,-45.967543],[-73.934316,-45.971938],[-73.9405,-45.909926],[-73.911448,-45.875258],[-73.741851,-45.793878]]],[[[-73.926829,-45.745375],[-73.966868,-45.769789],[-73.975982,-45.880548],[-74.015614,-45.913995],[-74.090972,-45.81463],[-74.094594,-45.76393],[-73.926829,-45.745375]]],[[[-74.790842,-45.632501],[-74.749867,-45.697686],[-74.797109,-45.697524],[-74.879262,-45.624607],[-74.839101,-45.601821],[-74.790842,-45.632501]]],[[[-74.554351,-45.574802],[-74.572662,-45.654067],[-74.550445,-45.671319],[-74.583892,-45.735284],[-74.685699,-45.743341],[-74.705637,-45.700942],[-74.679677,-45.620701],[-74.554351,-45.574802]]],[[[-74.071441,-45.690851],[-74.112416,-45.587823],[-74.050445,-45.54461],[-73.910227,-45.590997],[-73.920644,-45.697686],[-74.000071,-45.721612],[-74.071441,-45.690851]]],[[[-74.502838,-45.732354],[-74.465321,-45.694268],[-74.469635,-45.546645],[-74.421254,-45.454278],[-74.273549,-45.495294],[-74.248647,-45.535577],[-74.276967,-45.567315],[-74.221669,-45.601495],[-74.289906,-45.622491],[-74.227447,-45.630955],[-74.230092,-45.663344],[-74.358795,-45.697686],[-74.32429,-45.7138],[-74.439687,-45.776951],[-74.502838,-45.732354]]],[[[-73.666168,-45.436944],[-73.603179,-45.457696],[-73.584218,-45.512628],[-73.622792,-45.61891],[-73.680409,-45.622491],[-73.61148,-45.690851],[-73.629872,-45.737563],[-73.680409,-45.752862],[-73.807037,-45.635512],[-73.741851,-45.608982],[-73.786204,-45.56992],[-73.770904,-45.511977],[-73.666168,-45.436944]]],[[[-73.885894,-45.471124],[-73.844146,-45.452895],[-73.816965,-45.474786],[-73.870473,-45.5617],[-74.060618,-45.519464],[-74.142649,-45.574965],[-74.092926,-45.451755],[-74.047109,-45.421645],[-73.885894,-45.471124]]],[[[-74.554351,-45.546808],[-74.568186,-45.523696],[-74.519765,-45.444106],[-74.445668,-45.428155],[-74.499135,-45.502537],[-74.501332,-45.588067],[-74.554351,-45.546808]]],[[[-73.824452,-45.395929],[-73.921742,-45.430434],[-74.02302,-45.392673],[-73.941029,-45.366306],[-73.828236,-45.372328],[-73.824452,-45.395929]]],[[[-74.34142,-45.33766],[-74.310414,-45.389255],[-74.378041,-45.400974],[-74.489166,-45.355076],[-74.525787,-45.295017],[-74.389272,-45.281671],[-74.34142,-45.33766]]],[[[-73.824452,-45.26629],[-73.781239,-45.324151],[-73.814768,-45.345392],[-74.012278,-45.353611],[-74.11852,-45.328302],[-74.162913,-45.270929],[-74.15807,-45.235528],[-74.070383,-45.204278],[-73.986073,-45.270766],[-73.824452,-45.26629]]],[[[-74.273549,-45.20794],[-74.307485,-45.294529],[-74.41511,-45.247003],[-74.387563,-45.155206],[-74.273549,-45.20794]]],[[[-73.731923,-45.214776],[-73.731842,-45.267267],[-73.767974,-45.284601],[-73.830149,-45.243097],[-73.989573,-45.245782],[-74.084096,-45.140069],[-74.205474,-45.169366],[-74.250111,-45.109633],[-74.173899,-45.026056],[-73.866078,-44.994561],[-73.714589,-45.11419],[-73.700795,-45.160577],[-73.731923,-45.214776]]],[[[-74.27009,-44.944106],[-74.163726,-44.864679],[-73.986643,-44.897719],[-73.916656,-44.944431],[-73.975657,-44.983005],[-74.056142,-44.96559],[-74.036041,-44.991876],[-74.065785,-44.998793],[-74.356923,-45.011489],[-74.348256,-44.974867],[-74.27009,-44.944106]]],[[[-73.961578,-44.810154],[-74.039296,-44.853123],[-74.176259,-44.818455],[-74.009918,-44.773207],[-73.973297,-44.775649],[-73.961578,-44.810154]]],[[[-73.930531,-44.789239],[-73.854482,-44.768731],[-73.762318,-44.929864],[-73.81371,-44.96087],[-73.883209,-44.928155],[-73.930287,-44.865167],[-73.8579,-44.895685],[-73.930531,-44.789239]]],[[[-75.091473,-44.796056],[-75.021734,-44.843665],[-75.035035,-44.889894],[-75.069163,-44.920099],[-75.152358,-44.921214],[-75.154856,-44.864929],[-75.200213,-44.816615],[-75.147182,-44.763767],[-75.091473,-44.796056]]],[[[-73.604726,-44.744887],[-73.627309,-44.829767],[-73.677317,-44.840265],[-73.749257,-44.80283],[-73.741689,-44.754653],[-73.604726,-44.744887]]],[[[-74.34142,-44.806329],[-74.327789,-44.847914],[-74.455881,-44.835056],[-74.522857,-44.733575],[-74.441721,-44.715427],[-74.398793,-44.787693],[-74.34142,-44.806329]]],[[[-74.48233,-44.636326],[-74.468984,-44.697198],[-74.669504,-44.67018],[-74.628,-44.628188],[-74.48233,-44.636326]]],[[[-73.926829,-44.628839],[-73.877553,-44.680597],[-74.269358,-44.805352],[-74.356028,-44.765069],[-74.372874,-44.725274],[-74.31786,-44.710138],[-74.406972,-44.694268],[-74.413442,-44.652765],[-74.400543,-44.626072],[-74.297353,-44.628839],[-74.267161,-44.603123],[-73.926829,-44.628839]]],[[[-74.777211,-44.58115],[-74.732533,-44.593194],[-74.786733,-44.676853],[-74.818918,-44.655694],[-74.824941,-44.58115],[-74.78303,-44.555108],[-74.777211,-44.58115]]],[[[-73.659983,-44.676528],[-73.591542,-44.70672],[-73.752512,-44.741388],[-73.83788,-44.664321],[-73.809397,-44.562188],[-73.679921,-44.544854],[-73.626861,-44.640558],[-73.659983,-44.676528]]],[[[-74.193715,-44.492283],[-74.132883,-44.54697],[-74.326324,-44.579685],[-74.368886,-44.541111],[-74.294342,-44.499444],[-74.193715,-44.492283]]],[[[-74.036041,-44.498468],[-74.167063,-44.430271],[-73.957428,-44.479262],[-73.947336,-44.543552],[-74.126454,-44.534275],[-74.036041,-44.498468]]],[[[-74.392974,-44.54697],[-74.523305,-44.526462],[-74.541127,-44.45379],[-74.42516,-44.456313],[-74.321116,-44.39544],[-74.259511,-44.412856],[-74.223053,-44.46738],[-74.420277,-44.505304],[-74.392974,-44.54697]]],[[[-73.789662,-44.422784],[-73.782948,-44.443048],[-73.867014,-44.466078],[-73.904124,-44.44492],[-73.910959,-44.396742],[-73.865387,-44.374933],[-73.789662,-44.422784]]],[[[-73.382476,-44.587823],[-73.226186,-44.620538],[-73.280507,-44.541762],[-73.159169,-44.570408],[-73.131581,-44.54518],[-73.223866,-44.519952],[-73.26122,-44.477227],[-73.246246,-44.437188],[-73.167104,-44.409112],[-73.050404,-44.471449],[-73.083811,-44.384535],[-73.002024,-44.361261],[-72.926259,-44.437107],[-72.980946,-44.51214],[-72.872304,-44.437107],[-72.786285,-44.456801],[-72.721181,-44.528009],[-72.801137,-44.628839],[-72.980946,-44.601495],[-72.922922,-44.652765],[-72.847401,-44.667576],[-72.837636,-44.710138],[-73.14745,-44.911879],[-73.256988,-44.940037],[-73.407582,-44.822442],[-73.307485,-44.785903],[-73.219635,-44.804132],[-73.299631,-44.758559],[-73.400746,-44.778904],[-73.468129,-44.642511],[-73.382476,-44.587823]]],[[[-73.726471,-44.425063],[-73.789662,-44.38242],[-73.651357,-44.358819],[-73.659983,-44.385512],[-73.728831,-44.388604],[-73.673573,-44.41961],[-73.691518,-44.437921],[-73.726471,-44.425063]]],[[[-74.029897,-44.354587],[-73.926829,-44.354587],[-73.9405,-44.450616],[-74.081532,-44.383966],[-74.105865,-44.338962],[-74.09142,-44.320245],[-74.029897,-44.354587]]],[[[-73.262807,-44.388442],[-73.298492,-44.368097],[-73.258046,-44.309177],[-73.177154,-44.367771],[-73.262807,-44.388442]]],[[[-73.865387,-44.33408],[-73.932485,-44.328546],[-73.97525,-44.289646],[-73.851064,-44.296319],[-73.813832,-44.265069],[-73.789052,-44.309503],[-73.865387,-44.33408]]],[[[-74.386627,-44.249933],[-74.303578,-44.258233],[-74.290028,-44.297296],[-74.409901,-44.284438],[-74.386627,-44.249933]]],[[[-73.741851,-44.265069],[-73.675689,-44.241306],[-73.666168,-44.265069],[-73.722035,-44.30283],[-73.757395,-44.282403],[-73.741851,-44.265069]]],[[[-74.108713,-44.227472],[-74.126291,-44.200291],[-74.049713,-44.196873],[-74.04898,-44.152927],[-73.893625,-44.239353],[-73.998158,-44.254002],[-74.016225,-44.272556],[-73.989573,-44.327244],[-74.017934,-44.327732],[-74.09439,-44.282403],[-74.108713,-44.227472]]],[[[-74.276967,-44.149021],[-74.26122,-44.164483],[-74.337392,-44.189874],[-74.385569,-44.159601],[-74.276967,-44.149021]]],[[[-73.882802,-44.118341],[-73.835683,-44.183038],[-73.952382,-44.186293],[-74.016225,-44.142836],[-73.952707,-44.10475],[-73.882802,-44.118341]]],[[[-74.297353,-44.011895],[-74.207997,-44.019301],[-74.298329,-44.031915],[-74.297353,-44.011895]]],[[[-73.744985,-43.953546],[-73.701894,-43.944431],[-73.650014,-43.991388],[-73.655507,-44.037367],[-73.616444,-44.072524],[-73.633412,-44.123793],[-73.665435,-44.129815],[-73.683461,-44.070408],[-73.728831,-44.046563],[-73.744985,-43.953546]]],[[[-73.227935,-44.011895],[-73.275136,-43.994073],[-73.272613,-43.919366],[-73.159657,-43.881524],[-73.151601,-44.015802],[-73.227935,-44.011895]]],[[[-74.143938,-43.827551],[-74.045245,-43.796094],[-73.96735,-43.828834],[-73.866038,-43.770196],[-73.762318,-43.88893],[-73.872182,-43.88893],[-73.90746,-43.873712],[-73.875356,-43.858331],[-73.893544,-43.840265],[-73.928456,-43.840753],[-73.97525,-43.867852],[-73.919301,-43.895603],[-73.995717,-43.9367],[-74.02302,-43.898614],[-74.160878,-43.876397],[-74.143938,-43.827551]]],[[[-74.818186,-43.635024],[-74.827332,-43.571793],[-74.76268,-43.570589],[-74.7379,-43.530177],[-74.648247,-43.554006],[-74.557486,-43.62741],[-74.758455,-43.676949],[-74.818186,-43.635024]]],[[[-73.61148,-42.936212],[-73.552805,-42.918634],[-73.365102,-42.990818],[-73.450063,-42.993748],[-73.61148,-42.936212]]],[[[-73.604726,-42.579278],[-73.608469,-42.622247],[-73.721425,-42.634535],[-73.748931,-42.612237],[-73.604726,-42.579278]]],[[[-73.412343,-42.525649],[-73.420969,-42.547947],[-73.61266,-42.451837],[-73.651601,-42.386489],[-73.543202,-42.379164],[-73.412343,-42.525649]]],[[[-73.087636,-42.247491],[-73.073232,-42.288995],[-73.141591,-42.313735],[-73.192494,-42.260837],[-73.087636,-42.247491]]],[[[-72.542714,-42.141046],[-72.607981,-42.111912],[-72.574941,-42.057387],[-72.509267,-42.073337],[-72.508046,-42.13893],[-72.542714,-42.141046]]],[[[-74.334625,-43.281671],[-74.36332,-43.291731],[-74.407216,-43.237888],[-74.307874,-43.124767],[-74.330637,-43.08766],[-74.2396,-43.032893],[-74.232673,-42.928905],[-74.167363,-42.882514],[-74.170534,-42.783109],[-74.131391,-42.692982],[-74.189618,-42.431906],[-74.143216,-42.318648],[-74.159503,-42.241298],[-74.053336,-42.130345],[-74.055287,-41.945001],[-74.008778,-41.887872],[-74.064036,-41.805922],[-74.022572,-41.770685],[-73.949859,-41.812188],[-73.901479,-41.790623],[-73.896108,-41.842706],[-73.983062,-41.820896],[-73.999379,-41.85117],[-73.866038,-41.892267],[-73.837392,-41.863702],[-73.777211,-41.89129],[-73.690989,-41.809015],[-73.634674,-41.83294],[-73.564931,-41.804946],[-73.510813,-41.835056],[-73.547678,-41.87005],[-73.540761,-41.928806],[-73.57844,-41.945489],[-73.447499,-42.06227],[-73.494374,-42.103285],[-73.489084,-42.145603],[-73.38622,-42.195733],[-73.378774,-42.278253],[-73.681549,-42.37005],[-73.688547,-42.452732],[-73.61148,-42.511651],[-73.753733,-42.533624],[-73.789662,-42.504164],[-73.755523,-42.463149],[-73.824452,-42.514418],[-73.809153,-42.608657],[-73.491933,-42.818617],[-73.494293,-42.866795],[-73.531117,-42.880955],[-73.707672,-42.867364],[-73.57372,-42.980401],[-73.522776,-43.052911],[-73.608793,-43.035606],[-73.490061,-43.10003],[-73.502309,-43.128025],[-73.587961,-43.106866],[-73.721425,-43.141697],[-73.763824,-43.109633],[-73.744985,-43.226983],[-73.665808,-43.309844],[-73.731543,-43.316731],[-73.671625,-43.351052],[-73.731109,-43.39264],[-73.799976,-43.359776],[-73.833455,-43.413969],[-73.877004,-43.421959],[-73.955468,-43.365881],[-73.99182,-43.388334],[-74.053379,-43.362936],[-74.084948,-43.401628],[-74.334625,-43.281671]]],[[[-73.087636,-41.843438],[-73.066884,-41.736993],[-73.009633,-41.85768],[-73.087636,-41.843438]]],[[[-73.037179,-54.456461],[-72.953784,-54.456858],[-72.975338,-54.487027],[-73.085707,-54.494997],[-73.037179,-54.456461]]],[[[-70.402603,-54.078633],[-70.313253,-54.05275],[-70.298143,-54.125953],[-70.405134,-54.150442],[-70.513691,-54.091286],[-70.402603,-54.078633]]],[[[-70.686814,-52.84739],[-70.631737,-52.832657],[-70.676266,-52.89483],[-70.78974,-52.900541],[-70.686814,-52.84739]]],[[[-74.427757,-52.503662],[-74.349257,-52.622981],[-74.48196,-52.570765],[-74.427757,-52.503662]]],[[[-74.476368,-52.309667],[-74.487852,-52.376812],[-74.452322,-52.394783],[-74.482233,-52.441658],[-74.53777,-52.404327],[-74.536449,-52.368736],[-74.508206,-52.303968],[-74.476368,-52.309667]]],[[[-73.815143,-51.864059],[-73.779013,-51.834674],[-73.71833,-51.84886],[-73.713451,-51.996007],[-73.767059,-52.005297],[-73.83865,-51.916839],[-73.943619,-51.892875],[-73.979358,-51.838544],[-73.900749,-51.803603],[-73.815143,-51.864059]]],[[[-74.359036,-51.337941],[-74.29651,-51.395389],[-74.306249,-51.417784],[-74.396488,-51.413082],[-74.396348,-51.348694],[-74.359036,-51.337941]]],[[[-74.970277,-50.287516],[-74.889258,-50.294923],[-74.962507,-50.358302],[-74.976266,-50.432888],[-75.044522,-50.475994],[-75.171581,-50.46215],[-75.121178,-50.382086],[-74.970277,-50.287516]]],[[[-74.426015,-49.614923],[-74.463735,-49.508884],[-74.417714,-49.430759],[-74.293609,-49.538751],[-74.426015,-49.614923]]],[[[-74.649865,-47.797742],[-74.526181,-47.812868],[-74.524671,-47.868351],[-74.593972,-47.864389],[-74.644016,-47.92311],[-74.68923,-47.834117],[-74.649865,-47.797742]]],[[[-75.323147,-46.685089],[-75.173992,-46.677964],[-75.121802,-46.747034],[-75.132214,-46.777995],[-75.342252,-46.701737],[-75.323147,-46.685089]]],[[[-74.253361,-43.350392],[-74.230726,-43.41337],[-74.284026,-43.417838],[-74.253361,-43.350392]]],[[[-73.691092,-43.188156],[-73.656422,-43.196],[-73.661238,-43.244796],[-73.718524,-43.215981],[-73.72669,-43.191686],[-73.691092,-43.188156]]],[[[-73.009192,-42.695259],[-72.958322,-42.737163],[-72.943922,-42.716233],[-72.918815,-42.786532],[-72.956525,-42.807804],[-73.033616,-42.713886],[-73.009192,-42.695259]]],[[[-73.307341,-42.627343],[-73.241038,-42.631371],[-73.260319,-42.658403],[-73.356927,-42.629037],[-73.307341,-42.627343]]],[[[-73.882436,-38.360772],[-73.884999,-38.409601],[-73.912099,-38.409926],[-73.95344,-38.313572],[-73.882436,-38.360772]]],[[[-73.54083,-36.989441],[-73.523096,-36.975265],[-73.458812,-37.048278],[-73.516159,-37.071201],[-73.551685,-37.027621],[-73.54083,-36.989441]]]]}}