{"type":"Feature","properties":{"iso3":"CHN","name":"China","continent":"Asia"},"geometry":{"type":"MultiPolygon","coordinates":[[[[78.917694,33.386258],[78.781372,33.552785],[78.721117,33.994386],[78.730109,34.079265],[78.98539,34.286358],[78.664583,34.526421],[78.296027,34.624658],[78.001161,35.268908],[78.055628,35.452876],[77.412773,35.469412],[76.915026,35.583152],[76.604244,35.735701],[76.56528,35.865461],[76.166027,35.806239],[76.114661,35.941787],[75.894313,36.097384],[76.014409,36.230399],[75.987434,36.421189],[75.790547,36.687839],[75.570508,36.766749],[75.431912,36.722928],[75.351297,36.915784],[75.132809,36.984695],[74.891997,36.920977],[74.366137,37.14776],[74.721464,37.297776],[74.783269,37.219667],[74.892307,37.231114],[75.164125,37.400638],[74.891893,37.599205],[74.954422,37.747723],[74.771281,38.196274],[74.844351,38.417243],[74.776345,38.510674],[74.334201,38.666995],[74.140415,38.669217],[74.058766,38.547028],[73.83356,38.577956],[73.688969,38.89109],[73.81599,38.993771],[73.602256,39.235772],[73.631919,39.428809],[73.820744,39.468186],[73.899292,39.571539],[73.818574,39.786048],[73.976704,40.043603],[74.333788,40.09373],[74.705755,40.331286],[74.830915,40.319917],[74.832312,40.508116],[75.175287,40.448127],[75.559863,40.63287],[75.704454,40.293149],[76.244162,40.441202],[76.361984,40.371904],[76.609411,40.59711],[76.860972,41.013208],[78.057178,41.034344],[78.331477,41.258723],[78.343466,41.362024],[78.658278,41.532453],[79.783274,41.905092],[79.842909,42.00183],[80.231206,42.033689],[80.249499,42.309951],[80.143769,42.644762],[80.281745,42.822736],[80.526692,42.868392],[80.355126,43.000581],[80.410213,43.048665],[80.788174,43.168245],[80.64286,43.32622],[80.712727,43.458873],[80.359777,44.0893],[80.359157,44.632574],[80.476152,44.693655],[79.858205,44.90372],[80.103358,45.032188],[81.622594,45.33434],[81.950119,45.144481],[82.245295,45.231814],[82.539747,45.123655],[82.631989,45.415834],[82.291493,45.533191],[82.985508,46.94251],[83.013516,47.194588],[83.905348,46.973956],[84.699202,46.970235],[84.739613,46.814766],[85.246145,47.044416],[85.498636,47.051832],[85.678987,47.274893],[85.515379,47.92028],[85.718674,48.358832],[86.546427,48.517221],[86.744503,48.70354],[86.789462,48.839139],[86.711585,48.937066],[86.838193,49.093852],[87.400432,49.071011],[87.816324,49.165837],[87.8726,48.96802],[87.737879,48.86937],[88.033779,48.72912],[87.983032,48.552335],[88.50269,48.392551],[88.635809,48.175846],[89.045551,47.992989],[89.5418,48.031023],[89.740238,47.836151],[90.059856,47.868811],[90.082852,47.756104],[90.349554,47.64779],[90.475232,47.33029],[90.712116,47.014702],[90.893707,46.92817],[91.01556,46.703197],[91.035611,46.529073],[90.896188,46.302033],[91.002435,46.021843],[90.710773,45.752196],[90.651138,45.493142],[90.90549,45.185977],[91.056798,45.217551],[91.662963,45.059525],[93.525278,44.951263],[93.927424,44.672933],[94.149012,44.667197],[94.69823,44.343496],[94.993819,44.259418],[95.379428,44.287117],[95.31876,44.040724],[95.535284,43.95768],[95.874385,43.247103],[96.294308,42.933272],[96.350635,42.740906],[97.19068,42.787061],[99.474476,42.564199],[99.971551,42.676285],[101.524945,42.537456],[101.735371,42.461156],[102.034164,42.18461],[103.073481,42.004517],[103.691427,41.759235],[104.500784,41.870598],[104.497993,41.665778],[104.97383,41.586145],[105.200896,41.743474],[106.767829,42.286619],[108.177355,42.454309],[108.796852,42.398369],[109.485131,42.449296],[110.406728,42.768605],[110.933724,43.287772],[111.535031,43.490732],[111.945136,43.72387],[111.838785,43.938792],[111.543816,44.156737],[111.397055,44.387369],[111.738533,44.9663],[111.958261,45.084536],[112.379631,45.070738],[112.748497,44.865273],[113.604776,44.739699],[114.055291,44.940565],[114.418886,45.20148],[114.519449,45.370927],[115.6924,45.468957],[116.230352,45.769766],[116.207098,45.88087],[116.568316,46.290871],[116.831659,46.386369],[117.301708,46.350144],[117.393795,46.57137],[117.556266,46.601601],[117.797595,46.520262],[118.268987,46.722937],[118.684621,46.683457],[118.846523,46.765493],[119.316934,46.611678],[119.834421,46.650952],[119.892919,46.90551],[119.728898,47.128649],[119.157564,47.517669],[119.059585,47.673474],[118.767406,47.756156],[118.542252,47.966246],[117.815165,48.004823],[117.360826,47.650865],[116.85326,47.872118],[116.243891,47.862894],[115.914506,47.683912],[115.5999,47.887414],[115.51453,48.122103],[115.809292,48.273954],[115.800404,48.530372],[116.028194,48.767464],[116.684278,49.823265],[117.057588,49.672886],[117.873766,49.513206],[118.644365,49.954575],[119.091676,49.986562],[119.301327,50.079787],[119.363959,50.319462],[119.141234,50.376616],[119.496664,50.737059],[119.517955,50.904801],[119.750706,51.099983],[119.762178,51.21504],[120.085879,51.644368],[120.647602,51.911019],[120.771263,52.140979],[120.626156,52.346806],[120.72398,52.542169],[120.46415,52.636039],[120.056423,52.600511],[120.065828,52.783213],[120.874255,53.28016],[121.203485,53.276749],[122.293703,53.492653],[122.859663,53.473946],[123.514404,53.562416],[124.121808,53.352688],[124.232706,53.381652],[124.408199,53.235692],[124.848121,53.113684],[125.073688,53.212205],[125.637995,53.046143],[125.733545,52.981651],[125.64709,52.900906],[125.837363,52.90672],[125.976941,52.764997],[126.066703,52.783188],[125.977302,52.610769],[126.343688,52.391377],[126.315731,52.316213],[126.421203,52.287301],[126.312217,52.22795],[126.350716,52.191699],[126.53117,52.152658],[126.446059,51.982539],[126.713588,51.723175],[126.700566,51.562719],[126.830377,51.508123],[126.792705,51.459056],[126.897505,51.361956],[126.807329,51.30811],[126.84588,51.251472],[126.981169,51.308859],[126.908925,51.221629],[126.946442,51.048332],[127.295516,50.722797],[127.367088,50.577792],[127.330656,50.328195],[127.578393,50.220553],[127.494419,49.973178],[127.538654,49.789934],[127.830884,49.593873],[128.067149,49.546693],[128.666182,49.609479],[128.786588,49.575321],[128.76013,49.470883],[129.115354,49.348772],[129.455075,49.427268],[129.57176,49.279836],[129.735057,49.238908],[129.926467,49.025691],[130.201799,48.882599],[130.676499,48.857432],[130.533252,48.635792],[130.822123,48.333769],[130.674742,48.063941],[130.906976,47.884262],[131.023351,47.682284],[131.418366,47.742617],[131.630652,47.666859],[132.524655,47.707528],[132.705729,47.960381],[132.820657,47.942372],[133.185183,48.124816],[133.524387,48.095438],[133.707735,48.231657],[134.367126,48.377048],[134.718733,48.263412],[134.559362,48.009525],[134.769789,47.741015],[134.560603,47.481806],[134.312866,47.42013],[134.170136,47.286805],[134.22729,47.117745],[134.08735,46.998812],[134.005288,46.645836],[133.849328,46.480291],[133.933871,46.390761],[133.902452,46.258986],[133.720034,46.150207],[133.658125,45.93451],[133.514362,45.879268],[133.425168,45.580423],[133.140224,45.435419],[133.09878,45.10779],[132.92122,45.027899],[131.96965,45.233829],[131.818031,45.33279],[131.433765,44.961288],[130.930127,44.824965],[131.065829,44.682028],[131.264473,44.054211],[131.165668,43.549023],[131.281836,43.393141],[131.099315,42.935442],[130.99958,42.858755],[130.794321,42.869064],[130.407161,42.735377],[130.571906,42.621818],[130.530771,42.53048],[130.262674,42.708609],[130.256473,42.866894],[130.130485,42.959472],[129.890707,42.999418],[129.703328,42.442372],[129.545302,42.371317],[129.315445,42.422321],[129.211162,42.219956],[128.90348,42.026273],[128.034593,41.993743],[128.039967,41.87959],[128.28326,41.605058],[128.103943,41.379129],[127.944211,41.470855],[127.638338,41.429875],[127.134648,41.522014],[127.15785,41.5786],[126.939621,41.793729],[126.679482,41.735981],[126.727954,41.701254],[126.567034,41.614154],[126.522127,41.377631],[126.045515,40.944685],[125.706414,40.860453],[125.682643,40.768882],[125.560067,40.778339],[125.41713,40.639278],[124.883829,40.465541],[124.385565,40.110473],[124.202159,39.878607],[123.773041,39.818345],[123.656749,39.919501],[123.563731,39.770941],[123.285004,39.803453],[123.223155,39.679755],[123.005707,39.677436],[122.29005,39.350979],[122.042328,39.059719],[121.826915,39.036282],[121.859874,38.944648],[121.670909,39.007717],[121.592133,38.948676],[121.703624,38.891913],[121.654796,38.857856],[121.236664,38.798489],[121.198497,38.727851],[121.117931,38.943427],[121.632335,39.069485],[121.689789,39.11815],[121.589939,39.264054],[121.91505,39.395413],[121.54892,39.361884],[121.419932,39.516059],[121.236827,39.514716],[121.260001,39.563673],[121.547374,39.673163],[121.509917,39.824031],[121.854747,39.985175],[122.286876,40.488715],[122.067149,40.735053],[121.851085,40.832261],[121.858897,40.967475],[121.739552,40.849079],[121.200287,40.930732],[120.97047,40.817939],[120.994395,40.736274],[120.604096,40.465155],[120.450694,40.201077],[119.5537,39.899063],[119.223237,39.584662],[119.281398,39.575014],[119.279429,39.384006],[118.940196,39.138861],[118.858979,39.207506],[118.300126,39.040564],[118.04538,39.218972],[117.757335,39.114447],[117.775264,38.981058],[117.701915,38.995307],[117.560473,38.657097],[117.716082,38.378511],[118.081798,38.140692],[118.950037,38.097262],[119.259597,37.715847],[119.027527,37.703943],[118.961192,37.29564],[119.28712,37.137274],[119.7706,37.151842],[119.877452,37.233832],[119.846283,37.343695],[120.297618,37.597886],[120.247569,37.672593],[120.784923,37.829657],[121.113292,37.708238],[121.191498,37.575181],[121.429779,37.596869],[121.38144,37.582994],[121.570323,37.428656],[121.63502,37.481269],[121.988048,37.425605],[122.121837,37.56273],[122.183197,37.418158],[122.66505,37.414049],[122.549653,37.31977],[122.59669,37.220893],[122.402354,37.02147],[122.513031,37.020494],[122.436371,36.870673],[122.200287,36.84276],[122.26588,36.898017],[122.16269,36.945787],[122.179698,37.005805],[122.065196,36.906724],[121.961436,36.992865],[121.573009,36.763617],[121.50351,36.760443],[121.595225,36.826321],[121.484386,36.829088],[121.385265,36.706488],[121.089692,36.6164],[120.770844,36.617174],[120.742279,36.555854],[120.826427,36.59634],[120.949962,36.459174],[120.88266,36.388739],[120.75058,36.459174],[120.627778,36.116523],[120.369477,36.048774],[120.309093,36.06151],[120.361583,36.191636],[120.306407,36.274237],[120.284516,36.175971],[120.117279,36.209662],[120.10019,36.096096],[120.280772,35.998236],[120.052257,35.862616],[120.019786,35.759752],[119.925548,35.756822],[119.877452,35.613186],[119.668956,35.590318],[119.435802,35.322577],[119.370616,35.117418],[119.192882,34.974026],[119.188731,34.733059],[119.34669,34.780829],[119.640961,34.550523],[120.239757,34.323676],[120.407074,33.859768],[120.867442,33.032375],[120.86142,32.719672],[121.100841,32.497952],[121.35414,32.414823],[121.44337,32.114325],[121.821945,31.952486],[121.922057,31.754378],[121.817306,31.690949],[121.317397,31.883248],[121.115087,31.796334],[120.950628,31.825236],[120.846934,31.991441],[120.634376,32.07701],[120.131358,31.943183],[119.992035,32.015855],[119.81837,32.313707],[119.64088,32.358832],[119.606049,32.196926],[119.778575,32.204657],[119.764415,32.143744],[120.006396,31.950305],[120.229991,31.908881],[120.455412,32.021428],[120.750354,31.978336],[120.807752,31.809741],[120.717133,31.86107],[120.748383,31.802232],[121.144402,31.684658],[121.725164,31.281567],[121.95082,30.982081],[121.907399,30.857086],[121.542937,30.816495],[120.998146,30.557924],[120.810732,30.296568],[120.667002,30.4015],[120.479145,30.403524],[120.378967,30.273524],[120.257904,30.298082],[120.147094,30.198891],[120.250011,30.270087],[120.368121,30.240851],[120.450494,30.36886],[120.621606,30.372563],[120.734401,30.232213],[120.643813,30.145873],[120.754975,30.086859],[120.646251,30.126939],[120.751425,30.225626],[120.923504,30.185866],[121.254102,30.348393],[121.429592,30.292976],[121.706763,29.985109],[121.935557,29.887356],[122.105887,29.906953],[121.667003,29.556586],[121.44337,29.524237],[121.442593,29.415369],[121.479747,29.474758],[121.497162,29.422187],[121.699799,29.534329],[121.764567,29.47665],[121.79612,29.600591],[121.953624,29.606147],[121.957286,29.216376],[121.785347,29.168085],[121.799653,29.373969],[121.724328,29.182035],[121.588715,29.29149],[121.431407,29.172187],[121.415375,29.119696],[121.62143,29.113267],[121.532074,29.020494],[121.681733,29.02676],[121.709483,28.951158],[121.491791,28.928371],[121.662608,28.798041],[121.502778,28.700385],[121.162852,28.825344],[121.299327,28.722886],[121.258393,28.675116],[121.510128,28.657059],[121.641694,28.321845],[121.398936,28.298489],[121.368175,28.162014],[121.168956,28.384833],[120.965228,27.987145],[120.584972,28.095526],[120.582042,28.034329],[120.862612,27.902874],[120.74096,27.733203],[120.635265,27.763332],[120.673106,27.659613],[120.596574,27.570283],[120.67685,27.494615],[120.481456,27.186347],[120.264008,27.324449],[120.175304,27.238837],[120.34726,27.24258],[120.401866,27.165229],[120.216319,27.043931],[120.209483,26.91356],[120.025157,26.860175],[120.134369,26.646064],[119.884288,26.523179],[119.85377,26.598293],[120.077647,26.78559],[119.9463,26.796942],[119.888031,26.687242],[119.815033,26.825629],[119.756196,26.737738],[119.557628,26.758775],[119.608246,26.683539],[119.55421,26.61518],[119.730235,26.611274],[119.812266,26.474799],[119.792491,26.416653],[119.605724,26.474351],[119.655528,26.355618],[119.747081,26.327623],[119.825776,26.426947],[119.949962,26.372301],[119.673595,26.280504],[119.473155,25.997138],[119.103608,26.143134],[119.34669,25.940375],[119.519054,26.044501],[119.675059,26.022284],[119.584321,25.682603],[119.459727,25.63288],[119.646007,25.392564],[119.602875,25.346137],[119.576264,25.462836],[119.483246,25.371161],[119.504242,25.429877],[119.322602,25.611029],[119.11671,25.426418],[119.193207,25.27497],[119.293305,25.321967],[119.288829,25.189114],[119.141975,25.220978],[119.08546,25.124742],[119.024946,25.259289],[118.918468,25.26439],[118.864838,25.227973],[118.948985,25.136949],[118.848969,25.086615],[118.990489,25.040188],[118.934174,24.886054],[118.706065,24.846625],[118.695567,24.940416],[118.595795,24.874742],[118.632579,24.777248],[118.743419,24.775336],[118.6421,24.678697],[118.646576,24.568427],[118.590831,24.528062],[118.434906,24.689643],[118.379893,24.590237],[118.219005,24.541449],[118.187592,24.657375],[117.974864,24.55272],[118.013927,24.487616],[117.825938,24.480455],[117.874604,24.396308],[118.042979,24.406684],[118.084727,24.249091],[117.93214,24.207953],[117.899425,24.040188],[117.763276,23.929348],[117.770274,24.051459],[117.692231,24.046536],[117.612559,23.762681],[117.582367,23.889309],[117.416596,23.946845],[117.490073,23.832579],[117.271921,23.721306],[117.238964,23.605473],[117.24409,23.657548],[117.078407,23.564611],[117.034272,23.661322],[116.877452,23.618354],[116.866628,23.450233],[116.773224,23.349432],[116.523204,23.418524],[116.573009,23.323676],[116.748635,23.326288],[116.804822,23.236122],[116.705577,23.276597],[116.646755,23.162991],[116.516856,23.235175],[116.574555,23.224107],[116.494688,22.939352],[116.234711,22.980414],[116.281458,22.957857],[116.113561,22.83291],[116.042105,22.932918],[116.047862,22.851793],[115.843212,22.770025],[115.70517,22.907375],[115.539887,22.852932],[115.450938,22.931871],[115.586925,22.849351],[115.56422,22.684882],[115.373508,22.694177],[115.388927,22.746894],[115.251081,22.78798],[115.317149,22.904527],[114.985342,22.689309],[114.90311,22.748924],[114.895966,22.547524],[114.754145,22.589714],[114.775238,22.815823],[114.499576,22.653114],[114.562511,22.648342],[114.502045,22.550849],[114.611583,22.528713],[114.515816,22.452643],[114.395763,22.613511],[113.963796,22.538113],[113.890345,22.452712],[113.764659,22.734809],[113.653575,22.758734],[113.617198,22.890286],[113.617198,22.836249],[113.638194,23.034898],[113.586681,22.953559],[113.528331,23.038031],[113.800873,23.128404],[113.44516,23.089342],[113.480968,22.935696],[113.212983,22.912014],[113.494233,22.774848],[113.377533,22.767401],[113.59917,22.57518],[113.57721,22.266637],[113.425629,22.186225],[113.177582,22.564114],[113.401971,22.179574],[113.297944,22.176825],[113.157467,22.0247],[113.113292,22.187405],[113.026614,22.143212],[112.957081,21.875653],[112.814789,21.961575],[112.579112,21.766832],[112.443207,21.828437],[112.411143,21.90119],[112.481456,21.944648],[112.404796,21.942857],[112.392833,22.056301],[112.404307,21.81151],[112.332123,21.724066],[112.244884,21.706529],[112.203136,21.806708],[112.028168,21.797349],[112.037364,21.862494],[111.911876,21.91356],[111.904063,21.815253],[112.000255,21.774319],[111.87672,21.678127],[111.725841,21.766832],[111.787934,21.616034],[111.619721,21.533026],[111.504487,21.518215],[111.432221,21.602973],[111.292491,21.450629],[111.232188,21.524563],[111.08839,21.472642],[111.034434,21.53148],[110.992931,21.424872],[110.768158,21.397528],[110.664887,21.285631],[110.755382,21.413398],[110.63559,21.381049],[110.643321,21.252916],[110.431163,21.191474],[110.486339,21.328681],[110.368988,21.424872],[110.402354,21.193671],[110.221772,21.03266],[110.2046,21.082221],[110.149262,20.923977],[110.211681,20.840522],[110.386241,20.825995],[110.409434,20.750963],[110.368988,20.719672],[110.348155,20.803046],[110.300792,20.65705],[110.53419,20.478258],[110.294037,20.262926],[110.02711,20.300767],[109.924897,20.238267],[109.862804,20.406317],[110.006114,20.40119],[109.827485,20.511461],[109.845225,20.581122],[109.74586,20.629788],[109.827729,20.697984],[109.665619,20.880927],[109.765717,21.355943],[109.924083,21.362779],[109.951264,21.458401],[109.821056,21.458401],[109.748057,21.574937],[109.760265,21.511623],[109.649669,21.520453],[109.581554,21.732367],[109.492686,21.698554],[109.560883,21.526679],[109.438243,21.455064],[109.23878,21.485663],[109.21461,21.417426],[109.039806,21.450263],[109.132823,21.495917],[109.128917,21.602973],[108.85727,21.683417],[108.916596,21.753811],[108.86142,21.815253],[108.801362,21.818345],[108.821056,21.643948],[108.711192,21.650133],[108.724864,21.746405],[108.683197,21.70539],[108.673106,21.798],[108.569428,21.794379],[108.622081,21.87108],[108.552989,21.951809],[108.457286,21.888332],[108.496349,21.692939],[108.552989,21.698554],[108.516612,21.599189],[108.420014,21.556871],[108.470958,21.671291],[108.337657,21.697455],[108.283783,21.544745],[108.22641,21.508002],[108.226817,21.625556],[108.002289,21.554267],[108.080577,21.485663],[107.970714,21.431627],[107.811641,21.647827],[107.329655,21.616046],[107.023731,21.804097],[106.991898,21.935355],[106.689746,21.972872],[106.639671,22.296676],[106.526913,22.427779],[106.568771,22.574592],[106.646338,22.568804],[106.791497,22.772125],[106.51694,22.915424],[106.255405,22.854653],[106.077587,22.981027],[105.853879,22.90465],[105.56599,23.054098],[105.320062,23.354338],[104.894765,23.170344],[104.811462,23.096188],[104.827017,22.954285],[104.683202,22.812175],[104.361911,22.692536],[104.073316,22.782667],[103.973994,22.515268],[103.65851,22.793209],[103.514281,22.587356],[103.357081,22.776027],[103.029039,22.430157],[102.467781,22.768586],[102.186558,22.421062],[101.867921,22.378842],[101.71315,22.491548],[101.518227,22.228205],[101.6068,21.967601],[101.751081,21.816137],[101.793559,21.588244],[101.736198,21.570881],[101.715114,21.321129],[101.823738,21.234467],[101.766739,21.150648],[101.517607,21.242632],[101.259741,21.179484],[101.173855,21.611912],[101.068693,21.762032],[100.645774,21.479879],[100.341968,21.530367],[100.197894,21.433215],[100.089994,21.52892],[100.082345,21.684466],[99.95026,21.721156],[99.942406,22.045529],[99.166381,22.132087],[99.345078,22.472841],[99.307871,22.719596],[99.411224,22.919248],[99.538038,22.926431],[99.493079,23.057379],[99.350969,23.119262],[99.236144,23.062314],[98.859009,23.179387],[98.910686,23.297597],[98.780874,23.532854],[98.8433,23.584014],[98.664189,23.890378],[98.866967,24.143256],[98.585227,24.075715],[98.10505,24.101527],[97.647345,23.868524],[97.516456,23.942829],[97.718717,24.181548],[97.639859,24.439285],[97.519556,24.430784],[97.532785,24.723324],[97.772977,24.854686],[97.705178,25.028835],[97.800986,25.237634],[97.90992,25.207558],[98.03353,25.301299],[98.140087,25.611461],[98.332633,25.566968],[98.498101,25.830724],[98.677832,25.843282],[98.553808,26.071071],[98.70553,26.174941],[98.649513,26.290593],[98.748525,26.605974],[98.681759,27.556484],[98.42224,27.680895],[98.383276,27.555787],[98.275686,27.570101],[98.107117,27.973074],[98.127994,28.105469],[97.897518,28.355325],[97.740008,28.38261],[97.699597,28.48803],[97.546221,28.538466],[97.333831,28.235254],[97.11555,28.366564],[96.301852,28.420711],[96.59801,28.70991],[96.366568,29.036537],[96.195323,28.941106],[96.174625,29.108845],[96.366862,29.244211],[96.205424,29.256949],[96.150957,29.354075],[95.744781,29.340432],[95.717165,29.218284],[95.592335,29.249689],[95.487577,29.068994],[95.367406,29.036496],[94.761482,29.174706],[94.704224,29.284699],[94.582681,29.302915],[94.372875,29.196307],[94.270786,29.09793],[94.347311,29.024349],[94.026849,28.864182],[93.927786,28.682752],[93.446213,28.671894],[93.218838,28.457436],[93.207825,28.340539],[92.70786,28.155414],[92.638924,28.057487],[92.736392,27.985909],[92.683674,27.91045],[91.952247,27.72482],[91.290169,28.091413],[91.008842,27.96677],[90.510061,28.074101],[90.597602,28.200376],[90.386905,28.299141],[90.329504,28.255796],[90.225591,28.358399],[89.862918,28.295793],[89.458808,28.047798],[88.978366,27.530283],[88.997019,27.330869],[88.773578,27.408509],[88.741642,27.53168],[88.853884,27.843676],[88.780141,28.028342],[88.610488,28.105831],[87.700466,27.805642],[87.38679,27.804402],[87.116522,27.844581],[86.680063,28.105727],[86.569527,28.106606],[86.438837,27.910856],[86.218385,27.994726],[86.15596,28.156525],[86.068731,28.076763],[86.075655,27.894784],[85.98026,27.885172],[85.692939,28.335222],[85.611807,28.251145],[85.087395,28.304113],[85.16801,28.583192],[85.054942,28.638692],[84.823949,28.540533],[84.437822,28.753336],[84.235147,28.90002],[84.08973,29.256613],[83.93315,29.291779],[83.65601,29.160779],[83.535965,29.179228],[83.187253,29.612095],[82.857454,29.666201],[82.541814,29.923239],[82.153827,30.058166],[82.093211,30.31474],[81.635719,30.410961],[81.509371,30.328382],[81.42612,30.372514],[81.33827,30.143536],[81.194506,30.004475],[81.097768,30.016929],[80.943772,30.270143],[80.596351,30.459796],[80.179839,30.559479],[80.231412,30.724947],[80.169297,30.785254],[79.85035,30.954494],[79.577809,30.938371],[79.394978,31.036711],[79.131397,31.438433],[79.07799,31.461664],[78.921008,31.269685],[78.745095,31.308116],[78.762561,31.44511],[78.695382,31.488105],[78.795324,31.633781],[78.670887,31.770517],[78.741994,31.945338],[78.457981,32.229662],[78.380983,32.528041],[78.694452,32.629663],[78.754707,32.493806],[78.976192,32.361618],[79.320466,32.592267],[79.472113,32.565472],[79.620673,32.728725],[79.333586,32.994292],[79.456096,33.250399],[79.098028,33.287655],[78.917694,33.386258]]],[[[111.010509,19.683783],[110.876475,19.539781],[110.806326,19.612738],[110.589041,19.176703],[110.490489,19.166571],[110.554942,19.087348],[110.57545,19.150051],[110.567231,19.065579],[110.441091,18.836493],[110.534434,18.785631],[110.03419,18.511949],[110.040294,18.38227],[109.776215,18.404039],[109.670421,18.273017],[109.708751,18.207221],[109.568044,18.169338],[109.462738,18.27969],[109.162608,18.287828],[108.674083,18.554836],[108.626964,19.27497],[109.272716,19.729397],[109.295746,19.774644],[109.181326,19.735989],[109.163341,19.790269],[109.303722,19.921698],[109.581716,19.855699],[109.529307,19.875474],[109.581391,19.984809],[109.686697,20.00788],[110.006196,19.910346],[110.316905,20.057359],[110.410899,19.923407],[110.378184,20.039862],[110.431163,20.050605],[110.598643,19.943996],[110.572276,20.050727],[110.677908,20.16356],[110.788341,20.010403],[110.920665,20.01203],[111.010509,19.683783]]],[[[111.962657,21.65762],[111.999848,21.621161],[111.809337,21.565497],[111.962657,21.65762]]],[[[112.645356,21.712836],[112.616466,21.619208],[112.519298,21.606676],[112.645356,21.712836]]],[[[112.844005,21.774319],[112.737153,21.612616],[112.747813,21.733344],[112.844005,21.774319]]],[[[113.391449,22.027533],[113.323497,22.011949],[113.343598,22.068508],[113.391449,22.027533]]],[[[113.364757,22.157904],[113.289073,22.068508],[113.271739,22.120022],[113.364757,22.157904]]],[[[113.593516,22.784817],[113.40211,22.88288],[113.475597,22.900702],[113.593516,22.784817]]],[[[117.071544,23.47309],[117.137367,23.419565],[116.969345,23.418946],[117.071544,23.47309]]],[[[117.468901,23.75309],[117.526661,23.740107],[117.467219,23.657934],[117.320483,23.574016],[117.404307,23.774156],[117.468901,23.75309]]],[[[119.305431,26.035956],[119.404959,25.977932],[119.209239,26.098578],[119.305431,26.035956]]],[[[121.255531,28.140001],[121.279145,28.085435],[121.166899,28.043082],[121.165283,28.150534],[121.256403,28.214798],[121.255531,28.140001]]],[[[122.23878,30.313137],[122.217052,30.262519],[122.073578,30.291409],[122.23878,30.313137]]],[[[122.398936,30.456488],[122.285411,30.422065],[122.276622,30.479804],[122.398936,30.456488]]],[[[121.837738,31.375149],[121.866222,31.304185],[121.7942,31.368801],[121.837738,31.375149]]],[[[119.880707,32.12519],[119.901866,32.073391],[119.716156,32.27265],[119.832856,32.252143],[119.880707,32.12519]]],[[[122.3213,39.165961],[122.382579,39.208319],[122.402599,39.159125],[122.3213,39.165961]]],[[[122.635997,39.23428],[122.718598,39.241889],[122.690684,39.193305],[122.635997,39.23428]]],[[[122.684418,39.262193],[122.586192,39.258002],[122.505056,39.296942],[122.684418,39.262193]]],[[[121.422537,39.474514],[121.421723,39.373684],[121.27296,39.385077],[121.422537,39.474514]]],[[[122.964366,39.515448],[122.989757,39.549506],[123.04005,39.529731],[122.964366,39.515448]]],[[[110.595876,20.958726],[110.589203,20.88349],[110.547537,20.917711],[110.595876,20.958726]]],[[[110.547537,21.037258],[110.516938,20.937649],[110.24586,20.986029],[110.371349,21.080959],[110.547537,21.037258]]],[[[110.616954,21.191474],[110.520681,21.111802],[110.426117,21.179104],[110.616954,21.191474]]],[[[118.09254,24.55622],[118.163097,24.531968],[118.153819,24.437079],[118.092052,24.438463],[118.09254,24.55622]]],[[[119.846528,25.536322],[119.739919,25.407782],[119.693044,25.437649],[119.766368,25.506252],[119.730479,25.646145],[119.846528,25.536322]]],[[[121.95753,29.119534],[121.935313,29.062893],[121.881358,29.160305],[121.95753,29.119534]]],[[[122.14324,29.733385],[122.18686,29.673407],[122.056651,29.767808],[122.14324,29.733385]]],[[[122.395193,29.883612],[122.395193,29.833319],[122.333507,29.9206],[122.388927,29.948798],[122.395193,29.883612]]],[[[121.881847,30.076361],[121.889659,29.983954],[121.836192,29.988674],[121.881847,30.076361]]],[[[122.327485,30.024482],[122.048839,30.007392],[121.963145,30.142401],[122.327485,30.024482]]],[[[121.844075,31.607947],[121.977851,31.477771],[121.851374,31.439179],[121.614689,31.521582],[121.186631,31.774116],[121.322564,31.829331],[121.844075,31.607947]]],[[[111.196544,15.775377],[111.1963,15.785712],[111.20753,15.789293],[111.196544,15.775377]]],[[[111.763357,16.043443],[111.753103,16.044664],[111.761404,16.048651],[111.763357,16.043443]]],[[[109.100922,21.021186],[109.099864,21.060696],[109.136241,21.051011],[109.100922,21.021186]]],[[[120.748383,37.938707],[120.7588,37.907538],[120.726329,37.90884],[120.748383,37.938707]]],[[[120.606781,37.979885],[120.625824,37.972561],[120.615489,37.94831],[120.606781,37.979885]]],[[[120.720063,37.980943],[120.72047,37.964016],[120.688243,37.985256],[120.720063,37.980943]]],[[[120.760427,38.170478],[120.773285,38.159735],[120.73878,38.175605],[120.760427,38.170478]]],[[[120.806488,38.288235],[120.819835,38.313666],[120.836192,38.304267],[120.806488,38.288235]]],[[[120.914236,38.384101],[120.906912,38.392564],[120.917817,38.395453],[120.914236,38.384101]]],[[[123.180675,39.091946],[123.195811,39.065334],[123.145193,39.04328],[123.180675,39.091946]]],[[[111.600108,16.527289],[111.602875,16.533352],[111.60963,16.528266],[111.600108,16.527289]]],[[[112.735037,16.657945],[112.725271,16.666205],[112.733409,16.666083],[112.735037,16.657945]]],[[[112.333181,16.825019],[112.327891,16.837104],[112.33546,16.832587],[112.333181,16.825019]]],[[[112.333669,16.933254],[112.341075,16.926988],[112.33546,16.923814],[112.333669,16.933254]]],[[[110.471365,20.647366],[110.475841,20.595933],[110.437022,20.667914],[110.471365,20.647366]]],[[[113.278005,21.925035],[113.23463,21.893459],[113.2317,21.934475],[113.278005,21.925035]]],[[[113.771747,22.000343],[113.764477,21.966818],[113.736279,21.997162],[113.771747,22.000343]]],[[[114.306814,22.057196],[114.206716,22.025784],[114.30421,22.069281],[114.306814,22.057196]]],[[[113.473481,22.098538],[113.518891,22.127265],[113.532563,22.095364],[113.473481,22.098538]]],[[[113.623379,22.439872],[113.642347,22.40019],[113.612272,22.397962],[113.623379,22.439872]]],[[[113.546759,22.741884],[113.641832,22.601624],[113.491368,22.705774],[113.546759,22.741884]]],[[[113.52921,22.960354],[113.553599,22.911281],[113.50996,22.921216],[113.52921,22.960354]]],[[[116.995616,23.563544],[116.970958,23.514635],[116.937266,23.526272],[116.995616,23.563544]]],[[[119.551036,25.209459],[119.528982,25.165351],[119.444672,25.229071],[119.551036,25.209459]]],[[[119.346528,25.566718],[119.334809,25.449897],[119.281586,25.463813],[119.346528,25.566718]]],[[[119.626964,26.107896],[119.638845,26.070502],[119.565278,26.080471],[119.626964,26.107896]]],[[[120.326834,26.939683],[120.337087,26.970038],[120.377696,26.939846],[120.326834,26.939683]]],[[[121.074002,27.479484],[121.103479,27.46007],[121.046109,27.465199],[121.074002,27.479484]]],[[[121.181651,27.864651],[121.174815,27.825873],[121.097992,27.817816],[121.181651,27.864651]]],[[[121.049327,27.950873],[121.064789,27.981431],[121.139659,27.965766],[121.049327,27.950873]]],[[[121.862153,29.129584],[121.842052,29.095038],[121.783539,29.13288],[121.862153,29.129584]]],[[[122.304698,29.81745],[122.30836,29.776272],[122.232677,29.827826],[122.304698,29.81745]]],[[[121.972179,29.94477],[121.992442,29.908271],[121.946137,29.903957],[121.972179,29.94477]]],[[[122.345714,30.241929],[122.29477,30.236721],[122.382579,30.277167],[122.345714,30.241929]]],[[[122.529307,30.720771],[122.431977,30.697984],[122.429942,30.743069],[122.529307,30.720771]]],[[[121.76238,31.373765],[121.78004,31.325181],[121.598806,31.429145],[121.76238,31.373765]]],[[[118.632743,39.074581],[118.514308,38.919445],[118.478483,39.042858],[118.559718,39.003125],[118.632743,39.074581]]],[[[111.680268,16.578152],[111.678884,16.581122],[111.681651,16.580186],[111.680268,16.578152]]]]}}