{"type":"Feature","properties":{"iso3":"CIV","name":"Ivory Coast","continent":"Africa"},"geometry":{"type":"MultiPolygon","coordinates":[[[[-7.989663,10.161991],[-7.838664,10.203719],[-7.777583,10.329862],[-7.670044,10.42877],[-7.556382,10.417272],[-7.515841,10.457812],[-7.471606,10.441095],[-7.445768,10.340378],[-7.372336,10.34477],[-7.346963,10.247903],[-7.106357,10.207259],[-7.015769,10.140881],[-6.95939,10.185503],[-6.997113,10.25276],[-6.973136,10.33229],[-6.782088,10.373037],[-6.677391,10.349034],[-6.647936,10.421871],[-6.695788,10.471197],[-6.667883,10.650901],[-6.537555,10.569692],[-6.42149,10.556592],[-6.399217,10.592481],[-6.433995,10.667929],[-6.409811,10.694387],[-6.25597,10.726478],[-6.249459,10.665603],[-6.207808,10.637543],[-6.261293,10.514088],[-6.196129,10.494684],[-6.180574,10.420218],[-6.240002,10.251933],[-6.105333,10.189276],[-6.015933,10.18987],[-5.974747,10.273638],[-5.916404,10.266635],[-5.893305,10.365027],[-5.806282,10.413474],[-5.594047,10.453937],[-5.505111,10.415567],[-5.402534,10.300561],[-5.152058,10.305625],[-5.119882,10.293983],[-5.111802,10.223718],[-5.084414,10.227439],[-5.037233,10.083753],[-5.015581,10.097111],[-4.956411,10.021999],[-4.981397,10.007737],[-4.967315,9.912368],[-4.936671,9.873998],[-4.798462,9.842527],[-4.799315,9.762532],[-4.730017,9.744238],[-4.686608,9.692407],[-4.592712,9.717832],[-4.552198,9.696464],[-4.517782,9.746615],[-4.50171,9.655019],[-4.409106,9.647733],[-4.371175,9.582956],[-4.349678,9.620034],[-4.322548,9.608898],[-4.253095,9.750052],[-4.150259,9.818291],[-4.053675,9.79762],[-3.910093,9.888493],[-3.755037,9.93588],[-3.389168,9.913246],[-3.277857,9.843457],[-3.202565,9.908234],[-3.200007,9.845369],[-3.136936,9.82953],[-3.094561,9.733851],[-2.989994,9.708427],[-2.810418,9.411106],[-2.763677,9.391883],[-2.689211,9.488724],[-2.672416,9.374028],[-2.713344,9.329923],[-2.661151,9.253907],[-2.755202,9.143138],[-2.774839,9.054978],[-2.660789,9.014903],[-2.617174,8.915013],[-2.506328,8.209267],[-2.617639,8.151493],[-2.610559,8.040001],[-2.690865,8.009745],[-2.771221,7.930732],[-2.790626,7.943289],[-2.797887,7.861278],[-2.941521,7.577161],[-2.990459,7.270668],[-2.972811,7.214961],[-3.040869,7.078329],[-3.095465,7.055178],[-3.224941,6.849402],[-3.243079,6.774756],[-3.212745,6.722666],[-3.262509,6.617142],[-3.183599,6.263908],[-3.139364,6.219286],[-3.022524,5.854502],[-3.029759,5.704252],[-2.964801,5.709782],[-2.974904,5.647279],[-2.945862,5.608289],[-2.893746,5.630355],[-2.785588,5.595034],[-2.732671,5.355721],[-2.789567,5.346858],[-2.766622,5.16103],[-2.946685,5.177069],[-2.943512,5.136786],[-2.977773,5.114976],[-3.14684,5.161322],[-3.205068,5.218655],[-3.125478,5.344631],[-3.16275,5.368842],[-3.24942,5.345364],[-3.282135,5.258734],[-3.240956,5.238511],[-3.320709,5.193508],[-3.275787,5.149115],[-3.312164,5.11994],[-3.710113,5.186103],[-3.721425,5.238511],[-3.748036,5.190131],[-3.827504,5.197577],[-4.001943,5.266506],[-3.896352,5.261542],[-3.899526,5.286933],[-3.77538,5.244778],[-3.782216,5.266506],[-3.739817,5.262397],[-3.715688,5.282294],[-3.758901,5.366197],[-3.804921,5.375963],[-3.743967,5.273993],[-3.844309,5.293158],[-3.906321,5.348375],[-3.912587,5.322211],[-3.997955,5.31684],[-3.940541,5.293158],[-3.971018,5.273017],[-4.125478,5.30744],[-4.255767,5.286933],[-4.274566,5.312405],[-4.543772,5.266506],[-4.563629,5.299994],[-4.612131,5.238511],[-4.693837,5.234605],[-4.667307,5.313625],[-4.749257,5.272691],[-4.722157,5.252265],[-4.808583,5.180487],[-4.55956,5.196967],[-4.530141,5.231676],[-4.199574,5.276842],[-4.060455,5.283352],[-3.995758,5.231676],[-4.784657,5.143948],[-4.969106,5.137397],[-4.99706,5.148749],[-4.99706,5.212795],[-5.098704,5.19477],[-5.310943,5.225491],[-5.323964,5.204413],[-5.297353,5.197577],[-5.352528,5.141832],[-5.392893,5.177069],[-5.398997,5.141995],[-5.269399,5.128648],[-5.338287,5.149115],[-5.286855,5.174058],[-5.197133,5.160142],[-5.180653,5.177069],[-5.228424,5.197577],[-5.181386,5.202338],[-5.120758,5.166978],[-5.033193,5.183295],[-5.014882,5.140082],[-5.495676,5.095282],[-5.550526,5.114976],[-5.630238,5.063218],[-5.851308,5.029975],[-6.610748,4.734768],[-6.903147,4.662014],[-7.058217,4.539008],[-7.232818,4.493313],[-7.43871,4.350979],[-7.573771,4.375393],[-7.572479,4.723356],[-7.606017,4.816193],[-7.605965,4.887997],[-7.553462,4.914249],[-7.578163,5.054731],[-7.488918,5.140669],[-7.468247,5.273452],[-7.430885,5.267535],[-7.388821,5.328384],[-7.450212,5.438713],[-7.419982,5.523127],[-7.393627,5.523979],[-7.405099,5.5724],[-7.384118,5.568964],[-7.449489,5.732364],[-7.446543,5.845949],[-7.478583,5.859876],[-7.494396,5.806184],[-7.674023,5.935737],[-7.70322,5.907883],[-7.786626,5.958165],[-7.805695,6.062034],[-7.861815,6.08149],[-7.844142,6.183965],[-7.91437,6.271737],[-8.033019,6.301761],[-8.170582,6.274011],[-8.342613,6.356952],[-8.411807,6.340028],[-8.418267,6.451209],[-8.467515,6.487073],[-8.515625,6.437593],[-8.568077,6.490406],[-8.61872,6.492835],[-8.337497,6.777262],[-8.284115,7.017867],[-8.425605,7.50192],[-8.485446,7.557989],[-8.414805,7.612921],[-8.228976,7.544295],[-8.096323,7.801902],[-8.128879,7.882569],[-8.067229,8.020752],[-7.962636,8.015171],[-8.015708,8.088474],[-8.002427,8.174308],[-8.182932,8.191672],[-8.265977,8.245984],[-8.235281,8.379515],[-8.254401,8.446514],[-8.200296,8.491834],[-7.95628,8.494366],[-7.898583,8.426283],[-7.865588,8.420882],[-7.823833,8.477856],[-7.77102,8.386518],[-7.662447,8.374865],[-7.703944,8.633479],[-7.803679,8.749054],[-7.958915,8.781997],[-7.96894,8.812848],[-7.931888,8.996455],[-7.746783,9.07645],[-7.847914,9.168563],[-7.929563,9.183885],[-7.865381,9.409918],[-8.054051,9.389092],[-8.157611,9.530866],[-8.123505,9.844852],[-8.171512,9.922832],[-8.136269,9.969444],[-8.15849,9.984921],[-7.989663,10.161991]]],[[[-3.115305,5.107815],[-3.272328,5.132392],[-3.23412,5.163479],[-3.115305,5.107815]]]]}}