{"type":"Feature","properties":{"iso3":"CMR","name":"Cameroon","continent":"Africa"},"geometry":{"type":"Polygon","coordinates":[[[11.322078,2.16576],[9.990997,2.165605],[9.810853,2.264876],[9.822927,2.562934],[9.877778,2.881415],[9.95574,3.050482],[9.90211,3.251695],[9.929454,3.264797],[9.780935,3.436754],[9.6421,3.539049],[9.819591,3.627875],[9.638438,3.594387],[9.545909,3.819648],[9.606944,3.752265],[9.662608,3.750718],[9.589203,3.809638],[9.621104,3.874823],[9.744477,3.819648],[9.738292,3.860582],[9.682872,3.890448],[9.68922,3.922431],[9.764415,3.957465],[9.618907,3.960354],[9.754568,4.135688],[9.579356,4.013007],[9.508556,4.054185],[9.490082,4.115871],[9.450369,4.080308],[9.523611,4.00609],[9.518565,3.970445],[9.42921,4.026557],[9.469086,3.923407],[9.359223,3.913723],[9.302582,3.964993],[9.326182,4.025702],[9.220714,3.96601],[9.196462,4.018866],[9.138682,4.015448],[8.983409,4.092434],[8.990977,4.217475],[8.918956,4.318061],[8.894786,4.460517],[8.93572,4.55329],[8.894786,4.535875],[8.901622,4.587388],[8.83961,4.642646],[8.858735,4.540839],[8.798595,4.601142],[8.799571,4.542182],[8.768565,4.553127],[8.716563,4.597724],[8.655121,4.738267],[8.645356,4.684068],[8.722667,4.513129],[8.576671,4.491889],[8.582693,4.523342],[8.510265,4.527045],[8.552094,4.614732],[8.511241,4.629055],[8.567638,4.69599],[8.602245,4.881331],[8.748282,5.12421],[8.79169,5.146741],[8.844297,5.492353],[8.903932,5.595086],[8.819286,5.703451],[8.862177,5.752337],[8.845227,5.831041],[8.921708,5.904473],[8.986304,5.908814],[9.136165,6.092523],[9.273315,6.202775],[9.341011,6.313983],[9.422866,6.339356],[9.453149,6.397673],[9.548957,6.443174],[9.588127,6.502731],[9.680525,6.521438],[9.788529,6.794754],[9.874622,6.787701],[10.142926,7.007687],[10.210828,6.879168],[10.495979,6.874672],[10.578661,7.130832],[10.620623,7.043757],[10.831876,6.94521],[10.909391,6.784264],[11.036721,6.740546],[11.113512,6.434001],[11.344196,6.443122],[11.389361,6.473921],[11.41675,6.572003],[11.509767,6.612311],[11.568885,6.739099],[11.544597,6.80894],[11.561754,6.876067],[11.881321,7.102048],[11.742415,7.257439],[12.021054,7.576231],[12.018987,7.718858],[12.192103,7.960652],[12.182594,8.093486],[12.236751,8.196994],[12.227036,8.386311],[12.271788,8.427781],[12.331319,8.424293],[12.395191,8.487338],[12.377001,8.59511],[12.482524,8.623247],[12.557972,8.605677],[12.660395,8.659318],[12.720236,8.756469],[12.772946,8.759053],[12.805709,8.831503],[12.822142,9.09681],[12.898416,9.262433],[12.855422,9.378111],[13.051689,9.504511],[13.195453,9.542209],[13.262942,9.801728],[13.211059,9.892756],[13.247956,10.079412],[13.378387,10.108609],[13.450837,10.187157],[13.538791,10.62142],[13.744411,10.930497],[13.75485,11.016719],[13.98233,11.276264],[14.165471,11.238333],[14.605754,11.514725],[14.62136,11.629782],[14.541882,11.709829],[14.623427,11.916535],[14.606271,12.011258],[14.663425,12.187578],[14.616296,12.178948],[14.487105,12.337801],[14.188932,12.370409],[14.064908,13.077988],[14.418169,13.081141],[14.496303,12.983808],[14.490619,12.886346],[14.575265,12.744908],[14.603997,12.760798],[14.694017,12.723721],[14.713654,12.65251],[14.728847,12.677212],[14.819178,12.638816],[14.908268,12.326897],[14.898036,12.152799],[14.950746,12.103345],[15.049448,12.084586],[15.076836,11.982836],[15.044177,11.877312],[15.110943,11.782899],[15.069395,11.660788],[15.135644,11.530822],[15.06061,11.416126],[15.021233,11.182549],[15.035185,10.994627],[15.079007,10.898147],[15.065881,10.793115],[15.149907,10.623125],[15.138228,10.521659],[15.218326,10.487216],[15.301422,10.311749],[15.476399,10.132742],[15.681244,9.991278],[15.439398,9.931695],[15.155488,9.986523],[15.033015,9.942857],[14.898139,9.960478],[14.772566,9.921747],[14.440493,9.995308],[14.173532,9.975025],[14.119789,9.85201],[13.945949,9.652642],[14.321327,9.243158],[14.349542,9.168356],[14.793856,8.813623],[14.89938,8.774323],[14.951469,8.68283],[15.051928,8.643789],[15.183703,8.479148],[15.345347,8.13599],[15.440742,7.839419],[15.562905,7.792445],[15.548952,7.630801],[15.419451,7.43655],[15.434954,7.402908],[15.223908,7.247517],[15.190214,7.098793],[15.136161,7.045308],[15.042213,6.790775],[14.932452,6.710289],[14.772255,6.318323],[14.719029,6.257862],[14.534957,6.190088],[14.387266,6.039038],[14.482144,5.90964],[14.572474,5.924187],[14.617433,5.864966],[14.631075,5.738049],[14.591491,5.590952],[14.617433,5.495299],[14.528033,5.293011],[14.658877,5.164544],[14.717272,4.622019],[14.779697,4.545047],[15.000562,4.403195],[15.072806,4.265942],[15.091202,4.121791],[15.192075,4.052234],[15.043143,4.026138],[15.084898,3.885836],[15.171301,3.758971],[15.78563,3.107977],[15.933425,3.081777],[15.971562,2.991188],[16.034194,2.970621],[16.092382,2.863289],[16.056208,2.759833],[16.062616,2.703195],[16.110468,2.701438],[16.090315,2.510494],[16.207723,2.22307],[16.097756,2.171548],[16.06489,1.97895],[16.159044,1.734805],[16.069851,1.654551],[16.021998,1.763795],[15.901799,1.793742],[15.76465,1.908722],[15.48291,1.97585],[15.349171,1.923295],[15.212642,2.039618],[15.151664,2.040988],[15.091616,1.984428],[14.980718,2.033107],[14.892455,2.00639],[14.907338,2.058894],[14.857005,2.115944],[14.826309,2.072252],[14.764814,2.065456],[14.747864,2.113205],[14.646062,2.133359],[14.562139,2.208807],[14.54705,2.166536],[14.438736,2.133979],[14.320293,2.17067],[13.294568,2.161058],[13.284646,2.242242],[13.163827,2.283169],[13.04094,2.244205],[12.924771,2.264049],[12.749898,2.236712],[12.312096,2.312935],[12.202645,2.279552],[11.768149,2.280172],[11.657252,2.322495],[11.351637,2.300584],[11.322078,2.16576]]]}}