{"type":"Feature","properties":{"iso3":"COD","name":"Democratic Republic of the Congo","continent":"Africa"},"geometry":{"type":"MultiPolygon","coordinates":[[[[18.626387,3.476869],[18.646541,4.045982],[18.556831,4.354154],[18.753304,4.400611],[19.106741,4.931518],[19.408975,5.130386],[19.82466,5.096977],[20.354034,4.755396],[20.559809,4.428361],[20.871521,4.453373],[21.195739,4.302917],[21.758496,4.285605],[22.303269,4.128716],[22.540464,4.227262],[22.59245,4.473707],[22.697146,4.512025],[22.888763,4.813222],[23.414519,4.590832],[23.566551,4.724441],[24.368466,5.012434],[24.396371,5.122298],[24.730614,4.917505],[25.292337,5.028273],[25.355899,5.286448],[25.540849,5.354429],[25.910852,5.170099],[26.157349,5.232472],[26.519807,5.045972],[26.739432,5.094393],[26.867073,5.037549],[27.073675,5.203327],[27.301878,5.131988],[27.763142,4.757101],[27.765209,4.612071],[28.014031,4.550033],[28.04974,4.419137],[28.404137,4.277828],[28.746855,4.54931],[28.825713,4.478384],[28.98622,4.495928],[29.173495,4.348004],[29.390226,4.493758],[29.449241,4.657055],[29.660287,4.622122],[29.796713,4.556028],[29.776198,4.405624],[30.189351,3.95609],[30.53889,3.84155],[30.55491,3.636394],[30.765129,3.661716],[30.880161,3.514412],[30.91003,3.393412],[30.743839,3.055474],[30.853393,2.853367],[30.71676,2.483105],[30.854943,2.339703],[30.968011,2.405436],[31.099063,2.282704],[31.177559,2.30291],[31.271455,2.102999],[30.478274,1.238634],[30.238857,1.136004],[30.165683,0.921444],[29.928281,0.785018],[29.926083,0.467073],[29.711809,0.099582],[29.551198,-1.020143],[29.577915,-1.38839],[29.245429,-1.640984],[29.12554,-1.879109],[29.10983,-2.23671],[28.860853,-2.439592],[28.891342,-2.652705],[29.234629,-3.046583],[29.215043,-3.899864],[29.33948,-4.093237],[29.410897,-4.502308],[29.32377,-4.920164],[29.612435,-5.704354],[29.476113,-6.002113],[29.525515,-6.273104],[29.738629,-6.652409],[30.090855,-6.890018],[30.29446,-7.149433],[30.752107,-8.194124],[28.915268,-8.472867],[28.893099,-8.765769],[28.372304,-9.235094],[28.617767,-9.543292],[28.696522,-9.796507],[28.569915,-10.219633],[28.699622,-10.643174],[28.549451,-10.858561],[28.355664,-11.518159],[28.497154,-11.857363],[28.741997,-11.98428],[29.067249,-12.384773],[29.514663,-12.44389],[29.467948,-12.255272],[29.756095,-12.157603],[29.797643,-13.424244],[29.641477,-13.438507],[29.663595,-13.301874],[29.574401,-13.225393],[29.194786,-13.430962],[29.010301,-13.399439],[28.707994,-12.889755],[28.568468,-12.895543],[28.436434,-12.542799],[28.339748,-12.450505],[27.958686,-12.367823],[27.877037,-12.269948],[27.666197,-12.30271],[27.536076,-12.200081],[27.420734,-11.921959],[27.234182,-11.809097],[27.180129,-11.569629],[27.032437,-11.59433],[26.967325,-11.870385],[26.717418,-12.013012],[26.414594,-11.91183],[25.994051,-11.904802],[25.621464,-11.728895],[25.474135,-11.756181],[25.360446,-11.647247],[25.286652,-11.416563],[25.322516,-11.205413],[24.712527,-11.326026],[24.469648,-11.465552],[24.310071,-11.406641],[24.381798,-11.12056],[24.124243,-11.043252],[24.114321,-10.927911],[23.967457,-10.872307],[23.867411,-11.016381],[23.415449,-10.963257],[23.014336,-11.102474],[22.53757,-11.037155],[22.281771,-11.236729],[22.174801,-10.884296],[22.319495,-10.703842],[22.313397,-10.368565],[22.159918,-9.931486],[21.878902,-9.657084],[21.803764,-9.372967],[21.939983,-8.499945],[21.758496,-8.015117],[21.859058,-7.482643],[21.76449,-7.282758],[20.567044,-7.286169],[20.524463,-7.143129],[20.611486,-6.915959],[19.521836,-7.001949],[19.513775,-7.448433],[19.458274,-7.560261],[19.355645,-7.57411],[19.355542,-8.001991],[18.516523,-7.932228],[18.507635,-7.997547],[18.135771,-8.018528],[18.098151,-8.109271],[17.867984,-8.044469],[17.628412,-8.098006],[17.544283,-8.084777],[17.176553,-7.428176],[16.996099,-7.297951],[16.926956,-6.888571],[16.733996,-6.586057],[16.717873,-6.174092],[16.552922,-5.902378],[13.353582,-5.882637],[12.858735,-5.819513],[12.671982,-6.000132],[12.475953,-6.045312],[12.266612,-5.850844],[12.210541,-5.763442],[12.258972,-5.736703],[12.508983,-5.726264],[12.530687,-5.162681],[12.450382,-5.098809],[13.087966,-4.579513],[13.430787,-4.843372],[13.698368,-4.693511],[13.711028,-4.464481],[13.78999,-4.424587],[13.934581,-4.498484],[14.368559,-4.278446],[14.46323,-4.422623],[14.3575,-4.589124],[14.396464,-4.855878],[14.702182,-4.889571],[15.566832,-4.038047],[15.882989,-3.945339],[16.225603,-3.313233],[16.194598,-2.182036],[16.604185,-1.754052],[16.828667,-1.276252],[17.022557,-1.097038],[17.357317,-0.973531],[17.728044,-0.553092],[17.757086,-0.009456],[17.939917,0.361271],[17.86664,1.016632],[18.071382,1.551457],[18.072416,2.145193],[18.631141,3.17898],[18.626387,3.476869]]],[[[12.90529,-5.869488],[12.972522,-5.868281],[12.745128,-5.940199],[12.90529,-5.869488]]]]}}