{"type":"Feature","properties":{"iso3":"COG","name":"Republic of the Congo","continent":"Africa"},"geometry":{"type":"Polygon","coordinates":[[[18.626387,3.476869],[18.642407,3.323829],[18.613055,3.128182],[18.528409,3.064775],[18.393223,2.713686],[18.233026,2.502587],[18.072416,2.160024],[18.071382,1.551457],[17.956247,1.171661],[17.86664,1.016632],[17.907671,0.740473],[17.893202,0.607664],[17.949943,0.491496],[17.945498,0.377291],[17.854031,0.241072],[17.716365,-0.195801],[17.749541,-0.523429],[17.308018,-1.014976],[17.028655,-1.094454],[16.839726,-1.262506],[16.513958,-1.887377],[16.194598,-2.182036],[16.178268,-2.318462],[16.225603,-2.635239],[16.177028,-2.882459],[16.193357,-3.238406],[16.225603,-3.313233],[15.912134,-3.917434],[15.844231,-3.965597],[15.533759,-4.057994],[15.462859,-4.207132],[15.20396,-4.339011],[15.09792,-4.499931],[14.931005,-4.646899],[14.831167,-4.815054],[14.672727,-4.899907],[14.501471,-4.840685],[14.418169,-4.883163],[14.396464,-4.855878],[14.406903,-4.676044],[14.349956,-4.566904],[14.466538,-4.448048],[14.368559,-4.278446],[14.184694,-4.377458],[14.021087,-4.415388],[13.934581,-4.498484],[13.87629,-4.491663],[13.810454,-4.426654],[13.726531,-4.446704],[13.712475,-4.685656],[13.591397,-4.779397],[13.51471,-4.755936],[13.482257,-4.77485],[13.496416,-4.792109],[13.403192,-4.876859],[13.349345,-4.785598],[13.18212,-4.686069],[13.112357,-4.576929],[13.071532,-4.60163],[13.073703,-4.635323],[13.027194,-4.612172],[12.869891,-4.411978],[12.761681,-4.391204],[12.608098,-4.565043],[12.387026,-4.605454],[12.332353,-4.765858],[12.244089,-4.796347],[12.204092,-4.763481],[12.130815,-4.912929],[11.994314,-5.005792],[11.819266,-4.77916],[11.843319,-4.788783],[11.850367,-4.752839],[11.777688,-4.657701],[11.820163,-4.637281],[11.806409,-4.577118],[11.401403,-4.221366],[11.363129,-4.131117],[11.270181,-4.041725],[11.114016,-3.936856],[11.212524,-3.697293],[11.413959,-3.587635],[11.482585,-3.509294],[11.569815,-3.54495],[11.687638,-3.69874],[11.840808,-3.709989],[11.905505,-3.643549],[11.824994,-3.571202],[11.884835,-3.413279],[11.954908,-3.335454],[11.944366,-3.303208],[11.687534,-3.17102],[11.706448,-3.04989],[11.778381,-3.005655],[11.636788,-2.833263],[11.547905,-2.863855],[11.52558,-2.843288],[11.624386,-2.632758],[11.576533,-2.502533],[11.566198,-2.329727],[11.655908,-2.345644],[11.739521,-2.413753],[11.938372,-2.329107],[12.062292,-2.414994],[12.45927,-2.329934],[12.49534,-2.11279],[12.440046,-2.045817],[12.423097,-1.897609],[12.499474,-1.917866],[12.572441,-1.83043],[12.632386,-1.825159],[12.804572,-1.919107],[12.907098,-2.195369],[12.945649,-2.18245],[13.003423,-2.275467],[12.966113,-2.366418],[13.049828,-2.342647],[13.469441,-2.435044],[13.60783,-2.311124],[13.740897,-2.102455],[13.906158,-2.359803],[13.855102,-2.41427],[13.86213,-2.480933],[14.096018,-2.491061],[14.14418,-2.390189],[14.230066,-2.352155],[14.148004,-2.224824],[14.195857,-2.201777],[14.238438,-2.120231],[14.240092,-1.982255],[14.397291,-1.906808],[14.406696,-1.735552],[14.448761,-1.686253],[14.371453,-1.619487],[14.463127,-1.54869],[14.452688,-1.449574],[14.487725,-1.40937],[14.426333,-1.331029],[14.465814,-1.224369],[14.391814,-1.023347],[14.457133,-0.856122],[14.44597,-0.775714],[14.489999,-0.600944],[14.39233,-0.482398],[14.320603,-0.444468],[14.159683,-0.455113],[14.138289,-0.336361],[14.095398,-0.276623],[13.921558,-0.237865],[13.883421,-0.264944],[13.831228,-0.205413],[13.921145,-0.052967],[13.931377,0.011628],[13.901404,0.036846],[13.871225,0.196423],[13.945226,0.350419],[14.059121,0.435272],[14.045582,0.497283],[14.075967,0.539451],[14.231823,0.542552],[14.328768,0.621204],[14.33838,0.693912],[14.447624,0.81623],[14.46044,0.921237],[14.400805,0.970329],[14.346442,1.087118],[14.28288,1.130113],[14.258178,1.319662],[14.14449,1.391622],[14.049509,1.376403],[14.00083,1.413016],[13.794744,1.434436],[13.758157,1.376506],[13.642247,1.357386],[13.509955,1.277287],[13.37694,1.294444],[13.25023,1.221787],[13.160313,1.247729],[13.242995,1.328861],[13.238447,1.41963],[13.129617,1.592462],[13.191008,1.828727],[13.162173,1.899833],[13.206925,1.993575],[13.281132,2.044967],[13.294568,2.161058],[14.320293,2.17067],[14.438736,2.133979],[14.587874,2.201727],[14.646062,2.133359],[14.747864,2.113205],[14.727297,2.099589],[14.76161,2.070185],[14.871474,2.101656],[14.907338,2.058894],[14.892455,2.00639],[14.953846,2.005822],[14.971003,2.034451],[15.074873,1.979364],[15.151664,2.040988],[15.212642,2.039618],[15.337802,1.92376],[15.48291,1.97585],[15.706772,1.931976],[15.889913,1.793277],[16.021998,1.763795],[16.069851,1.654551],[16.159044,1.734805],[16.06489,1.97895],[16.083493,2.137752],[16.104371,2.193562],[16.159251,2.18209],[16.199455,2.212166],[16.479128,2.836314],[16.445538,2.95765],[16.490807,3.067824],[16.465485,3.156501],[16.598501,3.501674],[16.686351,3.542214],[16.833008,3.522861],[16.853162,3.560094],[16.968607,3.533481],[17.182858,3.579602],[17.259442,3.625904],[17.334373,3.618514],[17.481858,3.704762],[17.586761,3.632234],[17.808349,3.608592],[17.856408,3.537305],[18.082028,3.563453],[18.181556,3.477386],[18.255867,3.577225],[18.379891,3.574382],[18.472081,3.632053],[18.570267,3.489607],[18.626387,3.476869]]]}}