{"type":"Feature","properties":{"iso3":"COK","name":"Cook Islands","continent":"Oceania"},"geometry":{"type":"MultiPolygon","coordinates":[[[[-157.93456,-21.877537],[-157.910349,-21.891697],[-157.887074,-21.926365],[-157.927724,-21.938897],[-157.961049,-21.923923],[-157.968699,-21.912286],[-157.96406,-21.900486],[-157.93456,-21.877537]]],[[[-157.707997,-19.767185],[-157.708241,-19.841241],[-157.721669,-19.85589],[-157.721669,-19.842218],[-157.742136,-19.80462],[-157.707997,-19.767185]]],[[[-157.940745,-8.980727],[-157.978627,-8.976007],[-158.00829,-8.952895],[-158.002878,-8.94671],[-157.940745,-8.974542],[-157.940745,-8.980727]]],[[[-159.797841,-21.18613],[-159.758412,-21.191827],[-159.742747,-21.201593],[-159.736033,-21.236993],[-159.743235,-21.254327],[-159.793284,-21.241632],[-159.833079,-21.244561],[-159.846262,-21.233819],[-159.83141,-21.195571],[-159.797841,-21.18613]]],[[[-157.312815,-20.155206],[-157.317983,-20.171808],[-157.328562,-20.179132],[-157.340321,-20.175714],[-157.348988,-20.143324],[-157.338572,-20.137384],[-157.324412,-20.141697],[-157.312815,-20.155206]]],[[[-158.078318,-19.994236],[-158.081776,-20.012791],[-158.096547,-20.019708],[-158.115102,-20.01572],[-158.129954,-20.000746],[-158.135203,-19.976495],[-158.12031,-19.972833],[-158.078318,-19.994236]]],[[[-158.2683,-19.832615],[-158.281077,-19.821954],[-158.276357,-19.8235],[-158.2683,-19.832615]]],[[[-158.287668,-19.810642],[-158.297353,-19.817315],[-158.295969,-19.814548],[-158.287668,-19.810642]]],[[[-158.92516,-19.26922],[-158.955556,-19.245294],[-158.945668,-19.24212],[-158.9322,-19.264255],[-158.91808,-19.261163],[-158.92516,-19.26922]]],[[[-165.824534,-10.881768],[-165.807688,-10.88128],[-165.818715,-10.891534],[-165.824534,-10.881768]]],[[[-160.986236,-10.382094],[-160.994333,-10.374688],[-160.9381,-10.422784],[-160.986236,-10.382094]]],[[[-161.088002,-10.035089],[-161.070058,-10.027439],[-161.08727,-10.04461],[-161.088002,-10.035089]]],[[[-159.785105,-18.830824],[-159.772613,-18.828953],[-159.761383,-18.845392],[-159.766632,-18.835219],[-159.779246,-18.852879],[-159.776479,-18.878188],[-159.782867,-18.887953],[-159.793609,-18.887465],[-159.802317,-18.865818],[-159.785105,-18.830824]]]]}}