{"type":"Feature","properties":{"iso3":"COL","name":"Colombia","continent":"Americas"},"geometry":{"type":"MultiPolygon","coordinates":[[[[-78.828684,1.434312],[-78.867096,1.560289],[-78.899599,1.545328],[-78.99798,1.607937],[-79.016612,1.654965],[-78.846052,1.821585],[-78.571849,1.796212],[-78.5454,1.91474],[-78.59763,1.909885],[-78.608022,2.027981],[-78.647474,1.980641],[-78.667348,2.003648],[-78.703159,2.189805],[-78.574086,2.433173],[-78.55899,2.449164],[-78.55899,2.381537],[-78.525045,2.495507],[-78.346018,2.647986],[-78.25475,2.541897],[-78.270076,2.634952],[-78.246931,2.663601],[-78.193105,2.52143],[-78.122955,2.493638],[-78.086659,2.510565],[-78.105365,2.642204],[-77.969283,2.676372],[-77.884348,2.572089],[-77.760406,2.59162],[-77.812856,2.754096],[-77.733551,2.786119],[-77.785756,2.794827],[-77.770823,2.808743],[-77.696278,2.791734],[-77.723541,2.840155],[-77.644887,2.853746],[-77.657704,2.876899],[-77.70934,2.860663],[-77.710072,2.918118],[-77.643381,2.898139],[-77.625071,2.924465],[-77.642161,2.994289],[-77.713938,2.974758],[-77.539629,3.196845],[-77.479684,3.227464],[-77.538602,3.237124],[-77.464864,3.301626],[-77.457387,3.356147],[-77.380971,3.387641],[-77.318918,3.319973],[-77.367055,3.402086],[-77.353017,3.429836],[-77.342681,3.412055],[-77.33316,3.511786],[-77.264272,3.470852],[-77.29898,3.558987],[-77.209625,3.580634],[-77.189198,3.662584],[-77.124867,3.673733],[-77.170806,3.677191],[-77.126454,3.717231],[-77.185414,3.703599],[-77.195424,3.758205],[-77.130198,3.731513],[-77.174916,3.758205],[-77.126454,3.778713],[-77.151479,3.800442],[-77.133941,3.827094],[-77.1197,3.809516],[-77.031565,3.922065],[-77.116078,3.923814],[-77.123036,3.886135],[-77.253163,3.840806],[-77.311757,3.908433],[-77.300201,3.969143],[-77.223988,3.971991],[-77.243764,3.977281],[-77.189198,4.067328],[-77.264272,4.108222],[-77.264272,4.067328],[-77.318918,4.053046],[-77.362131,3.928046],[-77.43517,4.029364],[-77.408274,4.0456],[-77.426666,4.180365],[-77.348053,4.224677],[-77.29898,4.203192],[-77.236318,4.265326],[-77.320912,4.266343],[-77.387196,4.347235],[-77.312734,4.471381],[-77.33316,4.471381],[-77.318918,4.683661],[-77.306304,4.6612],[-77.291615,4.682074],[-77.32311,4.738756],[-77.258046,4.704088],[-77.348622,4.854193],[-77.359202,5.297309],[-77.380971,5.375067],[-77.404652,5.374701],[-77.402577,5.449652],[-77.462148,5.501044],[-77.559193,5.503079],[-77.481842,5.597602],[-77.419504,5.625678],[-77.33316,5.615302],[-77.243764,5.745673],[-77.353017,6.02619],[-77.360463,5.998928],[-77.480621,6.174058],[-77.483388,6.294338],[-77.41511,6.239081],[-77.380971,6.300523],[-77.399281,6.387641],[-77.359934,6.419176],[-77.380971,6.43769],[-77.345367,6.566107],[-77.404693,6.630113],[-77.411244,6.693793],[-77.486155,6.715074],[-77.531809,6.663642],[-77.593251,6.828111],[-77.662506,6.871772],[-77.687367,6.85399],[-77.701324,6.918362],[-77.65274,6.97663],[-77.665028,7.01557],[-77.696278,7.07453],[-77.688832,7.054633],[-77.888051,7.232815],[-77.820181,7.476547],[-77.75512,7.486107],[-77.731245,7.530343],[-77.764215,7.705732],[-77.740237,7.718858],[-77.679931,7.670954],[-77.61332,7.537474],[-77.579989,7.528379],[-77.339745,7.707231],[-77.379897,7.77441],[-77.300419,7.902103],[-77.169006,7.935072],[-77.260111,8.154025],[-77.374368,8.289314],[-77.405787,8.428453],[-77.479685,8.467856],[-77.435036,8.620638],[-77.351674,8.669338],[-77.274729,8.495795],[-77.133616,8.408393],[-77.031565,8.259996],[-76.970123,8.26675],[-76.970123,8.22134],[-76.921702,8.199205],[-76.942535,8.128852],[-76.832265,8.136542],[-76.846547,8.095526],[-76.825429,8.103013],[-76.860219,8.082506],[-76.837066,8.062486],[-76.866444,8.061998],[-76.832265,8.027289],[-76.907704,8.044094],[-76.933705,7.964586],[-76.853586,7.912746],[-76.767649,7.917426],[-76.730621,8.051337],[-76.759185,8.114691],[-76.77009,8.398017],[-76.838612,8.500434],[-76.935292,8.541815],[-76.930816,8.570705],[-76.893707,8.620347],[-76.673207,8.680406],[-76.640492,8.739814],[-76.560455,8.775377],[-76.426869,8.910549],[-76.315541,8.94774],[-76.264272,8.996324],[-76.174875,9.232856],[-76.112538,9.276353],[-76.096099,9.333197],[-75.921343,9.43837],[-75.818674,9.446194],[-75.798085,9.430365],[-75.852854,9.412055],[-75.812896,9.399848],[-75.739247,9.425727],[-75.672608,9.40999],[-75.620633,9.452853],[-75.576367,9.621086],[-75.618031,9.689276],[-75.702806,9.690717],[-75.639945,9.783263],[-75.576191,10.041847],[-75.583921,10.135911],[-75.53067,10.240668],[-75.68488,10.13152],[-75.688922,10.167966],[-75.637685,10.203681],[-75.597524,10.294379],[-75.527252,10.309556],[-75.523834,10.391506],[-75.569407,10.425279],[-75.512115,10.481676],[-75.5065,10.425605],[-75.487131,10.455878],[-75.524526,10.567084],[-75.373036,10.693101],[-75.222239,10.734687],[-75.270009,10.759101],[-75.267405,10.795315],[-75.04955,10.90119],[-75.01415,10.980414],[-74.86151,11.048834],[-74.848225,11.098001],[-74.819336,11.097919],[-74.522951,10.995924],[-74.29783,10.991499],[-74.502838,10.974311],[-74.517445,10.926663],[-74.48176,10.850816],[-74.589223,10.88467],[-74.598459,10.781928],[-74.56428,10.830959],[-74.543813,10.76203],[-74.512318,10.756008],[-74.495432,10.781928],[-74.523305,10.802965],[-74.489654,10.841051],[-74.465688,10.75967],[-74.402089,10.748033],[-74.218129,11.079088],[-74.233632,11.241156],[-74.153391,11.343655],[-74.139068,11.323717],[-74.004628,11.355292],[-73.826039,11.27676],[-73.705149,11.268256],[-73.292388,11.294013],[-72.741322,11.707953],[-72.452056,11.791327],[-72.263051,11.885972],[-72.145497,12.092515],[-72.170522,12.23428],[-72.138661,12.256049],[-71.969635,12.255113],[-72.015126,12.193996],[-71.984853,12.160956],[-71.937611,12.166449],[-71.867665,12.228095],[-71.905263,12.282701],[-71.946848,12.269029],[-71.914784,12.313625],[-71.820912,12.377875],[-71.840077,12.351711],[-71.802846,12.323676],[-71.732533,12.410224],[-71.699818,12.365302],[-71.640736,12.415961],[-71.69929,12.446275],[-71.725697,12.423489],[-71.675608,12.468329],[-71.511301,12.443264],[-71.26183,12.341864],[-71.113881,12.094387],[-71.126088,12.031195],[-71.409668,11.812303],[-71.990614,11.649058],[-72.256593,11.167795],[-72.499317,11.120795],[-72.57647,10.957368],[-72.682975,10.855618],[-72.754392,10.674853],[-72.914899,10.432904],[-72.935621,10.175194],[-72.987711,9.999417],[-72.98554,9.812167],[-73.107652,9.577995],[-73.163721,9.536344],[-73.391149,9.172775],[-73.212245,9.173446],[-73.009725,9.295377],[-72.95531,9.103993],[-72.861724,9.13704],[-72.785604,9.102443],[-72.67543,8.651514],[-72.393535,8.355383],[-72.390538,8.234331],[-72.335761,8.103899],[-72.350075,8.042585],[-72.388316,8.046177],[-72.487793,7.94918],[-72.451774,7.832805],[-72.478698,7.484454],[-72.414619,7.413812],[-72.206208,7.381876],[-72.098256,7.086752],[-72.00529,7.019108],[-71.848194,6.983864],[-71.774038,7.028926],[-71.620404,7.052129],[-71.4677,7.012441],[-71.307762,7.027376],[-71.262028,6.978697],[-71.193815,6.965312],[-71.011268,6.990892],[-70.903445,7.063188],[-70.703302,7.09993],[-70.571476,7.079362],[-70.52091,7.015594],[-70.319062,6.938286],[-70.129203,6.972547],[-69.443638,6.122237],[-69.331396,6.15637],[-69.246104,6.080664],[-69.061129,6.217839],[-68.635315,6.13588],[-68.449021,6.194998],[-68.304172,6.176988],[-68.146508,6.223781],[-67.977991,6.217839],[-67.818517,6.31375],[-67.573984,6.266234],[-67.450972,6.198035],[-67.491199,6.114486],[-67.418593,5.995346],[-67.625144,5.784506],[-67.64907,5.65609],[-67.622974,5.53341],[-67.647003,5.483362],[-67.834589,5.339313],[-67.827561,5.130696],[-67.796761,5.070157],[-67.822858,4.743588],[-67.875051,4.532644],[-67.793092,4.428981],[-67.786219,4.172976],[-67.714079,4.056498],[-67.631759,3.761865],[-67.499829,3.717914],[-67.403917,3.504464],[-67.304647,3.425709],[-67.309453,3.383929],[-67.395804,3.266572],[-67.838619,2.88613],[-67.855931,2.789753],[-67.751028,2.842102],[-67.608453,2.79859],[-67.575586,2.691103],[-67.485204,2.661906],[-67.325421,2.47463],[-67.197625,2.402025],[-67.17375,2.336448],[-67.217262,2.266064],[-67.177833,2.154495],[-67.120989,2.119097],[-67.135148,2.003341],[-67.066832,1.894123],[-66.93361,1.501692],[-66.936504,1.438518],[-66.883536,1.349945],[-66.900899,1.288966],[-66.875061,1.22251],[-67.086107,1.176002],[-67.073601,1.541199],[-67.117165,1.709793],[-67.340614,2.090106],[-67.424639,2.138114],[-67.59295,2.054811],[-67.820843,1.784001],[-67.928846,1.74129],[-68.031786,1.777515],[-68.111109,1.942415],[-68.187435,2.008251],[-68.280246,1.829398],[-68.163302,1.721291],[-69.352403,1.720206],[-69.541952,1.772709],[-69.841185,1.707579],[-69.852192,1.05942],[-69.762559,1.091097],[-69.726514,1.061022],[-69.478261,1.06066],[-69.428419,1.030481],[-69.338786,1.064122],[-69.288815,1.038439],[-69.204324,0.943664],[-69.209983,0.907543],[-69.152389,0.867803],[-69.18926,0.715151],[-69.141201,0.668177],[-69.143656,0.637533],[-69.278997,0.61924],[-69.32026,0.656343],[-69.362557,0.640944],[-69.47808,0.732825],[-69.594119,0.689313],[-69.619157,0.650659],[-69.679489,0.670038],[-69.805321,0.606941],[-70.054246,0.588131],[-70.068044,-0.160144],[-69.944356,-0.305458],[-69.619751,-0.524566],[-69.586962,-0.632467],[-69.618356,-0.756904],[-69.532599,-0.93405],[-69.449968,-0.996786],[-69.448289,-1.080398],[-69.399454,-1.182717],[-69.957198,-4.220878],[-70.030501,-4.131581],[-70.188398,-4.028952],[-70.216975,-3.924979],[-70.311104,-3.829274],[-70.377689,-3.818836],[-70.490886,-3.87847],[-70.734127,-3.782042],[-70.050629,-2.71513],[-70.094967,-2.632551],[-70.159718,-2.663971],[-70.183877,-2.619529],[-70.24731,-2.60723],[-70.273949,-2.546252],[-70.359602,-2.560618],[-70.375725,-2.541084],[-70.344926,-2.496642],[-70.456987,-2.492715],[-70.578607,-2.405485],[-70.647595,-2.450754],[-70.699065,-2.341096],[-70.904556,-2.211078],[-71.021448,-2.196712],[-71.020622,-2.258931],[-71.119969,-2.252109],[-71.20906,-2.339236],[-71.315461,-2.334068],[-71.42083,-2.37603],[-71.456486,-2.255107],[-71.514054,-2.307403],[-71.538394,-2.222964],[-71.654924,-2.173768],[-71.712026,-2.18679],[-71.738485,-2.137698],[-71.826128,-2.179039],[-71.936354,-2.311847],[-72.089419,-2.330968],[-72.161456,-2.405692],[-72.276695,-2.401558],[-72.280984,-2.426156],[-72.378032,-2.450754],[-72.644321,-2.334068],[-72.71243,-2.422125],[-72.72876,-2.374686],[-72.926164,-2.425226],[-72.987556,-2.337686],[-73.161395,-2.285389],[-73.195295,-2.187204],[-73.111062,-2.073412],[-73.172557,-1.943601],[-73.186252,-1.799631],[-73.247023,-1.742373],[-73.350531,-1.790639],[-73.510935,-1.698552],[-73.528815,-1.635093],[-73.484528,-1.572461],[-73.495277,-1.487918],[-73.574212,-1.416915],[-73.63656,-1.255168],[-73.769782,-1.188919],[-73.814482,-1.223335],[-73.857167,-1.210519],[-73.914114,-1.123083],[-73.982689,-1.099208],[-73.974472,-1.07337],[-74.037207,-1.079675],[-74.065449,-1.001436],[-74.119631,-1.02097],[-74.266754,-0.972291],[-74.338326,-0.867698],[-74.28913,-0.836279],[-74.302798,-0.785429],[-74.378194,-0.736543],[-74.367265,-0.683213],[-74.415815,-0.552678],[-74.632727,-0.34742],[-74.790701,-0.31259],[-74.755329,-0.278276],[-74.824653,-0.170479],[-74.882711,-0.222776],[-74.933458,-0.209443],[-75.141688,-0.043459],[-75.206748,-0.029093],[-75.268347,-0.10175],[-75.301962,-0.096065],[-75.464924,-0.039738],[-75.626774,0.078911],[-75.78971,0.084389],[-75.951974,0.203968],[-76.053467,0.363545],[-76.124677,0.359617],[-76.144676,0.400442],[-76.223741,0.406746],[-76.290507,0.457183],[-76.406934,0.400132],[-76.408019,0.254508],[-76.550801,0.217921],[-76.724537,0.277555],[-76.734355,0.233114],[-76.896826,0.245309],[-77.082861,0.348869],[-77.206936,0.334193],[-77.397467,0.387626],[-77.434726,0.433825],[-77.468057,0.650866],[-77.54335,0.656447],[-77.645566,0.716288],[-77.703185,0.843102],[-77.847983,0.809254],[-77.928184,0.872351],[-78.120007,0.921237],[-78.349218,1.055802],[-78.485205,1.192642],[-78.570057,1.195845],[-78.602148,1.263645],[-78.664677,1.266642],[-78.828684,1.434312]]],[[[-78.131418,2.627265],[-78.096181,2.540025],[-78.134429,2.504381],[-78.207021,2.575344],[-78.216696,2.67015],[-78.165919,2.685516],[-78.131418,2.627265]]],[[[-77.902333,2.696234],[-77.785024,2.593817],[-77.888051,2.593817],[-77.867177,2.627183],[-77.914052,2.658677],[-77.902333,2.696234]]],[[[-77.806142,2.662055],[-77.759104,2.603095],[-77.847076,2.648383],[-77.883901,2.707994],[-77.819203,2.696234],[-77.806142,2.662055]]],[[[-77.353017,4.265326],[-77.291168,4.262356],[-77.290028,4.229438],[-77.549143,4.218655],[-77.499664,4.260972],[-77.449534,4.258287],[-77.432973,4.334418],[-77.353017,4.265326]]],[[[-81.711497,12.522935],[-81.716949,12.563218],[-81.686391,12.580064],[-81.711497,12.522935]]],[[[-81.382639,13.319159],[-81.378733,13.362698],[-81.351389,13.366197],[-81.382639,13.319159]]],[[[-81.611724,3.95897],[-81.590566,3.990465],[-81.578725,3.978176],[-81.611724,3.95897]]],[[[-78.186612,2.990373],[-78.16427,3.001596],[-78.208155,2.929889],[-78.186612,2.990373]]],[[[-75.586801,10.367792],[-75.53532,10.350646],[-75.58229,10.319033],[-75.586801,10.367792]]],[[[-80.089915,13.578355],[-80.089426,13.57685],[-80.090891,13.577094],[-80.089915,13.578355]]]]}}