{"type":"Feature","properties":{"iso3":"COM","name":"Comoros","continent":"Africa"},"geometry":{"type":"MultiPolygon","coordinates":[[[[43.788748,-12.308038],[43.850108,-12.346124],[43.861583,-12.363377],[43.858165,-12.371352],[43.819347,-12.373468],[43.665212,-12.352472],[43.658946,-12.318292],[43.633962,-12.301039],[43.629893,-12.251723],[43.635753,-12.236912],[43.727224,-12.263604],[43.788748,-12.308038]]],[[[44.529063,-12.232843],[44.528494,-12.35475],[44.52296,-12.372817],[44.511485,-12.380304],[44.484141,-12.358005],[44.473318,-12.329767],[44.399587,-12.279962],[44.385265,-12.251723],[44.330577,-12.236261],[44.268403,-12.205011],[44.206391,-12.160577],[44.32309,-12.187921],[44.343516,-12.174249],[44.373546,-12.180352],[44.400076,-12.156508],[44.415294,-12.119317],[44.411794,-12.085545],[44.467052,-12.064386],[44.480724,-12.082452],[44.529063,-12.232843]]],[[[43.466563,-11.82171],[43.498302,-11.882013],[43.479991,-11.922784],[43.437673,-11.931573],[43.425955,-11.911554],[43.369965,-11.86061],[43.301768,-11.849542],[43.271007,-11.82822],[43.254242,-11.790704],[43.217784,-11.750258],[43.215994,-11.715997],[43.244151,-11.672947],[43.240571,-11.639825],[43.254405,-11.463067],[43.246837,-11.440606],[43.276541,-11.379571],[43.355724,-11.361261],[43.374034,-11.368585],[43.394867,-11.40016],[43.399425,-11.41839],[43.377126,-11.605076],[43.386078,-11.645603],[43.430512,-11.708185],[43.446625,-11.749119],[43.446625,-11.790704],[43.466563,-11.82171]]]]}}