{"type":"Feature","properties":{"iso3":"CPV","name":"Cabo Verde","continent":"Africa"},"geometry":{"type":"MultiPolygon","coordinates":[[[[-24.704335,14.900824],[-24.686757,14.876166],[-24.683258,14.842475],[-24.686879,14.826646],[-24.718007,14.803941],[-24.751536,14.838772],[-24.758941,14.831855],[-24.753245,14.849351],[-24.758941,14.866645],[-24.745351,14.866645],[-24.74942,14.885484],[-24.704335,14.900824]]],[[[-24.296539,14.917548],[-24.301503,14.90648],[-24.292836,14.87287],[-24.29955,14.863023],[-24.334462,14.831855],[-24.376536,14.815985],[-24.415028,14.820868],[-24.449086,14.83808],[-24.506581,14.884955],[-24.526235,14.924709],[-24.520619,14.945258],[-24.488922,14.990546],[-24.403432,15.038031],[-24.364858,15.045396],[-24.343251,15.040717],[-24.320139,15.013007],[-24.296539,14.917548]]],[[[-23.456776,15.023668],[-23.443105,15.010688],[-23.447825,14.995754],[-23.477895,14.969062],[-23.470448,14.962226],[-23.494008,14.918687],[-23.53185,14.908637],[-23.624135,14.918118],[-23.676503,14.935533],[-23.715077,14.968451],[-23.73054,14.985826],[-23.730702,15.0185],[-23.772084,15.037991],[-23.792592,15.085761],[-23.772084,15.127346],[-23.785756,15.174506],[-23.770131,15.183987],[-23.763661,15.216295],[-23.751576,15.233466],[-23.763295,15.269761],[-23.785756,15.291815],[-23.758412,15.304877],[-23.77953,15.311672],[-23.751576,15.33275],[-23.74413,15.33275],[-23.737945,15.311672],[-23.719228,15.322903],[-23.703236,15.313463],[-23.697825,15.296332],[-23.710683,15.284369],[-23.697336,15.266018],[-23.648549,15.237209],[-23.656077,15.229722],[-23.630279,15.219184],[-23.584218,15.162421],[-23.567372,15.152086],[-23.552358,15.153998],[-23.527252,15.127387],[-23.514068,15.127997],[-23.470448,15.037991],[-23.456776,15.023668]]],[[[-23.127797,15.311672],[-23.111928,15.171942],[-23.127797,15.146633],[-23.155141,15.140367],[-23.168813,15.119859],[-23.195953,15.122056],[-23.240631,15.150051],[-23.258168,15.174506],[-23.243276,15.21133],[-23.251332,15.222886],[-23.230865,15.243964],[-23.234853,15.254828],[-23.251332,15.256415],[-23.209788,15.311672],[-23.217152,15.319159],[-23.189849,15.33275],[-23.189849,15.319159],[-23.176259,15.33275],[-23.168813,15.325344],[-23.176259,15.319159],[-23.161936,15.312567],[-23.139516,15.317776],[-23.127797,15.311672]]],[[[-22.682118,16.113593],[-22.666575,16.091457],[-22.679799,16.063218],[-22.751088,16.010565],[-22.806142,15.985907],[-22.873891,15.983873],[-22.945546,16.01968],[-22.957753,16.030829],[-22.963979,16.052191],[-22.957753,16.089016],[-22.913564,16.125556],[-22.924428,16.212958],[-22.915598,16.243964],[-22.89509,16.222846],[-22.852528,16.20661],[-22.829416,16.204006],[-22.811676,16.22842],[-22.793813,16.23135],[-22.723866,16.212633],[-22.703765,16.179592],[-22.682485,16.168647],[-22.682118,16.113593]]],[[[-24.067535,16.613918],[-24.037424,16.593004],[-24.032826,16.596829],[-24.032826,16.562405],[-24.114735,16.559272],[-24.233306,16.602118],[-24.272328,16.587226],[-24.315338,16.520413],[-24.324696,16.482652],[-24.365631,16.555609],[-24.37092,16.587144],[-24.408274,16.600165],[-24.424713,16.617133],[-24.430653,16.639472],[-24.422597,16.662299],[-24.36148,16.681586],[-24.340566,16.67536],[-24.292836,16.641832],[-24.226796,16.649604],[-24.180572,16.630845],[-24.089996,16.622463],[-24.067535,16.613918]]],[[[-22.929189,16.593411],[-22.941396,16.669379],[-22.956532,16.699449],[-22.97761,16.689032],[-22.98176,16.703518],[-22.980051,16.741116],[-22.970815,16.75788],[-22.989247,16.770941],[-22.990793,16.81566],[-22.922434,16.860297],[-22.89509,16.829291],[-22.909779,16.803371],[-22.904042,16.79857],[-22.904652,16.735826],[-22.901845,16.716946],[-22.881337,16.692694],[-22.887603,16.651435],[-22.901845,16.634426],[-22.89684,16.615465],[-22.901723,16.605902],[-22.929189,16.593411]]],[[[-24.919749,16.895087],[-24.914459,16.881415],[-24.885894,16.867743],[-24.876291,16.84984],[-24.875071,16.826158],[-24.891103,16.813951],[-24.968129,16.798896],[-24.995229,16.786119],[-25.058176,16.809638],[-25.081125,16.832343],[-25.094146,16.826158],[-25.078196,16.865058],[-25.05012,16.881415],[-25.005971,16.887681],[-25.012196,16.901272],[-24.978098,16.923],[-24.971262,16.923],[-24.965199,16.908922],[-24.937734,16.923],[-24.918772,16.908271],[-24.919749,16.895087]]],[[[-25.046986,17.035061],[-25.115875,16.997463],[-25.187856,16.928168],[-25.298695,16.917385],[-25.313385,16.938463],[-25.313873,17.00495],[-25.327545,17.028225],[-25.354848,17.038479],[-25.360422,17.055243],[-25.35558,17.069566],[-25.316803,17.106106],[-25.279775,17.107327],[-25.245351,17.136705],[-25.202707,17.158759],[-25.10261,17.196601],[-25.079498,17.18537],[-25.03954,17.18244],[-25.026275,17.167711],[-25.025868,17.144924],[-24.99177,17.130927],[-24.971262,17.107327],[-24.978993,17.0869],[-25.015126,17.04914],[-25.046986,17.035061]]],[[[-24.59266,16.624312],[-24.569512,16.619972],[-24.575299,16.605505],[-24.60134,16.609845],[-24.604233,16.621419],[-24.59266,16.624312]]],[[[-24.7735,16.802259],[-24.748906,16.793579],[-24.725758,16.757411],[-24.683803,16.755964],[-24.68525,16.742944],[-24.740225,16.734263],[-24.754693,16.754518],[-24.787967,16.774772],[-24.787967,16.789239],[-24.7735,16.802259]]]]}}