{"type":"Feature","properties":{"iso3":"CRI","name":"Costa Rica","continent":"Americas"},"geometry":{"type":"MultiPolygon","coordinates":[[[[-83.6965,10.936594],[-83.672991,10.933232],[-83.675564,10.925976],[-83.660756,10.934394],[-83.644358,10.92593],[-83.598704,10.856594],[-83.580556,10.807318],[-83.582875,10.775702],[-83.597564,10.793606],[-83.62385,10.857611],[-83.606923,10.777777],[-83.608632,10.74551],[-83.637522,10.721096],[-83.589101,10.747748],[-83.594716,10.736558],[-83.589101,10.721096],[-83.575429,10.768256],[-83.466176,10.494534],[-83.394521,10.376044],[-83.203725,10.12934],[-83.085317,10.002143],[-83.061513,10.015326],[-83.026031,10.005032],[-83.009348,9.949286],[-82.877268,9.780097],[-82.833811,9.739488],[-82.808258,9.747219],[-82.78775,9.672756],[-82.70523,9.637926],[-82.635894,9.634508],[-82.616444,9.624335],[-82.59142,9.586982],[-82.574574,9.576809],[-82.562837,9.538695],[-82.601103,9.548669],[-82.618854,9.486709],[-82.650713,9.487846],[-82.678049,9.497768],[-82.711691,9.545],[-82.729364,9.544897],[-82.771093,9.579856],[-82.829022,9.602722],[-82.847471,9.600655],[-82.866048,9.585075],[-82.879252,9.559909],[-82.860209,9.511204],[-82.844783,9.500687],[-82.846385,9.492548],[-82.933305,9.470327],[-82.941703,9.456349],[-82.939377,9.059577],[-82.900232,9.072057],[-82.88243,9.04534],[-82.808171,8.998367],[-82.74913,8.974079],[-82.719365,8.921524],[-82.73386,8.897985],[-82.763781,8.87995],[-82.87858,8.829772],[-82.888321,8.816931],[-82.875634,8.807526],[-82.875789,8.793909],[-82.92297,8.756159],[-82.919223,8.727065],[-82.862224,8.6557],[-82.841864,8.599476],[-82.835973,8.529765],[-82.848297,8.465169],[-82.870415,8.438117],[-82.953511,8.402098],[-82.997772,8.360163],[-83.052109,8.327632],[-83.053246,8.315101],[-82.995524,8.26482],[-82.968006,8.267972],[-82.943666,8.248567],[-82.939093,8.216838],[-82.886409,8.102194],[-82.897629,8.034748],[-82.911244,8.045356],[-82.90038,8.105048],[-82.968495,8.221218],[-83.150868,8.369289],[-83.092681,8.446682],[-83.137196,8.514553],[-83.137725,8.529324],[-83.102447,8.548041],[-83.143422,8.550238],[-83.165151,8.563747],[-83.185048,8.602688],[-83.178212,8.61697],[-83.161733,8.600735],[-83.157704,8.579413],[-83.123565,8.589016],[-83.123565,8.596462],[-83.151723,8.61286],[-83.171376,8.637478],[-83.18578,8.62519],[-83.240264,8.623806],[-83.259307,8.651313],[-83.273183,8.658474],[-83.287384,8.651068],[-83.319081,8.669582],[-83.328359,8.684597],[-83.322174,8.705715],[-83.335805,8.705715],[-83.331695,8.722073],[-83.383656,8.739814],[-83.389516,8.728095],[-83.411529,8.733669],[-83.421661,8.715155],[-83.48172,8.712592],[-83.486684,8.692694],[-83.473012,8.698879],[-83.404775,8.589016],[-83.339223,8.569159],[-83.299713,8.534369],[-83.287384,8.541815],[-83.294911,8.493435],[-83.279815,8.472927],[-83.273712,8.437934],[-83.276357,8.401557],[-83.287384,8.376736],[-83.346425,8.3876],[-83.380889,8.40412],[-83.397247,8.41767],[-83.369374,8.410915],[-83.404775,8.431952],[-83.404775,8.41767],[-83.462432,8.442694],[-83.561147,8.438178],[-83.575592,8.444973],[-83.7058,8.579413],[-83.736806,8.592719],[-83.739898,8.623806],[-83.709462,8.670356],[-83.686676,8.68769],[-83.675933,8.691799],[-83.667836,8.682929],[-83.660919,8.689846],[-83.630035,8.733669],[-83.642568,8.749538],[-83.627471,8.767401],[-83.575429,8.788275],[-83.575429,8.79446],[-83.60794,8.796047],[-83.638661,8.772284],[-83.642568,8.781887],[-83.623809,8.815579],[-83.587636,8.835354],[-83.582875,8.846625],[-83.613881,8.873236],[-83.616363,8.890692],[-83.575429,8.877631],[-83.612945,8.907782],[-83.630035,8.91177],[-83.617909,8.919013],[-83.626576,8.928249],[-83.625518,8.942654],[-83.603383,8.966376],[-83.634755,9.044094],[-83.651153,9.061957],[-83.657989,9.055203],[-83.727203,9.144314],[-83.767201,9.151394],[-83.764882,9.177191],[-83.786895,9.199246],[-83.839508,9.220282],[-83.91808,9.294745],[-84.007436,9.339748],[-84.103627,9.377265],[-84.121938,9.372626],[-84.13036,9.384711],[-84.144073,9.378852],[-84.161529,9.394721],[-84.1787,9.397773],[-84.167958,9.416205],[-84.18224,9.442206],[-84.208363,9.464993],[-84.233388,9.473456],[-84.233388,9.466702],[-84.205434,9.45303],[-84.231435,9.457546],[-84.272694,9.481594],[-84.457916,9.526028],[-84.535024,9.521308],[-84.555409,9.552395],[-84.569122,9.555447],[-84.562978,9.541164],[-84.616567,9.57807],[-84.627309,9.606716],[-84.657948,9.624335],[-84.662709,9.651679],[-84.678375,9.651028],[-84.678375,9.692572],[-84.634429,9.757025],[-84.634552,9.783393],[-84.698394,9.868842],[-84.725942,9.884467],[-84.709706,9.922553],[-84.734283,9.942572],[-84.733632,9.966946],[-84.762318,9.975653],[-84.850942,9.966946],[-84.850942,9.974392],[-84.838653,9.979153],[-84.788238,9.980618],[-84.788238,9.987454],[-84.848541,9.993964],[-84.898101,10.015326],[-84.952016,10.055447],[-84.960968,10.064887],[-84.956166,10.069363],[-85.013905,10.115994],[-85.046051,10.136135],[-85.067372,10.131415],[-85.076202,10.138251],[-85.068349,10.155666],[-85.089874,10.17239],[-85.1079,10.166571],[-85.193471,10.170111],[-85.234527,10.207099],[-85.22879,10.231594],[-85.246246,10.252631],[-85.289174,10.282253],[-85.28307,10.26203],[-85.25418,10.241156],[-85.238881,10.143134],[-85.227081,10.124579],[-85.240102,10.116278],[-85.238271,10.102444],[-85.226471,10.089382],[-85.195912,10.078762],[-85.171864,10.04206],[-85.157582,10.045356],[-85.152577,10.035834],[-85.186147,10.04206],[-85.186147,10.035834],[-85.144521,9.999335],[-85.053131,9.966946],[-85.014516,9.944973],[-84.977569,9.938788],[-84.959584,9.946479],[-84.911122,9.911689],[-84.911122,9.905463],[-84.93106,9.900702],[-84.930165,9.886298],[-84.904937,9.857082],[-84.932851,9.836615],[-84.864613,9.829169],[-84.945912,9.760891],[-84.959584,9.727362],[-85.007598,9.744086],[-85.014801,9.73078],[-84.994985,9.703274],[-85.062611,9.66531],[-85.089345,9.588568],[-85.110463,9.555447],[-85.117828,9.555447],[-85.145782,9.612616],[-85.234527,9.737331],[-85.272979,9.758002],[-85.275502,9.782009],[-85.299306,9.80801],[-85.439971,9.864529],[-85.470367,9.850246],[-85.525177,9.877387],[-85.535553,9.870754],[-85.61913,9.89289],[-85.63858,9.905463],[-85.663808,9.900092],[-85.672719,9.911689],[-85.665557,9.930325],[-85.676137,9.955512],[-85.778554,10.079901],[-85.844024,10.231024],[-85.857696,10.289089],[-85.838165,10.312038],[-85.874989,10.355048],[-85.85025,10.378485],[-85.830352,10.412014],[-85.813262,10.4053],[-85.796742,10.431423],[-85.775502,10.447292],[-85.809234,10.494534],[-85.795644,10.50137],[-85.809234,10.515041],[-85.790517,10.524115],[-85.781972,10.542996],[-85.76122,10.531806],[-85.721588,10.55093],[-85.700063,10.54914],[-85.701405,10.562283],[-85.677846,10.592108],[-85.661855,10.590115],[-85.631744,10.621161],[-85.652252,10.644721],[-85.693227,10.603787],[-85.700063,10.611233],[-85.688466,10.62995],[-85.672719,10.637885],[-85.684478,10.646186],[-85.672719,10.652167],[-85.679555,10.665839],[-85.662872,10.678982],[-85.665273,10.778835],[-85.680287,10.796332],[-85.74649,10.816189],[-85.767486,10.806098],[-85.80309,10.837185],[-85.792388,10.838324],[-85.795644,10.850857],[-85.830352,10.850857],[-85.908803,10.88642],[-85.946441,10.89114],[-85.946441,10.898586],[-85.857696,10.92593],[-85.878163,10.946357],[-85.816151,10.946357],[-85.814605,10.922268],[-85.795644,10.905463],[-85.781972,10.912869],[-85.793365,10.930243],[-85.78246,10.937445],[-85.740997,10.939602],[-85.725209,10.92768],[-85.710561,10.92829],[-85.713735,10.953803],[-85.698883,10.959255],[-85.69815,10.983222],[-85.746002,11.020657],[-85.718861,11.042914],[-85.699615,11.028632],[-85.679555,11.028957],[-85.667511,11.039862],[-85.68102,11.068386],[-85.701736,11.08088],[-85.631151,11.196217],[-85.597794,11.209937],[-85.508626,11.152421],[-84.9314,10.941891],[-84.908404,10.939359],[-84.884969,10.947679],[-84.707771,11.063047],[-84.676455,11.070411],[-84.62067,11.035762],[-84.58168,11.03447],[-84.498171,11.001991],[-84.457837,10.961348],[-84.4382,10.952201],[-84.417762,10.955043],[-84.355466,10.994627],[-84.345984,10.989899],[-84.341798,10.959901],[-84.310741,10.919412],[-84.264283,10.901816],[-84.20837,10.860966],[-84.204649,10.836988],[-84.227102,10.819315],[-84.191601,10.78172],[-84.180413,10.789756],[-84.137004,10.789162],[-84.118427,10.77123],[-84.106929,10.766915],[-84.088558,10.775519],[-84.07644,10.763814],[-84.051635,10.77955],[-84.034556,10.775519],[-84.009234,10.789446],[-83.998201,10.782056],[-83.993628,10.765003],[-83.933322,10.718055],[-83.917276,10.713482],[-83.886865,10.72715],[-83.859528,10.721776],[-83.835343,10.747614],[-83.698142,10.789162],[-83.663028,10.807016],[-83.660134,10.834172],[-83.669855,10.891718],[-83.679832,10.897011],[-83.6788,10.916154],[-83.6965,10.936594]]],[[[-85.131337,10.0987],[-85.09732,10.08983],[-85.09732,10.083645],[-85.158803,10.076158],[-85.185292,10.092434],[-85.199127,10.117743],[-85.171864,10.124579],[-85.110463,10.110297],[-85.110463,10.103461],[-85.145131,10.103461],[-85.131337,10.0987]]],[[[-87.099029,5.516018],[-87.117665,5.515082],[-87.104604,5.537421],[-87.064605,5.557847],[-87.065541,5.534613],[-87.078521,5.520657],[-87.099029,5.516018]]],[[[-83.896618,8.706492],[-83.869114,8.713587],[-83.870305,8.701776],[-83.878076,8.698821],[-83.896618,8.706492]]]]}}