{"type":"Feature","properties":{"iso3":"CUB","name":"Cuba","continent":"Americas"},"geometry":{"type":"MultiPolygon","coordinates":[[[[-75.095006,19.897226],[-75.09495,19.971584],[-75.137036,19.971551],[-75.102077,19.9929],[-75.090133,20.014137],[-75.084857,20.025895],[-75.092437,20.061225],[-75.112791,20.057485],[-75.135795,20.021296],[-75.154333,20.031166],[-75.169425,20.025577],[-75.174062,19.993476],[-75.155426,19.99494],[-75.146997,19.984278],[-75.160192,19.970648],[-75.178862,19.970732],[-75.228969,19.93744],[-75.232859,19.900051],[-75.284657,19.888251],[-75.38329,19.882473],[-75.444407,19.896715],[-75.461822,19.882473],[-75.520904,19.879625],[-75.571645,19.896715],[-75.604726,19.892035],[-75.721832,19.957506],[-75.815297,19.957506],[-75.893788,19.971829],[-75.980092,19.952379],[-76.11205,19.982489],[-76.20226,19.992336],[-76.248158,19.990627],[-76.366119,19.964993],[-76.460276,19.962104],[-76.524403,19.943915],[-76.651601,19.951117],[-76.781077,19.940741],[-76.801747,19.930732],[-76.866444,19.93769],[-76.914133,19.906643],[-76.958892,19.891059],[-77.088043,19.885443],[-77.188954,19.912584],[-77.202789,19.902899],[-77.227284,19.911078],[-77.243764,19.896715],[-77.298248,19.906684],[-77.324086,19.900295],[-77.339996,19.882473],[-77.312734,19.882473],[-77.312734,19.875637],[-77.35851,19.864488],[-77.46996,19.859565],[-77.533355,19.844916],[-77.61148,19.844631],[-77.673248,19.828925],[-77.706044,19.830024],[-77.73058,19.844794],[-77.735992,19.874172],[-77.716176,19.916571],[-77.682118,19.929592],[-77.668324,19.943915],[-77.666737,19.96247],[-77.620432,20.020331],[-77.572743,20.061103],[-77.586415,20.088528],[-77.551015,20.079779],[-77.521881,20.09455],[-77.496978,20.129462],[-77.436635,20.162421],[-77.401357,20.198065],[-77.266469,20.253241],[-77.250722,20.289293],[-77.236318,20.300767],[-77.223297,20.300767],[-77.228993,20.28913],[-77.222971,20.283393],[-77.195424,20.286526],[-77.171213,20.307278],[-77.161855,20.338324],[-77.113433,20.368476],[-77.11026,20.416409],[-77.095815,20.430162],[-77.082428,20.465277],[-77.113433,20.512437],[-77.150136,20.537909],[-77.195668,20.552151],[-77.189198,20.540961],[-77.195424,20.534125],[-77.239898,20.563056],[-77.240387,20.592108],[-77.216461,20.602444],[-77.195424,20.636542],[-77.251047,20.662095],[-77.258046,20.643378],[-77.314849,20.709052],[-77.343129,20.718492],[-77.403188,20.709174],[-77.442372,20.684394],[-77.457672,20.689887],[-77.493398,20.677476],[-77.572743,20.697984],[-77.620513,20.677558],[-77.649281,20.692572],[-77.778432,20.700751],[-77.822133,20.723049],[-77.877512,20.732164],[-77.899241,20.727281],[-77.942047,20.697984],[-78.007069,20.696194],[-78.041127,20.704495],[-78.05191,20.725979],[-78.059397,20.725979],[-78.065541,20.711656],[-78.098378,20.748114],[-78.132069,20.757392],[-78.144114,20.768256],[-78.161773,20.800442],[-78.190785,20.827623],[-78.211049,20.839504],[-78.23766,20.833401],[-78.272043,20.901109],[-78.342681,20.949408],[-78.40392,20.957953],[-78.429921,20.999701],[-78.487904,21.03856],[-78.500885,21.082099],[-78.504384,21.147121],[-78.538197,21.231635],[-78.531728,21.260403],[-78.511464,21.248847],[-78.498199,21.269965],[-78.505523,21.280219],[-78.5454,21.297593],[-78.563303,21.38345],[-78.582102,21.413886],[-78.592437,21.461819],[-78.628163,21.521064],[-78.665354,21.551174],[-78.746327,21.568061],[-78.751088,21.575507],[-78.744618,21.589301],[-78.720611,21.581244],[-78.689117,21.586412],[-78.706776,21.612616],[-78.744618,21.636542],[-78.76651,21.639716],[-78.831899,21.620307],[-78.878407,21.616034],[-78.898752,21.595526],[-78.97057,21.595526],[-78.977366,21.602973],[-79.012807,21.590074],[-79.075551,21.586086],[-79.128163,21.561998],[-79.208892,21.548489],[-79.329579,21.573676],[-79.364654,21.59927],[-79.450307,21.595526],[-79.472279,21.601996],[-79.515289,21.648586],[-79.522206,21.630032],[-79.539662,21.621975],[-79.564931,21.637885],[-79.613678,21.651313],[-79.639272,21.68773],[-79.652089,21.691718],[-79.722727,21.693427],[-79.79011,21.711615],[-79.815785,21.711249],[-79.833852,21.67768],[-79.850819,21.68008],[-79.895375,21.698554],[-79.895375,21.70539],[-79.874867,21.712836],[-79.874867,21.719062],[-79.89037,21.722398],[-79.895375,21.759996],[-79.930002,21.743313],[-80.012685,21.753811],[-80.009023,21.739936],[-79.990956,21.733344],[-80.003245,21.720893],[-80.038808,21.747138],[-80.055328,21.803697],[-80.06725,21.817043],[-80.188222,21.848456],[-80.217681,21.871487],[-80.269928,21.88703],[-80.409901,22.020697],[-80.416737,22.041205],[-80.433217,22.040188],[-80.44811,22.050279],[-80.450917,22.068508],[-80.419342,22.066636],[-80.388783,22.08218],[-80.409901,22.075995],[-80.396311,22.109524],[-80.425364,22.110053],[-80.424184,22.123114],[-80.456532,22.130439],[-80.457753,22.142768],[-80.44343,22.157904],[-80.484446,22.192043],[-80.50357,22.178209],[-80.532826,22.185777],[-80.538238,22.164455],[-80.498647,22.130561],[-80.470855,22.089097],[-80.46467,22.064765],[-80.470774,22.041205],[-80.513743,22.056342],[-80.63801,22.053046],[-80.761098,22.061103],[-80.905263,22.046129],[-80.992096,22.054267],[-81.049184,22.078437],[-81.08845,22.085842],[-81.113759,22.111233],[-81.142974,22.171536],[-81.136098,22.229885],[-81.167144,22.270819],[-81.193959,22.281562],[-81.211822,22.267768],[-81.197581,22.21247],[-81.196889,22.091254],[-81.204701,22.060289],[-81.225494,22.061672],[-81.211252,22.083482],[-81.215443,22.114976],[-81.239125,22.151068],[-81.273305,22.137397],[-81.27953,22.102607],[-81.291331,22.097561],[-81.31428,22.109524],[-81.325592,22.091702],[-81.33788,22.089016],[-81.374094,22.104153],[-81.396108,22.170722],[-81.434071,22.185777],[-81.482167,22.185777],[-81.523508,22.205024],[-81.571197,22.178371],[-81.581166,22.192043],[-81.639556,22.212714],[-81.651479,22.212958],[-81.666615,22.197903],[-81.732004,22.205024],[-81.741078,22.189602],[-81.759918,22.192043],[-81.752512,22.178371],[-81.824452,22.18891],[-81.879709,22.260403],[-82.021392,22.3133],[-82.059967,22.337307],[-82.088246,22.342231],[-82.104644,22.366197],[-82.15453,22.379869],[-82.163971,22.396877],[-82.146392,22.422187],[-82.118737,22.431828],[-82.003629,22.428153],[-81.96608,22.437124],[-81.890575,22.43855],[-81.841138,22.430757],[-81.683502,22.463595],[-81.651563,22.487827],[-81.643255,22.572737],[-81.672631,22.57768],[-81.753386,22.638037],[-81.877501,22.67973],[-82.098793,22.654921],[-82.198855,22.685774],[-82.339019,22.678656],[-82.391584,22.68842],[-82.457356,22.680385],[-82.509999,22.692288],[-82.550933,22.678656],[-82.597418,22.688008],[-82.632945,22.680185],[-82.759877,22.705959],[-82.78067,22.696112],[-82.790883,22.679877],[-82.800689,22.622748],[-82.849233,22.602932],[-82.921254,22.548285],[-82.959381,22.54206],[-83.058705,22.489447],[-83.08609,22.462795],[-83.143178,22.361274],[-83.16686,22.339545],[-83.260121,22.342231],[-83.260121,22.325751],[-83.285797,22.322699],[-83.286936,22.304633],[-83.335805,22.267768],[-83.354115,22.225775],[-83.363149,22.219306],[-83.367909,22.225572],[-83.375559,22.206977],[-83.381148,22.217147],[-83.398223,22.21928],[-83.398991,22.202831],[-83.415472,22.186093],[-83.465321,22.182074],[-83.516957,22.188218],[-83.561147,22.205024],[-83.552846,22.213446],[-83.555491,22.223619],[-83.568593,22.246649],[-83.575429,22.246649],[-83.614369,22.195746],[-83.67101,22.171536],[-83.666737,22.181952],[-83.775461,22.170722],[-83.788726,22.189032],[-83.825551,22.171536],[-83.925445,22.171536],[-83.966461,22.133979],[-83.980092,22.089016],[-83.972646,22.061672],[-83.983998,22.070543],[-84.00178,22.057563],[-83.993031,22.027981],[-83.983225,22.023098],[-83.958974,22.03498],[-83.96467,22.013332],[-83.999257,21.989488],[-84.007436,21.969184],[-83.993031,21.951361],[-83.997467,21.94184],[-84.029408,21.919867],[-84.060414,21.921942],[-84.120432,21.945014],[-84.199208,21.910834],[-84.240142,21.910834],[-84.305165,21.884508],[-84.423248,21.792304],[-84.466176,21.770453],[-84.508372,21.766832],[-84.521352,21.786566],[-84.481313,21.86518],[-84.473541,21.904608],[-84.496165,21.933783],[-84.536041,21.940172],[-84.659983,21.912055],[-84.799713,21.832099],[-84.839915,21.822903],[-84.883412,21.823554],[-84.925404,21.835761],[-84.939117,21.846096],[-84.949615,21.876776],[-84.931223,21.91474],[-84.919789,21.91474],[-84.903554,21.893622],[-84.877594,21.890326],[-84.848744,21.908393],[-84.848215,21.921088],[-84.864613,21.931952],[-84.847564,21.940619],[-84.832387,21.940579],[-84.822906,21.930894],[-84.822987,21.910834],[-84.741078,21.951809],[-84.668446,21.971869],[-84.583323,22.007514],[-84.521352,22.048041],[-84.49592,22.047349],[-84.489654,22.042792],[-84.494049,22.03498],[-84.462636,22.02204],[-84.387318,22.048041],[-84.355824,22.034084],[-84.330963,22.004584],[-84.303822,22.022895],[-84.288564,22.020697],[-84.274322,22.075995],[-84.308176,22.036689],[-84.322133,22.048041],[-84.33019,22.093329],[-84.350006,22.102607],[-84.335805,22.130561],[-84.392812,22.148505],[-84.405344,22.157904],[-84.42927,22.201728],[-84.445668,22.205024],[-84.415354,22.247382],[-84.405344,22.308743],[-84.373931,22.380683],[-84.353139,22.387193],[-84.321278,22.440131],[-84.288564,22.465766],[-84.288564,22.473212],[-84.309071,22.473212],[-84.291819,22.486274],[-84.230295,22.503607],[-84.2058,22.541164],[-84.201161,22.562812],[-84.21288,22.583075],[-84.192372,22.575588],[-84.164622,22.587633],[-84.144602,22.569403],[-84.13036,22.616523],[-84.089345,22.627102],[-84.078277,22.666205],[-84.052113,22.653306],[-84.021108,22.678656],[-84.038971,22.697089],[-84.068837,22.698472],[-84.048004,22.718248],[-84.022328,22.714748],[-84.007192,22.690375],[-83.984039,22.687079],[-83.911244,22.733303],[-83.897572,22.720201],[-83.888051,22.741441],[-83.872792,22.7508],[-83.812652,22.756741],[-83.709137,22.800686],[-83.651112,22.79682],[-83.630035,22.808336],[-83.630035,22.815823],[-83.644358,22.808336],[-83.651194,22.815823],[-83.629872,22.828315],[-83.558013,22.836249],[-83.534983,22.877021],[-83.49352,22.877265],[-83.500356,22.863593],[-83.480824,22.860256],[-83.452504,22.897773],[-83.437571,22.903469],[-83.397288,22.884101],[-83.404368,22.873765],[-83.393463,22.876899],[-83.369374,22.893988],[-83.329661,22.951077],[-83.226186,23.001858],[-83.207631,23.002672],[-83.178212,22.986518],[-83.191233,22.961859],[-83.18932,22.947821],[-83.169423,22.930121],[-83.143422,22.95303],[-83.161692,22.966946],[-83.160512,22.979967],[-83.145823,22.9914],[-83.061147,23.019599],[-83.020579,23.007636],[-83.002024,23.019232],[-82.986318,23.004096],[-83.002838,22.999457],[-83.002797,22.983588],[-82.988881,22.983629],[-82.979604,22.993964],[-82.981679,22.974189],[-82.964223,22.972886],[-82.944407,22.985093],[-82.917592,23.032457],[-82.849355,23.027777],[-82.803293,23.038804],[-82.712717,23.034898],[-82.57551,23.054023],[-82.509999,23.083319],[-82.489573,23.103827],[-82.467681,23.108547],[-82.40689,23.147447],[-82.21935,23.194241],[-82.150299,23.1789],[-82.033193,23.200507],[-81.985829,23.171454],[-81.862375,23.151028],[-81.840077,23.157782],[-81.65807,23.156806],[-81.628977,23.165229],[-81.581166,23.157782],[-81.535553,23.129381],[-81.535308,23.08633],[-81.552398,23.057359],[-81.528798,23.047187],[-81.502675,23.055365],[-81.480702,23.100328],[-81.380116,23.11636],[-81.358144,23.131741],[-81.271392,23.149563],[-81.149159,23.212388],[-81.130605,23.205634],[-81.172434,23.183661],[-81.217885,23.172675],[-81.286285,23.13052],[-81.286285,23.124254],[-81.241933,23.113715],[-81.184885,23.052069],[-81.149159,23.034898],[-81.120717,23.038967],[-81.078114,23.103827],[-81.039906,23.110663],[-80.985707,23.10224],[-80.977773,23.064439],[-80.959381,23.059027],[-80.759348,23.096991],[-80.663157,23.089545],[-80.623525,23.112942],[-80.618031,23.131741],[-80.636464,23.151028],[-80.597279,23.156073],[-80.587473,23.144761],[-80.622222,23.089545],[-80.59435,23.070136],[-80.556793,23.007392],[-80.536244,22.993964],[-80.464508,22.980292],[-80.431508,22.949937],[-80.356923,22.945624],[-80.296702,22.915676],[-80.246693,22.911038],[-80.156077,22.938707],[-80.163564,22.962551],[-80.146718,22.96308],[-80.070058,22.931789],[-80.050038,22.935248],[-80.046213,22.959174],[-80.016103,22.938056],[-79.987864,22.884101],[-79.950022,22.863593],[-79.91983,22.861314],[-79.916493,22.849311],[-79.895741,22.85517],[-79.863149,22.883694],[-79.792958,22.897773],[-79.792958,22.890123],[-79.820912,22.870429],[-79.843861,22.880683],[-79.85497,22.872545],[-79.868031,22.836249],[-79.857167,22.820705],[-79.841379,22.808336],[-79.771881,22.796617],[-79.700185,22.746894],[-79.684193,22.758979],[-79.660308,22.763861],[-79.651723,22.758775],[-79.627024,22.657497],[-79.599355,22.646552],[-79.57726,22.627102],[-79.542836,22.56566],[-79.517486,22.53913],[-79.456532,22.528469],[-79.424713,22.478746],[-79.341786,22.413153],[-79.312489,22.400295],[-79.285878,22.404283],[-79.238759,22.37641],[-79.219838,22.388414],[-79.148671,22.377631],[-79.133127,22.395657],[-79.120717,22.396877],[-79.083485,22.383775],[-79.005279,22.404283],[-78.828684,22.388332],[-78.78185,22.390611],[-78.757639,22.322333],[-78.744618,22.329169],[-78.734609,22.31623],[-78.709869,22.355902],[-78.737782,22.390611],[-78.708079,22.386908],[-78.676137,22.357001],[-78.566884,22.321031],[-78.524403,22.283271],[-78.483957,22.260321],[-78.399892,22.244045],[-78.3815,22.246649],[-78.3815,22.219306],[-78.371205,22.224026],[-78.360504,22.216783],[-78.343902,22.18891],[-78.301422,22.163804],[-78.172353,22.143622],[-78.163645,22.13935],[-78.155588,22.109524],[-78.121693,22.107856],[-78.128285,22.102607],[-78.117787,22.093451],[-78.081817,22.08279],[-78.065053,22.086982],[-78.017812,22.027533],[-77.993235,21.979682],[-77.915395,21.914252],[-77.888051,21.869859],[-77.876047,21.871527],[-77.870351,21.881537],[-77.860097,21.966132],[-77.806142,21.966132],[-77.815012,21.955756],[-77.846995,21.950385],[-77.853912,21.94184],[-77.848541,21.91059],[-77.822011,21.880276],[-77.777943,21.870022],[-77.760894,21.8133],[-77.751576,21.804633],[-77.704457,21.789252],[-77.689768,21.795885],[-77.664662,21.781155],[-77.586415,21.787909],[-77.524973,21.753811],[-77.516591,21.774604],[-77.490834,21.781155],[-77.489247,21.771226],[-77.474233,21.765041],[-77.46288,21.766832],[-77.467519,21.777737],[-77.455637,21.776842],[-77.421986,21.746405],[-77.452545,21.750678],[-77.456044,21.733344],[-77.430287,21.65762],[-77.347157,21.638617],[-77.336903,21.655585],[-77.342885,21.667548],[-77.38915,21.703843],[-77.407094,21.756578],[-77.438303,21.774848],[-77.448801,21.801907],[-77.459137,21.809272],[-77.476552,21.800971],[-77.490834,21.815253],[-77.504384,21.803534],[-77.593658,21.888739],[-77.614329,21.884182],[-77.589915,21.919257],[-77.571645,21.930813],[-77.55602,21.928534],[-77.52123,21.90119],[-77.507558,21.862454],[-77.401357,21.790473],[-77.330068,21.766343],[-77.26773,21.717515],[-77.180653,21.664252],[-77.133941,21.664455],[-77.141713,21.645575],[-77.120269,21.616034],[-77.123769,21.596177],[-77.154408,21.554592],[-77.185414,21.581855],[-77.266021,21.614244],[-77.284779,21.616034],[-77.298818,21.60399],[-77.33316,21.62344],[-77.356191,21.621649],[-77.364247,21.611762],[-77.360951,21.600775],[-77.312734,21.5751],[-77.255116,21.56745],[-77.249989,21.550849],[-77.257232,21.534247],[-77.277577,21.518459],[-77.258046,21.476386],[-77.208485,21.47606],[-77.216461,21.458401],[-77.161855,21.480129],[-77.140736,21.548407],[-77.115468,21.593207],[-77.107249,21.602973],[-77.088287,21.606187],[-77.069936,21.595771],[-76.946767,21.459052],[-76.893707,21.431627],[-76.83845,21.4206],[-76.825429,21.4112],[-76.832265,21.397528],[-76.811757,21.397528],[-76.825551,21.366645],[-76.873158,21.36107],[-76.89745,21.346096],[-76.901194,21.332017],[-76.887278,21.307359],[-76.836171,21.332465],[-76.839101,21.307563],[-76.829457,21.314114],[-76.818593,21.348538],[-76.825429,21.348538],[-76.805572,21.390082],[-76.671498,21.355943],[-76.656077,21.349555],[-76.636586,21.321357],[-76.716176,21.287665],[-76.71231,21.302639],[-76.731435,21.311916],[-76.73469,21.285549],[-76.65331,21.251899],[-76.613149,21.246731],[-76.613149,21.252916],[-76.641469,21.264635],[-76.653554,21.294135],[-76.61677,21.301825],[-76.57079,21.282416],[-76.557932,21.266588],[-76.551666,21.266588],[-76.551666,21.287665],[-76.544911,21.287665],[-76.548411,21.247626],[-76.559885,21.234524],[-76.613149,21.232367],[-76.613149,21.225572],[-76.592681,21.225572],[-76.602366,21.220201],[-76.598256,21.205878],[-76.565338,21.211982],[-76.537465,21.184638],[-76.516957,21.202053],[-76.456125,21.225572],[-76.516957,21.239244],[-76.532379,21.268622],[-76.525543,21.28205],[-76.507314,21.287665],[-76.387563,21.284329],[-76.316518,21.254218],[-76.275868,21.225043],[-76.169667,21.187161],[-76.137807,21.167222],[-76.130727,21.114163],[-76.11677,21.091498],[-76.072662,21.112982],[-76.041005,21.096666],[-76.03718,21.074774],[-76.023549,21.089057],[-76.008168,21.070299],[-76.003041,21.095893],[-75.955312,21.095893],[-75.924875,21.115709],[-75.890248,21.107733],[-75.881947,21.090277],[-75.873525,21.088772],[-75.868276,21.093085],[-75.873362,21.102118],[-75.821767,21.136868],[-75.794016,21.119045],[-75.70401,21.118964],[-75.684316,21.103095],[-75.675364,21.06859],[-75.635894,21.076361],[-75.613149,21.062567],[-75.578481,21.013373],[-75.598948,20.972357],[-75.620107,20.951239],[-75.626332,20.923977],[-75.648752,20.8994],[-75.681549,20.890448],[-75.696401,20.924872],[-75.708852,20.917711],[-75.723622,20.923407],[-75.735504,20.917711],[-75.721425,20.914455],[-75.715688,20.90351],[-75.744008,20.901557],[-75.743398,20.88935],[-75.721832,20.855048],[-75.704498,20.870836],[-75.678131,20.878241],[-75.626332,20.876776],[-75.584869,20.856838],[-75.573313,20.827541],[-75.551137,20.821519],[-75.559071,20.797675],[-75.57315,20.797675],[-75.610178,20.816555],[-75.627431,20.841457],[-75.704742,20.828681],[-75.770253,20.835842],[-75.766347,20.811591],[-75.783925,20.746405],[-75.763051,20.71601],[-75.724517,20.695502],[-75.708852,20.690579],[-75.691029,20.722886],[-75.643178,20.760728],[-75.633127,20.780585],[-75.607737,20.75316],[-75.61262,20.718492],[-75.577504,20.718451],[-75.583567,20.698228],[-75.551137,20.684394],[-75.556711,20.706448],[-75.497792,20.693427],[-75.476064,20.711656],[-75.44811,20.691148],[-75.440663,20.711656],[-75.476064,20.718492],[-75.463612,20.734076],[-75.439687,20.740627],[-75.394154,20.738959],[-75.356028,20.719916],[-75.349233,20.708482],[-75.373036,20.70425],[-75.359364,20.677558],[-75.345774,20.691148],[-75.337229,20.669664],[-75.312815,20.66474],[-75.256337,20.670722],[-75.33141,20.70425],[-75.318715,20.717108],[-75.294301,20.723131],[-75.249501,20.718492],[-75.256337,20.725979],[-75.194325,20.715644],[-75.178578,20.702216],[-75.194895,20.697984],[-75.194895,20.691148],[-75.149078,20.683092],[-75.115346,20.686591],[-75.106109,20.663275],[-75.098704,20.684394],[-75.071929,20.673245],[-75.064565,20.677558],[-75.078765,20.691148],[-74.998362,20.700751],[-74.95108,20.68358],[-74.940745,20.668402],[-74.900054,20.670722],[-74.850901,20.634589],[-74.77184,20.6258],[-74.735585,20.60928],[-74.745717,20.603949],[-74.734934,20.567613],[-74.673492,20.540961],[-74.669993,20.527655],[-74.605214,20.485745],[-74.554799,20.414455],[-74.494985,20.35517],[-74.423411,20.327582],[-74.401112,20.307278],[-74.392974,20.286526],[-74.372182,20.300523],[-74.310414,20.293931],[-74.257192,20.319648],[-74.235951,20.321234],[-74.159657,20.273424],[-74.139638,20.242336],[-74.132883,20.204576],[-74.141957,20.182603],[-74.225087,20.135688],[-74.235951,20.094672],[-74.267405,20.068305],[-74.392974,20.081041],[-74.580477,20.047642],[-74.61865,20.05452],[-74.650184,20.042164],[-74.713124,20.051801],[-74.812978,20.037258],[-74.838002,20.026435],[-74.887807,19.984076],[-74.947334,19.975949],[-74.977868,19.923035],[-75.045668,19.907601],[-75.058231,19.922966],[-75.066333,19.904862],[-75.095006,19.897226]]],[[[-78.333119,20.554633],[-78.32608,20.535102],[-78.328359,20.521308],[-78.338979,20.518012],[-78.396596,20.546454],[-78.409779,20.573635],[-78.46345,20.602444],[-78.449208,20.612942],[-78.433502,20.609524],[-78.384185,20.562161],[-78.367258,20.554633],[-78.364491,20.570217],[-78.355295,20.573432],[-78.333119,20.554633]]],[[[-78.436147,20.725979],[-78.449127,20.711615],[-78.51183,20.691148],[-78.5454,20.70425],[-78.483957,20.732164],[-78.436147,20.725979]]],[[[-78.826568,20.753241],[-78.807037,20.757229],[-78.750844,20.725979],[-78.768056,20.712226],[-78.792348,20.719916],[-78.826568,20.753241]]],[[[-75.517079,20.794257],[-75.482167,20.737779],[-75.551829,20.74901],[-75.577748,20.769517],[-75.578481,20.787421],[-75.517079,20.794257]]],[[[-78.925852,20.807847],[-78.876617,20.809231],[-78.858551,20.799547],[-78.847035,20.773139],[-78.87149,20.784857],[-78.94164,20.792629],[-78.964345,20.814114],[-78.94225,20.839586],[-78.932729,20.838935],[-78.925852,20.807847]]],[[[-79.025217,20.886664],[-78.971181,20.873521],[-78.988881,20.839057],[-78.995107,20.849189],[-79.01891,20.855048],[-79.079823,20.897284],[-79.048818,20.898017],[-79.025217,20.886664]]],[[[-79.073598,20.917711],[-79.094065,20.917711],[-79.087229,20.897284],[-79.11559,20.910834],[-79.169179,20.964911],[-79.169179,20.972357],[-79.151763,20.966051],[-79.114573,20.930813],[-79.14981,20.976793],[-79.175038,20.997016],[-79.197092,20.999701],[-79.189605,20.979193],[-79.200999,20.982408],[-79.224436,21.005845],[-79.182118,21.008002],[-79.137685,20.982652],[-79.073598,20.917711]]],[[[-79.388905,21.123236],[-79.35733,21.12759],[-79.292633,21.074774],[-79.308013,21.068793],[-79.340728,21.072903],[-79.354115,21.082221],[-79.326812,21.082221],[-79.331166,21.093004],[-79.346791,21.101264],[-79.354115,21.095893],[-79.388905,21.123236]]],[[[-81.372304,21.70539],[-81.496693,21.618476],[-81.560658,21.602973],[-81.56078,21.622382],[-81.551381,21.62759],[-81.523508,21.62344],[-81.49352,21.65705],[-81.469065,21.648179],[-81.454498,21.651801],[-81.417307,21.697211],[-81.377675,21.71894],[-81.372304,21.70539]]],[[[-82.568023,21.636542],[-82.575185,21.624701],[-82.567128,21.612006],[-82.540761,21.595526],[-82.594635,21.541815],[-82.835561,21.444729],[-82.906239,21.437486],[-82.927235,21.450995],[-82.992584,21.452135],[-83.033559,21.465806],[-83.078521,21.469224],[-83.111155,21.509752],[-83.162099,21.549262],[-83.191803,21.630316],[-83.082021,21.551459],[-83.023915,21.548407],[-82.965932,21.59927],[-82.957631,21.592353],[-82.965932,21.568264],[-82.959096,21.561998],[-82.941029,21.593085],[-82.946116,21.604641],[-82.975901,21.609198],[-82.98766,21.619778],[-83.073476,21.760565],[-83.085601,21.800279],[-83.075185,21.843166],[-83.032826,21.874335],[-83.018666,21.897691],[-82.959096,21.925116],[-83.004709,21.937649],[-82.989491,21.948432],[-82.858998,21.933661],[-82.703725,21.892808],[-82.684722,21.866156],[-82.692535,21.824042],[-82.632965,21.773627],[-82.609609,21.769599],[-82.5926,21.736762],[-82.608998,21.698554],[-82.616444,21.698554],[-82.609527,21.681586],[-82.616444,21.664455],[-82.568023,21.643948],[-82.568023,21.636542]]],[[[-77.634185,22.054267],[-77.624379,22.029731],[-77.648671,21.971137],[-77.634185,21.945014],[-77.661529,21.940131],[-77.682607,21.925116],[-77.677887,21.94302],[-77.684316,21.951158],[-77.695058,21.948065],[-77.703114,21.931952],[-77.695424,21.915188],[-77.703114,21.910834],[-77.751536,21.966132],[-77.765777,21.959784],[-77.787262,21.964057],[-77.822581,21.98314],[-77.812367,22.024115],[-77.817128,22.031317],[-77.847076,22.041205],[-77.840077,22.023993],[-77.847076,22.007025],[-77.853912,22.027533],[-77.870229,22.013251],[-77.886586,22.009223],[-77.901845,22.015204],[-77.917226,22.043158],[-77.947133,22.072821],[-77.942047,22.095852],[-77.949452,22.102607],[-77.930165,22.102118],[-77.888051,22.075995],[-77.871693,22.075629],[-77.83967,22.095852],[-77.808502,22.099555],[-77.785024,22.089016],[-77.76769,22.068508],[-77.737213,22.08218],[-77.682607,22.054267],[-77.651723,22.070258],[-77.634185,22.054267]]],[[[-77.847076,22.260321],[-77.839589,22.273749],[-77.880686,22.308743],[-77.856109,22.312445],[-77.834218,22.295885],[-77.805735,22.228217],[-77.757721,22.178371],[-77.781728,22.177802],[-77.847076,22.260321]]],[[[-77.997304,22.147366],[-78.00414,22.162258],[-78.036041,22.183417],[-78.045725,22.198879],[-78.029449,22.204535],[-78.007924,22.233832],[-78.003326,22.286363],[-78.017812,22.314887],[-77.974924,22.298896],[-77.96996,22.284817],[-77.993398,22.253119],[-77.987416,22.236721],[-77.942047,22.232978],[-77.923411,22.206366],[-77.908559,22.205024],[-77.92162,22.21247],[-77.902333,22.232978],[-77.884877,22.214789],[-77.867584,22.226752],[-77.859609,22.209621],[-77.902333,22.192043],[-77.825999,22.157904],[-77.863433,22.099189],[-77.87442,22.109524],[-77.890492,22.104641],[-77.898101,22.110297],[-77.912831,22.143215],[-77.933949,22.150214],[-77.950754,22.142157],[-77.942047,22.116889],[-77.997304,22.147366]]],[[[-78.196523,22.329169],[-78.175364,22.34162],[-78.184885,22.358222],[-78.20519,22.367987],[-78.21642,22.359605],[-78.221547,22.339911],[-78.237457,22.336005],[-78.244211,22.359117],[-78.239613,22.366929],[-78.230702,22.363349],[-78.230458,22.380764],[-78.246327,22.400621],[-78.269765,22.410142],[-78.292144,22.396877],[-78.312611,22.404283],[-78.298736,22.420396],[-78.243723,22.42475],[-78.211578,22.436591],[-78.197621,22.437201],[-78.189687,22.42475],[-78.169749,22.435045],[-78.144195,22.428941],[-78.090728,22.384467],[-78.075551,22.354071],[-78.067047,22.310452],[-78.045725,22.288235],[-78.010976,22.281399],[-78.027659,22.266018],[-78.051584,22.272203],[-78.100331,22.301907],[-78.171539,22.310736],[-78.196523,22.329169]]],[[[-78.426178,22.462592],[-78.472768,22.451158],[-78.540842,22.458482],[-78.568227,22.476304],[-78.638417,22.492011],[-78.655995,22.503119],[-78.641591,22.514146],[-78.656972,22.529975],[-78.693593,22.507514],[-78.696197,22.541449],[-78.683176,22.534613],[-78.679758,22.554429],[-78.670644,22.556545],[-78.596913,22.544867],[-78.572581,22.530463],[-78.46642,22.529853],[-78.436838,22.555406],[-78.396352,22.559801],[-78.35204,22.543036],[-78.340566,22.528469],[-78.353586,22.534613],[-78.34911,22.521145],[-78.278472,22.448676],[-78.281484,22.438788],[-78.305776,22.445258],[-78.429921,22.418606],[-78.422475,22.442125],[-78.406077,22.444037],[-78.401112,22.454657],[-78.412831,22.468817],[-78.426178,22.462592]]],[[[-78.984202,22.637681],[-78.989858,22.651435],[-79.004506,22.656724],[-79.064443,22.660346],[-79.087229,22.67182],[-78.976552,22.668524],[-78.960846,22.660142],[-78.961171,22.649115],[-78.984202,22.637681]]],[[[-79.357533,22.637681],[-79.388905,22.651313],[-79.437367,22.698472],[-79.473744,22.694322],[-79.52009,22.720689],[-79.528879,22.740302],[-79.557973,22.760159],[-79.571767,22.788275],[-79.590647,22.794664],[-79.633656,22.78384],[-79.635325,22.802151],[-79.586537,22.811225],[-79.569976,22.804104],[-79.496327,22.73314],[-79.450266,22.719916],[-79.412913,22.691352],[-79.371978,22.676663],[-79.326812,22.616523],[-79.357533,22.637681]]],[[[-79.895375,22.959174],[-79.887115,22.959703],[-79.887847,22.946275],[-79.898549,22.936713],[-79.91983,22.949286],[-79.949696,22.928412],[-79.957428,22.95303],[-79.927235,22.966295],[-79.895375,22.959174]]],[[[-80.320546,22.986518],[-80.271881,23.008694],[-80.249745,23.010932],[-80.231801,23.000149],[-80.251617,22.986518],[-80.236073,22.976752],[-80.231801,22.959174],[-80.332509,22.975328],[-80.347808,22.986518],[-80.335764,22.993354],[-80.320546,22.986518]]],[[[-80.197011,23.124254],[-80.166493,23.092475],[-80.131256,23.086982],[-80.162424,23.067328],[-80.224965,23.089545],[-80.204457,23.124254],[-80.197011,23.124254]]],[[[-80.828236,23.1789],[-80.82079,23.1789],[-80.804799,23.157538],[-80.830637,23.135647],[-80.865549,23.144761],[-80.897817,23.14175],[-80.971669,23.110663],[-80.89981,23.159166],[-80.841298,23.157782],[-80.85497,23.1789],[-80.848134,23.185126],[-80.828236,23.165229],[-80.828236,23.1789]]],[[[-80.491851,23.192572],[-80.473378,23.196031],[-80.470774,23.18887],[-80.495229,23.168362],[-80.54308,23.182196],[-80.580637,23.1789],[-80.570424,23.200914],[-80.559682,23.205064],[-80.543365,23.206244],[-80.52599,23.192572],[-80.491851,23.192572]]],[[[-78.581695,20.661607],[-78.578277,20.648424],[-78.585683,20.643622],[-78.611724,20.653632],[-78.609039,20.660712],[-78.579945,20.653998],[-78.581695,20.661607]]],[[[-78.651519,20.664944],[-78.62975,20.65884],[-78.631174,20.653144],[-78.646474,20.652289],[-78.656158,20.658515],[-78.651519,20.664944]]],[[[-81.981191,21.647773],[-81.972768,21.622219],[-81.989817,21.608832],[-82.07433,21.572211],[-82.114247,21.570299],[-82.048329,21.610663],[-81.996653,21.626614],[-81.981191,21.647773]]],[[[-81.852528,21.66356],[-81.837799,21.661078],[-81.901357,21.615627],[-81.918853,21.615465],[-81.932362,21.628485],[-81.935699,21.641913],[-81.92219,21.62934],[-81.905629,21.631008],[-81.852528,21.66356]]],[[[-82.645172,21.954535],[-82.591176,21.926663],[-82.630116,21.920722],[-82.657867,21.932074],[-82.66808,21.949123],[-82.645172,21.954535]]],[[[-83.552846,21.961371],[-83.545318,21.961249],[-83.5926,21.96011],[-83.607818,21.966498],[-83.597808,21.971747],[-83.552846,21.961371]]],[[[-81.556264,22.065985],[-81.547027,22.044582],[-81.581858,22.050605],[-81.588857,22.072699],[-81.582509,22.076606],[-81.556264,22.065985]]],[[[-78.73766,22.548407],[-78.728261,22.547919],[-78.738759,22.524319],[-78.765981,22.518785],[-78.768137,22.541653],[-78.738881,22.541002],[-78.73766,22.548407]]],[[[-82.514475,22.625149],[-82.507721,22.590074],[-82.522857,22.559312],[-82.52831,22.640041],[-82.514475,22.625149]]],[[[-79.224517,22.639716],[-79.176869,22.64468],[-79.20641,22.624416],[-79.224517,22.639716]]],[[[-79.680084,22.859442],[-79.660797,22.84516],[-79.685292,22.833686],[-79.699086,22.852484],[-79.730865,22.866116],[-79.739858,22.8758],[-79.738759,22.88581],[-79.726186,22.888983],[-79.727528,22.903957],[-79.722157,22.907213],[-79.715443,22.896145],[-79.718332,22.880032],[-79.692006,22.873928],[-79.680084,22.859442]]],[[[-79.826283,22.964667],[-79.817047,22.947252],[-79.842152,22.931789],[-79.827382,22.919135],[-79.846506,22.910346],[-79.864491,22.925971],[-79.852935,22.941636],[-79.871165,22.947699],[-79.861073,22.962592],[-79.826283,22.964667]]],[[[-80.061391,23.049791],[-80.053578,23.029202],[-80.066558,23.038886],[-80.085357,23.038316],[-80.094797,23.048326],[-80.087636,23.06745],[-80.076772,23.069892],[-80.061391,23.049791]]],[[[-80.2447,23.107489],[-80.23941,23.09101],[-80.250315,23.084866],[-80.305735,23.134508],[-80.27245,23.140041],[-80.2447,23.107489]]],[[[-80.401438,23.154608],[-80.376291,23.152167],[-80.458079,23.126776],[-80.462229,23.135199],[-80.449452,23.136217],[-80.446116,23.150621],[-80.401438,23.154608]]],[[[-80.668528,23.212226],[-80.666127,23.194485],[-80.674672,23.186835],[-80.691314,23.18773],[-80.700836,23.177191],[-80.704945,23.193061],[-80.668528,23.212226]]],[[[-80.775014,23.20661],[-80.712473,23.199897],[-80.711903,23.190823],[-80.732289,23.193061],[-80.736806,23.186754],[-80.810048,23.196601],[-80.848256,23.208482],[-80.86144,23.220364],[-80.83788,23.223538],[-80.775014,23.20661]]],[[[-80.878774,23.250434],[-80.87092,23.240383],[-80.87857,23.232123],[-80.924469,23.243109],[-80.942698,23.25727],[-80.912994,23.26557],[-80.878774,23.250434]]]]}}