{"type":"Feature","properties":{"iso3":"CUW","name":"Curaçao","continent":"Americas"},"geometry":{"type":"Polygon","coordinates":[[[-68.780751,12.097805],[-68.739735,12.053046],[-68.769846,12.042914],[-68.814809,12.043158],[-68.893422,12.090522],[-68.944732,12.105618],[-68.977773,12.124579],[-69.007436,12.148179],[-69.027211,12.19009],[-69.078603,12.20425],[-69.12267,12.269029],[-69.159535,12.293362],[-69.163808,12.361884],[-69.171742,12.378892],[-69.166127,12.387844],[-69.156239,12.390611],[-69.107777,12.367825],[-69.071523,12.341376],[-69.040761,12.256049],[-69.004018,12.221666],[-68.961293,12.201361],[-68.835276,12.171047],[-68.82079,12.16234],[-68.804026,12.117011],[-68.780751,12.097805]]]}}