{"type":"Feature","properties":{"iso3":"CYM","name":"Cayman Islands","continent":"Americas"},"geometry":{"type":"MultiPolygon","coordinates":[[[[-81.136098,19.354885],[-81.099517,19.347317],[-81.089508,19.335395],[-81.086586,19.309927],[-81.106677,19.295317],[-81.1351,19.290742],[-81.169504,19.299563],[-81.233458,19.289234],[-81.266469,19.266059],[-81.357882,19.274094],[-81.387486,19.263864],[-81.397939,19.274156],[-81.385503,19.338858],[-81.390326,19.35226],[-81.416542,19.370028],[-81.408346,19.390212],[-81.394124,19.394761],[-81.375722,19.388983],[-81.378585,19.375817],[-81.36059,19.340104],[-81.364045,19.319946],[-81.349718,19.302114],[-81.303498,19.309055],[-81.293813,19.334377],[-81.273305,19.327582],[-81.27953,19.341783],[-81.273305,19.334377],[-81.273305,19.348049],[-81.286285,19.368476],[-81.211822,19.348049],[-81.136098,19.354885]]],[[[-80.03783,19.704035],[-80.008736,19.703951],[-79.981028,19.714301],[-79.964263,19.704901],[-80.077968,19.65402],[-80.113155,19.65866],[-80.062088,19.700682],[-80.03783,19.704035]]],[[[-79.871889,19.704636],[-79.7459,19.757631],[-79.731516,19.752102],[-79.726643,19.737063],[-79.773893,19.713364],[-79.893754,19.679673],[-79.871889,19.704636]]]]}}