{"type":"Feature","properties":{"iso3":"CYP","name":"Cyprus","continent":"Asia"},"geometry":{"type":"MultiPolygon","coordinates":[[[[33.78183,34.976223],[33.75921,34.988666],[33.79435,34.977763],[33.78183,34.976223]]],[[[33.742792,35.001233],[33.740239,35.010101],[33.752063,35.0144],[33.752063,35.004323],[33.742792,35.001233]]],[[[33.702935,34.987943],[33.701508,34.972886],[33.680349,34.966295],[33.654063,34.944729],[33.634776,34.89765],[33.632579,34.852484],[33.616954,34.845282],[33.605642,34.821763],[33.5442,34.815009],[33.513194,34.785468],[33.43865,34.762763],[33.415212,34.75845],[33.400157,34.773383],[33.399181,34.745307],[33.37086,34.730862],[33.29656,34.718166],[33.260102,34.700507],[33.173595,34.705146],[33.086436,34.69481],[33.02589,34.651313],[33.015635,34.634425],[32.969543,34.632047],[32.962515,34.625019],[32.95404,34.642951],[32.965615,34.651581],[32.9898,34.646103],[32.987526,34.673389],[32.954712,34.677316],[32.936056,34.657731],[32.917246,34.667136],[32.913667,34.66028],[32.865613,34.678735],[32.85969,34.700578],[32.827481,34.696506],[32.806009,34.68577],[32.798604,34.670961],[32.766766,34.676144],[32.760671,34.653225],[32.707367,34.645413],[32.665782,34.652167],[32.556651,34.699368],[32.493337,34.707261],[32.458995,34.721869],[32.413341,34.753485],[32.379161,34.849066],[32.329438,34.88642],[32.322765,34.911363],[32.331391,34.924221],[32.312185,34.950263],[32.305919,35.00141],[32.276134,35.047756],[32.271739,35.072821],[32.275157,35.091051],[32.286632,35.097154],[32.353363,35.047919],[32.413829,35.043036],[32.449962,35.058824],[32.479666,35.082953],[32.527599,35.15705],[32.548188,35.175971],[32.584809,35.172512],[32.592615,35.161111],[32.622225,35.151809],[32.646462,35.161111],[32.659813,35.187082],[32.691549,35.183705],[32.712711,35.133774],[32.7956,35.102613],[32.806504,35.09481],[32.810276,35.070729],[32.825986,35.058946],[32.861022,35.065096],[32.890788,35.091658],[32.921949,35.072279],[32.93523,35.072279],[33.037342,35.136099],[33.123073,35.130673],[33.173871,35.162661],[33.228545,35.153359],[33.262135,35.126074],[33.301202,35.113568],[33.348021,35.15491],[33.415924,35.160336],[33.424502,35.129898],[33.458815,35.09481],[33.458815,35.041687],[33.446309,35.001172],[33.458815,34.977763],[33.486204,34.981638],[33.497004,35.02608],[33.519587,35.044115],[33.527441,35.037036],[33.533643,34.99957],[33.546045,34.994971],[33.564132,35.001172],[33.580565,35.019931],[33.602992,35.012076],[33.619529,35.01683],[33.702935,34.987943]]],[[[33.898116,35.061272],[33.930776,35.051092],[33.980075,35.057396],[34.001986,35.047216],[34.021961,35.057009],[34.051036,35.033026],[34.073416,34.988105],[34.099132,34.965155],[34.034516,34.97248],[34.011567,34.987616],[33.957286,34.98192],[33.910167,34.97016],[33.891841,34.958139],[33.838068,34.963707],[33.859049,34.974662],[33.859049,34.991819],[33.829387,35.001172],[33.830214,35.023031],[33.799001,35.038534],[33.804375,35.049541],[33.827113,35.061272],[33.841169,35.051092],[33.855122,35.053417],[33.880133,35.073054],[33.898116,35.061272]]]]}}