{"type":"Feature","properties":{"iso3":"DEU","name":"Germany","continent":"Europe"},"geometry":{"type":"MultiPolygon","coordinates":[[[[13.815725,48.76643],[13.785856,48.724779],[13.802392,48.611711],[13.716506,48.521691],[13.624367,48.565357],[13.454558,48.573445],[13.405569,48.376583],[13.274207,48.307104],[13.032775,48.263567],[12.738943,48.113447],[12.986576,47.850259],[12.892009,47.723548],[13.032258,47.706624],[13.064091,47.67399],[13.037323,47.493045],[13.008797,47.470101],[12.931593,47.473512],[12.77894,47.554825],[12.81315,47.611824],[12.761991,47.666859],[12.653057,47.675127],[12.49658,47.628903],[12.407697,47.693731],[12.228793,47.684868],[12.242229,47.732023],[12.181768,47.692129],[12.206779,47.645568],[12.173603,47.60508],[11.617048,47.586761],[11.551212,47.51369],[11.412616,47.506094],[11.367657,47.440129],[11.237019,47.393956],[11.193818,47.428941],[10.979464,47.390545],[10.959827,47.432506],[10.858438,47.485165],[10.86929,47.526583],[10.760769,47.513638],[10.60791,47.562266],[10.482543,47.532862],[10.429213,47.57702],[10.419601,47.493045],[10.451951,47.438759],[10.428283,47.396049],[10.305913,47.302178],[10.174951,47.272376],[10.208555,47.354475],[10.190881,47.379228],[10.073162,47.365482],[10.071819,47.439121],[10.022623,47.487955],[9.813127,47.54175],[9.79628,47.584952],[9.703986,47.531415],[9.612622,47.521881],[9.273211,47.65009],[9.016586,47.6789],[8.906205,47.651795],[8.797581,47.720034],[8.71707,47.694558],[8.703324,47.758714],[8.644102,47.791012],[8.607619,47.762254],[8.558216,47.801166],[8.450109,47.750471],[8.395229,47.684817],[8.458274,47.639884],[8.593589,47.658169],[8.576305,47.595023],[8.49238,47.619833],[8.354094,47.581024],[8.251051,47.622004],[8.042279,47.560561],[7.833713,47.590481],[7.683438,47.544257],[7.609747,47.564746],[7.659666,47.596579],[7.586028,47.584619],[7.511872,47.707322],[7.618945,48.002652],[7.575744,48.053709],[7.578948,48.11448],[7.702454,48.311187],[7.75072,48.341366],[7.745656,48.433014],[7.813455,48.519468],[7.810252,48.615018],[7.970138,48.757283],[8.08424,48.804051],[8.199892,48.95825],[7.931898,49.034838],[7.648814,49.035716],[7.520863,49.083672],[7.476112,49.151523],[7.391052,49.170023],[7.280258,49.108993],[7.085335,49.141549],[7.042546,49.107598],[7.009474,49.181702],[6.925448,49.205576],[6.843489,49.211054],[6.821785,49.147751],[6.725563,49.155554],[6.556426,49.326396],[6.577717,49.3558],[6.494518,49.435537],[6.34538,49.462718],[6.350754,49.566588],[6.418243,49.669889],[6.491727,49.700792],[6.498549,49.785386],[6.238306,49.876905],[6.096403,50.048626],[6.121311,50.16159],[6.165752,50.193165],[6.146839,50.214042],[6.271792,50.267424],[6.299491,50.308868],[6.362019,50.306956],[6.336905,50.481003],[6.217119,50.486015],[6.170817,50.517951],[6.160688,50.543583],[6.251329,50.608437],[6.159448,50.622389],[6.081003,50.713495],[6.024779,50.707552],[5.972999,50.781811],[6.062813,50.862943],[6.054648,50.891468],[6.007519,50.924076],[6.003695,50.973737],[5.88825,50.967123],[5.85249,51.042751],[5.937963,51.030943],[6.132369,51.139825],[6.149113,51.176335],[6.060849,51.170909],[6.056612,51.211707],[6.198929,51.35697],[6.205337,51.458436],[6.193348,51.509338],[6.086481,51.595534],[6.099193,51.644472],[5.949228,51.729376],[5.964111,51.776556],[5.928041,51.806736],[6.140018,51.844537],[6.105394,51.87947],[6.126995,51.89673],[6.344966,51.821102],[6.382483,51.827587],[6.378453,51.860117],[6.462892,51.848361],[6.743753,51.908331],[6.810726,51.960576],[6.804008,51.984373],[6.672957,52.050054],[7.02632,52.230637],[7.011851,52.26663],[7.048231,52.365074],[6.9733,52.451373],[6.90023,52.431917],[6.714814,52.461553],[6.671716,52.541678],[6.743753,52.559713],[6.701792,52.619115],[6.737035,52.634695],[7.018465,52.625988],[7.036655,52.647382],[7.061977,52.824012],[7.192821,52.998006],[7.172668,53.125751],[7.194591,53.245022],[7.254731,53.319525],[7.347667,53.307359],[7.302908,53.33275],[7.075206,53.337592],[7.023611,53.37641],[7.059744,53.521715],[7.141775,53.537177],[7.086762,53.586859],[7.226085,53.66649],[8.031423,53.708075],[8.024913,53.672553],[8.164887,53.535224],[8.076345,53.508612],[8.076996,53.468695],[8.219737,53.40644],[8.315115,53.474921],[8.291515,53.529364],[8.231212,53.525214],[8.270681,53.61286],[8.552094,53.543606],[8.490001,53.486396],[8.504405,53.358059],[8.497569,53.474758],[8.565766,53.546698],[8.486095,53.700426],[8.607107,53.881537],[8.672699,53.891588],[8.860688,53.831],[9.274669,53.865139],[9.567068,53.599595],[9.819021,53.540351],[9.550792,53.634589],[9.522227,53.71662],[9.435802,53.748684],[9.395193,53.831],[9.257823,53.885565],[8.98463,53.89704],[8.916026,53.937405],[8.833344,54.036444],[8.975352,54.024075],[9.018565,54.082424],[8.977306,54.139472],[8.867442,54.12519],[8.815684,54.175605],[8.83961,54.248725],[8.953136,54.302558],[8.651866,54.274848],[8.599864,54.33808],[8.695567,54.358588],[8.634776,54.365424],[8.648448,54.406399],[8.886078,54.417792],[8.988048,54.458441],[9.011567,54.506334],[8.88795,54.601874],[8.837087,54.602688],[8.81837,54.673651],[8.688731,54.735297],[8.642751,54.844184],[8.660776,54.896311],[8.904138,54.897942],[9.317033,54.801617],[9.510997,54.827826],[9.579926,54.866278],[9.583181,54.830268],[9.812185,54.766059],[9.94752,54.779527],[10.01824,54.701239],[9.929454,54.673896],[10.022146,54.672431],[10.031912,54.577704],[9.965587,54.506171],[9.840099,54.482123],[9.883311,54.462104],[10.124685,54.495754],[10.203868,54.461005],[10.141775,54.324408],[10.234386,54.417711],[10.31837,54.443305],[10.731293,54.310207],[10.935313,54.379543],[11.135509,54.385891],[11.06658,54.358588],[11.094493,54.283515],[11.06658,54.183905],[10.762869,54.05683],[10.780447,54.009955],[10.865571,53.997789],[10.88738,53.963935],[11.175059,54.018012],[11.255626,53.940863],[11.334158,53.961371],[11.438731,53.909125],[11.4935,53.997626],[11.689708,54.155219],[12.088145,54.194078],[12.115001,54.097886],[12.105479,54.157375],[12.142833,54.209174],[12.327322,54.293769],[12.533865,54.488267],[12.591482,54.451728],[12.908376,54.444648],[12.870779,54.416815],[12.624197,54.422919],[12.527029,54.37226],[12.454763,54.392076],[12.362559,54.310207],[12.412446,54.25141],[12.458181,54.255561],[12.41033,54.269192],[12.559337,54.376288],[12.71754,54.413804],[12.684093,54.37226],[12.78712,54.392076],[12.854666,54.357856],[13.0088,54.438056],[13.083669,54.378974],[13.112071,54.288479],[13.170665,54.276597],[13.143403,54.263007],[13.288829,54.23428],[13.348888,54.180487],[13.321544,54.166815],[13.403494,54.173651],[13.39088,54.157294],[13.465099,54.098456],[13.711925,54.173651],[13.698253,54.153144],[13.808116,54.104682],[13.746104,54.036444],[13.907563,53.933539],[13.817068,53.852932],[14.033539,53.757514],[14.264496,53.751614],[14.212738,53.708075],[14.263901,53.699976],[14.30417,53.508518],[14.359878,53.444077],[14.403286,53.27879],[14.44163,53.251841],[14.380651,53.189855],[14.38954,53.131668],[14.343341,53.048624],[14.14449,52.959921],[14.16082,52.876748],[14.123923,52.850651],[14.382202,52.738152],[14.644821,52.576921],[14.615779,52.473284],[14.539815,52.421866],[14.545396,52.382153],[14.606581,52.275751],[14.712414,52.235908],[14.686369,52.121032],[14.761403,52.076667],[14.704456,52.002227],[14.687093,51.911897],[14.585807,51.803893],[14.732465,51.658347],[14.743937,51.606644],[14.704559,51.547992],[14.732155,51.515823],[14.945061,51.449186],[14.963768,51.328393],[15.019476,51.271678],[14.955293,51.064042],[14.79458,50.831627],[14.737529,50.810698],[14.613195,50.84558],[14.629215,50.920717],[14.561829,50.906351],[14.566687,50.983401],[14.482144,51.037196],[14.397808,51.013115],[14.287531,51.036834],[14.249497,50.992651],[14.381892,50.920872],[14.346545,50.880203],[14.232133,50.879376],[13.948843,50.797211],[13.834535,50.723675],[13.556567,50.706725],[13.464893,50.607093],[13.365985,50.627092],[13.305627,50.575777],[13.25178,50.580893],[13.160106,50.497022],[13.026264,50.497642],[12.960631,50.409234],[12.825759,50.441418],[12.678792,50.393721],[12.510223,50.38876],[12.344652,50.26639],[12.300417,50.160815],[12.242953,50.252954],[12.178047,50.268767],[12.149315,50.311711],[12.076141,50.315173],[12.110971,50.276622],[12.089887,50.230837],[12.163784,50.193785],[12.187865,50.102834],[12.24688,50.044957],[12.451312,49.980568],[12.462681,49.931269],[12.524072,49.904965],[12.388577,49.732314],[12.504642,49.659399],[12.643548,49.42949],[12.797751,49.327843],[12.95433,49.31911],[13.178503,49.118347],[13.287333,49.10057],[13.458899,48.945024],[13.51595,48.970242],[13.608657,48.946161],[13.637389,48.893451],[13.710615,48.87247],[13.815725,48.76643]]],[[[14.210053,53.938463],[14.200819,53.878157],[13.840099,53.850287],[13.821788,53.865139],[13.922374,53.893378],[13.938975,53.928209],[13.90447,53.995429],[14.04835,53.940863],[14.05128,54.005072],[13.965831,54.063788],[13.855968,54.002346],[13.871104,54.048651],[13.774099,54.022773],[13.814952,54.101264],[13.762218,54.164455],[13.796153,54.17829],[13.882498,54.102444],[14.016612,54.060004],[14.210053,53.938463]]],[[[6.798106,53.604438],[6.722423,53.584621],[6.756521,53.562893],[6.659516,53.599107],[6.798106,53.604438]]],[[[6.87379,53.672756],[7.047048,53.694159],[7.08546,53.686998],[6.87379,53.672756]]],[[[7.133149,53.708075],[7.346202,53.727973],[7.295746,53.711005],[7.133149,53.708075]]],[[[7.366547,53.727973],[7.403494,53.736721],[7.435557,53.727973],[7.366547,53.727973]]],[[[8.120128,53.721137],[8.152354,53.739163],[8.195974,53.727973],[8.120128,53.721137]]],[[[7.517426,53.762112],[7.62672,53.755276],[7.469574,53.745347],[7.517426,53.762112]]],[[[7.660899,53.762112],[7.68629,53.780992],[7.812836,53.783149],[7.660899,53.762112]]],[[[7.87379,53.776353],[7.854503,53.784573],[7.955577,53.782904],[7.87379,53.776353]]],[[[11.375662,53.981838],[11.426606,54.022935],[11.497895,54.022773],[11.445323,53.961127],[11.451427,53.985541],[11.375662,53.981838]]],[[[11.528494,54.0751],[11.601899,54.104153],[11.539561,54.056952],[11.528494,54.0751]]],[[[8.963145,54.523668],[8.911306,54.475491],[8.823904,54.470852],[8.844493,54.519721],[8.963145,54.523668]]],[[[11.255626,54.478705],[11.31422,54.413804],[11.112641,54.415229],[11.084321,54.454779],[11.008474,54.454657],[11.033702,54.508857],[11.121267,54.535956],[11.255626,54.478705]]],[[[13.143403,54.598131],[13.068207,54.468451],[13.102306,54.596096],[13.151052,54.604926],[13.149669,54.577704],[13.143403,54.598131]]],[[[13.698253,54.392076],[13.766449,54.344916],[13.723155,54.278388],[13.663341,54.293891],[13.711925,54.331855],[13.616954,54.317613],[13.690929,54.351752],[13.499685,54.344916],[13.35963,54.275458],[13.355724,54.248725],[13.410899,54.26789],[13.407237,54.228217],[13.159679,54.290961],[13.177501,54.303941],[13.115489,54.33808],[13.148936,54.377265],[13.266856,54.385891],[13.217947,54.425686],[13.156993,54.426825],[13.259532,54.468451],[13.143403,54.542914],[13.242931,54.555976],[13.297862,54.51968],[13.35255,54.581448],[13.348888,54.523668],[13.387869,54.551256],[13.430675,54.492743],[13.507091,54.488267],[13.520763,54.564643],[13.441417,54.557196],[13.355724,54.605618],[13.253266,54.564643],[13.290538,54.646552],[13.224783,54.634955],[13.241547,54.65998],[13.390798,54.688178],[13.445079,54.68008],[13.39088,54.650539],[13.407725,54.593411],[13.670665,54.56623],[13.677257,54.540473],[13.579112,54.455064],[13.698253,54.392076]]],[[[8.332367,54.693793],[8.401378,54.632961],[8.353689,54.618964],[8.291515,54.66706],[8.360362,54.71483],[8.332367,54.693793]]],[[[8.497569,54.756415],[8.593761,54.728502],[8.552094,54.685004],[8.394542,54.71483],[8.497569,54.756415]]],[[[8.360362,54.948188],[8.354503,54.912746],[8.388357,54.894232],[8.65447,54.893622],[8.30714,54.865383],[8.290701,54.745307],[8.298025,54.912543],[8.373709,55.03498],[8.415782,55.065334],[8.46339,55.050686],[8.402354,55.048774],[8.42156,55.016262],[8.36199,54.986802],[8.360362,54.948188]]],[[[8.634532,54.542629],[8.698904,54.55858],[8.66977,54.501899],[8.618826,54.492621],[8.595876,54.513658],[8.634532,54.542629]]],[[[7.904145,54.180406],[7.885916,54.19066],[7.894542,54.194648],[7.904145,54.180406]]],[[[7.912364,54.192288],[7.929861,54.195299],[7.933442,54.189887],[7.912364,54.192288]]]]}}