{"type":"Feature","properties":{"iso3":"DJI","name":"Djibouti","continent":"Africa"},"geometry":{"type":"Polygon","coordinates":[[[43.240733,11.48786],[42.923715,10.998787],[42.908109,11.004187],[42.873279,10.978246],[42.771787,10.996462],[42.754837,11.010544],[42.729619,11.06501],[42.615621,11.08966],[42.569732,11.086146],[42.479712,11.059119],[42.391758,11.005893],[42.338532,11.015504],[42.305872,11.004601],[42.270835,11.003516],[42.221639,10.984344],[42.151359,10.996203],[42.096272,10.990261],[42.069401,10.981501],[42.038395,10.950444],[41.954162,10.941271],[41.937522,10.929825],[41.916852,10.947059],[41.773811,10.980054],[41.761306,10.996203],[41.779289,11.024677],[41.785594,11.067388],[41.787971,11.259727],[41.775672,11.368429],[41.749834,11.483383],[41.74911,11.537953],[41.778669,11.628645],[41.792415,11.704455],[41.808228,11.736236],[41.862282,11.763056],[41.877784,11.790134],[41.936386,11.827445],[42.057308,11.996271],[42.097719,12.070169],[42.132343,12.093475],[42.155494,12.142257],[42.288715,12.321006],[42.319205,12.386377],[42.430929,12.520322],[42.475681,12.516343],[42.521569,12.496241],[42.678252,12.360022],[42.691482,12.378832],[42.727758,12.388806],[42.749876,12.417073],[42.792251,12.429165],[42.798038,12.456088],[42.785223,12.517222],[42.828838,12.557633],[42.852092,12.611738],[42.868835,12.626155],[42.900358,12.616389],[43.117686,12.707913],[43.133962,12.697211],[43.161794,12.642727],[43.259613,12.533352],[43.283214,12.496527],[43.312999,12.477688],[43.329356,12.488756],[43.331228,12.436713],[43.360525,12.383002],[43.367849,12.306871],[43.411388,12.241767],[43.414317,12.224921],[43.418712,12.091254],[43.413341,12.059272],[43.377126,12.004828],[43.350434,11.987942],[43.288341,11.967434],[43.206554,11.957831],[43.174001,11.935004],[43.097179,11.84455],[43.069184,11.830268],[43.055512,11.803616],[42.986827,11.796088],[42.942638,11.77383],[42.915538,11.783596],[42.896495,11.780585],[42.777192,11.732245],[42.75408,11.707953],[42.684093,11.582261],[42.667979,11.568549],[42.627696,11.559068],[42.569021,11.563381],[42.548595,11.583808],[42.515147,11.574123],[42.514985,11.567206],[42.528087,11.570217],[42.538748,11.502997],[42.60377,11.46776],[42.644786,11.488227],[42.672537,11.479722],[42.681651,11.484524],[42.687511,11.497219],[42.665294,11.51557],[42.674083,11.532131],[42.694102,11.545966],[42.739757,11.563381],[42.829112,11.576972],[42.855805,11.595771],[42.875173,11.583686],[43.081798,11.589545],[43.103363,11.576972],[43.123057,11.581488],[43.141124,11.608588],[43.151866,11.611762],[43.172211,11.542873],[43.183849,11.526557],[43.240733,11.48786]]]}}