{"type":"Feature","properties":{"iso3":"DMA","name":"Dominica","continent":"Americas"},"geometry":{"type":"Polygon","coordinates":[[[-61.362864,15.201809],[-61.374094,15.20482],[-61.37328,15.266425],[-61.39094,15.296291],[-61.399566,15.351142],[-61.421213,15.41474],[-61.472076,15.481391],[-61.475209,15.517768],[-61.488922,15.535712],[-61.488881,15.545071],[-61.462148,15.572984],[-61.488881,15.57925],[-61.468984,15.633857],[-61.425933,15.628485],[-61.384633,15.588365],[-61.35733,15.598293],[-61.307688,15.57925],[-61.268625,15.509914],[-61.25768,15.472602],[-61.262929,15.407904],[-61.249257,15.401068],[-61.256663,15.285346],[-61.277211,15.25023],[-61.318186,15.243394],[-61.328725,15.225572],[-61.362864,15.201809]]]}}