{"type":"Feature","properties":{"iso3":"DNK","name":"Denmark","continent":"Europe"},"geometry":{"type":"MultiPolygon","coordinates":[[[[8.660776,54.896311],[8.668793,54.91352],[8.661388,54.920315],[8.674815,54.947943],[8.640961,55.023383],[8.644786,55.055732],[8.681895,55.133205],[8.56365,55.143378],[8.557384,55.096381],[8.49936,55.065579],[8.470225,55.078599],[8.458832,55.103461],[8.470225,55.177558],[8.488943,55.19717],[8.530528,55.200751],[8.572602,55.193671],[8.593761,55.180976],[8.552094,55.160549],[8.555186,55.149359],[8.669281,55.136908],[8.689464,55.141588],[8.648448,55.28026],[8.659679,55.327216],[8.632091,55.418769],[8.617686,55.437934],[8.59254,55.449286],[8.441905,55.463935],[8.401134,55.485663],[8.310395,55.56269],[8.311209,55.56977],[8.332367,55.572008],[8.332367,55.578274],[8.313162,55.582709],[8.267833,55.580512],[8.239024,55.557929],[8.242035,55.548529],[8.271739,55.530463],[8.243663,55.516791],[8.293956,55.50434],[8.316742,55.489407],[8.326182,55.472113],[8.313324,55.469306],[8.193614,55.525946],[8.110606,55.540229],[8.095225,55.549058],[8.094005,55.56391],[8.150238,55.649237],[8.181651,55.729071],[8.18336,55.769599],[8.126801,55.982978],[8.130707,55.989732],[8.150564,55.977037],[8.175466,55.900336],[8.19337,55.873847],[8.193614,55.853217],[8.181651,55.828355],[8.185069,55.814643],[8.193614,55.811835],[8.34783,55.86933],[8.387706,55.89289],[8.393321,55.909166],[8.372895,55.943427],[8.319509,55.986029],[8.319509,56.017035],[8.308116,56.052924],[8.2824,56.075873],[8.149669,56.111151],[8.140636,56.102729],[8.134776,55.993964],[8.120128,55.996568],[8.107921,56.024319],[8.106456,56.119452],[8.1338,56.205471],[8.122406,56.551663],[8.178722,56.672065],[8.198985,56.698879],[8.213878,56.711819],[8.219981,56.709174],[8.232432,56.688381],[8.202159,56.640204],[8.233165,56.633979],[8.253917,56.606106],[8.305919,56.597805],[8.291515,56.593004],[8.292491,56.567694],[8.307384,56.554348],[8.318044,56.563625],[8.312022,56.578803],[8.3921,56.585273],[8.436534,56.580227],[8.514659,56.544664],[8.565766,56.578803],[8.596039,56.531806],[8.601085,56.501125],[8.636974,56.479722],[8.726573,56.483222],[8.742035,56.497748],[8.750824,56.552069],[8.760427,56.560126],[8.757579,56.571967],[8.708995,56.588568],[8.698497,56.611233],[8.681488,56.616278],[8.681895,56.626532],[8.740896,56.634955],[8.805431,56.695461],[8.861583,56.707465],[8.916759,56.708808],[8.840831,56.722357],[8.876638,56.764309],[8.95574,56.802965],[9.014903,56.797838],[9.063162,56.812567],[9.105968,56.800116],[9.120453,56.764594],[9.162852,56.729641],[9.176036,56.708564],[9.148204,56.704739],[9.118826,56.678778],[9.093435,56.674994],[9.097504,56.658433],[9.059337,56.633979],[9.048839,56.607164],[9.060557,56.565741],[9.093435,56.57807],[9.106781,56.610785],[9.155447,56.612942],[9.141124,56.626044],[9.121349,56.620347],[9.148611,56.661322],[9.155447,56.661322],[9.149425,56.638861],[9.276215,56.632961],[9.28533,56.620347],[9.2824,56.610541],[9.250336,56.578803],[9.261241,56.576361],[9.270844,56.558295],[9.326182,56.530341],[9.34669,56.552069],[9.36085,56.544745],[9.373057,56.55272],[9.372732,56.565375],[9.350352,56.571967],[9.312836,56.557766],[9.293712,56.561021],[9.300629,56.609117],[9.32602,56.66942],[9.305675,56.695461],[9.290701,56.703843],[9.270844,56.702338],[9.199067,56.676581],[9.177908,56.675849],[9.169119,56.688666],[9.180349,56.700751],[9.22641,56.716254],[9.242524,56.747056],[9.240489,56.753974],[9.196544,56.770453],[9.174978,56.806057],[9.176036,56.818427],[9.211436,56.851508],[9.210623,56.863105],[9.199555,56.879828],[9.162852,56.89411],[9.200206,56.93891],[9.251475,56.972561],[9.279959,56.979804],[9.285492,56.993964],[9.437022,57.0244],[9.470063,57.02383],[9.586762,56.997138],[9.57309,56.978827],[9.607921,56.969875],[9.688975,57.03913],[9.761241,57.05858],[9.809093,57.051744],[9.915782,57.05858],[9.856619,57.08869],[9.795665,57.106391],[9.733246,57.066799],[9.711925,57.061265],[9.675141,57.079169],[9.580821,57.049302],[9.493988,57.04857],[9.245372,57.002346],[9.114513,57.05858],[9.12086,57.045396],[9.112804,57.038642],[9.042654,57.017727],[9.025727,57.017564],[9.031993,57.02383],[9.014008,57.030178],[8.996755,57.028062],[8.901622,56.986274],[8.893077,56.999661],[8.850434,57.003485],[8.833344,56.997138],[8.847992,56.988471],[8.811697,56.969875],[8.762055,56.955471],[8.72641,56.961249],[8.679535,56.952541],[8.668793,56.945299],[8.663341,56.92593],[8.621104,56.89411],[8.607921,56.849677],[8.569591,56.818427],[8.536306,56.814521],[8.491384,56.794257],[8.483897,56.781155],[8.491466,56.731391],[8.47641,56.715969],[8.525564,56.715969],[8.533051,56.703803],[8.527029,56.695299],[8.500987,56.688666],[8.452891,56.702338],[8.408214,56.688666],[8.408214,56.68122],[8.455903,56.688666],[8.500987,56.674994],[8.571544,56.691962],[8.586274,56.688666],[8.586274,56.653876],[8.608084,56.631049],[8.583018,56.60932],[8.546641,56.601711],[8.559581,56.593004],[8.539317,56.59276],[8.511485,56.607001],[8.467296,56.652045],[8.444835,56.664049],[8.373383,56.680243],[8.352224,56.692939],[8.319509,56.722154],[8.302013,56.763739],[8.243663,56.777411],[8.263194,56.71894],[8.260753,56.70539],[8.24586,56.704006],[8.236176,56.771186],[8.247895,56.812445],[8.270356,56.843248],[8.449718,57.003974],[8.503591,57.034654],[8.586274,57.106391],[8.618012,57.12287],[8.783946,57.104804],[8.914561,57.127427],[8.980479,57.161038],[9.230642,57.141099],[9.321544,57.14704],[9.41212,57.165432],[9.497813,57.197008],[9.573253,57.242906],[9.788422,57.459296],[9.895356,57.531562],[9.929861,57.56745],[9.96697,57.591376],[10.197602,57.601223],[10.279552,57.620917],[10.350597,57.648993],[10.472504,57.716986],[10.539073,57.743842],[10.596039,57.751166],[10.648936,57.737006],[10.594412,57.725898],[10.542491,57.69892],[10.46046,57.630561],[10.430431,57.570543],[10.458344,57.525458],[10.508962,57.484036],[10.54656,57.435289],[10.517426,57.391303],[10.517914,57.339179],[10.539073,57.236721],[10.446788,57.184882],[10.411469,57.144436],[10.384044,57.074205],[10.347179,57.010199],[10.319672,56.997504],[10.239757,56.992825],[10.156016,57.02383],[10.094005,57.060492],[9.99464,57.092719],[9.974457,57.086493],[9.946137,57.061184],[9.926931,57.05858],[9.945486,57.057318],[10.001964,57.083889],[10.192393,56.994045],[10.313731,56.982856],[10.279552,56.955512],[10.26588,56.907701],[10.295421,56.778876],[10.319998,56.736477],[10.340587,56.717353],[10.318696,56.708238],[10.237559,56.715969],[10.203868,56.702338],[10.146495,56.722357],[9.945567,56.658149],[9.805919,56.64704],[9.805919,56.640204],[9.851329,56.635728],[10.001475,56.661322],[10.049571,56.674994],[10.062836,56.688666],[10.101329,56.682685],[10.12379,56.692328],[10.134776,56.712388],[10.150564,56.714423],[10.18336,56.708564],[10.175792,56.695461],[10.241954,56.688381],[10.283539,56.689765],[10.334239,56.703843],[10.352794,56.68183],[10.357677,56.648749],[10.340343,56.620347],[10.214366,56.558295],[10.203868,56.516669],[10.211436,56.505316],[10.206798,56.490953],[10.18336,56.46955],[10.225597,56.475735],[10.22755,56.541083],[10.237641,56.554389],[10.330333,56.603217],[10.350922,56.595893],[10.365245,56.558417],[10.4699,56.520901],[10.551524,56.51557],[10.822276,56.534247],[10.854991,56.524156],[10.90211,56.483222],[10.964122,56.448432],[10.940929,56.429511],[10.928477,56.40648],[10.922618,56.356269],[10.911632,56.334052],[10.819591,56.260932],[10.755382,56.229315],[10.752615,56.184963],[10.738617,56.154527],[10.707042,56.150865],[10.672211,56.165188],[10.648936,56.188381],[10.685232,56.196234],[10.687673,56.222235],[10.628591,56.237535],[10.549164,56.178209],[10.573741,56.112616],[10.548025,56.101264],[10.518565,56.102729],[10.491222,56.13996],[10.525401,56.153632],[10.509451,56.170111],[10.46811,56.177069],[10.408702,56.164862],[10.354666,56.202053],[10.42921,56.22248],[10.477794,56.202338],[10.491222,56.216295],[10.474294,56.232245],[10.475434,56.244696],[10.504731,56.277777],[10.476817,56.280911],[10.442638,56.298651],[10.416759,56.291897],[10.403005,56.298245],[10.393809,56.276516],[10.36378,56.26557],[10.312511,56.215155],[10.258474,56.190253],[10.234223,56.171332],[10.220225,56.147895],[10.259044,56.099026],[10.265636,56.073717],[10.261485,56.054429],[10.23113,56.017035],[10.272716,56.024848],[10.277517,56.017768],[10.252452,55.986233],[10.245372,55.914618],[10.21754,55.889838],[10.18336,55.873725],[10.199392,55.850735],[10.18214,55.833686],[10.151052,55.838121],[10.12379,55.873277],[10.101817,55.882392],[10.004649,55.879869],[9.97047,55.859442],[9.944509,55.853583],[9.867442,55.851996],[9.892589,55.836249],[10.045746,55.813951],[10.017345,55.76557],[10.019786,55.75788],[10.059825,55.756415],[10.059825,55.749498],[10.018809,55.736274],[10.006847,55.725043],[10.01824,55.708564],[10.005219,55.701117],[9.9817,55.709418],[9.792247,55.674465],[9.730968,55.688137],[9.686534,55.708564],[9.583018,55.708889],[9.559581,55.715399],[9.552745,55.701117],[9.573578,55.695461],[9.658539,55.690375],[9.710297,55.660142],[9.738292,55.629706],[9.85377,55.626654],[9.75766,55.571601],[9.712413,55.560289],[9.706879,55.537299],[9.60727,55.516791],[9.559581,55.523627],[9.566417,55.516791],[9.551931,55.505113],[9.498057,55.489447],[9.534434,55.483832],[9.602387,55.495795],[9.660167,55.477973],[9.664236,55.466702],[9.648936,55.441067],[9.586762,55.427436],[9.607921,55.393256],[9.600841,55.365912],[9.645274,55.342719],[9.648285,55.332913],[9.634613,55.317572],[9.681895,55.274644],[9.706065,55.265082],[9.710297,55.248684],[9.684418,55.197577],[9.6421,55.188422],[9.569835,55.192532],[9.545909,55.17414],[9.486339,55.156236],[9.486339,55.147406],[9.511892,55.140082],[9.511892,55.133205],[9.456554,55.125718],[9.521332,55.115871],[9.559581,55.085395],[9.516612,55.056545],[9.434337,55.037543],[9.442882,55.023383],[9.455251,55.023179],[9.545909,55.036363],[9.579926,55.050686],[9.662608,55.009711],[9.730968,54.995429],[9.763194,54.900458],[9.751964,54.893012],[9.711436,54.898586],[9.703461,54.886176],[9.744477,54.866278],[9.745942,54.836005],[9.719574,54.835842],[9.696625,54.858873],[9.65504,54.857082],[9.623302,54.865302],[9.634613,54.87934],[9.610362,54.903225],[9.644216,54.913275],[9.638845,54.92475],[9.615001,54.932685],[9.586762,54.92772],[9.545909,54.87934],[9.522146,54.879299],[9.456391,54.843817],[9.442882,54.831529],[9.43629,54.810452],[9.405193,54.808387],[9.385039,54.819394],[9.317033,54.801617],[9.226392,54.805906],[9.21151,54.841822],[9.194766,54.8504],[8.982686,54.879339],[8.904138,54.897942],[8.824246,54.9059],[8.732779,54.889054],[8.660776,54.896311]]],[[[11.845225,54.73192],[11.806977,54.707994],[11.846446,54.697821],[11.842621,54.676215],[11.81072,54.655097],[11.766124,54.646552],[11.610525,54.666409],[11.512218,54.646552],[11.474376,54.626125],[11.358735,54.660549],[11.187755,54.732245],[11.030528,54.760647],[11.009288,54.771633],[10.999197,54.78677],[11.005707,54.803656],[11.030772,54.812161],[11.089692,54.810614],[11.108165,54.831529],[11.07838,54.841132],[11.018809,54.886176],[11.018809,54.903388],[11.0324,54.919257],[11.073985,54.948188],[11.088145,54.944159],[11.2317,54.961249],[11.338878,54.919135],[11.368907,54.88109],[11.594737,54.811103],[11.572765,54.847968],[11.594737,54.858873],[11.656261,54.866278],[11.644786,54.889635],[11.649425,54.91352],[11.725759,54.873358],[11.731944,54.858873],[11.755626,54.841132],[11.787283,54.831529],[11.777192,54.825995],[11.787608,54.806871],[11.848643,54.773179],[11.855479,54.743598],[11.845225,54.73192]]],[[[10.450206,54.899807],[10.499197,54.874579],[10.498709,54.858873],[10.518565,54.851996],[10.440115,54.841498],[10.406261,54.824693],[10.383474,54.830756],[10.211436,54.939358],[10.18922,54.977484],[10.288748,54.940741],[10.34962,54.896715],[10.391368,54.895453],[10.395844,54.903469],[10.388845,54.920315],[10.426036,54.872504],[10.460948,54.874498],[10.463634,54.882473],[10.450206,54.899807]]],[[[12.417166,55.030219],[12.504731,55.019761],[12.537608,55.002387],[12.553722,54.968085],[12.551768,54.95718],[12.502778,54.948188],[12.384613,54.96308],[12.348399,54.960028],[12.28004,54.934556],[12.226817,54.892646],[12.207774,54.886176],[12.115001,54.907294],[12.115001,54.91352],[12.129161,54.91352],[12.128917,54.931627],[12.149099,54.940823],[12.129161,54.954413],[12.164399,54.972642],[12.177013,54.968085],[12.184337,54.975531],[12.177013,54.989203],[12.232188,54.975531],[12.286876,54.989203],[12.281261,55.007148],[12.2942,55.023383],[12.252696,55.04385],[12.250987,55.060736],[12.28004,55.064276],[12.301768,55.04206],[12.335297,55.033271],[12.417166,55.030219]]],[[[10.011404,54.975531],[10.065115,54.890815],[10.064464,54.881008],[10.021983,54.87934],[9.968028,54.859524],[9.953624,54.862616],[9.891124,54.879299],[9.874278,54.886176],[9.874278,54.893012],[9.90089,54.900702],[9.991547,54.872504],[9.991547,54.87934],[9.943696,54.903632],[9.898285,54.912991],[9.85377,54.899807],[9.814708,54.901068],[9.780935,54.916815],[9.761241,54.943061],[9.764415,54.975531],[9.758149,54.981757],[9.827403,54.945461],[9.847504,54.948188],[9.832774,54.965155],[9.842133,54.970282],[9.786794,55.000149],[9.799083,55.016547],[9.720551,55.012274],[9.674164,55.021064],[9.668793,55.030219],[9.696625,55.050686],[9.645518,55.044867],[9.628429,55.050686],[9.628429,55.058051],[9.716645,55.082221],[9.793468,55.080756],[9.853038,55.040107],[9.960948,55.015041],[10.011404,54.975531]]],[[[10.854991,55.04385],[10.86199,55.072089],[10.895518,55.121527],[10.934255,55.159654],[10.956716,55.153713],[10.908946,55.030219],[10.837738,54.937242],[10.741059,54.752387],[10.731293,54.740058],[10.693858,54.735297],[10.681895,54.744818],[10.656423,54.803656],[10.601085,54.838324],[10.64088,54.843207],[10.684418,54.887844],[10.698904,54.881171],[10.724457,54.886176],[10.717784,54.907294],[10.700369,54.901557],[10.682953,54.907294],[10.697032,54.931342],[10.798188,54.996568],[10.854991,55.04385]]],[[[15.151378,55.133205],[15.137706,55.119534],[15.144705,55.087104],[15.106619,55.044664],[15.113242,55.018295],[15.072666,54.991638],[14.98287,55.001013],[14.858607,55.038226],[14.780833,55.051128],[14.684173,55.101347],[14.697045,55.122654],[14.709239,55.235826],[14.737071,55.266669],[14.760916,55.309272],[14.851422,55.2482],[14.926799,55.215799],[14.973399,55.216132],[15.000499,55.188422],[15.151378,55.133205]]],[[[8.47641,55.345445],[8.451671,55.339748],[8.402354,55.380032],[8.370942,55.427436],[8.364268,55.449042],[8.37436,55.463284],[8.408214,55.468411],[8.411957,55.438707],[8.46339,55.427436],[8.450206,55.393378],[8.47641,55.345445]]],[[[10.66627,55.064276],[10.604747,55.062567],[10.538259,55.029731],[10.47755,55.04385],[10.388845,55.050686],[10.362559,55.06273],[10.312755,55.063666],[10.234223,55.092231],[10.205251,55.093695],[10.197602,55.086086],[10.197032,55.064276],[10.141775,55.092231],[10.083507,55.086982],[10.065929,55.092231],[10.142589,55.1258],[10.156016,55.140082],[10.112966,55.183783],[10.094005,55.188422],[10.039317,55.180976],[10.003591,55.197333],[9.991547,55.188422],[9.994477,55.172797],[10.029145,55.142401],[10.025645,55.125718],[9.985525,55.127753],[9.98878,55.151842],[9.972016,55.184719],[9.979503,55.212836],[9.911388,55.228502],[9.883962,55.253485],[9.895356,55.28026],[9.881684,55.314439],[9.884776,55.348863],[9.829845,55.352281],[9.802419,55.362372],[9.778087,55.380276],[9.830089,55.388902],[9.840099,55.400092],[9.785492,55.413764],[9.819591,55.413764],[9.791026,55.43183],[9.737315,55.438178],[9.703461,55.468411],[9.786306,55.437201],[9.812185,55.441067],[9.71339,55.491034],[9.67628,55.495673],[9.755138,55.544135],[9.827403,55.548407],[9.840099,55.523627],[9.888194,55.508694],[9.940278,55.519232],[10.039317,55.557766],[10.16863,55.582261],[10.237315,55.605536],[10.272146,55.605536],[10.279063,55.588324],[10.29363,55.58808],[10.293793,55.616116],[10.307628,55.618232],[10.4074,55.582953],[10.444184,55.553168],[10.518809,55.533433],[10.475271,55.531968],[10.470714,55.520209],[10.489106,55.509101],[10.486013,55.494778],[10.457042,55.489447],[10.419607,55.458808],[10.436046,55.442125],[10.471528,55.443061],[10.491222,55.465277],[10.609141,55.49258],[10.602306,55.506252],[10.566905,55.523627],[10.569835,55.532416],[10.601085,55.516791],[10.61378,55.527899],[10.594249,55.578274],[10.614594,55.564602],[10.608572,55.612982],[10.627615,55.613593],[10.704112,55.550279],[10.709239,55.527045],[10.738129,55.509345],[10.742361,55.487494],[10.657481,55.459703],[10.5713,55.461249],[10.554047,55.442572],[10.563324,55.436225],[10.594249,55.441067],[10.58961,55.446234],[10.595958,55.459662],[10.697927,55.440253],[10.796641,55.358547],[10.834321,55.290269],[10.796886,55.307685],[10.780284,55.304918],[10.77296,55.287095],[10.805349,55.250434],[10.815196,55.214057],[10.783376,55.124213],[10.733653,55.071845],[10.705577,55.062567],[10.66627,55.064276]]],[[[12.615733,55.688137],[12.673839,55.605536],[12.639415,55.578274],[12.556326,55.550482],[12.534841,55.569322],[12.520518,55.596747],[12.520193,55.619208],[12.567393,55.653998],[12.608409,55.701117],[12.615733,55.688137]]],[[[10.559418,55.866278],[10.581065,55.894517],[10.580251,55.911526],[10.566905,55.92829],[10.515391,55.951239],[10.518565,55.976142],[10.543956,55.997992],[10.556814,55.995795],[10.56422,55.953843],[10.580251,55.93651],[10.628266,55.920844],[10.615408,55.900336],[10.62143,55.879869],[10.638682,55.866116],[10.66627,55.886705],[10.669281,55.880032],[10.628266,55.845771],[10.62436,55.794338],[10.614594,55.776842],[10.582205,55.759752],[10.54713,55.765204],[10.520274,55.78856],[10.511567,55.825263],[10.517263,55.845526],[10.559418,55.866278]]],[[[12.040375,54.893012],[12.096446,54.898098],[12.170177,54.838324],[12.067149,54.786811],[12.022716,54.735297],[11.960704,54.694078],[11.969005,54.56977],[11.949067,54.56859],[11.928233,54.58397],[11.923676,54.598131],[11.869151,54.659613],[11.870616,54.680365],[11.910167,54.721666],[11.875824,54.729722],[11.872325,54.739936],[11.882823,54.756415],[11.809093,54.804918],[11.793468,54.84455],[11.749685,54.873114],[11.742035,54.925442],[11.711436,54.940823],[11.711436,54.948188],[11.759288,54.968085],[11.803966,54.948188],[11.837576,54.966132],[11.848318,54.959133],[11.862478,54.96369],[11.882823,54.981757],[11.841807,55.030219],[11.755626,55.050686],[11.72877,55.064276],[11.665538,55.066392],[11.615896,55.092231],[11.827485,55.050686],[11.805349,55.073879],[11.743419,55.100531],[11.717621,55.125718],[11.803966,55.134833],[11.806977,55.146877],[11.785411,55.157213],[11.728526,55.154771],[11.711436,55.167914],[11.734711,55.188666],[11.733084,55.200141],[11.717621,55.208319],[11.695079,55.208075],[11.649425,55.180976],[11.506033,55.208319],[11.492361,55.204169],[11.423188,55.22191],[11.368907,55.208319],[11.299978,55.208319],[11.299978,55.201483],[11.320486,55.194648],[11.260997,55.200588],[11.245372,55.214789],[11.238536,55.242418],[11.267833,55.235907],[11.286306,55.25609],[11.241954,55.248684],[11.241547,55.27851],[11.152843,55.328437],[11.188243,55.335273],[11.190115,55.345445],[11.142345,55.352281],[11.123546,55.331855],[11.108165,55.331855],[11.087738,55.358547],[11.087738,55.365953],[11.128917,55.36518],[11.15919,55.381293],[11.204356,55.391832],[11.214203,55.403795],[11.213145,55.415758],[11.200938,55.42121],[11.204845,55.431342],[11.196462,55.453843],[11.16391,55.501899],[11.13559,55.515123],[11.085785,55.507554],[11.080903,55.513088],[11.088552,55.53384],[11.13795,55.542914],[11.148448,55.557318],[11.145681,55.576117],[11.132091,55.595282],[11.087901,55.626939],[11.039236,55.643459],[10.929942,55.660142],[10.929942,55.667629],[11.087738,55.660142],[11.071056,55.676947],[10.98463,55.701117],[10.960216,55.724351],[10.891449,55.731269],[10.875499,55.736518],[10.875499,55.742743],[11.033051,55.729071],[11.162771,55.749498],[11.162771,55.742743],[11.121837,55.736518],[11.163422,55.70539],[11.192638,55.700344],[11.218028,55.708564],[11.176443,55.729071],[11.190115,55.736518],[11.252208,55.729071],[11.352224,55.755805],[11.364024,55.765123],[11.375662,55.807929],[11.348399,55.838324],[11.398448,55.826402],[11.44337,55.845771],[11.47755,55.841539],[11.505219,55.86872],[11.510509,55.908271],[11.477387,55.941352],[11.304535,55.967841],[11.281912,55.978949],[11.272634,55.996568],[11.400564,55.961982],[11.426931,55.965522],[11.581065,55.95185],[11.599376,55.942084],[11.64088,55.943427],[11.768321,55.970526],[11.779796,55.961859],[11.73878,55.920844],[11.750499,55.910386],[11.743988,55.903754],[11.711436,55.907172],[11.717621,55.920844],[11.685802,55.919867],[11.663097,55.907172],[11.731619,55.830715],[11.717621,55.810981],[11.656261,55.810981],[11.626231,55.790595],[11.607758,55.790473],[11.607758,55.783026],[11.673595,55.783026],[11.720388,55.798651],[11.73878,55.797349],[11.762706,55.749498],[11.682302,55.741278],[11.657237,55.730862],[11.684337,55.721625],[11.746349,55.731024],[11.787283,55.701117],[11.794444,55.687934],[11.779796,55.660142],[11.810557,55.679104],[11.852306,55.730902],[11.844981,55.76789],[11.869151,55.804755],[11.937348,55.825263],[11.953624,55.853502],[11.909516,55.915473],[11.91684,55.934516],[11.934744,55.933661],[11.99822,55.902818],[11.992035,55.873725],[12.031261,55.816596],[12.049001,55.775336],[12.051931,55.73664],[12.026134,55.715399],[11.972667,55.721422],[11.958181,55.693427],[11.910167,55.660142],[11.959158,55.665107],[11.982188,55.6789],[11.985199,55.694892],[12.00115,55.698676],[12.031912,55.687201],[12.040375,55.674465],[12.009288,55.680487],[12.011404,55.669013],[12.060313,55.653998],[12.092052,55.706732],[12.095063,55.729071],[12.053477,55.838324],[12.049815,55.888007],[12.026134,55.941352],[11.992442,55.960598],[11.865489,55.939358],[11.848643,55.948188],[11.865571,55.972724],[12.012462,56.030707],[12.165375,56.103705],[12.245128,56.12873],[12.328461,56.126899],[12.414887,56.099026],[12.486095,56.099026],[12.621918,56.043769],[12.567393,55.996568],[12.512706,55.92829],[12.512706,55.920844],[12.554454,55.88288],[12.57602,55.829169],[12.602224,55.797349],[12.587901,55.729071],[12.602224,55.708564],[12.541026,55.648871],[12.503266,55.634019],[12.487153,55.609849],[12.465017,55.605536],[12.403575,55.619208],[12.331309,55.595404],[12.248383,55.546251],[12.19809,55.487494],[12.224864,55.434882],[12.273448,55.410224],[12.368826,55.400092],[12.434744,55.363674],[12.465017,55.290269],[12.392426,55.255316],[12.182791,55.2272],[12.121104,55.191067],[12.10906,55.170722],[12.115001,55.153713],[12.098969,55.141425],[12.08074,55.146877],[12.088145,55.168362],[12.076671,55.181952],[12.056407,55.185696],[12.014659,55.167467],[12.012462,55.157131],[12.046641,55.140082],[12.16863,55.128485],[12.177013,55.105292],[12.16505,55.091295],[12.1185,55.073554],[12.163341,55.023383],[12.162283,55.004381],[12.148936,54.994127],[12.03297,54.968085],[11.998057,54.976508],[11.943858,55.00609],[11.910167,55.009711],[11.91684,55.002875],[11.897146,54.995429],[11.901541,54.976386],[11.882823,54.940823],[11.890147,54.929633],[11.918468,54.921942],[11.931163,54.92772],[11.923676,54.940823],[11.957856,54.948188],[11.991466,54.916327],[12.040375,54.893012]]],[[[11.512218,56.695461],[11.509532,56.71015],[11.520844,56.715399],[11.649425,56.729641],[11.649425,56.722154],[11.618012,56.71133],[11.581065,56.68122],[11.543712,56.678656],[11.512218,56.695461]]],[[[8.825857,56.743842],[8.771251,56.715969],[8.766124,56.698717],[8.658376,56.678127],[8.586274,56.736477],[8.555919,56.743842],[8.514659,56.738227],[8.522797,56.755072],[8.553233,56.768134],[8.548025,56.787258],[8.573009,56.802558],[8.643809,56.808051],[8.668793,56.825832],[8.621104,56.832017],[8.655121,56.866848],[8.648448,56.890692],[8.791759,56.914537],[8.81365,56.910346],[8.867442,56.962958],[8.890391,56.95482],[8.91627,56.979071],[8.928884,56.97663],[8.908458,56.948717],[8.922699,56.922024],[8.900401,56.874823],[8.88795,56.866848],[8.88266,56.886379],[8.867442,56.89411],[8.83961,56.879828],[8.836436,56.869289],[8.855154,56.81977],[8.881114,56.805365],[8.853282,56.797838],[8.867442,56.791083],[8.825857,56.743842]]],[[[11.142345,57.332343],[11.181488,57.330308],[11.197276,57.313381],[11.196502,57.302821],[11.189113,57.294283],[11.143231,57.301351],[11.06658,57.291327],[11.094165,57.268996],[11.091101,57.252784],[11.028835,57.201914],[10.997905,57.19791],[10.977962,57.206733],[10.951815,57.23373],[10.888799,57.245344],[10.854991,57.264635],[10.854991,57.270901],[10.888425,57.274865],[10.946601,57.304643],[11.010084,57.309873],[11.027723,57.320691],[11.101927,57.320417],[11.142345,57.332343]]]]}}