{"type":"Feature","properties":{"iso3":"DOM","name":"Dominican Republic","continent":"Americas"},"geometry":{"type":"MultiPolygon","coordinates":[[[[-71.757436,19.71011],[-71.720326,19.697455],[-71.741851,19.755805],[-71.740793,19.773179],[-71.767649,19.774482],[-71.771067,19.785142],[-71.744496,19.817206],[-71.716908,19.823635],[-71.699818,19.841498],[-71.658803,19.861965],[-71.666737,19.885688],[-71.661448,19.893622],[-71.621246,19.889309],[-71.610951,19.900824],[-71.504628,19.910346],[-71.452707,19.898098],[-71.357249,19.851264],[-71.329213,19.845893],[-71.302602,19.855699],[-71.268056,19.835517],[-71.212066,19.837104],[-71.203521,19.865383],[-71.191762,19.869696],[-71.172231,19.834052],[-71.151723,19.855699],[-71.165395,19.868801],[-71.149729,19.863023],[-71.107045,19.868801],[-71.078277,19.909125],[-71.000885,19.93769],[-70.96935,19.925198],[-70.961049,19.912665],[-70.966176,19.896715],[-70.946889,19.889309],[-70.939443,19.889309],[-70.946889,19.910346],[-70.898508,19.902899],[-70.843251,19.910346],[-70.786977,19.852851],[-70.788645,19.834052],[-70.750966,19.833808],[-70.698476,19.79682],[-70.623687,19.766547],[-70.518707,19.759752],[-70.472727,19.786851],[-70.433705,19.775214],[-70.336171,19.677639],[-70.280832,19.651801],[-70.116444,19.622382],[-70.042104,19.678453],[-69.947255,19.678656],[-69.897939,19.635972],[-69.887196,19.612738],[-69.904164,19.532375],[-69.884145,19.5244],[-69.876536,19.506659],[-69.87682,19.461005],[-69.867991,19.425279],[-69.801381,19.330878],[-69.76769,19.29975],[-69.733469,19.286566],[-69.713206,19.28974],[-69.674387,19.30386],[-69.589426,19.312812],[-69.527984,19.341783],[-69.483306,19.327582],[-69.437367,19.332953],[-69.428619,19.319241],[-69.410715,19.327582],[-69.335601,19.293402],[-69.305898,19.331122],[-69.231272,19.363349],[-69.224355,19.351793],[-69.246816,19.299628],[-69.204335,19.292792],[-69.164296,19.307034],[-69.158355,19.285102],[-69.18932,19.252265],[-69.214345,19.200629],[-69.253651,19.183539],[-69.332143,19.197211],[-69.418121,19.190985],[-69.475453,19.214016],[-69.617299,19.225246],[-69.633534,19.123684],[-69.630442,19.108466],[-69.608469,19.093451],[-69.553293,19.101467],[-69.53425,19.094794],[-69.510487,19.102037],[-69.46345,19.084703],[-69.438629,19.087348],[-69.473378,19.10163],[-69.473378,19.108466],[-69.419993,19.111151],[-69.386708,19.096096],[-69.372955,19.065375],[-69.356068,19.053209],[-69.173248,19.011135],[-69.138661,19.022284],[-69.157338,19.036689],[-69.15746,19.046373],[-69.139516,19.051215],[-69.102854,19.005357],[-69.061187,18.988186],[-69.054433,18.977484],[-69.006581,19.005357],[-69.014231,19.013414],[-68.992991,19.018459],[-68.97936,19.032864],[-68.939565,19.031317],[-68.89981,19.020901],[-68.883127,19.012193],[-68.876291,18.998603],[-68.795888,18.984117],[-68.739735,18.964423],[-68.623525,18.861884],[-68.5808,18.812567],[-68.458567,18.731024],[-68.413401,18.689602],[-68.356191,18.656562],[-68.328603,18.616523],[-68.334055,18.577297],[-68.441274,18.429023],[-68.444325,18.374823],[-68.455678,18.357856],[-68.472157,18.34984],[-68.516591,18.34748],[-68.588938,18.38227],[-68.605458,18.371731],[-68.597524,18.336615],[-68.626088,18.283352],[-68.647084,18.21483],[-68.742991,18.204535],[-68.760243,18.210354],[-68.762522,18.246975],[-68.820139,18.342475],[-68.849599,18.374823],[-68.922515,18.412299],[-68.964345,18.417955],[-69.012563,18.399115],[-69.085439,18.395901],[-69.185292,18.421698],[-69.214223,18.445136],[-69.236318,18.450507],[-69.295033,18.439032],[-69.315094,18.450507],[-69.336008,18.432074],[-69.465932,18.422553],[-69.525258,18.408433],[-69.579986,18.444485],[-69.616811,18.457343],[-69.623606,18.416327],[-69.646596,18.41356],[-69.665151,18.419501],[-69.681956,18.446763],[-69.697377,18.456366],[-69.851471,18.47248],[-69.89981,18.466457],[-70.016591,18.411363],[-70.055776,18.367255],[-70.067698,18.329088],[-70.090688,18.317532],[-70.100006,18.299221],[-70.171783,18.231431],[-70.202138,18.233547],[-70.233144,18.223944],[-70.269602,18.238105],[-70.397572,18.237616],[-70.460194,18.20893],[-70.552846,18.20425],[-70.568918,18.210354],[-70.570302,18.21894],[-70.549062,18.237616],[-70.55191,18.24844],[-70.596791,18.28913],[-70.576405,18.313951],[-70.571767,18.334052],[-70.579457,18.385647],[-70.60143,18.411851],[-70.637807,18.429389],[-70.682485,18.435614],[-70.703847,18.430121],[-70.71288,18.412665],[-70.711985,18.383368],[-70.741689,18.355414],[-70.76065,18.34748],[-70.802317,18.354926],[-70.823964,18.342678],[-70.846018,18.34219],[-70.87328,18.306301],[-70.891672,18.299709],[-70.932485,18.261542],[-70.96581,18.262152],[-70.983795,18.28913],[-71.004872,18.301011],[-71.048248,18.310004],[-71.083974,18.304389],[-71.103342,18.25495],[-71.082834,18.217719],[-71.061106,18.142076],[-71.097157,18.073717],[-71.191803,17.941799],[-71.204254,17.911119],[-71.24592,17.885077],[-71.267812,17.846584],[-71.282094,17.85399],[-71.286122,17.832587],[-71.309316,17.816392],[-71.365549,17.678412],[-71.417226,17.604804],[-71.446116,17.62934],[-71.531606,17.755072],[-71.565256,17.767524],[-71.645131,17.75727],[-71.679311,17.765286],[-71.63093,17.816799],[-71.636586,17.853461],[-71.664947,17.903469],[-71.658803,17.953315],[-71.683827,17.99018],[-71.720326,18.01911],[-71.776235,18.039252],[-71.760654,18.086804],[-71.762204,18.132486],[-71.776829,18.181785],[-71.774038,18.201474],[-71.709339,18.31325],[-71.734971,18.332939],[-71.788714,18.352214],[-71.826438,18.376166],[-71.858167,18.413554],[-71.912169,18.430737],[-71.918164,18.449237],[-71.901575,18.469778],[-71.904056,18.48479],[-72.009838,18.598814],[-71.992629,18.611139],[-71.955474,18.618606],[-71.880285,18.605403],[-71.841579,18.617986],[-71.794347,18.679171],[-71.744066,18.711443],[-71.720346,18.765445],[-71.733472,18.882569],[-71.796259,18.957061],[-71.862456,18.947088],[-71.865402,18.964425],[-71.783702,18.996309],[-71.710424,19.081653],[-71.661383,19.117594],[-71.643658,19.152475],[-71.639111,19.21211],[-71.716522,19.247767],[-71.753729,19.283785],[-71.776519,19.327504],[-71.733472,19.355461],[-71.703861,19.41463],[-71.715127,19.537465],[-71.743084,19.600071],[-71.745048,19.664899],[-71.757436,19.71011]]],[[[-71.524485,17.545559],[-71.541168,17.554633],[-71.541371,17.576158],[-71.521067,17.621283],[-71.467112,17.580268],[-71.524485,17.545559]]],[[[-68.664052,18.169338],[-68.598785,18.166205],[-68.577504,18.133734],[-68.571848,18.107856],[-68.636098,18.128363],[-68.701894,18.114691],[-68.73705,18.123603],[-68.762074,18.145168],[-68.786936,18.196682],[-68.754547,18.197659],[-68.710764,18.17536],[-68.664052,18.169338]]]]}}