{"type":"Feature","properties":{"iso3":"DZA","name":"Algeria","continent":"Africa"},"geometry":{"type":"Polygon","coordinates":[[[-4.821613,24.995065],[-8.682385,27.285416],[-8.682385,28.6659],[-7.653611,29.376193],[-7.34961,29.383439],[-7.146934,29.509238],[-6.783515,29.446339],[-6.27333,29.579127],[-5.756156,29.614071],[-5.721212,29.523216],[-5.539503,29.523216],[-5.176083,29.97749],[-4.372368,30.508641],[-3.645529,30.711317],[-3.659507,30.837116],[-3.554674,30.955927],[-3.717107,31.163267],[-3.842836,31.170192],[-3.81922,31.318865],[-3.673484,31.389234],[-3.659507,31.647821],[-2.827836,31.794586],[-2.938731,32.048639],[-2.881189,32.076286],[-1.190594,32.125224],[-1.288986,32.150907],[-1.257515,32.320845],[-1.031999,32.4944],[-1.390531,32.718779],[-1.558789,32.93365],[-1.516363,33.073977],[-1.674234,33.237972],[-1.612739,33.521469],[-1.732577,33.727865],[-1.672115,34.059188],[-1.809626,34.372451],[-1.702966,34.479679],[-1.871121,34.596649],[-1.786114,34.72584],[-2.193789,35.003601],[-2.200103,35.096137],[-1.774241,35.127346],[-1.395904,35.309394],[-1.190338,35.566148],[-0.825022,35.768541],[-0.644521,35.719306],[-0.376129,35.900336],[-0.038482,35.8133],[0.360037,36.213853],[1.34669,36.544989],[2.600759,36.59634],[2.933116,36.80858],[3.173269,36.742621],[3.460704,36.775092],[3.827485,36.912909],[4.769054,36.898017],[5.304373,36.643012],[5.733735,36.832343],[6.197032,36.90233],[6.462413,37.09394],[6.909434,36.893052],[7.133311,36.915269],[7.257335,37.004136],[7.211111,37.057034],[7.383474,37.082994],[7.760753,36.966864],[7.866466,36.854397],[8.233165,36.958075],[8.601899,36.939358],[8.642552,36.848501],[8.413109,36.783906],[8.430369,36.662621],[8.169919,36.525834],[8.349237,36.448784],[8.358125,36.369926],[8.24144,35.827737],[8.337041,35.537935],[8.287948,35.366059],[8.396882,35.263688],[8.25901,34.940659],[8.236479,34.647654],[7.87061,34.437899],[7.774285,34.260959],[7.539228,34.113758],[7.479832,33.893901],[7.75072,33.207664],[8.181392,32.969823],[8.359985,32.501015],[9.019893,32.104863],[9.519708,30.228905],[9.286544,30.117129],[9.667709,29.608323],[9.826149,29.128533],[9.776953,28.267578],[9.93591,27.866724],[9.721866,27.308463],[9.894052,26.67398],[9.854571,26.524377],[9.482604,26.352553],[9.377804,26.168946],[10.007947,25.331426],[10.032028,24.856339],[10.193362,24.749937],[10.260335,24.576641],[10.391799,24.47998],[10.677363,24.553851],[11.541393,24.29751],[11.968861,23.517351],[7.482726,20.872577],[5.794302,19.449796],[3.358689,18.976853],[3.10413,19.135526],[3.25823,19.410393],[3.216785,19.794064],[2.946001,19.941652],[2.400401,20.056555],[2.21819,20.264087],[1.891388,20.231789],[1.659154,20.397516],[1.623704,20.551253],[1.14456,20.776252],[1.15934,21.081505],[1.029322,21.178347],[-4.821613,24.995065]]]}}