{"type":"Feature","properties":{"iso3":"ECU","name":"Ecuador","continent":"Americas"},"geometry":{"type":"MultiPolygon","coordinates":[[[[-78.828684,1.434312],[-78.664677,1.266642],[-78.611528,1.266435],[-78.57569,1.211968],[-78.485205,1.192642],[-78.349218,1.055802],[-78.120007,0.921237],[-77.918262,0.874418],[-77.903225,0.832095],[-77.847983,0.809254],[-77.703185,0.843102],[-77.645566,0.716288],[-77.54335,0.656447],[-77.468057,0.650866],[-77.434726,0.433825],[-77.397467,0.387626],[-77.206936,0.334193],[-77.082861,0.348869],[-76.896826,0.245309],[-76.7496,0.2327],[-76.736888,0.272904],[-76.641234,0.262776],[-76.565425,0.21606],[-76.408019,0.254508],[-76.415874,0.395378],[-76.290507,0.457183],[-76.223741,0.406746],[-76.136304,0.396721],[-76.124677,0.359617],[-76.053467,0.363545],[-75.962981,0.220091],[-75.817874,0.100098],[-75.626774,0.078911],[-75.464924,-0.039738],[-75.283488,-0.107021],[-75.4295,-0.163658],[-75.623002,-0.106607],[-75.643208,-0.128828],[-75.628635,-0.170479],[-75.484768,-0.247684],[-75.405625,-0.442401],[-75.260699,-0.54348],[-75.296614,-0.734476],[-75.227497,-0.963093],[-75.348729,-0.974978],[-75.4064,-0.915137],[-75.573031,-1.537321],[-76.091242,-2.128913],[-76.669662,-2.564589],[-77.867826,-2.990256],[-78.184603,-3.34951],[-78.163726,-3.477254],[-78.235866,-3.48883],[-78.269688,-3.399533],[-78.333974,-3.384547],[-78.361724,-3.408525],[-78.419679,-3.791034],[-78.480683,-3.849531],[-78.49771,-3.942652],[-78.562073,-3.979756],[-78.57662,-4.100059],[-78.682428,-4.326918],[-78.673152,-4.401539],[-78.637211,-4.435129],[-78.681678,-4.56711],[-78.898642,-4.694234],[-78.928614,-4.747461],[-78.900218,-4.843683],[-78.980342,-4.873965],[-79.009281,-4.96011],[-79.063929,-5.011373],[-79.104159,-4.980057],[-79.303217,-4.961246],[-79.450572,-4.810196],[-79.527854,-4.618063],[-79.507209,-4.531557],[-79.657975,-4.438746],[-79.832874,-4.47895],[-79.904084,-4.398645],[-79.982012,-4.38862],[-80.140246,-4.283097],[-80.205048,-4.298186],[-80.255407,-4.38676],[-80.373255,-4.467581],[-80.408498,-4.477503],[-80.492291,-4.413011],[-80.345272,-4.198451],[-80.469605,-4.21323],[-80.50906,-4.095821],[-80.491981,-4.014896],[-80.427463,-3.981306],[-80.304628,-4.005181],[-80.165257,-3.890046],[-80.226313,-3.749279],[-80.240291,-3.514048],[-80.279746,-3.415553],[-80.341054,-3.368585],[-80.306874,-3.320733],[-80.31432,-3.376072],[-80.296702,-3.335382],[-80.152496,-3.330824],[-80.070465,-3.218194],[-80.037506,-3.208266],[-80.039947,-3.27988],[-79.953196,-3.197442],[-79.834584,-2.806817],[-79.734975,-2.611586],[-79.745025,-2.490167],[-79.801625,-2.462579],[-79.841298,-2.362888],[-79.868642,-2.160903],[-79.861887,-2.108005],[-79.765614,-2.004978],[-79.891957,-2.115899],[-79.901845,-2.184828],[-79.863026,-2.297133],[-79.88915,-2.532485],[-79.983998,-2.605157],[-80.063588,-2.577244],[-80.00178,-2.480157],[-79.934193,-2.492608],[-79.93635,-2.462986],[-79.940826,-2.483982],[-80.039947,-2.459893],[-80.012685,-2.371189],[-79.950022,-2.307224],[-80.023997,-2.334161],[-80.144276,-2.553318],[-80.222564,-2.623224],[-80.270009,-2.605076],[-80.245432,-2.721124],[-80.278432,-2.727146],[-80.467885,-2.617934],[-80.656646,-2.415785],[-80.913645,-2.31878],[-81.01301,-2.166925],[-80.906343,-2.216258],[-80.870573,-2.203301],[-80.744979,-2.102915],[-80.737447,-2.043497],[-80.760572,-1.797548],[-80.85558,-1.588311],[-80.81649,-1.552255],[-80.820546,-1.499933],[-80.770862,-1.47783],[-80.744256,-1.343773],[-80.882151,-1.145766],[-80.909611,-1.044915],[-80.827186,-0.950673],[-80.569883,-0.912243],[-80.462473,-0.617934],[-80.434931,-0.603898],[-80.378798,-0.657885],[-80.299007,-0.662229],[-80.377701,-0.636284],[-80.437125,-0.557538],[-80.496464,-0.381374],[-80.432725,-0.339187],[-80.323695,-0.173173],[-80.30535,-0.189367],[-80.231848,-0.139699],[-80.051349,0.089992],[-80.048492,0.318305],[-79.993316,0.378119],[-80.043568,0.45893],[-80.016957,0.558905],[-80.036366,0.62523],[-80.10497,0.679674],[-80.075836,0.816148],[-79.862172,0.87641],[-79.655751,1.003607],[-79.670074,0.921617],[-79.621897,0.852932],[-79.648305,0.907416],[-79.63268,0.986029],[-79.571767,0.98371],[-79.435048,1.07803],[-79.165761,1.099799],[-79.071848,1.20954],[-79.013051,1.192776],[-78.991689,1.119696],[-78.954579,1.207343],[-78.871693,1.288967],[-78.812856,1.277289],[-78.881947,1.319281],[-78.828684,1.434312]]],[[[-80.059885,-2.662774],[-79.902821,-2.717462],[-79.911244,-2.738865],[-79.977935,-2.775811],[-80.131033,-3.020921],[-80.251576,-3.026056],[-80.262204,-2.840848],[-80.210683,-2.724867],[-80.059885,-2.662774]]],[[[-89.661285,-1.340102],[-89.613271,-1.391697],[-89.756907,-1.36061],[-89.661285,-1.340102]]],[[[-90.380686,-1.25449],[-90.375885,-1.292413],[-90.432118,-1.345961],[-90.524037,-1.305922],[-90.471913,-1.216729],[-90.380686,-1.25449]]],[[[-89.308095,-0.685642],[-89.257192,-0.681573],[-89.273183,-0.759942],[-89.434722,-0.929295],[-89.554311,-0.953709],[-89.621205,-0.930271],[-89.604604,-0.883071],[-89.426625,-0.728285],[-89.308095,-0.685642]]],[[[-90.191965,-0.538263],[-90.199208,-0.676365],[-90.259511,-0.743341],[-90.354807,-0.77988],[-90.428863,-0.762465],[-90.546254,-0.668878],[-90.527577,-0.56992],[-90.460561,-0.513849],[-90.263987,-0.483005],[-90.191965,-0.538263]]],[[[-91.401112,-0.452895],[-91.507558,-0.490411],[-91.611399,-0.452813],[-91.671376,-0.29754],[-91.455678,-0.257582],[-91.399526,-0.307875],[-91.401112,-0.452895]]],[[[-90.565012,-0.284926],[-90.586781,-0.363702],[-90.627512,-0.366876],[-90.818227,-0.339614],[-90.874135,-0.271254],[-90.810374,-0.1513],[-90.632476,-0.201267],[-90.565012,-0.284926]]],[[[-90.811431,-0.730645],[-90.796539,-0.759942],[-90.856557,-0.897149],[-90.917551,-0.954197],[-91.159779,-1.030206],[-91.435862,-0.997491],[-91.502309,-0.896254],[-91.465891,-0.807875],[-91.310455,-0.683282],[-91.157786,-0.678806],[-91.087514,-0.597426],[-91.208892,-0.484633],[-91.250844,-0.366876],[-91.374989,-0.281915],[-91.423329,-0.028578],[-91.47643,-0.011082],[-91.545522,-0.047947],[-91.603383,-0.014215],[-91.504465,0.066148],[-91.497304,0.106106],[-91.323638,0.139309],[-91.283518,0.033189],[-91.202219,-0.028253],[-91.173573,-0.228448],[-90.956044,-0.422133],[-90.949208,-0.521417],[-90.982045,-0.563409],[-90.811431,-0.730645]]],[[[-90.513783,0.283515],[-90.542307,0.333564],[-90.504465,0.361029],[-90.407948,0.310858],[-90.454579,0.267401],[-90.513783,0.283515]]],[[[-90.79776,0.65351],[-90.756988,0.630601],[-90.760569,0.553697],[-90.805247,0.571601],[-90.79776,0.65351]]],[[[-78.901682,1.374172],[-78.899281,1.27143],[-78.956899,1.236314],[-78.992096,1.268297],[-78.980784,1.308336],[-78.901682,1.374172]]],[[[-91.819163,1.38642],[-91.810943,1.377183],[-91.817738,1.368069],[-91.819163,1.38642]]],[[[-91.822011,1.394477],[-91.817535,1.394761],[-91.820465,1.391343],[-91.822011,1.394477]]],[[[-92.011586,1.658637],[-91.999827,1.65998],[-92.006663,1.649604],[-92.011586,1.658637]]],[[[-79.81964,-2.485911],[-79.772571,-2.541987],[-79.857511,-2.651186],[-79.881801,-2.62694],[-79.81964,-2.485911]]]]}}