{"type":"Feature","properties":{"iso3":"EGY","name":"Egypt","continent":"Africa"},"geometry":{"type":"MultiPolygon","coordinates":[[[[33.995453,26.751695],[34.003591,26.708197],[33.955089,26.790025],[33.995453,26.751695]]],[[[34.367855,30.907417],[34.480407,30.651205],[34.53601,30.468581],[34.526915,30.409618],[34.58841,30.35882],[34.730417,30.018169],[34.878108,29.504298],[34.744965,29.315823],[34.729015,29.19892],[34.674571,29.106513],[34.68572,28.988674],[34.646739,28.967434],[34.62672,28.746487],[34.410167,28.320014],[34.412934,28.23314],[34.452485,28.180365],[34.427419,27.983059],[34.341156,27.915473],[34.320974,27.861274],[34.27947,27.858344],[34.271739,27.812445],[34.216807,27.791938],[34.257335,27.769517],[34.249848,27.728583],[34.189789,27.78677],[34.054454,27.814521],[33.815115,27.991034],[33.715994,28.075263],[33.574392,28.280748],[33.43393,28.3664],[33.256196,28.544135],[33.26295,28.577053],[33.237641,28.566107],[33.256196,28.551581],[33.228689,28.569403],[33.194835,28.675116],[33.228282,28.763861],[33.181,28.818508],[33.170746,29.003079],[32.898611,29.231024],[32.821056,29.39704],[32.735362,29.477281],[32.722911,29.460883],[32.712413,29.580471],[32.680837,29.599921],[32.693126,29.722846],[32.604503,29.824164],[32.625336,29.874254],[32.571544,29.9289],[32.57781,30.01142],[32.571544,29.942572],[32.553966,29.962104],[32.476899,29.932196],[32.466807,29.896877],[32.509532,29.866848],[32.392833,29.734361],[32.337657,29.599921],[32.591482,29.349514],[32.659679,29.089097],[32.628184,29.057034],[32.625499,28.972724],[32.749197,28.804836],[32.806895,28.778144],[32.868907,28.578925],[32.993826,28.494208],[33.212169,28.189927],[33.355479,28.048082],[33.512543,27.959052],[33.554373,27.89647],[33.592052,27.797431],[33.488943,27.845893],[33.473481,27.823188],[33.516287,27.759914],[33.557872,27.759914],[33.536794,27.708075],[33.587576,27.659003],[33.557872,27.681383],[33.496349,27.646633],[33.574474,27.525865],[33.635916,27.486721],[33.684825,27.355699],[33.83839,27.24258],[33.83253,27.137885],[33.990977,26.907416],[33.996104,26.837877],[33.948253,26.831],[33.941417,26.65351],[34.014008,26.61164],[34.338715,26.001776],[34.633474,25.569403],[34.681895,25.428697],[34.989757,24.905015],[35.002208,24.815619],[35.08074,24.735419],[35.160655,24.558498],[35.144556,24.500206],[35.391856,24.282782],[35.493828,24.1089],[35.493767,24.138989],[35.552059,24.1105],[35.635631,24.001865],[35.738571,23.983317],[35.792535,23.902291],[35.750356,23.932423],[35.598533,23.929413],[35.513927,23.977118],[35.483871,23.917787],[35.474768,23.797915],[35.510148,23.756379],[35.493337,23.482367],[35.695305,22.932126],[35.763682,22.870429],[35.723399,22.931871],[35.755707,22.922309],[35.781912,22.841132],[35.885964,22.735695],[36.226085,22.635443],[36.290538,22.568183],[36.313416,22.491613],[36.4281,22.426045],[36.439823,22.356443],[36.562839,22.296677],[36.713715,22.169135],[36.782237,22.164455],[36.895383,22.066133],[36.891856,22.006741],[31.435476,21.995351],[31.491803,22.173221],[31.442504,22.224174],[31.359512,22.188104],[31.261637,22.001759],[31.112912,21.994369],[24.981245,21.995351],[24.981245,29.181372],[24.863836,29.502903],[24.870657,29.638347],[24.798207,29.796425],[24.811643,29.89089],[24.688653,30.182758],[24.907658,30.498656],[24.994887,30.785099],[24.882646,31.039088],[24.848953,31.34863],[25.023723,31.494409],[25.088422,31.613524],[25.15089,31.65648],[25.190929,31.53148],[25.389659,31.505113],[25.824067,31.614936],[25.966807,31.616604],[26.362153,31.521918],[26.753184,31.477484],[26.865733,31.436835],[26.947927,31.448228],[27.117361,31.390448],[27.320649,31.381008],[27.383474,31.2685],[27.4463,31.223212],[27.66033,31.180243],[27.863292,31.233547],[27.926931,31.099026],[28.299083,31.061957],[28.404959,31.086493],[28.812022,30.956773],[28.85434,30.905951],[29.028087,30.827053],[29.218923,30.838039],[29.503266,30.956692],[29.781505,31.147935],[29.83839,31.15412],[29.876964,31.213568],[29.898204,31.203192],[30.069591,31.333482],[30.0949,31.28559],[30.172618,31.27143],[30.154633,31.222154],[30.215831,31.219387],[30.275076,31.265286],[30.281423,31.240912],[30.302989,31.27143],[30.179454,31.27143],[30.312836,31.350572],[30.348399,31.421332],[30.343923,31.497992],[30.398611,31.443345],[30.355724,31.491116],[30.535818,31.463853],[30.973888,31.586737],[30.542654,31.402411],[30.62672,31.388658],[30.675059,31.421576],[30.734386,31.388129],[30.798513,31.446479],[30.892426,31.419094],[30.996918,31.451117],[31.029145,31.5185],[31.119151,31.493109],[31.111095,31.53974],[30.978038,31.584296],[31.097423,31.607896],[31.556814,31.443345],[31.87436,31.53559],[31.944835,31.520941],[32.024913,31.400051],[32.189464,31.300767],[31.994965,31.394965],[31.968272,31.43651],[31.9935,31.437812],[31.889496,31.53205],[31.851329,31.510647],[31.878917,31.443345],[31.830414,31.458808],[31.878917,31.416083],[31.830414,31.408637],[31.858409,31.361477],[31.790212,31.343451],[31.766938,31.284654],[31.885753,31.223619],[31.898611,31.246649],[31.899425,31.203192],[31.934744,31.187567],[31.986583,31.230292],[32.03712,31.216783],[32.016124,31.134914],[32.119802,31.052924],[32.097992,31.093329],[32.283458,31.136542],[32.262462,31.169623],[32.286469,31.170356],[32.289806,31.230455],[32.207042,31.295071],[32.320079,31.272691],[32.599701,31.06151],[32.761974,31.081204],[32.90919,31.148179],[32.666515,31.052314],[32.731293,31.038764],[32.944021,31.107896],[32.994477,31.055569],[33.023448,31.065985],[33.009125,31.086493],[33.064301,31.134914],[32.970551,31.101467],[33.030284,31.162177],[33.126475,31.196357],[33.098643,31.189521],[33.157725,31.117865],[33.126475,31.100775],[33.133311,31.045559],[33.427501,31.147935],[33.64796,31.117255],[34.047048,31.229193],[34.198497,31.3133],[34.367855,30.907417]],[[35.429207,22.97833],[35.212088,22.786263],[35.621087,23.139293],[35.429207,22.97833]],[[34.777558,22.499765],[34.828226,22.60689],[34.861952,22.680182],[34.777558,22.499765]],[[34.501684,22.262124],[34.682088,22.297912],[34.147476,22.191856],[34.501684,22.262124]]],[[[34.05128,27.45482],[33.933767,27.494696],[33.925792,27.534329],[34.028494,27.502021],[34.05128,27.45482]]],[[[34.661786,27.930218],[34.731882,27.957141],[34.704695,27.908368],[34.661786,27.930218]]],[[[34.620453,27.920356],[34.518077,27.930406],[34.504893,28.009914],[34.534841,28.008246],[34.503184,27.975572],[34.5796,27.965522],[34.620453,27.920356]]],[[[32.983084,31.089911],[32.989268,31.073432],[32.969737,31.086575],[32.983084,31.089911]]],[[[33.454356,31.15469],[33.269786,31.216783],[33.475922,31.14175],[33.454356,31.15469]]],[[[33.2435,31.219306],[33.076427,31.218736],[32.934744,31.147935],[33.104747,31.240302],[33.2435,31.219306]]]]}}