{"type":"Feature","properties":{"iso3":"ERI","name":"Eritrea","continent":"Africa"},"geometry":{"type":"MultiPolygon","coordinates":[[[[43.117686,12.707913],[42.900358,12.616389],[42.868835,12.626155],[42.852092,12.611738],[42.828838,12.557633],[42.785223,12.517222],[42.798038,12.456088],[42.792251,12.429165],[42.749876,12.417073],[42.727758,12.388806],[42.696187,12.380126],[42.678252,12.360022],[42.521569,12.496241],[42.475681,12.516343],[42.430929,12.520322],[42.379459,12.465907],[42.33171,12.515465],[42.250165,12.623985],[42.184949,12.733048],[42.137304,12.77333],[42.024649,12.82697],[41.946617,12.876166],[41.894321,12.94797],[41.8166,13.112792],[41.784767,13.164572],[41.7118,13.247926],[41.530726,13.393783],[41.222217,13.586614],[41.192038,13.615863],[41.043623,13.872488],[40.833197,14.105962],[40.772322,14.148362],[40.704419,14.173219],[40.585874,14.19469],[40.479834,14.244403],[40.421646,14.273755],[40.277055,14.404574],[40.194373,14.444649],[40.104559,14.465966],[40.037483,14.451522],[39.979812,14.458731],[39.961519,14.454209],[39.93072,14.428784],[39.892273,14.426562],[39.796878,14.495111],[39.766906,14.504775],[39.650944,14.496584],[39.59379,14.514567],[39.552138,14.556684],[39.515035,14.56782],[39.489403,14.524489],[39.448579,14.505111],[39.36662,14.482916],[39.268538,14.48643],[39.233191,14.440438],[39.20818,14.440179],[39.158467,14.560146],[39.127461,14.602211],[39.0855,14.633475],[39.011189,14.647763],[38.996823,14.638901],[38.993826,14.585157],[38.979667,14.567122],[38.917552,14.535703],[38.866082,14.493664],[38.821537,14.489478],[38.742885,14.461056],[38.668471,14.467723],[38.606563,14.436484],[38.569356,14.426821],[38.426832,14.417183],[38.41443,14.426304],[38.394276,14.464312],[38.340636,14.492682],[38.313351,14.519347],[38.28927,14.587741],[38.257644,14.610427],[38.247825,14.647712],[38.229325,14.679725],[38.190258,14.687322],[38.115223,14.681017],[38.006703,14.7244],[37.989856,14.757317],[37.964432,14.771193],[37.954096,14.806255],[37.94004,14.81088],[37.908828,14.864727],[37.891464,14.879532],[37.564973,14.116685],[37.553707,14.105497],[37.525285,14.128829],[37.5165,14.180557],[37.475366,14.199574],[37.452628,14.260578],[37.397748,14.301738],[37.390203,14.358169],[37.33708,14.426356],[37.293775,14.457439],[37.258221,14.448111],[37.184221,14.449558],[37.149701,14.441936],[37.121072,14.420826],[37.097818,14.379511],[37.090997,14.314218],[37.060197,14.27683],[37.026091,14.27683],[37.011518,14.265074],[36.995395,14.264092],[36.970901,14.27683],[36.946923,14.304735],[36.848531,14.327783],[36.748072,14.332072],[36.713655,14.317784],[36.648543,14.31458],[36.61764,14.300446],[36.565654,14.292927],[36.545707,14.263162],[36.52638,14.263523],[36.425094,15.133444],[36.433156,15.150859],[36.506743,15.220338],[36.524933,15.247908],[36.575576,15.393428],[36.595109,15.424331],[36.627872,15.445622],[36.614126,15.489262],[36.61671,15.531534],[36.670971,15.723124],[36.759544,15.837484],[36.885944,16.184853],[36.944029,16.252859],[36.954261,16.278284],[36.928216,16.361121],[36.933693,16.418069],[36.883361,16.490416],[36.876539,16.513567],[36.892559,16.586534],[36.892352,16.636867],[36.901447,16.655729],[36.960359,16.705648],[36.984957,16.765696],[36.988781,16.825537],[36.997876,16.837991],[36.990641,16.913646],[36.96811,16.946615],[36.992398,16.980205],[36.997049,16.999532],[36.993431,17.018652],[36.973588,17.045214],[36.97337,17.062083],[37.000459,17.072602],[37.133991,17.01643],[37.233417,17.024647],[37.280959,17.052965],[37.309795,17.055343],[37.403432,17.029918],[37.45976,17.09472],[37.472782,17.136991],[37.494693,17.174612],[37.505648,17.236778],[37.496036,17.312174],[37.63918,17.358011],[37.679591,17.363437],[37.720415,17.38385],[37.763927,17.45909],[37.79886,17.477126],[37.819221,17.4717],[37.849193,17.444001],[37.872034,17.437283],[37.895909,17.442554],[37.946862,17.495729],[38.038846,17.548181],[38.06179,17.548077],[38.071195,17.538104],[38.076466,17.479864],[38.091452,17.480019],[38.107989,17.493817],[38.118427,17.512937],[38.119461,17.545597],[38.160595,17.557327],[38.209688,17.522291],[38.233356,17.525701],[38.250202,17.541824],[38.25661,17.602544],[38.343737,17.655926],[38.371332,17.698817],[38.431587,17.851986],[38.459285,17.890744],[38.601573,18.004828],[38.620372,17.952582],[38.662934,17.894965],[38.66977,17.85399],[38.789724,17.668891],[38.85963,17.513251],[38.929047,17.397121],[38.964692,17.292304],[38.952647,17.253485],[38.998546,17.19595],[39.012462,17.165351],[39.026134,17.093085],[39.055919,17.034125],[39.06365,16.97427],[39.084483,16.924872],[39.094981,16.867743],[39.12794,16.794867],[39.149669,16.716946],[39.135997,16.723782],[39.161388,16.657172],[39.163341,16.62816],[39.144867,16.609361],[39.160981,16.563788],[39.156505,16.538153],[39.149669,16.544989],[39.15089,16.529446],[39.177013,16.52143],[39.177013,16.477362],[39.190603,16.439439],[39.190603,16.387356],[39.204845,16.349799],[39.197439,16.29857],[39.235606,16.10871],[39.258962,16.058987],[39.294119,15.928778],[39.313487,15.893948],[39.37322,15.858466],[39.390391,15.83633],[39.437022,15.811957],[39.42335,15.767564],[39.426524,15.755805],[39.443858,15.73314],[39.450857,15.690497],[39.477875,15.661119],[39.460623,15.659613],[39.444591,15.63524],[39.450694,15.619574],[39.464041,15.638332],[39.474946,15.642646],[39.484874,15.633857],[39.482758,15.614936],[39.430186,15.603095],[39.450694,15.565579],[39.45753,15.524604],[39.516856,15.520087],[39.533946,15.539781],[39.551768,15.542304],[39.587169,15.531399],[39.611339,15.499986],[39.663585,15.336168],[39.690766,15.322211],[39.698985,15.288031],[39.718272,15.263902],[39.70338,15.209377],[39.698253,15.123603],[39.715587,15.094062],[39.738129,15.085639],[39.752289,15.092597],[39.762218,15.07392],[39.773692,15.071031],[39.81129,15.078925],[39.826182,15.108222],[39.819672,15.1258],[39.854666,15.173489],[39.856781,15.192939],[39.817719,15.281236],[39.804454,15.28144],[39.789724,15.257473],[39.780935,15.278144],[39.773448,15.39053],[39.775727,15.402737],[39.793793,15.41474],[39.80714,15.458889],[39.828136,15.448879],[39.835623,15.476142],[39.841645,15.476142],[39.841645,15.463121],[39.875255,15.504096],[39.910004,15.457424],[40.005138,15.381008],[40.050792,15.366116],[40.079926,15.340725],[40.081309,15.319159],[40.047211,15.284369],[40.026622,15.237209],[40.052013,15.22956],[40.053966,15.219224],[40.04127,15.21247],[40.041515,15.204983],[40.081309,15.164537],[40.101817,15.113023],[40.101817,15.064643],[40.12794,15.06623],[40.154307,15.037299],[40.149587,15.000067],[40.159434,14.982245],[40.272634,14.937567],[40.286794,14.913479],[40.347179,14.944078],[40.389822,15.003241],[40.3921,14.973578],[40.401378,14.966132],[40.417735,14.969062],[40.422699,14.99901],[40.451427,15.003852],[40.464854,14.997016],[40.463145,14.979682],[40.499034,14.962226],[40.520193,14.982733],[40.512706,15.017483],[40.527029,14.997016],[40.55421,14.99018],[40.561046,14.95539],[40.616384,14.948676],[40.627696,14.891995],[40.656586,14.880316],[40.652029,14.897121],[40.660411,14.902574],[40.694509,14.896226],[40.692719,14.881903],[40.677094,14.887152],[40.670909,14.880316],[40.732432,14.82567],[40.723888,14.757066],[40.766368,14.714586],[40.766449,14.695299],[40.786632,14.706041],[40.808116,14.702826],[40.808116,14.722073],[40.831065,14.712226],[40.884451,14.714545],[40.944672,14.677314],[40.972667,14.669623],[41.040212,14.667426],[41.167491,14.636949],[41.208751,14.568101],[41.28297,14.517564],[41.306814,14.488918],[41.335948,14.402004],[41.376638,14.376288],[41.399669,14.346666],[41.412771,14.306545],[41.50587,14.213446],[41.541759,14.126166],[41.588634,14.096177],[41.620942,14.063625],[41.657237,13.996487],[41.676524,13.940253],[41.753429,13.920722],[41.798106,13.934394],[41.848969,13.876166],[41.904307,13.879788],[41.969737,13.845649],[41.980968,13.837795],[41.993663,13.783596],[42.034923,13.752265],[42.075531,13.69477],[42.086762,13.689521],[42.106619,13.643541],[42.116954,13.640774],[42.139496,13.65119],[42.164561,13.632392],[42.184825,13.585598],[42.215994,13.55386],[42.223888,13.553941],[42.230235,13.560004],[42.198497,13.606024],[42.215587,13.605658],[42.219737,13.632554],[42.18922,13.652737],[42.159923,13.656562],[42.171641,13.667182],[42.184825,13.667467],[42.219005,13.640204],[42.25587,13.591986],[42.288422,13.574612],[42.294688,13.509223],[42.305919,13.476142],[42.335216,13.443508],[42.34254,13.418118],[42.358084,13.302476],[42.372325,13.278632],[42.379405,13.222642],[42.431326,13.198391],[42.476817,13.194525],[42.507498,13.206977],[42.520681,13.2355],[42.533946,13.232571],[42.541759,13.208197],[42.559906,13.194322],[42.570079,13.170966],[42.620453,13.12934],[42.655447,13.072333],[42.7046,13.054023],[42.729747,13.033149],[42.781261,12.851874],[42.795421,12.848375],[42.835785,12.864936],[42.849294,12.837836],[42.868907,12.821357],[42.93214,12.81094],[42.918468,12.790473],[42.927989,12.78974],[42.978038,12.823961],[42.991466,12.859605],[43.000987,12.864936],[42.9935,12.884589],[43.000987,12.900295],[43.043142,12.865627],[43.053233,12.844875],[43.086436,12.820868],[43.097179,12.762519],[43.123871,12.715318],[43.117686,12.707913]]],[[[40.386404,15.641262],[40.406261,15.638129],[40.414236,15.598293],[40.408051,15.580024],[40.393891,15.572333],[40.356619,15.586168],[40.287364,15.572984],[40.208263,15.599677],[40.158702,15.589545],[40.143321,15.592231],[40.122895,15.613878],[40.102224,15.589057],[40.085297,15.587633],[40.001475,15.611274],[39.979015,15.606513],[39.963878,15.626288],[39.937348,15.702094],[39.95574,15.699693],[39.950938,15.688422],[39.965099,15.677924],[39.971446,15.661119],[39.988292,15.6647],[40.026622,15.647447],[40.081309,15.661119],[40.038585,15.71898],[40.0088,15.736558],[39.975108,15.743069],[39.930431,15.739569],[39.923595,15.75731],[39.933767,15.788235],[39.946788,15.789862],[39.990001,15.769924],[39.993907,15.777899],[39.97641,15.811957],[39.994965,15.824693],[40.032156,15.826321],[40.037446,15.838406],[40.019379,15.868109],[40.009369,15.873969],[39.974376,15.871772],[39.95102,15.893866],[40.026215,15.882636],[40.091563,15.84984],[40.105642,15.828681],[40.09018,15.803127],[40.088145,15.792141],[40.095714,15.784613],[40.122813,15.792141],[40.115408,15.809027],[40.136485,15.80622],[40.133067,15.711168],[40.163829,15.644355],[40.232107,15.627021],[40.247406,15.655015],[40.261567,15.663235],[40.227794,15.674018],[40.219168,15.685329],[40.226573,15.696479],[40.266938,15.703518],[40.315115,15.693427],[40.329926,15.664252],[40.386404,15.641262]]],[[[40.095388,16.047349],[40.080577,16.034166],[40.077403,16.019029],[40.114513,15.985907],[40.09669,15.981024],[40.042979,16.003404],[40.000011,16.007758],[39.990001,16.017727],[39.99822,16.049628],[40.047211,16.063463],[40.041352,16.092108],[40.050466,16.107245],[40.111013,16.073961],[40.118826,16.061998],[40.095388,16.047349]]]]}}