{"type":"Feature","properties":{"iso3":"ESH","name":"Western Sahara","continent":"Africa"},"geometry":{"type":"Polygon","coordinates":[[[-8.817035,27.661464],[-8.682385,27.661439],[-8.680809,26.013142],[-8.687656,26.000016],[-12.015308,25.9949],[-12.019339,23.460998],[-12.032723,23.444978],[-12.134578,23.419347],[-12.353892,23.322479],[-12.558376,23.290285],[-12.619432,23.270829],[-13.015247,23.018002],[-13.119892,22.88354],[-13.152293,22.820004],[-13.165497,22.752695],[-13.15498,22.688797],[-13.106353,22.560226],[-13.09333,22.495476],[-13.015247,21.333428],[-16.958831,21.332859],[-16.968339,21.324591],[-17.004926,21.141915],[-17.047378,21.0274],[-17.077428,20.904513],[-17.081175,20.874748],[-17.056874,20.766913],[-17.100209,20.837592],[-17.104644,20.862494],[-17.092275,20.899888],[-17.090403,20.961819],[-17.06786,21.030911],[-17.013743,21.419971],[-16.729956,21.469802],[-16.580043,21.48055],[-16.189886,21.48055],[-16.040024,21.500084],[-15.749964,21.490317],[-15.45993,21.450268],[-14.970167,21.440501],[-14.839813,21.450268],[-14.749974,21.500084],[-14.669875,21.599665],[-14.609827,21.750069],[-14.629852,21.860424],[-14.580036,21.91024],[-14.519988,21.990338],[-14.459914,22.040103],[-14.439915,22.080152],[-14.379841,22.120201],[-14.310052,22.190507],[-14.220187,22.309647],[-14.189904,22.450259],[-14.189904,22.589914],[-14.169906,22.759852],[-14.120089,22.960047],[-14.100065,23.099676],[-14.019992,23.410252],[-13.979943,23.519599],[-13.890129,23.690493],[-13.839797,23.750076],[-13.769982,23.790125],[-13.390108,23.940504],[-13.31001,23.980553],[-13.229963,24.0899],[-13.060025,24.400476],[-12.990184,24.4698],[-12.629845,24.679761],[-12.499982,24.7696],[-12.430141,24.830165],[-12.359835,24.969795],[-12.310019,25.110432],[-12.169873,25.639728],[-12.080059,25.870205],[-12.080059,25.919969],[-12.060009,25.990301],[-12.029752,26.03035],[-11.879864,26.070399],[-11.753877,26.086006],[-11.717239,26.103576],[-11.683546,26.212975],[-11.63621,26.294985],[-11.55221,26.400457],[-11.510688,26.469807],[-11.469709,26.519597],[-11.3369,26.632897],[-11.315868,26.683644],[-11.315868,26.744208],[-11.36031,26.793043],[-11.391574,26.882908],[-11.149366,26.940501],[-10.921835,27.009825],[-10.829076,27.009825],[-10.756781,27.019592],[-10.550282,26.990292],[-10.250455,26.860429],[-10.188443,26.860429],[-10.122039,26.879962],[-10.065867,26.908281],[-10.031709,26.910219],[-9.899365,26.84968],[-9.816864,26.84968],[-9.734362,26.860429],[-9.486315,27.049875],[-9.412056,27.08796],[-9.352008,27.097727],[-9.207469,27.099691],[-9.000919,27.089924],[-8.793903,27.12018],[-8.752872,27.150463],[-8.752872,27.190486],[-8.795841,27.307688],[-8.801706,27.360424],[-8.773387,27.46003],[-8.783619,27.530362],[-8.81292,27.613354],[-8.817035,27.661464]]]}}