{"type":"Feature","properties":{"iso3":"ESP","name":"Spain","continent":"Europe"},"geometry":{"type":"MultiPolygon","coordinates":[[[[-5.340728,35.847357],[-5.398859,35.924504],[-5.28307,35.911689],[-5.340728,35.847357]]],[[[-2.947825,35.329779],[-2.922027,35.287991],[-2.943046,35.267874],[-2.96692,35.313866],[-2.947825,35.329779]]],[[[-1.794075,43.386015],[-1.752421,43.299089],[-1.654907,43.297539],[-1.634082,43.251108],[-1.539204,43.283561],[-1.403501,43.243331],[-1.425774,43.135275],[-1.479621,43.090265],[-1.457141,43.045074],[-1.383141,43.029209],[-1.331051,43.107344],[-1.286041,43.109179],[-1.293689,43.055203],[-1.149925,43.005722],[-0.943219,42.947896],[-0.759665,42.946501],[-0.730106,42.877513],[-0.648302,42.849789],[-0.578694,42.777338],[-0.53389,42.808008],[-0.423923,42.790671],[-0.307418,42.831831],[-0.235149,42.786227],[-0.17939,42.789741],[-0.119032,42.716851],[-0.038933,42.685148],[0.152941,42.724603],[0.222394,42.716205],[0.275388,42.668689],[0.336031,42.712691],[0.409282,42.682254],[0.643609,42.684476],[0.651567,42.824054],[0.795744,42.833847],[0.910363,42.787674],[1.08906,42.771318],[1.151485,42.706723],[1.342584,42.70866],[1.429297,42.595386],[1.409764,42.540609],[1.446557,42.519886],[1.407593,42.486762],[1.447901,42.434646],[1.607478,42.456428],[1.650369,42.493402],[1.792686,42.481723],[1.927458,42.436894],[2.00921,42.34708],[2.136954,42.416223],[2.277411,42.428626],[2.525251,42.325893],[2.567419,42.352636],[2.662194,42.339019],[2.640283,42.372841],[2.690409,42.406172],[2.933702,42.470225],[3.18097,42.431484],[3.17449,42.363796],[3.204194,42.339586],[3.317719,42.322984],[3.270356,42.250108],[3.151622,42.256822],[3.118826,42.218329],[3.116466,42.158433],[3.214496,42.068334],[3.201589,42.017442],[3.232188,41.946031],[3.150165,41.845351],[3.078631,41.826618],[2.932991,41.712464],[2.267345,41.448635],[2.130544,41.303656],[1.539236,41.187445],[1.217784,41.104682],[1.172944,41.058661],[1.017426,41.051785],[0.714203,40.815212],[0.694835,40.785997],[0.780528,40.779486],[0.873709,40.727932],[0.858084,40.686265],[0.784028,40.660956],[0.677094,40.565172],[0.615896,40.553453],[0.592459,40.582099],[0.663178,40.574734],[0.732677,40.633734],[0.563487,40.590033],[0.350597,40.284898],[0.205251,40.171536],[-0.091298,39.847927],[-0.323354,39.516221],[-0.30134,39.322008],[-0.215493,39.181839],[-0.242182,39.166275],[-0.226703,39.111782],[-0.15803,39.002143],[-0.009755,38.869696],[0.153982,38.831],[0.234548,38.742255],[0.083018,38.660956],[0.080577,38.631008],[-0.042958,38.611721],[-0.075429,38.539944],[-0.329416,38.470038],[-0.410146,38.37934],[-0.509836,38.338365],[-0.504018,38.207221],[-0.623687,38.162421],[-0.652496,38.007758],[-0.758616,37.863349],[-0.756093,37.806057],[-0.787994,37.822821],[-0.847808,37.75609],[-0.819814,37.676703],[-0.705312,37.619534],[-0.92516,37.555894],[-1.103424,37.576402],[-1.105767,37.532135],[-1.228993,37.576077],[-1.323735,37.561991],[-1.470896,37.482245],[-1.487294,37.439765],[-1.641618,37.381036],[-1.812734,37.207058],[-1.906117,36.987616],[-1.900339,36.941189],[-1.988922,36.900499],[-2.065907,36.783555],[-2.146718,36.729926],[-2.361684,36.836778],[-2.56078,36.818793],[-2.617177,36.72842],[-2.718251,36.682034],[-2.848256,36.700222],[-2.913971,36.750312],[-3.329579,36.7449],[-3.415155,36.695516],[-3.6011,36.74255],[-3.731281,36.724097],[-3.838541,36.75197],[-4.224721,36.712388],[-4.403188,36.723863],[-4.524826,36.580715],[-4.5878,36.573818],[-4.64981,36.512112],[-4.902659,36.506537],[-5.186554,36.4112],[-5.290598,36.277411],[-5.338773,36.14112],[-5.4287,36.169989],[-5.431833,36.069566],[-5.611765,36.006456],[-5.689361,36.067125],[-5.796051,36.085517],[-5.917185,36.184068],[-6.036773,36.189521],[-6.104726,36.280707],[-6.159454,36.304307],[-6.301422,36.525987],[-6.231475,36.472683],[-6.179351,36.513536],[-6.232452,36.52619],[-6.234893,36.575751],[-6.283193,36.612372],[-6.394683,36.636908],[-6.433339,36.751207],[-6.335194,36.818264],[-6.338206,36.883734],[-6.194814,36.932115],[-6.344716,36.901272],[-6.346669,36.819892],[-6.38801,36.808173],[-6.499582,36.959662],[-6.892893,37.166571],[-6.917633,37.215074],[-6.852691,37.295233],[-6.962554,37.233832],[-6.930084,37.183173],[-7.10104,37.224251],[-7.398508,37.185452],[-7.468868,37.475569],[-7.52367,37.555667],[-7.514343,37.601401],[-7.444011,37.730153],[-7.306862,37.850766],[-7.265831,37.982954],[-7.159739,37.996803],[-7.105944,38.038661],[-7.023985,38.022564],[-6.947504,38.196636],[-7.117068,38.183633],[-7.167181,38.272084],[-7.345516,38.440962],[-7.345619,38.494137],[-7.275856,38.60382],[-7.272187,38.733735],[-7.056076,38.855149],[-7.06605,38.904603],[-6.973291,39.013951],[-7.015769,39.096814],[-7.142531,39.099527],[-7.168059,39.170633],[-7.258079,39.211303],[-7.250845,39.270627],[-7.331408,39.362611],[-7.313528,39.457438],[-7.468092,39.550249],[-7.548243,39.663213],[-7.035767,39.689258],[-7.009619,39.715458],[-6.993031,39.816072],[-6.92766,39.861909],[-6.879705,40.009187],[-6.955721,40.102928],[-7.027654,40.132642],[-7.034579,40.193052],[-6.954687,40.253358],[-6.878051,40.265244],[-6.794438,40.356401],[-6.857122,40.442132],[-6.815316,40.502542],[-6.850456,40.582227],[-6.814231,40.659328],[-6.839139,40.776892],[-6.816194,40.856835],[-6.942491,41.015999],[-6.906835,41.0561],[-6.818003,41.054136],[-6.658219,41.257845],[-6.495852,41.294948],[-6.366248,41.405174],[-6.321134,41.411013],[-6.205947,41.57028],[-6.365937,41.663608],[-6.541534,41.658905],[-6.571506,41.74921],[-6.524222,41.86742],[-6.575795,41.882897],[-6.567631,41.926072],[-6.609488,41.962324],[-6.727983,41.930853],[-6.824928,41.983769],[-6.854952,41.942945],[-6.992359,41.96638],[-7.05127,41.942015],[-7.145373,41.98749],[-7.199943,41.963719],[-7.209316,41.889161],[-7.429542,41.814503],[-7.508142,41.864939],[-7.546692,41.832047],[-7.622192,41.832331],[-7.60736,41.873182],[-7.706372,41.896255],[-7.896593,41.857937],[-7.906102,41.913851],[-8.048574,41.816389],[-8.179574,41.810705],[-8.184586,41.85773],[-8.231715,41.886049],[-8.220708,41.922714],[-8.097356,42.023483],[-8.137612,42.072911],[-8.191304,42.062085],[-8.222362,42.15363],[-8.643886,42.041492],[-8.881256,41.893297],[-8.884592,42.126044],[-8.819081,42.139716],[-8.842763,42.154446],[-8.805776,42.197496],[-8.631744,42.29682],[-8.621653,42.340806],[-8.674794,42.299018],[-8.848297,42.260972],[-8.812856,42.346381],[-8.776926,42.340155],[-8.655263,42.441352],[-8.811025,42.400702],[-8.935455,42.465399],[-8.869008,42.493394],[-8.874338,42.469306],[-8.826527,42.461859],[-8.822987,42.569525],[-8.730946,42.688422],[-8.767323,42.645168],[-8.854604,42.661566],[-8.868764,42.617499],[-8.936391,42.606431],[-9.011545,42.530707],[-9.065745,42.620307],[-9.030141,42.707709],[-8.884918,42.815009],[-8.908437,42.839464],[-8.92809,42.802517],[-9.04894,42.794745],[-9.10025,42.757514],[-9.134999,42.812771],[-9.10025,42.833279],[-9.142323,42.865302],[-9.141428,42.921413],[-9.183461,42.945258],[-9.261708,42.900173],[-9.282948,42.916612],[-9.257314,43.023261],[-9.27953,43.054999],[-9.107737,43.14114],[-9.2176,43.155341],[-9.137929,43.201524],[-9.065175,43.192328],[-8.932525,43.235297],[-8.988026,43.283026],[-8.829986,43.341213],[-8.711741,43.295559],[-8.55842,43.313218],[-8.388295,43.385891],[-8.353586,43.348619],[-8.310618,43.403144],[-8.210194,43.313218],[-8.204823,43.399726],[-8.175404,43.416327],[-8.288726,43.446234],[-8.166982,43.484565],[-8.333119,43.471503],[-8.312652,43.567125],[-8.232249,43.575507],[-8.086659,43.65648],[-8.051869,43.642808],[-8.059316,43.709418],[-7.908559,43.766343],[-7.846506,43.711737],[-7.908559,43.676988],[-7.858388,43.668199],[-7.867584,43.697455],[-7.819163,43.697455],[-7.685536,43.793443],[-7.68399,43.728705],[-7.641021,43.752672],[-7.613026,43.704291],[-7.502024,43.728339],[-7.367055,43.68008],[-7.256744,43.58161],[-7.271067,43.561143],[-7.032338,43.553005],[-7.038319,43.479193],[-7.001373,43.556667],[-6.943959,43.565985],[-6.648671,43.579047],[-6.510121,43.547471],[-6.462961,43.554958],[-6.469106,43.575385],[-6.222768,43.595893],[-6.069163,43.569688],[-5.907379,43.588446],[-5.905344,43.633816],[-5.836334,43.662218],[-5.67748,43.561143],[-5.424224,43.561143],[-5.39387,43.555243],[-5.420806,43.513373],[-5.299875,43.537665],[-5.177887,43.489366],[-4.481679,43.383612],[-3.981435,43.438259],[-3.940053,43.477118],[-3.826731,43.497016],[-3.769154,43.479193],[-3.830963,43.456],[-3.811187,43.425482],[-3.579416,43.518256],[-3.436635,43.470486],[-3.428619,43.446845],[-3.501698,43.430772],[-3.46109,43.412462],[-3.268951,43.40412],[-3.008168,43.320909],[-3.029286,43.372138],[-2.930084,43.437934],[-2.755849,43.450263],[-2.691029,43.36754],[-2.649322,43.409532],[-2.367421,43.315701],[-2.162221,43.294257],[-1.904652,43.328437],[-1.925689,43.342637],[-1.794075,43.386015]]],[[[1.983372,42.441261],[1.945648,42.463817],[1.956604,42.481775],[1.983372,42.441261]]],[[[-17.933949,27.852037],[-17.884023,27.827582],[-17.885121,27.797919],[-17.971303,27.654364],[-18.146637,27.708564],[-18.167226,27.757554],[-18.056793,27.756496],[-17.933949,27.852037]]],[[[-15.391591,28.030219],[-15.367584,28.015815],[-15.375966,27.86758],[-15.566029,27.739407],[-15.685699,27.763332],[-15.772817,27.831977],[-15.821197,27.92178],[-15.81607,27.996039],[-15.708363,28.081936],[-15.706207,28.167385],[-15.45873,28.134223],[-15.409291,28.179755],[-15.391591,28.030219]]],[[[-17.309673,28.207117],[-17.212721,28.205449],[-17.116119,28.146226],[-17.09842,28.100764],[-17.184975,28.031619],[-17.257888,28.02457],[-17.343221,28.09766],[-17.309673,28.207117]]],[[[-16.427695,28.14967],[-16.536327,28.036474],[-16.67634,27.997096],[-16.916058,28.35497],[-16.83744,28.391083],[-16.770131,28.366278],[-16.507135,28.424134],[-16.316396,28.572089],[-16.117747,28.572089],[-16.355514,28.38115],[-16.427695,28.14967]]],[[[-13.972646,28.735907],[-13.864573,28.744208],[-13.824371,28.681789],[-13.84435,28.414293],[-13.933705,28.244208],[-14.19164,28.170844],[-14.34317,28.050686],[-14.494862,28.067816],[-14.496449,28.098538],[-14.341176,28.134508],[-14.224436,28.218573],[-13.972646,28.735907]]],[[[-17.755767,28.818508],[-17.721883,28.749029],[-17.765254,28.677549],[-17.745604,28.621887],[-17.830881,28.45539],[-17.865122,28.475381],[-17.996816,28.780097],[-17.911145,28.855619],[-17.755767,28.818508]]],[[[-13.482981,29.239936],[-13.417795,29.20893],[-13.45873,29.147406],[-13.482045,28.999457],[-13.709299,28.9147],[-13.774648,28.839586],[-13.85969,28.859442],[-13.798492,29.048082],[-13.63683,29.126939],[-13.551178,29.134223],[-13.482981,29.239936]]],[[[-13.486684,29.284613],[-13.492014,29.242662],[-13.541249,29.229397],[-13.486684,29.284613]]],[[[-0.732737,37.747748],[-0.726471,37.665188],[-0.754506,37.7744],[-0.732737,37.747748]]],[[[1.526383,38.677768],[1.565684,38.691486],[1.581391,38.653062],[1.474223,38.674597],[1.38295,38.642061],[1.386485,38.707668],[1.427908,38.739366],[1.526383,38.677768]]],[[[1.605968,39.091295],[1.623057,39.029202],[1.428559,38.896593],[1.403105,38.832278],[1.228201,38.87462],[1.212169,38.903225],[1.218435,38.954088],[1.300955,38.96776],[1.292817,39.033271],[1.356781,39.077623],[1.522716,39.118883],[1.605968,39.091295]]],[[[3.354503,39.784369],[3.474376,39.749701],[3.453868,39.659695],[3.323253,39.523871],[3.252615,39.386176],[3.069998,39.271755],[2.950043,39.365505],[2.786632,39.375922],[2.7435,39.523383],[2.681651,39.558661],[2.569102,39.531521],[2.492686,39.470242],[2.453949,39.537421],[2.398285,39.52497],[2.355642,39.558661],[2.351736,39.596747],[2.429373,39.646674],[2.933279,39.914496],[3.179454,39.968777],[3.198416,39.959296],[3.094737,39.881212],[3.206798,39.893012],[3.133556,39.839545],[3.136485,39.788764],[3.223888,39.749701],[3.354503,39.784369]]],[[[4.302908,39.925523],[4.328787,39.88345],[4.302908,39.8876],[4.300059,39.821763],[4.248139,39.816474],[3.981375,39.936062],[3.830658,39.936062],[3.850515,39.983873],[3.803396,40.01317],[3.891531,40.059556],[4.105072,40.079413],[4.142263,40.024807],[4.165782,40.045925],[4.247488,40.000393],[4.302908,39.925523]]],[[[2.985367,39.166176],[2.962154,39.116062],[2.913614,39.151963],[2.985367,39.166176]]],[[[-4.300045,35.172724],[-4.2969,35.172249],[-4.301885,35.172664],[-4.300045,35.172724]]],[[[-3.902962,35.21531],[-3.902329,35.215905],[-3.902533,35.214787],[-3.902962,35.21531]]],[[[-3.900732,35.217827],[-3.899953,35.217861],[-3.901308,35.217319],[-3.900732,35.217827]]],[[[-2.434243,35.18523],[-2.426502,35.182114],[-2.431414,35.178766],[-2.434243,35.18523]]],[[[-5.418774,35.915597],[-5.41597,35.913531],[-5.42025,35.911612],[-5.418774,35.915597]]]]}}