{"type":"Feature","properties":{"iso3":"EST","name":"Estonia","continent":"Europe"},"geometry":{"type":"MultiPolygon","coordinates":[[[[24.306159,57.868186],[24.324392,57.886786],[24.333832,57.921332],[24.381114,57.983832],[24.398285,58.023261],[24.464122,58.07217],[24.464122,58.120551],[24.472911,58.154731],[24.454845,58.196438],[24.46754,58.217841],[24.470958,58.250922],[24.548513,58.289293],[24.560395,58.312323],[24.551036,58.333726],[24.528819,58.350653],[24.444184,58.386135],[24.361827,58.397284],[24.315929,58.37995],[24.295746,58.354967],[24.286876,58.318549],[24.243337,58.280219],[24.210785,58.271389],[24.156016,58.276842],[24.111664,58.241034],[24.083507,58.250881],[24.053233,58.278266],[23.980235,58.318427],[23.854666,58.339667],[23.833507,58.353949],[23.805675,58.346503],[23.77711,58.354967],[23.755626,58.340033],[23.740977,58.343085],[23.718923,58.399563],[23.68336,58.422187],[23.677419,58.435248],[23.684337,58.499661],[23.678966,58.524156],[23.663829,58.5362],[23.622406,58.52912],[23.584321,58.544867],[23.573497,58.551947],[23.561209,58.583157],[23.546153,58.579901],[23.516368,58.554633],[23.501475,58.562486],[23.498057,58.572211],[23.51824,58.603746],[23.493175,58.673407],[23.497732,58.696601],[23.506521,58.70539],[23.535899,58.702786],[23.546641,58.709621],[23.53004,58.722846],[23.533051,58.747463],[23.584483,58.737942],[23.697032,58.751166],[23.755219,58.733588],[23.802501,58.730699],[23.804861,58.747992],[23.783376,58.755845],[23.779552,58.766425],[23.785492,58.777981],[23.816173,58.784613],[23.87436,58.771674],[23.815684,58.799954],[23.78419,58.800971],[23.75766,58.785346],[23.739513,58.798],[23.603363,58.794827],[23.542735,58.775377],[23.485525,58.77733],[23.429454,58.764838],[23.466563,58.800727],[23.526134,58.81977],[23.463634,58.864163],[23.455089,58.883002],[23.422374,58.908677],[23.422048,58.928697],[23.443696,58.944037],[23.510102,58.941596],[23.531912,58.956692],[23.584483,58.953559],[23.627696,58.979153],[23.621593,59.015326],[23.605479,59.03266],[23.559825,59.052802],[23.614431,59.011298],[23.580333,59.005072],[23.559825,58.9914],[23.552989,58.970893],[23.543305,58.969875],[23.525645,58.983954],[23.461274,58.992377],[23.408376,59.02558],[23.43629,59.02558],[23.42921,59.043606],[23.434906,59.056098],[23.490733,59.088284],[23.51824,59.07331],[23.519379,59.124986],[23.486176,59.17414],[23.470876,59.212144],[23.525645,59.230414],[23.578461,59.226304],[23.641856,59.257392],[23.662283,59.258287],[23.730479,59.230414],[23.742198,59.239407],[23.742931,59.250149],[23.723643,59.265082],[23.734874,59.277737],[23.756847,59.283637],[23.888845,59.278754],[24.038585,59.29328],[24.080577,59.271308],[24.100108,59.294501],[24.092052,59.312567],[24.019379,59.367255],[24.034841,59.388658],[24.080577,59.395453],[24.164887,59.354071],[24.193858,59.347724],[24.221934,59.35517],[24.21339,59.37226],[24.163097,59.402289],[24.306163,59.419094],[24.333832,59.470608],[24.422537,59.477444],[24.498302,59.443834],[24.548188,59.462958],[24.642589,59.436428],[24.660492,59.440619],[24.656586,59.449897],[24.621837,59.463121],[24.621837,59.470608],[24.658539,59.472073],[24.674978,59.496039],[24.69752,59.491034],[24.744395,59.447211],[24.772634,59.4501],[24.79005,59.45893],[24.815766,59.489325],[24.806814,59.504706],[24.783539,59.519843],[24.772634,59.559963],[24.803477,59.570502],[24.90919,59.511542],[24.934418,59.508043],[25.012218,59.518378],[25.09783,59.49787],[25.116466,59.503119],[25.107921,59.528998],[25.122081,59.539496],[25.145518,59.53913],[25.194102,59.52265],[25.407725,59.491034],[25.402354,59.514309],[25.415782,59.527086],[25.543712,59.535142],[25.536143,59.549302],[25.497081,59.570868],[25.481944,59.611151],[25.478526,59.651516],[25.484874,59.669827],[25.502452,59.662258],[25.53533,59.628974],[25.575043,59.616889],[25.622325,59.580471],[25.676768,59.566067],[25.705903,59.569281],[25.718516,59.587592],[25.684825,59.628648],[25.690684,59.649359],[25.675304,59.65412],[25.694672,59.670885],[25.725352,59.665839],[25.780528,59.635688],[25.773123,59.628241],[25.793712,59.591213],[25.826182,59.575263],[25.861339,59.586127],[25.876231,59.600898],[25.868826,59.607733],[25.883067,59.631334],[25.944509,59.594672],[25.965017,59.597317],[25.964366,59.621405],[25.988536,59.634345],[26.036388,59.623236],[26.074474,59.604315],[26.081716,59.587307],[26.090994,59.585639],[26.28004,59.587307],[26.497813,59.539984],[26.536469,59.54267],[26.584727,59.559963],[26.66505,59.551947],[26.739024,59.525824],[26.826915,59.476955],[26.937673,59.4501],[27.116222,59.442043],[27.409028,59.45189],[27.563162,59.432074],[27.717052,59.427151],[27.873302,59.40762],[27.953461,59.428168],[28.019054,59.481757],[28.038578,59.462987],[28.104827,59.439215],[28.137796,59.400355],[28.186475,59.37493],[28.181825,59.356068],[28.157537,59.364026],[28.11356,59.345423],[28.000647,59.333744],[28.096869,59.319429],[28.076611,59.30527],[27.959719,59.306459],[27.903909,59.290387],[27.882308,59.275659],[27.890783,59.258038],[27.873523,59.236489],[27.842414,59.161196],[27.713326,58.991904],[27.695889,58.977183],[27.477785,58.875426],[27.410606,58.754864],[27.554886,58.395248],[27.494115,58.319542],[27.482849,58.268641],[27.495355,58.22146],[27.579691,58.125859],[27.630437,58.08829],[27.636587,58.059196],[27.631574,58.004161],[27.669091,57.991965],[27.675189,57.967806],[27.659376,57.93246],[27.664957,57.918404],[27.774408,57.890705],[27.790841,57.880861],[27.799316,57.861069],[27.763452,57.838667],[27.700717,57.824844],[27.524604,57.8073],[27.553853,57.794768],[27.502435,57.772547],[27.497835,57.755675],[27.507757,57.714773],[27.391434,57.680201],[27.377016,57.656714],[27.386989,57.627646],[27.38208,57.602687],[27.336605,57.591731],[27.328027,57.583153],[27.335571,57.553904],[27.352935,57.527601],[27.319965,57.516129],[27.165659,57.546695],[27.085354,57.549434],[27.061531,57.555661],[26.981071,57.608991],[26.896115,57.614986],[26.872654,57.627181],[26.854154,57.622556],[26.816327,57.581189],[26.795759,57.571319],[26.666982,57.56486],[26.604763,57.540313],[26.590087,57.520366],[26.542235,57.528169],[26.49955,57.515819],[26.430924,57.561707],[26.297185,57.599147],[26.168511,57.70405],[26.024747,57.774356],[26.013068,57.8073],[26.025264,57.828409],[26.014515,57.842827],[25.792616,57.855979],[25.767502,57.868924],[25.730295,57.923132],[25.601517,57.912203],[25.558315,57.934243],[25.541676,57.96282],[25.457185,57.984059],[25.39662,58.023178],[25.356519,58.034753],[25.324583,58.034753],[25.299572,58.065604],[25.281692,58.073407],[25.250686,58.068498],[25.249549,58.051186],[25.284379,58.00814],[25.232496,57.985376],[25.20211,57.991965],[25.16697,58.058731],[25.141028,58.068007],[25.094209,58.067309],[25.048838,58.056199],[24.949309,58.006435],[24.872518,58.00044],[24.81681,57.976669],[24.733508,57.992198],[24.700435,57.95419],[24.684829,57.947575],[24.53383,57.945069],[24.441639,57.908094],[24.401539,57.866469],[24.378181,57.859441],[24.306159,57.868186]]],[[[23.94337,58.113186],[23.937999,58.137274],[23.955333,58.151801],[24.013357,58.15351],[24.022146,58.129869],[24.002452,58.108547],[23.970714,58.099595],[23.94337,58.113186]]],[[[23.230642,58.504828],[23.288585,58.488186],[23.333263,58.456366],[23.324962,58.442288],[23.261404,58.465888],[23.237641,58.456366],[23.261729,58.451606],[23.278005,58.43651],[23.234874,58.439887],[23.196056,58.456366],[23.181895,58.474677],[23.156505,58.477525],[23.130382,58.439521],[23.108653,58.429023],[23.084239,58.429633],[23.086762,58.394965],[23.042491,58.371487],[23.021983,58.363227],[22.97755,58.381659],[22.954845,58.381049],[22.94752,58.372626],[22.969493,58.360175],[22.90268,58.311835],[22.854015,58.298733],[22.811209,58.273424],[22.721202,58.270331],[22.710134,58.257758],[22.756684,58.242255],[22.723155,58.225409],[22.6692,58.221503],[22.654959,58.244696],[22.621349,58.252753],[22.586192,58.247789],[22.564952,58.235175],[22.535004,58.254055],[22.504161,58.223538],[22.497244,58.223049],[22.491547,58.241523],[22.476817,58.245103],[22.421641,58.221625],[22.38795,58.226752],[22.295095,58.192857],[22.271739,58.174262],[22.256847,58.093248],[22.229259,58.052191],[22.19988,58.026028],[22.202973,57.993964],[22.04835,57.915107],[22.016856,57.914496],[21.990082,57.935614],[21.990733,57.958238],[21.966807,57.969713],[21.96339,57.984036],[21.997569,57.984036],[22.021332,58.021226],[22.085704,58.082587],[22.147716,58.079576],[22.16505,58.116889],[22.202973,58.147895],[22.141856,58.169501],[22.072276,58.175849],[22.052989,58.186591],[22.016856,58.233873],[21.993826,58.244696],[21.896495,58.250718],[21.867849,58.264594],[21.843761,58.293606],[21.843272,58.302151],[21.855642,58.306871],[21.908214,58.298733],[21.873302,58.34162],[21.894542,58.346503],[21.944591,58.318752],[21.96339,58.326606],[21.954926,58.344062],[21.968028,58.35456],[22.011241,58.353949],[21.945974,58.432278],[21.832367,58.510972],[21.901378,58.497992],[21.91627,58.501166],[21.928477,58.518378],[21.995616,58.512519],[22.020763,58.499254],[22.06422,58.456692],[22.073578,58.426907],[22.089366,58.422187],[22.098481,58.426093],[22.09311,58.44953],[22.103689,58.487209],[22.113617,58.497992],[22.171886,58.521552],[22.187755,58.542873],[22.212901,58.546373],[22.228852,58.510565],[22.273204,58.502021],[22.282888,58.52204],[22.288341,58.569322],[22.321951,58.584784],[22.463064,58.592922],[22.550304,58.629584],[22.583181,58.634508],[22.612641,58.605699],[22.648123,58.586737],[22.68214,58.600328],[22.736339,58.58808],[22.811371,58.622952],[22.846365,58.61343],[22.922048,58.617418],[23.091075,58.57095],[23.148285,58.521552],[23.230642,58.504828]]],[[[23.381602,58.579901],[23.400238,58.555406],[23.362153,58.532457],[23.278575,58.546373],[23.234874,58.534654],[23.134613,58.579901],[23.083263,58.590522],[23.059337,58.603461],[23.062836,58.624579],[23.07545,58.629828],[23.120942,58.628323],[23.134613,58.661811],[23.154633,58.67593],[23.197765,58.680609],[23.330251,58.653062],[23.349132,58.635077],[23.347504,58.607164],[23.381602,58.579901]]],[[[23.364024,59.028957],[23.389659,59.007514],[23.393728,58.996243],[23.384776,58.980536],[23.374278,58.975531],[23.340099,58.983954],[23.299083,58.970893],[23.223399,58.983954],[23.210785,58.972968],[23.163259,58.96894],[23.148285,58.974026],[23.114106,59.021796],[23.131358,59.040717],[23.170177,59.045885],[23.278005,59.032375],[23.344249,59.039293],[23.364024,59.028957]]],[[[22.291759,58.895209],[22.194998,58.888007],[22.044688,58.936184],[22.055512,58.952704],[22.094249,58.956041],[22.168224,58.950385],[22.463064,58.970893],[22.443533,58.977729],[22.442068,58.984687],[22.488455,58.981147],[22.487559,59.016425],[22.559255,59.038398],[22.587169,59.086982],[22.666677,59.084906],[22.714122,59.069566],[22.69158,59.041164],[22.701345,59.02497],[22.736664,59.005072],[22.837169,59.008612],[22.934093,58.984036],[22.949555,58.970893],[22.949555,58.936184],[23.015147,58.891791],[23.021739,58.864081],[23.035492,58.862006],[23.040538,58.840766],[23.033539,58.830308],[23.019054,58.829088],[22.956798,58.847398],[22.942231,58.834215],[22.92921,58.839993],[22.879568,58.832709],[22.867198,58.820054],[22.886974,58.811835],[22.886729,58.790473],[22.845388,58.776516],[22.79005,58.780992],[22.778331,58.792182],[22.826915,58.819159],[22.819347,58.829657],[22.777599,58.824368],[22.736664,58.806464],[22.681,58.724066],[22.654959,58.702786],[22.611176,58.690497],[22.555675,58.686998],[22.50172,58.69477],[22.463064,58.716457],[22.497244,58.737535],[22.449474,58.786811],[22.439789,58.841376],[22.429942,58.852444],[22.354747,58.892076],[22.291759,58.895209]]],[[[24.51588,59.59809],[24.550059,59.557766],[24.542817,59.547797],[24.516287,59.544257],[24.489106,59.559638],[24.487315,59.578518],[24.500499,59.596259],[24.51588,59.59809]]],[[[23.260509,57.813544],[23.275076,57.798733],[23.270193,57.785631],[23.250255,57.784369],[23.217784,57.80093],[23.224294,57.823717],[23.260509,57.813544]]]]}}