{"type":"Feature","properties":{"iso3":"ETH","name":"Ethiopia","continent":"Africa"},"geometry":{"type":"Polygon","coordinates":[[[34.070698,9.454592],[34.098208,9.67972],[34.221921,10.02603],[34.303466,10.113544],[34.325894,10.223563],[34.279489,10.565506],[34.420048,10.780816],[34.557818,10.877787],[34.737445,10.755391],[34.764834,10.680254],[34.786228,10.718985],[34.838524,10.72914],[34.95831,10.903418],[34.914282,10.963957],[34.984148,11.186398],[34.944254,11.253242],[35.073135,11.54896],[35.040579,11.727399],[35.072722,11.818866],[35.215555,11.896588],[35.317358,12.023712],[35.353738,12.14603],[35.412546,12.198636],[35.428772,12.266953],[35.684261,12.650753],[36.029976,12.717158],[36.099429,12.69566],[36.123614,12.721447],[36.143044,12.856942],[36.114415,12.933889],[36.233581,13.36164],[36.391298,13.599352],[36.458167,13.820139],[36.432122,13.969924],[36.52638,14.263523],[36.648543,14.31458],[36.816388,14.332072],[36.946923,14.304735],[36.995395,14.264092],[37.052446,14.275331],[37.121072,14.420826],[37.280029,14.45545],[37.33708,14.426356],[37.553707,14.105497],[37.891464,14.879532],[38.006703,14.7244],[38.239557,14.667555],[38.32503,14.504594],[38.426832,14.417183],[38.866082,14.493664],[38.979667,14.567122],[39.009742,14.651226],[39.127461,14.602211],[39.20818,14.440179],[39.293446,14.490305],[39.448579,14.505111],[39.515035,14.56782],[39.650944,14.496584],[39.796878,14.495111],[39.911186,14.42341],[40.086886,14.465759],[40.194373,14.444649],[40.421646,14.273755],[40.833197,14.105962],[41.043623,13.872488],[41.192038,13.615863],[41.7118,13.247926],[41.946617,12.876166],[42.184949,12.733048],[42.379459,12.465907],[41.936386,11.827445],[41.792415,11.704455],[41.74911,11.537953],[41.787971,11.259727],[41.761306,10.996203],[41.937522,10.929825],[42.096272,10.990261],[42.391758,11.005893],[42.608145,11.089088],[42.729619,11.06501],[42.771787,10.996462],[42.860153,10.980416],[42.908109,11.004187],[42.901185,10.936595],[42.819432,10.872567],[42.64859,10.611033],[42.765792,10.451947],[42.836279,10.208086],[42.981903,10.091633],[43.067686,9.922522],[43.187214,9.883326],[43.248812,9.652332],[43.361518,9.553165],[43.419034,9.413018],[43.548225,9.336072],[43.621502,9.336899],[43.984788,9.008314],[46.97923,7.996567],[47.979169,7.996567],[46.423915,6.496736],[44.941525,4.911484],[43.968975,4.953962],[43.528485,4.841566],[43.119259,4.647702],[42.960406,4.517374],[42.899634,4.361104],[42.831628,4.302322],[42.102887,4.19189],[41.923466,4.070554],[41.917472,4.020453],[41.835927,3.94945],[41.699811,3.996915],[41.429543,3.948882],[41.162996,3.94268],[40.763744,4.284933],[39.848451,3.867284],[39.764218,3.685745],[39.574979,3.497901],[39.536325,3.405013],[39.504389,3.403333],[39.466976,3.452013],[39.311326,3.466094],[39.302748,3.495679],[39.219445,3.468704],[39.06793,3.526582],[38.895227,3.513585],[38.722008,3.560404],[38.66103,3.621951],[38.6601,3.601306],[38.547135,3.609522],[38.514269,3.648512],[38.445953,3.601668],[38.114087,3.610608],[37.976731,3.72644],[37.091617,4.290256],[37.075907,4.33108],[36.903721,4.415778],[36.045325,4.443716],[35.940472,4.508046],[35.922799,4.602072],[35.784513,4.764181],[35.751647,4.854356],[35.755884,5.063439],[35.807354,5.144674],[35.778415,5.22715],[35.809111,5.309109],[35.683641,5.379595],[35.598168,5.368743],[35.469287,5.430755],[35.344953,5.352362],[35.287489,5.374092],[35.254623,5.425923],[35.261961,5.511887],[35.098663,5.622474],[34.974433,5.863106],[34.959447,6.061724],[34.844725,6.248689],[34.832633,6.353541],[34.703545,6.684916],[34.524745,6.752871],[34.512343,6.876842],[34.439169,6.934875],[34.280729,6.980092],[34.213756,7.051974],[34.181407,7.167212],[34.113194,7.177548],[34.04002,7.247259],[34.006534,7.409936],[33.71606,7.657156],[33.550851,7.691315],[33.479537,7.743146],[33.359803,7.719272],[33.172941,7.799628],[33.058323,7.797975],[32.9898,7.917244],[33.111343,8.090644],[33.177282,8.127102],[33.169944,8.205495],[33.208288,8.253683],[33.161159,8.304585],[33.16953,8.397421],[33.23516,8.455635],[33.361353,8.434293],[33.505117,8.474884],[33.620407,8.460699],[33.695545,8.372875],[33.74102,8.367087],[33.824116,8.419487],[33.970774,8.445377],[34.090249,8.556507],[34.11185,8.626555],[34.070698,9.454592]]]}}