{"type":"Feature","properties":{"iso3":"FIN","name":"Finland","continent":"Europe"},"geometry":{"type":"MultiPolygon","coordinates":[[[[28.954077,69.027261],[28.410234,68.898535],[28.426771,68.870578],[28.728251,68.865048],[28.801477,68.835489],[28.716366,68.727951],[28.447441,68.514889],[28.663759,68.204003],[29.33085,68.072694],[29.651192,67.823562],[30.009413,67.685844],[29.916241,67.508129],[29.519831,67.298167],[29.100115,66.991261],[29.051539,66.907803],[29.089159,66.837549],[29.32222,66.680065],[29.401337,66.576222],[29.524482,66.491214],[29.569699,66.378172],[29.650882,66.287893],[29.900169,66.108059],[30.111733,65.712011],[30.113903,65.665502],[30.003005,65.678137],[29.702869,65.62938],[29.838571,65.564888],[29.731533,65.496921],[29.720129,65.329088],[29.580085,65.235399],[29.833197,65.205013],[29.820329,65.126517],[29.850198,65.121504],[29.598379,65.034378],[29.588147,64.991435],[29.633622,64.90715],[29.78028,64.795581],[30.120414,64.761578],[30.120518,64.70892],[30.180824,64.642774],[29.965798,64.578643],[29.993394,64.51074],[30.070391,64.47188],[30.032461,64.396949],[30.052977,64.378087],[30.321126,64.317677],[30.558475,64.219699],[30.532482,64.179184],[30.586432,64.084668],[30.552326,64.021726],[30.201546,63.792645],[29.998433,63.7471],[30.001145,63.715337],[30.461065,63.472871],[30.82094,63.375668],[31.203966,63.21268],[31.250836,63.115477],[31.569525,62.905929],[31.441264,62.788701],[31.243757,62.503344],[30.925636,62.302116],[30.635008,62.184009],[29.779143,61.593115],[29.51704,61.47506],[29.203158,61.245901],[28.797601,61.09684],[28.614563,60.961939],[28.480928,60.933465],[27.807872,60.553046],[27.739513,60.574164],[27.753184,60.505845],[27.718435,60.488471],[27.636485,60.492255],[27.676606,60.511176],[27.651703,60.52265],[27.615977,60.512112],[27.629649,60.471137],[27.508474,60.513861],[27.472667,60.505845],[27.493012,60.470201],[27.456798,60.46369],[27.24879,60.50788],[27.230805,60.526313],[27.308116,60.525784],[27.191742,60.579739],[27.177745,60.512112],[27.033376,60.541815],[26.99822,60.488023],[26.931407,60.485419],[26.962413,60.447211],[26.79363,60.457465],[26.814708,60.485419],[26.776541,60.482856],[26.687348,60.418158],[26.482677,60.468004],[26.625011,60.609605],[26.753184,60.574164],[26.65919,60.651801],[26.591807,60.628567],[26.465831,60.508124],[26.485688,60.443793],[26.424164,60.395982],[26.383311,60.41649],[26.323985,60.383002],[26.231781,60.450629],[26.273448,60.402167],[26.150727,60.398505],[25.917247,60.485419],[26.028982,60.433336],[26.023204,60.380683],[26.10141,60.341376],[26.099864,60.312079],[26.04005,60.299791],[25.997081,60.354926],[25.842052,60.402167],[25.899099,60.367255],[25.884288,60.320014],[25.930186,60.245185],[25.770356,60.314154],[25.739024,60.313463],[25.848888,60.265692],[25.735525,60.24726],[25.655772,60.293036],[25.649669,60.33393],[25.704356,60.341376],[25.66863,60.364651],[25.526134,60.327094],[25.54656,60.305854],[25.516856,60.254543],[25.361664,60.245185],[25.313813,60.272528],[25.3213,60.25141],[25.156261,60.232164],[25.197113,60.190619],[25.058604,60.177314],[25.029307,60.147854],[24.997895,60.162665],[25.021495,60.183987],[24.99879,60.212836],[24.961192,60.151557],[24.845225,60.143744],[24.870942,60.161689],[24.806814,60.190619],[24.827322,60.162665],[24.656423,60.100979],[24.630626,60.136298],[24.549001,60.152777],[24.596853,60.127265],[24.548025,60.099677],[24.608165,60.101223],[24.573985,60.07392],[24.594493,60.066474],[24.445649,59.992255],[24.41627,59.99136],[24.452973,60.037746],[24.329763,60.003363],[24.367931,60.07392],[24.319672,60.075832],[24.15797,60.034491],[24.182953,60.025458],[24.028168,60.009345],[23.990245,60.031562],[23.79949,59.95661],[23.56186,59.977607],[23.429454,59.95661],[23.52711,60.02383],[23.546153,60.07392],[23.326427,59.923041],[23.237153,59.898017],[23.222179,59.867825],[23.251313,59.847968],[22.905121,59.811225],[22.931407,59.842841],[23.247081,59.922431],[23.332856,60.029853],[23.223399,59.929877],[23.178071,59.94892],[23.117849,59.923774],[23.110688,59.970282],[23.241384,60.033108],[23.035492,60.044582],[22.990733,60.077338],[23.045909,60.121649],[22.977875,60.098782],[22.886974,60.144924],[22.867198,60.183743],[23.025401,60.292955],[23.060313,60.357327],[22.998057,60.306627],[22.941173,60.316474],[22.736176,60.238186],[22.525076,60.20425],[22.648123,60.278713],[22.449474,60.245185],[22.459158,60.26496],[22.627615,60.375393],[22.624278,60.399075],[22.543468,60.372545],[22.463064,60.375556],[22.483572,60.402167],[22.291515,60.382636],[22.108165,60.456855],[22.064464,60.436347],[21.903168,60.528876],[21.853526,60.525784],[21.874034,60.477973],[21.78533,60.477973],[21.840505,60.62873],[21.678966,60.576483],[21.654307,60.508979],[21.612071,60.488837],[21.558116,60.492255],[21.583751,60.505032],[21.517751,60.567328],[21.578624,60.559882],[21.555024,60.57217],[21.408539,60.58039],[21.462657,60.601752],[21.354015,60.681708],[21.425955,60.679633],[21.469981,60.725002],[21.38738,60.752346],[21.411632,60.75967],[21.328868,60.827541],[21.318533,60.864691],[21.428396,60.8758],[21.353282,60.902533],[21.428396,60.902533],[21.298676,61.060126],[21.48227,61.060126],[21.435232,61.142727],[21.469981,61.149563],[21.455821,61.176174],[21.558116,61.204169],[21.476085,61.245754],[21.544444,61.279853],[21.544444,61.310777],[21.524262,61.375312],[21.462087,61.398424],[21.572439,61.416409],[21.42213,61.485338],[21.592133,61.485338],[21.469981,61.54682],[21.48227,61.567857],[21.716319,61.519477],[21.536143,61.658026],[21.517751,61.705064],[21.570323,61.695014],[21.469981,61.759711],[21.486095,61.811184],[21.403168,61.87641],[21.380544,61.937812],[21.236583,61.985012],[21.289073,62.121568],[21.312266,62.109117],[21.325938,62.163764],[21.389903,62.208157],[21.353282,62.232001],[21.374278,62.266791],[21.329356,62.241441],[21.333507,62.340562],[21.262462,62.359198],[21.270681,62.410793],[21.194347,62.337063],[21.202403,62.417629],[21.147797,62.413804],[21.124278,62.45482],[21.124278,62.509996],[21.154552,62.527493],[21.12672,62.554145],[21.209239,62.582099],[21.193533,62.600898],[21.106212,62.623033],[21.065196,62.595771],[21.083181,62.659247],[21.160167,62.73017],[21.107921,62.767035],[21.192231,62.792914],[21.226736,62.858466],[21.382823,62.874579],[21.463145,62.951402],[21.456309,63.047553],[21.495128,63.071723],[21.688487,63.027086],[21.559581,63.09512],[21.572439,63.123358],[21.520844,63.126776],[21.510509,63.168402],[21.551931,63.171129],[21.496593,63.20897],[21.544444,63.231024],[21.742361,63.199652],[21.764171,63.205878],[21.717947,63.215318],[21.743663,63.239407],[21.894542,63.260484],[21.88087,63.177924],[21.983897,63.143215],[21.955903,63.18476],[22.043142,63.245592],[22.15919,63.231757],[22.284923,63.301459],[22.330089,63.28384],[22.373709,63.321357],[22.205821,63.420315],[22.190929,63.458441],[22.246755,63.469631],[22.401622,63.418158],[22.279959,63.487616],[22.292247,63.529731],[22.394786,63.452338],[22.497244,63.585761],[22.545665,63.575181],[22.497244,63.622992],[22.593435,63.674506],[22.589041,63.703315],[22.675304,63.702379],[22.73406,63.62759],[22.790538,63.633002],[22.886974,63.695217],[22.833018,63.72602],[22.901866,63.72602],[22.882091,63.742133],[22.929861,63.756903],[22.902517,63.794867],[23.000662,63.763617],[22.990733,63.815375],[23.074962,63.857367],[23.415782,63.924628],[23.37086,63.956],[23.381602,64.048163],[23.604503,64.027655],[23.573578,64.107245],[23.614431,64.10342],[23.723643,64.178534],[23.724376,64.20893],[23.819102,64.220649],[23.861095,64.26789],[23.94337,64.246772],[23.929047,64.301418],[23.996104,64.379869],[24.344086,64.530748],[24.422862,64.675605],[24.530284,64.717841],[24.5324,64.753852],[24.587657,64.781195],[24.550059,64.796576],[24.658539,64.788642],[24.670665,64.829739],[24.736339,64.855373],[25.094737,64.918362],[25.259288,64.835842],[25.225108,64.82274],[25.354828,64.829576],[25.359548,64.911119],[25.241222,64.929023],[25.190929,64.966783],[25.443533,64.966783],[25.363536,65.090766],[25.211436,65.123765],[25.279796,65.219957],[25.327485,65.226874],[25.289073,65.261135],[25.334972,65.343492],[25.266124,65.377631],[25.34669,65.405748],[25.358653,65.465522],[25.323578,65.506781],[25.219005,65.557278],[25.124848,65.561103],[25.074229,65.614163],[24.859141,65.659125],[24.687022,65.631537],[24.670177,65.683417],[24.550466,65.763495],[24.645763,65.879462],[24.710623,65.912095],[24.617931,65.889228],[24.518809,65.796047],[24.415701,65.771796],[24.238292,65.822699],[24.251231,65.794135],[24.22462,65.774888],[24.188243,65.790229],[24.05479,65.947914],[24.029778,66.034989],[23.911439,66.148625],[23.750002,66.189656],[23.689437,66.25699],[23.652437,66.458839],[23.88188,66.563535],[23.891699,66.743576],[24.004043,66.8052],[23.58133,67.153137],[23.61492,67.213986],[23.602724,67.260263],[23.735429,67.289692],[23.785659,67.337519],[23.751449,67.346226],[23.765195,67.420072],[23.477151,67.443817],[23.431262,67.48552],[23.553528,67.587038],[23.484592,67.737159],[23.481285,67.864644],[23.636107,67.913478],[23.661222,67.932857],[23.643135,67.963191],[23.382996,68.051248],[23.306515,68.145609],[23.165645,68.122045],[23.140013,68.234182],[22.808251,68.394896],[22.303062,68.476131],[22.072172,68.47701],[21.919209,68.568219],[21.737102,68.587908],[21.716845,68.619224],[21.46363,68.686868],[21.406373,68.74888],[21.314699,68.754047],[21.072129,68.869441],[20.905731,68.894607],[20.887644,68.92706],[20.934257,68.949023],[20.911209,68.9807],[20.623165,69.036356],[20.744397,69.104362],[21.071509,69.036666],[21.156362,69.087619],[21.033579,69.181205],[21.098381,69.239496],[21.313562,69.291431],[21.638813,69.27138],[22.023079,69.012016],[22.356805,68.832751],[22.409205,68.712913],[22.570126,68.726814],[22.851659,68.675706],[23.071491,68.680874],[23.197581,68.618035],[23.734809,68.715445],[23.787209,68.799781],[23.929009,68.816214],[24.332499,68.708624],[24.663435,68.666094],[24.905177,68.556953],[24.951789,68.605064],[25.117567,68.637672],[25.149607,68.764641],[25.201283,68.812648],[25.43393,68.883859],[25.627769,68.874143],[25.79582,68.993309],[25.750242,69.059248],[25.771222,69.135109],[25.737219,69.218205],[25.77453,69.29882],[25.877366,69.370806],[25.841399,69.417779],[25.886668,69.455193],[25.890595,69.514828],[26.003973,69.587175],[25.961702,69.652545],[26.00511,69.689339],[26.210989,69.722877],[26.533863,69.925242],[26.864592,69.938084],[27.08122,69.902944],[27.3118,69.929479],[27.349111,69.971286],[27.563309,70.023582],[27.612557,70.062055],[27.866908,70.07531],[28.167355,69.894339],[28.381192,69.856202],[28.40455,69.802252],[29.131224,69.674198],[29.344544,69.464392],[29.229254,69.376852],[28.86478,69.216603],[28.826953,69.106842],[28.954077,69.027261]]],[[[22.408376,60.052802],[22.401866,60.075751],[22.449474,60.066474],[22.442638,59.997504],[22.38795,59.994452],[22.349457,60.047512],[22.354828,60.075629],[22.408376,60.052802]]],[[[21.496593,60.135321],[21.571056,60.170356],[21.654307,60.155829],[21.613129,60.102118],[21.514415,60.097357],[21.493175,60.110175],[21.558116,60.121649],[21.496593,60.135321]]],[[[21.743663,60.190619],[21.887706,60.183743],[21.846039,60.170111],[21.867849,60.155829],[21.791515,60.155829],[21.826182,60.149604],[21.783214,60.123236],[21.695811,60.121649],[21.743663,60.190619]]],[[[21.353282,60.211086],[21.448904,60.190619],[21.38738,60.162665],[21.270681,60.190619],[21.353282,60.211086]]],[[[22.05893,60.211086],[22.009288,60.137274],[21.935395,60.176337],[22.05893,60.211086]]],[[[25.81422,60.207668],[25.876231,60.217231],[25.835623,60.196031],[25.81422,60.207668]]],[[[22.209239,60.20425],[22.291759,60.245185],[22.269298,60.195868],[22.209239,60.20425]]],[[[25.622325,60.238349],[25.57016,60.258043],[25.581716,60.296373],[25.684418,60.245185],[25.611583,60.211249],[25.622325,60.238349]]],[[[22.843516,60.241767],[22.890961,60.285549],[22.956391,60.292955],[22.839854,60.201117],[22.819347,60.162665],[22.846853,60.111029],[22.730479,60.046576],[22.757986,60.032294],[22.735118,60.008612],[22.68214,59.997504],[22.654959,60.032294],[22.600271,59.984524],[22.58961,60.032782],[22.486339,60.001858],[22.461762,60.097561],[22.434825,60.105129],[22.600271,60.135321],[22.415212,60.149604],[22.44809,60.221381],[22.56658,60.193305],[22.843516,60.241767]]],[[[22.106781,60.313463],[22.33961,60.2862],[22.215505,60.253119],[22.181163,60.281317],[22.089366,60.26911],[22.106781,60.313463]]],[[[22.38795,60.32095],[22.312836,60.32095],[22.398204,60.355048],[22.477306,60.32095],[22.367442,60.292955],[22.38795,60.32095]]],[[[21.997569,60.33393],[21.901378,60.327094],[21.794119,60.373969],[21.828868,60.409613],[21.808116,60.466702],[21.931977,60.423326],[21.950369,60.402167],[21.894542,60.395982],[21.997569,60.33393]]],[[[21.725922,60.481676],[21.700694,60.459703],[21.690929,60.484076],[21.764171,60.525784],[21.725922,60.481676]]],[[[21.319102,60.481676],[21.265961,60.490058],[21.229177,60.559882],[21.319102,60.481676]]],[[[21.394216,60.559882],[21.48227,60.525784],[21.442638,60.471137],[21.360118,60.533189],[21.336111,60.519436],[21.35255,60.561835],[21.394216,60.559882]]],[[[21.298676,60.567328],[21.219086,60.622626],[21.259288,60.647528],[21.298676,60.567328]]],[[[21.264415,60.882025],[21.202403,60.889472],[21.298676,60.895697],[21.283214,60.942816],[21.243419,60.950873],[21.27003,60.967963],[21.374278,60.930406],[21.264415,60.882025]]],[[[21.42213,63.246812],[21.428396,63.198432],[21.362804,63.206244],[21.243419,63.150702],[21.133556,63.198432],[21.154552,63.198432],[21.081798,63.277289],[21.243419,63.280992],[21.195079,63.239407],[21.286794,63.211371],[21.315766,63.251939],[21.42213,63.246812]]],[[[21.318533,63.287787],[21.229177,63.328803],[21.374278,63.34927],[21.318533,63.287787]]],[[[24.993437,65.055104],[25.061818,65.04348],[24.819657,65.04328],[24.722367,65.003467],[24.812388,64.979194],[24.752126,64.953111],[24.713145,64.951728],[24.68393,64.996568],[24.631602,64.967841],[24.562755,65.037177],[24.65419,65.080221],[24.834506,65.0948],[24.993437,65.055104]]],[[[23.915212,59.973456],[23.908702,59.953803],[23.856212,59.953315],[23.915212,59.973456]]],[[[22.88738,60.067776],[22.917735,60.068671],[22.910981,60.041571],[22.859548,60.01142],[22.88738,60.067776]]],[[[22.95753,60.110785],[22.957286,60.088853],[22.84547,60.082221],[22.917003,60.125067],[22.95753,60.110785]]],[[[21.991547,60.12995],[22.01238,60.122748],[21.943858,60.113471],[21.991547,60.12995]]],[[[22.313162,60.191962],[22.375011,60.204047],[22.319998,60.164049],[22.336925,60.148505],[22.298676,60.146877],[22.313162,60.191962]]],[[[21.983165,60.28498],[21.972911,60.285346],[22.008311,60.297309],[21.983165,60.28498]]],[[[21.956879,60.281399],[21.875336,60.304877],[21.959809,60.312161],[21.956879,60.281399]]],[[[22.299653,60.36758],[22.202159,60.343207],[22.157074,60.358303],[22.299653,60.36758]]],[[[22.206228,60.382554],[22.112478,60.352932],[22.137869,60.379096],[22.206228,60.382554]]],[[[21.338064,60.383368],[21.357107,60.35814],[21.303884,60.364244],[21.307791,60.389594],[21.338064,60.383368]]],[[[26.602061,60.446519],[26.644054,60.431871],[26.548595,60.378363],[26.507172,60.403469],[26.602061,60.446519]]],[[[22.026215,63.322211],[22.060802,63.302151],[22.046641,63.282172],[21.989919,63.277574],[21.977712,63.298651],[22.026215,63.322211]]],[[[22.144216,63.25141],[22.08546,63.261786],[22.072765,63.312812],[22.190603,63.310533],[22.226329,63.340644],[22.208669,63.273261],[22.114431,63.284166],[22.158539,63.274075],[22.144216,63.25141]]],[[[21.957205,63.33161],[21.99643,63.384711],[22.079438,63.38349],[22.076182,63.360053],[21.957205,63.33161]]],[[[22.807953,63.779527],[22.828868,63.776313],[22.802094,63.738186],[22.739594,63.720526],[22.692231,63.751125],[22.737315,63.78559],[22.807953,63.779527]]],[[[22.498546,59.877631],[22.443696,59.851467],[22.413829,59.861233],[22.498546,59.877631]]],[[[21.600434,60.254828],[21.62672,60.25259],[21.563487,60.226223],[21.600434,60.254828]]],[[[21.259532,60.853095],[21.263194,60.830268],[21.18629,60.856513],[21.259532,60.853095]]],[[[21.421886,61.176744],[21.34669,61.177558],[21.380056,61.214016],[21.421886,61.176744]]],[[[21.521251,61.633979],[21.500987,61.617743],[21.461925,61.626166],[21.484548,61.640448],[21.521251,61.633979]]],[[[21.208507,62.946234],[21.146658,62.953274],[21.136241,63.006578],[21.207367,62.986151],[21.208507,62.946234]]]]}}