{"type":"Feature","properties":{"iso3":"FJI","name":"Fiji","continent":"Oceania"},"geometry":{"type":"MultiPolygon","coordinates":[[[[-180,-16.169614],[-180,-16.149111],[-179.987538,-16.138116],[-179.938588,-16.12127],[-179.961781,-16.154718],[-180,-16.169614]]],[[[-180,-16.541115],[-180,-16.489939],[-179.991404,-16.475763],[-179.959055,-16.446873],[-179.897654,-16.429783],[-179.897654,-16.436456],[-179.911204,-16.441176],[-179.903798,-16.457696],[-179.928334,-16.4638],[-179.937449,-16.477472],[-179.937001,-16.486912],[-179.921986,-16.497491],[-179.952016,-16.523045],[-180,-16.541115]]],[[[-180,-16.964144],[-180,-16.786733],[-179.915883,-16.694513],[-179.877146,-16.67783],[-179.864084,-16.681329],[-179.842397,-16.748712],[-179.815663,-16.772231],[-179.856638,-16.813897],[-179.871571,-16.863865],[-179.890126,-16.867852],[-179.951161,-16.905938],[-179.9829,-16.932387],[-180,-16.964144]]],[[[180,-16.489519],[180,-16.541275],[179.987478,-16.542413],[179.987153,-16.518324],[180,-16.489519]]],[[[180,-16.785349],[180,-16.962782],[179.966807,-16.993341],[179.941091,-17.001886],[179.917491,-16.998793],[179.912446,-16.983005],[179.894216,-16.967462],[179.895274,-16.939142],[179.931163,-16.909438],[179.967296,-16.858331],[180,-16.785349]]],[[[180,-16.149112],[180,-16.168951],[179.937999,-16.224298],[179.903819,-16.231134],[179.858246,-16.282647],[179.798106,-16.369561],[179.780935,-16.38128],[179.781016,-16.403009],[179.738455,-16.459242],[179.693858,-16.477309],[179.591807,-16.545343],[179.571462,-16.625584],[179.523611,-16.658949],[179.506602,-16.683526],[179.478689,-16.697198],[179.492198,-16.72503],[179.478689,-16.758722],[179.486095,-16.766046],[179.520274,-16.749607],[179.53712,-16.752618],[179.548106,-16.766046],[179.585216,-16.729425],[179.632579,-16.710219],[179.64088,-16.68727],[179.671072,-16.676853],[179.676117,-16.659356],[179.705821,-16.638116],[179.722667,-16.604425],[179.749766,-16.592462],[179.756684,-16.576755],[179.814138,-16.546319],[179.841807,-16.515069],[179.903819,-16.484308],[179.917166,-16.466892],[179.939464,-16.463311],[179.953461,-16.499607],[179.890147,-16.614679],[179.891124,-16.63128],[179.873709,-16.634861],[179.848643,-16.662367],[179.875011,-16.664321],[179.891938,-16.675958],[179.903819,-16.717706],[179.935557,-16.720392],[179.949718,-16.730076],[179.951671,-16.745701],[179.941905,-16.752618],[179.896332,-16.738214],[179.910655,-16.766046],[179.890147,-16.758722],[179.875743,-16.769464],[179.863617,-16.764825],[179.862153,-16.738214],[179.826345,-16.737074],[179.802013,-16.717706],[179.780772,-16.72503],[179.726329,-16.717706],[179.69988,-16.735284],[179.66627,-16.740655],[179.656749,-16.758722],[179.643809,-16.745701],[179.633311,-16.765883],[179.596853,-16.788751],[179.582286,-16.807061],[179.565115,-16.791681],[179.544932,-16.790785],[179.471446,-16.801202],[179.438243,-16.813897],[179.403819,-16.802341],[179.296886,-16.806817],[179.323416,-16.771173],[179.354747,-16.758477],[179.35141,-16.731378],[179.307953,-16.717706],[179.266368,-16.689874],[179.152843,-16.73447],[179.122895,-16.758722],[179.129405,-16.775811],[179.110199,-16.799981],[179.095714,-16.807061],[179.06544,-16.798923],[179.044444,-16.823826],[179.019867,-16.895196],[179.045421,-16.880141],[179.075206,-16.881524],[179.026866,-16.92311],[178.954438,-16.899021],[178.945323,-16.877537],[178.925955,-16.873142],[178.917003,-16.848077],[178.910004,-16.848077],[178.910004,-16.867852],[178.894542,-16.859308],[178.874034,-16.861098],[178.8213,-16.902602],[178.80714,-16.950453],[178.787771,-16.967869],[178.800955,-16.977716],[178.765473,-17.001153],[178.733897,-17.007013],[178.705333,-16.998793],[178.691905,-16.985772],[178.670421,-16.899021],[178.627452,-16.83766],[178.636404,-16.807061],[178.606212,-16.792901],[178.602306,-16.779718],[178.540701,-16.809177],[178.511567,-16.814223],[178.485606,-16.79339],[178.490245,-16.791192],[178.479015,-16.765883],[178.483572,-16.759942],[178.499278,-16.766046],[178.496593,-16.747166],[178.506521,-16.730401],[178.540212,-16.704034],[178.540212,-16.724542],[178.55714,-16.698337],[178.568044,-16.704034],[178.585623,-16.665134],[178.588634,-16.649509],[178.552745,-16.658949],[178.533946,-16.629002],[178.581798,-16.614679],[178.608409,-16.642022],[178.650076,-16.649509],[178.691091,-16.669854],[178.704275,-16.667087],[178.788341,-16.596938],[178.797699,-16.606622],[178.800955,-16.635837],[178.813975,-16.629978],[178.81837,-16.586847],[178.848643,-16.546319],[178.855479,-16.56699],[178.867931,-16.557061],[178.869151,-16.539646],[178.886241,-16.552341],[178.930919,-16.512628],[178.917003,-16.470636],[178.932872,-16.47617],[178.942719,-16.460382],[178.965099,-16.470636],[179.136729,-16.429783],[179.177582,-16.429783],[179.191254,-16.407973],[179.222341,-16.399021],[179.29835,-16.409112],[179.31422,-16.395603],[179.329275,-16.407973],[179.358735,-16.388116],[179.372081,-16.40488],[179.403575,-16.407973],[179.395763,-16.378839],[179.37615,-16.360772],[179.397716,-16.347833],[179.417817,-16.353936],[179.431407,-16.319024],[179.443207,-16.310235],[179.458181,-16.31992],[179.471202,-16.274021],[179.486095,-16.265232],[179.535655,-16.262465],[179.520274,-16.244806],[179.542491,-16.250746],[179.554373,-16.272638],[179.568044,-16.224298],[179.572927,-16.236423],[179.602794,-16.25213],[179.618907,-16.242608],[179.630138,-16.258966],[179.630138,-16.243422],[179.653331,-16.235284],[179.656505,-16.220636],[179.701834,-16.223077],[179.710297,-16.207778],[179.764415,-16.18141],[179.780935,-16.231134],[179.828787,-16.20436],[179.841319,-16.213474],[179.828787,-16.224298],[179.855968,-16.231134],[179.910655,-16.179864],[179.983165,-16.149102],[180,-16.149112]]],[[[-178.588572,-19.122817],[-178.566355,-19.151056],[-178.533315,-19.156996],[-178.536977,-19.177179],[-178.555857,-19.174981],[-178.600331,-19.147719],[-178.597117,-19.128513],[-178.581654,-19.111505],[-178.553822,-19.109145],[-178.559682,-19.118829],[-178.588572,-19.122817]]],[[[-178.972157,-18.965102],[-178.969065,-18.942641],[-178.957875,-18.927911],[-178.943593,-18.926365],[-178.931223,-18.944106],[-178.930979,-18.971368],[-178.944447,-18.987237],[-178.961537,-18.986749],[-178.972157,-18.965102]]],[[[-179.863067,-18.965834],[-179.84968,-18.923435],[-179.812693,-18.927341],[-179.78718,-18.955336],[-179.808217,-18.986423],[-179.816762,-18.952244],[-179.837758,-18.948826],[-179.855214,-18.963149],[-179.84435,-19.00213],[-179.858266,-19.005955],[-179.871938,-18.993748],[-179.863067,-18.965834]]],[[[-178.766713,-18.191257],[-178.749135,-18.20322],[-178.745676,-18.221612],[-178.763295,-18.245864],[-178.806589,-18.243748],[-178.845408,-18.21738],[-178.8249,-18.189142],[-178.789784,-18.172133],[-178.766713,-18.191257]]],[[[-179.050294,-17.955952],[-179.031831,-17.966329],[-179.027865,-18.003014],[-179.046215,-18.007515],[-179.069336,-17.989319],[-179.078704,-17.966642],[-179.059511,-17.952518],[-179.050294,-17.955952]]],[[[-178.293162,-17.882745],[-178.246409,-17.917576],[-178.239125,-17.934259],[-178.248647,-17.952569],[-178.298289,-17.963311],[-178.352284,-17.945733],[-178.357777,-17.914321],[-178.33788,-17.886],[-178.293162,-17.882745]]],[[[-178.964711,-17.176935],[-178.917348,-17.201267],[-178.910715,-17.214532],[-178.92748,-17.252699],[-178.965932,-17.275079],[-178.985829,-17.313572],[-179.000681,-17.302504],[-178.99767,-17.283136],[-178.972157,-17.252699],[-178.975779,-17.239841],[-178.958485,-17.224786],[-178.958323,-17.211358],[-178.972157,-17.197442],[-179.013132,-17.183852],[-179.019968,-17.149102],[-178.985422,-17.175877],[-178.964711,-17.176935]]],[[[179.777517,-19.122817],[179.788585,-19.130466],[179.802013,-19.184259],[179.745942,-19.190118],[179.740001,-19.177423],[179.75294,-19.163832],[179.774099,-19.170668],[179.756602,-19.127699],[179.777517,-19.122817]]],[[[178.430349,-18.955255],[178.485606,-18.965102],[178.498383,-18.996759],[178.496593,-19.013279],[178.460948,-19.032647],[178.424083,-19.02044],[178.428966,-19.036798],[178.416677,-19.047784],[178.341482,-19.047784],[178.348318,-19.02044],[178.332856,-19.025649],[178.320486,-19.02044],[178.330089,-19.009535],[178.307302,-18.997166],[178.281505,-19.00742],[178.238536,-19.040948],[178.195079,-19.047459],[178.188731,-19.083591],[178.183849,-19.068943],[178.174327,-19.07586],[178.173106,-19.097752],[178.199474,-19.114028],[178.194672,-19.14658],[178.178966,-19.157485],[178.161632,-19.150567],[178.162852,-19.115981],[178.148204,-19.127537],[178.128673,-19.129653],[178.106619,-19.154555],[178.091645,-19.156996],[178.03712,-19.142755],[178.003673,-19.157485],[177.998871,-19.142755],[177.973969,-19.144789],[177.951182,-19.129653],[177.981456,-19.101251],[177.999522,-19.094822],[178.019379,-19.102309],[178.029796,-19.093845],[178.033458,-19.072035],[178.051768,-19.056736],[178.128673,-19.068943],[178.139415,-19.041925],[178.14975,-19.034112],[178.163259,-19.044041],[178.17213,-19.035333],[178.176443,-18.999282],[178.190684,-18.977227],[178.226085,-18.964125],[178.26588,-18.962091],[178.293712,-18.972589],[178.301931,-18.944024],[178.344981,-18.9249],[178.371918,-18.930352],[178.382579,-18.9249],[178.389822,-18.938165],[178.422699,-18.939711],[178.430349,-18.955255]]],[[[178.526541,-18.87656],[178.538259,-18.892267],[178.533946,-18.910577],[178.520518,-18.906183],[178.508311,-18.926446],[178.471934,-18.907159],[178.49586,-18.86297],[178.531586,-18.860447],[178.526541,-18.87656]]],[[[179.943427,-18.556346],[179.952403,-18.568536],[179.9447,-18.580617],[179.920787,-18.586044],[179.891831,-18.609644],[179.89884,-18.617466],[179.912778,-18.611466],[179.921019,-18.622643],[179.901869,-18.638147],[179.900791,-18.658595],[179.882754,-18.662524],[179.871566,-18.628824],[179.833074,-18.600249],[179.830666,-18.589302],[179.888189,-18.566928],[179.943427,-18.556346]]],[[[177.648774,-18.492852],[177.663097,-18.588474],[177.636485,-18.562758],[177.618988,-18.511895],[177.635102,-18.486017],[177.648774,-18.492852]]],[[[178.122325,-18.369317],[178.127615,-18.351658],[178.138927,-18.348728],[178.150076,-18.357843],[178.156016,-18.376153],[178.142345,-18.411879],[178.126964,-18.41546],[178.108735,-18.403497],[178.12086,-18.395685],[178.122325,-18.369317]]],[[[179.34547,-17.998793],[179.36085,-18.025974],[179.362966,-18.079767],[179.350271,-18.118829],[179.310883,-18.089776],[179.303233,-18.062188],[179.266938,-17.998793],[179.265798,-18.02988],[179.25408,-18.039158],[179.24643,-17.974867],[179.232758,-17.944757],[179.250336,-17.951267],[179.272146,-17.934503],[179.297374,-17.937921],[179.312511,-17.947442],[179.34547,-17.998793]]],[[[179.430837,-17.794041],[179.424083,-17.807061],[179.432302,-17.832778],[179.422618,-17.850518],[179.391775,-17.793064],[179.396739,-17.780369],[179.430837,-17.794041]]],[[[178.725762,-17.72471],[178.741915,-17.749584],[178.779552,-17.766046],[178.772716,-17.780369],[178.734685,-17.767566],[178.713189,-17.710978],[178.725762,-17.72471]]],[[[178.776378,-17.628839],[178.797887,-17.618605],[178.816758,-17.628951],[178.835544,-17.693159],[178.822909,-17.72913],[178.768077,-17.747166],[178.739355,-17.67333],[178.751094,-17.643363],[178.776378,-17.628839]]],[[[179.005382,-17.621352],[178.997406,-17.608005],[179.006847,-17.593194],[179.026052,-17.61061],[179.040782,-17.656183],[179.033376,-17.656183],[179.023204,-17.635431],[179.005382,-17.621352]]],[[[178.711436,-17.991957],[178.698416,-18.019301],[178.694509,-18.056899],[178.684581,-18.070408],[178.612966,-18.1124],[178.588634,-18.136],[178.588634,-18.115492],[178.547618,-18.129083],[178.559337,-18.112726],[178.555024,-18.099216],[178.52711,-18.09002],[178.485606,-18.108657],[178.487804,-18.129083],[178.470225,-18.14186],[178.437755,-18.14658],[178.439952,-18.126072],[178.421641,-18.108005],[178.389903,-18.101821],[178.391287,-18.118097],[178.378429,-18.127211],[178.368907,-18.129083],[178.355235,-18.115492],[178.322927,-18.125584],[178.309337,-18.140232],[178.277029,-18.146254],[178.252208,-18.18377],[178.214203,-18.201104],[178.168305,-18.248468],[178.135509,-18.259454],[178.113048,-18.239435],[178.03891,-18.264907],[177.978363,-18.252699],[177.959809,-18.26572],[177.921072,-18.260675],[177.894054,-18.273126],[177.885753,-18.251642],[177.859386,-18.265802],[177.827159,-18.23447],[177.64503,-18.191095],[177.591645,-18.166681],[177.567638,-18.170099],[177.524913,-18.155369],[177.465099,-18.156427],[177.437185,-18.136],[177.335948,-18.105564],[177.31365,-18.073907],[177.306814,-18.081313],[177.300059,-18.039727],[177.285818,-18.008966],[177.26295,-17.993829],[177.266449,-17.979425],[177.251638,-17.952244],[177.272146,-17.916925],[177.259044,-17.879327],[177.265636,-17.859552],[177.361501,-17.834893],[177.372895,-17.815199],[177.370291,-17.749688],[177.416026,-17.759861],[177.434337,-17.750177],[177.420584,-17.678318],[177.395681,-17.663018],[177.388927,-17.640558],[177.420421,-17.622328],[177.434337,-17.597914],[177.465099,-17.587986],[177.467459,-17.555352],[177.478201,-17.546319],[177.489594,-17.558852],[177.499522,-17.555759],[177.499278,-17.532647],[177.515147,-17.50506],[177.524425,-17.500746],[177.539561,-17.51214],[177.638927,-17.437107],[177.652599,-17.440525],[177.646821,-17.451755],[177.663097,-17.498468],[177.669281,-17.492364],[177.65919,-17.468032],[177.663097,-17.443943],[177.710134,-17.417901],[177.74879,-17.430271],[177.765473,-17.396661],[177.807628,-17.380955],[177.829926,-17.364028],[177.833669,-17.390232],[177.82016,-17.417169],[177.836274,-17.421319],[177.875987,-17.389337],[177.897309,-17.402927],[177.956228,-17.40252],[178.007172,-17.383477],[178.042247,-17.356866],[178.151052,-17.346856],[178.180837,-17.329278],[178.190115,-17.300551],[178.262706,-17.335626],[178.286469,-17.383722],[178.279552,-17.407403],[178.245372,-17.443943],[178.258067,-17.457452],[178.245372,-17.471287],[178.258637,-17.468927],[178.285981,-17.438084],[178.303722,-17.430271],[178.348318,-17.440118],[178.375743,-17.471287],[178.375743,-17.498468],[178.403575,-17.522393],[178.445486,-17.5499],[178.47877,-17.553155],[178.530284,-17.608331],[178.573009,-17.617934],[178.590831,-17.630955],[178.602306,-17.649998],[178.603282,-17.674574],[178.580577,-17.710056],[178.567719,-17.754978],[178.602306,-17.786554],[178.598888,-17.819431],[178.608409,-17.828058],[178.627208,-17.826837],[178.615896,-17.841078],[178.63502,-17.853448],[178.635997,-17.863702],[178.629568,-17.875909],[178.615896,-17.869073],[178.622732,-17.890232],[178.591075,-17.897556],[178.5949,-17.926039],[178.62615,-17.971449],[178.654307,-17.978448],[178.677013,-18.011407],[178.693858,-18.009942],[178.711436,-17.991957]]],[[[177.093923,-17.245294],[177.120128,-17.255466],[177.149181,-17.245294],[177.162852,-17.265802],[177.124522,-17.306817],[177.111827,-17.310317],[177.101329,-17.300551],[177.105235,-17.259698],[177.093923,-17.245294]]],[[[179.451915,-17.290297],[179.432872,-17.358331],[179.39088,-17.396254],[179.383474,-17.390558],[179.383474,-17.331231],[179.368826,-17.286798],[179.371349,-17.259861],[179.378673,-17.249444],[179.437836,-17.241795],[179.448253,-17.249119],[179.451915,-17.290297]]],[[[177.272146,-17.080824],[177.285818,-17.046645],[177.292247,-17.058526],[177.287852,-17.085219],[177.271739,-17.112726],[177.24171,-17.132745],[177.238048,-17.149102],[177.224294,-17.135431],[177.20753,-17.148207],[177.203787,-17.16961],[177.175955,-17.163344],[177.175955,-17.155938],[177.186778,-17.156345],[177.186046,-17.120294],[177.202485,-17.111017],[177.218272,-17.073826],[177.248546,-17.053481],[177.272146,-17.080824]]],[[[177.443696,-16.867852],[177.403656,-16.902602],[177.416515,-16.909438],[177.395356,-16.936782],[177.373057,-16.902927],[177.402843,-16.881524],[177.395763,-16.866143],[177.408214,-16.861098],[177.443696,-16.867852]]],[[[178.333995,-16.79339],[178.335623,-16.825128],[178.290212,-16.834405],[178.28004,-16.786716],[178.333995,-16.79339]]],[[[177.56072,-16.676853],[177.591156,-16.686212],[177.594005,-16.699965],[177.580333,-16.728448],[177.493419,-16.802667],[177.471365,-16.834405],[177.461436,-16.830173],[177.437185,-16.84002],[177.429698,-16.834405],[177.437185,-16.79339],[177.456554,-16.805597],[177.475352,-16.796645],[177.558604,-16.721449],[177.57252,-16.699477],[177.56072,-16.676853]]],[[[179.917491,-16.655532],[179.883311,-16.655532],[179.907237,-16.649509],[179.910167,-16.632094],[179.934581,-16.625095],[179.951671,-16.607843],[179.947439,-16.644464],[179.917491,-16.655532]]],[[[178.588227,-16.573012],[178.605154,-16.580011],[178.622569,-16.573012],[178.60613,-16.591729],[178.592459,-16.595636],[178.560395,-16.587335],[178.588227,-16.573012]]],[[[179.362315,-16.326593],[179.389659,-16.333591],[179.361176,-16.340753],[179.328136,-16.333591],[179.328136,-16.326593],[179.362315,-16.326593]]],[[[177.124766,-12.486098],[177.12908,-12.501642],[177.091075,-12.516371],[177.011485,-12.509454],[177.00587,-12.489516],[177.03297,-12.491388],[177.059744,-12.475274],[177.124766,-12.486098]]],[[[174.615896,-21.711114],[174.596853,-21.698419],[174.588878,-21.681573],[174.594005,-21.668715],[174.614106,-21.668227],[174.626638,-21.676528],[174.627778,-21.702569],[174.615896,-21.711114]]],[[[-178.719065,-20.670994],[-178.731028,-20.657647],[-178.724965,-20.642348],[-178.708119,-20.671319],[-178.719065,-20.670994]]],[[[-178.226796,-19.84002],[-178.228953,-19.829034],[-178.216135,-19.815199],[-178.226796,-19.84002]]],[[[-178.419789,-19.167413],[-178.392934,-19.127537],[-178.391957,-19.165785],[-178.418813,-19.178643],[-178.419789,-19.167413]]],[[[-178.899648,-18.87713],[-178.930613,-18.882094],[-178.879872,-18.854262],[-178.899648,-18.87713]]],[[[-178.507151,-18.665216],[-178.516306,-18.649998],[-178.511098,-18.637953],[-178.499216,-18.633722],[-178.486073,-18.651788],[-178.498118,-18.665948],[-178.507151,-18.665216]]],[[[-179.322581,-17.770196],[-179.33613,-17.758477],[-179.334218,-17.740004],[-179.320302,-17.724867],[-179.298085,-17.72324],[-179.279734,-17.739435],[-179.280751,-17.760186],[-179.296457,-17.774184],[-179.322581,-17.770196]]],[[[-179.156606,-17.471368],[-179.1728,-17.45794],[-179.175486,-17.439711],[-179.166005,-17.425551],[-179.145579,-17.424249],[-179.130808,-17.453709],[-179.137074,-17.468927],[-179.156606,-17.471368]]],[[[-179.157297,-17.272719],[-179.156687,-17.254083],[-179.146474,-17.247979],[-179.134389,-17.25213],[-179.130808,-17.277032],[-179.149485,-17.282159],[-179.157297,-17.272719]]]]}}