{"type":"Feature","properties":{"iso3":"FLK","name":"Falkland Islands","continent":"Americas"},"geometry":{"type":"MultiPolygon","coordinates":[[[[-59.694447,-52.208103],[-59.676869,-52.21559],[-59.679189,-52.229262],[-59.693267,-52.242446],[-59.738596,-52.258884],[-59.746693,-52.274021],[-59.756012,-52.273614],[-59.767568,-52.24977],[-59.749501,-52.227797],[-59.748402,-52.19378],[-59.791005,-52.166681],[-59.796864,-52.149509],[-59.792144,-52.130548],[-59.765859,-52.166436],[-59.69518,-52.166274],[-59.680165,-52.179457],[-59.694447,-52.208103]]],[[[-61.194,-51.817071],[-61.234975,-51.831313],[-61.225657,-51.840916],[-61.194,-51.837498],[-61.217519,-51.862074],[-61.252268,-51.861993],[-61.318186,-51.824477],[-61.297678,-51.817071],[-61.25064,-51.833754],[-61.2329,-51.799086],[-61.222279,-51.796563],[-61.206166,-51.801935],[-61.194,-51.817071]]],[[[-60.947621,-51.947361],[-60.996693,-51.952732],[-61.043813,-51.940606],[-61.03954,-51.930597],[-61.05134,-51.92669],[-61.064931,-51.906427],[-61.119537,-51.892755],[-61.111806,-51.870782],[-61.118642,-51.856541],[-61.153066,-51.844903],[-61.121897,-51.82586],[-61.059478,-51.823907],[-61.028391,-51.788507],[-60.986887,-51.776056],[-60.939809,-51.803399],[-60.944203,-51.813897],[-61.012196,-51.841567],[-61.032623,-51.866876],[-60.954945,-51.853774],[-60.888539,-51.819268],[-60.879303,-51.796563],[-60.897939,-51.780857],[-60.862864,-51.760919],[-60.855051,-51.766697],[-60.853912,-51.788751],[-60.874989,-51.823012],[-60.879303,-51.858575],[-60.907297,-51.899591],[-60.865712,-51.899591],[-60.88679,-51.93434],[-60.947621,-51.947361]]],[[[-61.270375,-51.680434],[-61.194,-51.693536],[-61.266672,-51.704034],[-61.277333,-51.725681],[-61.277211,-51.755548],[-61.302113,-51.747654],[-61.318186,-51.728204],[-61.304351,-51.69492],[-61.270375,-51.680434]]],[[[-59.632395,-51.741306],[-59.725657,-51.799249],[-59.83137,-51.894952],[-59.871734,-51.948989],[-59.887034,-51.957778],[-59.93106,-51.96502],[-59.994862,-51.994561],[-60.005727,-51.961033],[-60.044301,-51.955662],[-60.054351,-51.940199],[-60.064198,-51.940606],[-60.080881,-51.951104],[-60.08316,-51.961521],[-60.071278,-51.982029],[-60.074045,-51.991469],[-60.094106,-51.998712],[-60.180409,-51.994561],[-60.215443,-52.003595],[-60.218088,-51.988539],[-60.194081,-51.968438],[-60.276031,-51.994561],[-60.286529,-52.012791],[-60.26301,-52.067153],[-60.268137,-52.082127],[-60.372222,-52.159601],[-60.394276,-52.158787],[-60.425364,-52.144789],[-60.447336,-52.145929],[-60.442535,-52.158868],[-60.451039,-52.165623],[-60.505971,-52.125584],[-60.550364,-52.111912],[-60.555287,-52.12949],[-60.528391,-52.137872],[-60.513173,-52.151625],[-60.495758,-52.186944],[-60.53661,-52.217055],[-60.592763,-52.236749],[-60.646718,-52.233087],[-60.681304,-52.19378],[-60.639068,-52.19378],[-60.682525,-52.167576],[-60.714833,-52.13242],[-60.688588,-52.109145],[-60.81786,-52.104425],[-60.82608,-52.111749],[-60.774078,-52.12477],[-60.722279,-52.173923],[-60.796783,-52.172052],[-60.867299,-52.115167],[-60.907297,-52.111912],[-60.95759,-52.073012],[-61.021596,-52.05755],[-61.036936,-52.046563],[-61.019765,-52.012465],[-60.897206,-52.031915],[-60.88679,-52.036228],[-60.878326,-52.065199],[-60.858876,-52.06406],[-60.873158,-52.029962],[-60.805491,-52.024347],[-60.742177,-52.008884],[-60.742177,-52.002048],[-60.773997,-51.990818],[-60.824371,-51.979913],[-60.845204,-51.954767],[-60.712961,-51.961358],[-60.694407,-51.98211],[-60.667063,-51.961033],[-60.652455,-51.983819],[-60.622548,-51.971287],[-60.584055,-51.976658],[-60.532053,-51.999933],[-60.523061,-51.988377],[-60.536733,-51.975274],[-60.456044,-51.965102],[-60.434316,-51.954767],[-60.399892,-51.916599],[-60.416656,-51.904229],[-60.466786,-51.930434],[-60.514719,-51.941827],[-60.56432,-51.941176],[-60.60558,-51.926935],[-60.526194,-51.930271],[-60.479237,-51.915216],[-60.447336,-51.879083],[-60.456654,-51.867283],[-60.447336,-51.844903],[-60.454742,-51.799981],[-60.444488,-51.782892],[-60.420318,-51.77044],[-60.372222,-51.76922],[-60.406361,-51.796563],[-60.363108,-51.791925],[-60.360707,-51.80934],[-60.379709,-51.837498],[-60.338735,-51.858575],[-60.329335,-51.830011],[-60.297109,-51.824477],[-60.312652,-51.798272],[-60.31078,-51.765802],[-60.29776,-51.750421],[-60.276031,-51.748712],[-60.256174,-51.776625],[-60.232289,-51.769708],[-60.224517,-51.782485],[-60.184071,-51.761163],[-60.180409,-51.707208],[-60.207183,-51.701349],[-60.279775,-51.714614],[-60.33845,-51.709161],[-60.364003,-51.714125],[-60.357981,-51.73504],[-60.365956,-51.746515],[-60.39269,-51.741306],[-60.451039,-51.762384],[-60.496083,-51.762384],[-60.510162,-51.765883],[-60.530507,-51.789727],[-60.550649,-51.789809],[-60.570383,-51.757257],[-60.610178,-51.742771],[-60.628977,-51.727472],[-60.640126,-51.707289],[-60.639068,-51.6867],[-60.624989,-51.66961],[-60.461578,-51.700942],[-60.368804,-51.666762],[-60.289947,-51.671808],[-60.219594,-51.654229],[-60.198842,-51.656427],[-60.133127,-51.689874],[-60.077382,-51.693536],[-60.091949,-51.674981],[-60.116038,-51.664727],[-60.189809,-51.653253],[-60.248769,-51.611586],[-60.290273,-51.597345],[-60.317616,-51.570571],[-60.490387,-51.526462],[-60.513051,-51.498468],[-60.515289,-51.486505],[-60.505971,-51.481215],[-60.399241,-51.48919],[-60.388783,-51.48447],[-60.402943,-51.464125],[-60.450103,-51.441502],[-60.5572,-51.432794],[-60.61205,-51.417413],[-60.630727,-51.403578],[-60.625844,-51.385024],[-60.645985,-51.351495],[-60.60558,-51.344008],[-60.426747,-51.399102],[-60.324452,-51.453302],[-60.242909,-51.478936],[-60.153147,-51.487481],[-59.988637,-51.467543],[-60.012685,-51.449884],[-60.083608,-51.445977],[-60.074045,-51.423272],[-60.029612,-51.392511],[-60.017486,-51.375177],[-60.002065,-51.38836],[-59.994862,-51.413507],[-59.901479,-51.372817],[-59.871938,-51.378839],[-59.882436,-51.395603],[-59.762074,-51.419692],[-59.830393,-51.42669],[-59.801829,-51.447035],[-59.748525,-51.447035],[-59.560374,-51.419692],[-59.488393,-51.392511],[-59.488393,-51.399347],[-59.584584,-51.43963],[-59.539296,-51.455743],[-59.491322,-51.456231],[-59.392812,-51.432794],[-59.41161,-51.414809],[-59.443959,-51.400323],[-59.447377,-51.358331],[-59.413238,-51.358331],[-59.419504,-51.337823],[-59.405263,-51.33766],[-59.37149,-51.345636],[-59.35733,-51.361423],[-59.255971,-51.387384],[-59.214019,-51.413507],[-59.274485,-51.417169],[-59.282867,-51.432794],[-59.279164,-51.447849],[-59.235178,-51.447035],[-59.308217,-51.490004],[-59.33137,-51.501723],[-59.348459,-51.487074],[-59.372304,-51.494887],[-59.368642,-51.507013],[-59.378529,-51.528985],[-59.350575,-51.522719],[-59.350575,-51.528985],[-59.382232,-51.556899],[-59.396148,-51.597345],[-59.447377,-51.625177],[-59.464101,-51.612481],[-59.460439,-51.591078],[-59.491567,-51.614435],[-59.508616,-51.623142],[-59.522532,-51.618341],[-59.577138,-51.65252],[-59.549428,-51.651137],[-59.632395,-51.741306]]],[[[-59.899281,-51.303643],[-59.920318,-51.309991],[-59.906484,-51.329197],[-59.91804,-51.338962],[-59.961334,-51.344008],[-59.998199,-51.325128],[-60.022817,-51.296157],[-59.960317,-51.286798],[-59.899281,-51.303643]]],[[[-60.169911,-51.392511],[-60.241282,-51.401137],[-60.288686,-51.385186],[-60.291493,-51.371677],[-60.277455,-51.357354],[-60.252756,-51.349054],[-60.204661,-51.344008],[-60.163075,-51.372003],[-60.111562,-51.358331],[-60.269887,-51.298272],[-60.300893,-51.268243],[-60.273915,-51.260919],[-60.252431,-51.28631],[-60.2058,-51.302911],[-60.07429,-51.299981],[-60.049143,-51.346449],[-60.0985,-51.378839],[-60.119008,-51.40602],[-60.169911,-51.392511]]],[[[-57.816233,-51.693536],[-57.776438,-51.684666],[-57.734283,-51.6867],[-57.734283,-51.693536],[-57.762359,-51.695001],[-57.86384,-51.726251],[-57.965566,-51.732599],[-57.96642,-51.74033],[-57.992421,-51.751072],[-58.144399,-51.762302],[-58.261301,-51.755548],[-58.261301,-51.762384],[-58.214101,-51.776625],[-58.145172,-51.782892],[-58.145172,-51.789727],[-58.261301,-51.796563],[-58.330637,-51.823826],[-58.357493,-51.824477],[-58.315338,-51.830011],[-58.253163,-51.81113],[-58.186147,-51.810805],[-58.224965,-51.833185],[-58.419057,-51.892185],[-58.51122,-51.882989],[-58.598948,-51.892755],[-58.757802,-51.89129],[-58.906239,-51.835138],[-58.940297,-51.796563],[-58.952789,-51.802423],[-58.971506,-51.83172],[-58.969106,-51.853774],[-58.939117,-51.875421],[-58.892568,-51.884373],[-58.8155,-51.915297],[-58.796295,-51.93434],[-58.810414,-51.951918],[-58.784169,-51.957127],[-58.698476,-51.9485],[-58.632314,-51.96795],[-58.631825,-51.988377],[-58.604482,-52.002048],[-58.672841,-52.036228],[-58.653879,-52.052179],[-58.641225,-52.107843],[-58.67512,-52.10711],[-58.7294,-52.051039],[-58.789174,-52.029962],[-58.8131,-52.043064],[-58.857086,-52.039646],[-58.850942,-52.06406],[-58.925771,-52.101658],[-58.947743,-52.056573],[-58.968577,-52.070977],[-58.994944,-52.029962],[-59.01651,-52.023126],[-59.055898,-52.0263],[-59.063222,-52.008884],[-59.096181,-52.01214],[-59.138295,-51.983331],[-59.157786,-51.985284],[-59.173085,-52.002048],[-59.200266,-52.007582],[-59.250844,-51.989841],[-59.269602,-51.990492],[-59.303293,-52.007908],[-59.297515,-52.01922],[-59.282582,-52.026137],[-59.253082,-52.014337],[-59.200673,-52.022556],[-59.186025,-52.028985],[-59.184478,-52.05755],[-59.176829,-52.06406],[-59.13036,-52.057224],[-59.111643,-52.06406],[-59.145741,-52.090753],[-59.109446,-52.089288],[-59.076812,-52.09824],[-59.145741,-52.125584],[-59.153432,-52.14422],[-59.115793,-52.148858],[-59.038889,-52.135837],[-59.035878,-52.145929],[-59.046498,-52.154392],[-59.097971,-52.173923],[-59.04898,-52.212498],[-59.063222,-52.228611],[-59.084706,-52.231541],[-59.152577,-52.208103],[-59.221669,-52.207208],[-59.241322,-52.19378],[-59.262441,-52.159601],[-59.298166,-52.149672],[-59.30956,-52.139093],[-59.326894,-52.143976],[-59.366851,-52.115167],[-59.385976,-52.111912],[-59.404856,-52.155938],[-59.433746,-52.13242],[-59.456044,-52.142185],[-59.44636,-52.159926],[-59.413238,-52.186944],[-59.430776,-52.202081],[-59.428578,-52.21795],[-59.392812,-52.221775],[-59.352162,-52.24212],[-59.345937,-52.256931],[-59.350575,-52.2763],[-59.373891,-52.299086],[-59.33137,-52.324151],[-59.338938,-52.341729],[-59.392812,-52.310479],[-59.466705,-52.295668],[-59.488393,-52.283787],[-59.484446,-52.264418],[-59.496816,-52.252048],[-59.58019,-52.229669],[-59.580637,-52.217218],[-59.55663,-52.200616],[-59.622182,-52.197198],[-59.623931,-52.178643],[-59.703359,-52.128351],[-59.721547,-52.107599],[-59.71935,-52.096856],[-59.703847,-52.094334],[-59.659657,-52.118748],[-59.641225,-52.117934],[-59.628285,-52.11061],[-59.625966,-52.098891],[-59.639231,-52.084568],[-59.598012,-52.079197],[-59.579661,-52.071384],[-59.570302,-52.056573],[-59.624745,-52.02988],[-59.631174,-52.006768],[-59.618235,-52.004002],[-59.5985,-52.016371],[-59.55663,-52.01572],[-59.59142,-51.98211],[-59.522532,-51.968438],[-59.522532,-51.961033],[-59.604726,-51.940525],[-59.605092,-51.920668],[-59.581288,-51.91131],[-59.488393,-51.93434],[-59.467397,-51.922133],[-59.522532,-51.885349],[-59.516672,-51.874282],[-59.474721,-51.872247],[-59.468902,-51.855239],[-59.488393,-51.844903],[-59.396148,-51.820733],[-59.376088,-51.83294],[-59.363759,-51.822361],[-59.350575,-51.776625],[-59.318756,-51.788507],[-59.282867,-51.782892],[-59.303375,-51.748712],[-59.207183,-51.707208],[-59.190541,-51.72088],[-59.149159,-51.693536],[-59.056386,-51.6867],[-59.05016,-51.721449],[-59.029652,-51.75213],[-59.0419,-51.778741],[-59.036122,-51.79339],[-59.042714,-51.817071],[-58.990102,-51.803643],[-58.981272,-51.789727],[-59.007558,-51.740004],[-59.003896,-51.713637],[-59.02831,-51.69378],[-59.022206,-51.673028],[-58.992258,-51.664646],[-58.9912,-51.64658],[-59.100697,-51.621759],[-59.145741,-51.597345],[-59.167836,-51.573663],[-59.121653,-51.536228],[-59.111643,-51.501723],[-59.060943,-51.562758],[-59.029124,-51.583917],[-59.007965,-51.556899],[-59.034576,-51.533624],[-59.041127,-51.510837],[-59.026112,-51.498956],[-58.988108,-51.508477],[-59.014272,-51.491795],[-59.125315,-51.456964],[-59.099029,-51.41253],[-59.084299,-51.40602],[-59.037709,-51.419854],[-59.004872,-51.413507],[-58.98469,-51.385675],[-58.893463,-51.38006],[-58.873606,-51.371759],[-58.864613,-51.358331],[-58.909576,-51.300714],[-58.941762,-51.278904],[-58.953969,-51.248468],[-58.88565,-51.283298],[-58.816477,-51.296645],[-58.73351,-51.328302],[-58.659088,-51.330987],[-58.626454,-51.343438],[-58.611399,-51.344008],[-58.615142,-51.325453],[-58.576527,-51.306736],[-58.481435,-51.300958],[-58.406606,-51.323826],[-58.343617,-51.368422],[-58.329091,-51.416274],[-58.333811,-51.427504],[-58.377024,-51.445082],[-58.428334,-51.450616],[-58.446889,-51.447035],[-58.473459,-51.401625],[-58.487864,-51.392511],[-58.50475,-51.395278],[-58.549224,-51.432794],[-58.515452,-51.433364],[-58.509348,-51.446873],[-58.521962,-51.491143],[-58.508901,-51.498224],[-58.445465,-51.476251],[-58.422353,-51.477797],[-58.421213,-51.549412],[-58.405914,-51.549493],[-58.388824,-51.536554],[-58.374867,-51.560154],[-58.36144,-51.565688],[-58.331654,-51.55934],[-58.323964,-51.549493],[-58.302968,-51.557306],[-58.290395,-51.56756],[-58.276479,-51.614516],[-58.230865,-51.65252],[-58.213368,-51.646091],[-58.247629,-51.60475],[-58.236928,-51.592543],[-58.172515,-51.611586],[-58.179921,-51.588067],[-58.229563,-51.571873],[-58.241444,-51.560154],[-58.212229,-51.538507],[-58.217193,-51.525974],[-58.230051,-51.52158],[-58.275502,-51.528985],[-58.285471,-51.521091],[-58.289174,-51.494887],[-58.307485,-51.481866],[-58.314361,-51.500746],[-58.324208,-51.506036],[-58.359364,-51.504653],[-58.291249,-51.42254],[-58.227447,-51.392511],[-58.017893,-51.382745],[-57.96288,-51.37184],[-57.906402,-51.376642],[-57.884511,-51.392511],[-57.867584,-51.433526],[-57.819651,-51.477797],[-57.767812,-51.494887],[-57.802602,-51.522719],[-57.777089,-51.522556],[-57.769154,-51.531671],[-57.777943,-51.543064],[-57.802602,-51.549493],[-57.927235,-51.538832],[-58.032094,-51.504327],[-58.040883,-51.512302],[-58.028554,-51.536554],[-58.081939,-51.522393],[-58.145172,-51.542657],[-58.127512,-51.56113],[-58.056711,-51.586847],[-58.028554,-51.591078],[-57.971059,-51.582208],[-57.943105,-51.593032],[-57.812327,-51.60589],[-57.780995,-51.619399],[-57.767812,-51.642267],[-57.786204,-51.655043],[-57.898793,-51.673028],[-57.898793,-51.680434],[-57.816233,-51.693536]]],[[[-59.748402,-51.283298],[-59.799957,-51.273045],[-59.808746,-51.255955],[-59.766754,-51.241143],[-59.690745,-51.26214],[-59.588002,-51.255304],[-59.579172,-51.256768],[-59.56725,-51.283298],[-59.546457,-51.289483],[-59.519154,-51.265069],[-59.502024,-51.26214],[-59.479482,-51.267511],[-59.462514,-51.281671],[-59.447377,-51.324151],[-59.494985,-51.336033],[-59.553212,-51.337823],[-59.576772,-51.330255],[-59.610097,-51.297052],[-59.635813,-51.289483],[-59.748402,-51.283298]]],[[[-59.768428,-52.326961],[-59.751688,-52.309228],[-59.692321,-52.303713],[-59.688745,-52.315111],[-59.712467,-52.319399],[-59.712264,-52.332895],[-59.742495,-52.357973],[-59.720249,-52.3672],[-59.654092,-52.355405],[-59.641989,-52.36779],[-59.687521,-52.391941],[-59.695822,-52.406523],[-59.760908,-52.37883],[-59.78639,-52.381034],[-59.820694,-52.358357],[-59.764872,-52.338363],[-59.768428,-52.326961]]],[[[-58.415598,-51.994073],[-58.402211,-52.00213],[-58.410797,-52.020196],[-58.450266,-52.015558],[-58.444203,-52.029555],[-58.460072,-52.032892],[-58.450754,-52.039972],[-58.431304,-52.030857],[-58.436431,-52.05169],[-58.426178,-52.072524],[-58.427602,-52.100681],[-58.456166,-52.093032],[-58.448354,-52.080743],[-58.464752,-52.08294],[-58.517974,-52.063653],[-58.525624,-52.041681],[-58.546742,-52.025567],[-58.479644,-52.000909],[-58.48412,-51.99505],[-58.465647,-51.992771],[-58.438547,-52.005548],[-58.415598,-51.994073]]],[[[-59.679921,-51.96559],[-59.671702,-51.980564],[-59.680287,-51.987726],[-59.695872,-51.988702],[-59.718902,-51.97617],[-59.711293,-51.945896],[-59.698883,-51.938409],[-59.68871,-51.940606],[-59.69164,-51.955336],[-59.679921,-51.96559]]],[[[-59.744239,-51.328978],[-59.689398,-51.35972],[-59.687848,-51.339458],[-59.665641,-51.341512],[-59.660384,-51.357484],[-59.600481,-51.368977],[-59.596946,-51.38069],[-59.723187,-51.409918],[-59.75231,-51.398281],[-59.748994,-51.383354],[-59.728576,-51.372637],[-59.79174,-51.372808],[-59.822528,-51.361152],[-59.829411,-51.350507],[-59.773132,-51.346115],[-59.764718,-51.327971],[-59.744239,-51.328978]]],[[[-60.533437,-51.28338],[-60.520172,-51.292739],[-60.521108,-51.315037],[-60.527008,-51.316583],[-60.534413,-51.300958],[-60.586293,-51.284601],[-60.596669,-51.26336],[-60.582875,-51.254978],[-60.533437,-51.28338]]],[[[-61.055572,-51.070977],[-61.048695,-51.080336],[-61.125803,-51.065199],[-61.112213,-51.050877],[-61.119211,-51.027765],[-61.092397,-51.038344],[-61.055572,-51.070977]]]]}}