{"type":"Feature","properties":{"iso3":"FRO","name":"Faroe Islands","continent":"Europe"},"geometry":{"type":"MultiPolygon","coordinates":[[[[-6.654775,61.395941],[-6.677602,61.39411],[-6.699778,61.404242],[-6.870473,61.501532],[-6.865834,61.526923],[-6.923085,61.566107],[-6.946034,61.590725],[-6.962554,61.62873],[-6.942128,61.62873],[-6.948964,61.636135],[-6.894643,61.649115],[-6.880035,61.64232],[-6.907338,61.62873],[-6.865834,61.622504],[-6.914174,61.601386],[-6.914174,61.595201],[-6.825673,61.600165],[-6.799062,61.583441],[-6.737457,61.579047],[-6.715566,61.567857],[-6.713206,61.554429],[-6.724273,61.546454],[-6.740631,61.544867],[-6.782623,61.561591],[-6.805572,61.554185],[-6.786204,61.551703],[-6.757192,61.526923],[-6.715566,61.526923],[-6.70165,61.514716],[-6.715566,61.498969],[-6.67398,61.488471],[-6.677602,61.479926],[-6.743642,61.469957],[-6.783844,61.472317],[-6.783844,61.46483],[-6.762685,61.460028],[-6.750356,61.444322],[-6.721181,61.459377],[-6.681386,61.457994],[-6.688303,61.444322],[-6.666249,61.439846],[-6.651235,61.425238],[-6.646352,61.408149],[-6.654775,61.395941]]],[[[-6.612538,61.821112],[-6.633168,61.803697],[-6.629872,61.766547],[-6.660959,61.746039],[-6.746653,61.821112],[-6.838287,61.829006],[-6.867665,61.839342],[-6.877553,61.869574],[-6.907338,61.909857],[-6.821685,61.896877],[-6.789703,61.8994],[-6.742909,61.87641],[-6.66686,61.866034],[-6.612538,61.821112]]],[[[-7.383697,62.094875],[-7.410756,62.105699],[-7.429555,62.128485],[-7.431549,62.148179],[-7.407623,62.150092],[-7.359853,62.129584],[-7.329172,62.129584],[-7.286122,62.15526],[-7.215891,62.163764],[-7.222646,62.150092],[-7.160146,62.132554],[-7.133901,62.109117],[-7.057973,62.103176],[-7.038319,62.088609],[-7.071848,62.052558],[-7.093007,62.047675],[-7.143544,62.054023],[-7.161204,62.047675],[-7.126454,62.040229],[-7.202138,62.019721],[-7.189117,62.034003],[-7.207428,62.060207],[-7.221425,62.06623],[-7.236318,62.061347],[-7.206614,62.042548],[-7.208404,62.034003],[-7.380279,62.068183],[-7.380279,62.074937],[-7.28482,62.074937],[-7.383697,62.094875]]],[[[-7.222646,62.1706],[-7.232086,62.176418],[-7.233957,62.198391],[-7.215891,62.204739],[-7.205068,62.235663],[-7.189117,62.239447],[-7.20816,62.254218],[-7.195424,62.314602],[-7.072621,62.290269],[-7.045481,62.252387],[-6.997222,62.20718],[-6.997385,62.184231],[-6.84732,62.142035],[-6.846344,62.133368],[-6.862213,62.115424],[-6.900502,62.102281],[-6.812978,62.104234],[-6.779368,62.066107],[-6.845937,62.061347],[-6.845937,62.0539],[-6.810536,62.046332],[-6.742909,62.047105],[-6.715566,62.034003],[-6.734039,62.005357],[-6.731923,61.991116],[-6.698842,61.982082],[-6.705881,61.960761],[-6.701894,61.944037],[-6.734486,61.938218],[-6.793853,61.974514],[-6.856923,61.994778],[-6.910146,62.037909],[-6.959828,62.049994],[-6.969146,62.056952],[-6.982167,62.094062],[-7.016021,62.111884],[-7.126943,62.127143],[-7.137115,62.136664],[-7.136138,62.146145],[-7.120229,62.150092],[-7.128814,62.162055],[-7.174957,62.150092],[-7.222646,62.1706]]],[[[-7.055084,62.290351],[-7.085561,62.314602],[-7.077138,62.321601],[-7.044586,62.314602],[-6.98644,62.332261],[-6.928456,62.335028],[-6.887522,62.321438],[-6.883209,62.311225],[-6.934641,62.290351],[-6.931304,62.260077],[-6.907338,62.239447],[-6.917388,62.269924],[-6.912953,62.281806],[-6.813832,62.293402],[-6.798085,62.280463],[-6.824778,62.273017],[-6.737131,62.262112],[-6.763499,62.242418],[-6.783844,62.239447],[-6.783844,62.232001],[-6.742909,62.218411],[-6.705637,62.225816],[-6.65095,62.216254],[-6.60554,62.19599],[-6.703969,62.195136],[-6.722401,62.191067],[-6.722401,62.184231],[-6.600087,62.153388],[-6.564117,62.13581],[-6.667795,62.150092],[-6.667795,62.143256],[-6.645823,62.141018],[-6.59203,62.116604],[-6.59203,62.109117],[-6.630686,62.109076],[-6.660959,62.094875],[-6.647328,62.088609],[-6.659535,62.072943],[-6.654775,62.061347],[-6.691396,62.073391],[-6.709381,62.143256],[-6.75357,62.181708],[-6.783844,62.19481],[-6.811838,62.191067],[-6.733022,62.14883],[-6.722401,62.122748],[-6.740305,62.101142],[-6.780873,62.116685],[-6.859609,62.163764],[-6.900258,62.162543],[-6.957509,62.189602],[-7.020334,62.239691],[-7.055084,62.290351]]],[[[-6.537465,62.191067],[-6.582753,62.228583],[-6.57136,62.251776],[-6.55309,62.247016],[-6.54601,62.271959],[-6.551096,62.307766],[-6.571685,62.346747],[-6.566518,62.361274],[-6.537465,62.369818],[-6.544911,62.362372],[-6.516916,62.323065],[-6.482737,62.295111],[-6.386586,62.259955],[-6.405263,62.244615],[-6.436513,62.242377],[-6.489654,62.259955],[-6.49649,62.252509],[-6.439849,62.22012],[-6.420766,62.225816],[-6.407094,62.191067],[-6.463857,62.185533],[-6.522125,62.22956],[-6.537465,62.225816],[-6.503163,62.174058],[-6.529368,62.180609],[-6.537465,62.191067]]],[[[-7.559722,62.107733],[-7.536733,62.098782],[-7.640696,62.09984],[-7.644154,62.107001],[-7.588043,62.115139],[-7.559722,62.107733]]],[[[-6.321441,62.308092],[-6.291331,62.307685],[-6.275787,62.30272],[-6.276845,62.296291],[-6.306142,62.281806],[-6.29955,62.271552],[-6.304107,62.256008],[-6.35851,62.245836],[-6.384348,62.280219],[-6.321441,62.308092]]],[[[-6.585276,62.289862],[-6.579701,62.266791],[-6.594472,62.261176],[-6.636383,62.280097],[-6.673329,62.321031],[-6.684316,62.344062],[-6.680816,62.366116],[-6.664296,62.374213],[-6.648061,62.366523],[-6.585276,62.289862]]],[[[-6.654693,62.264065],[-6.63915,62.24901],[-6.6433,62.238511],[-6.676666,62.2414],[-6.691029,62.252265],[-6.708974,62.283271],[-6.769439,62.336005],[-6.789052,62.375312],[-6.765289,62.373725],[-6.654693,62.264065]]],[[[-6.409169,62.324042],[-6.394602,62.309882],[-6.405914,62.294257],[-6.455719,62.295966],[-6.509267,62.329779],[-6.533437,62.371894],[-6.555898,62.390937],[-6.542551,62.398912],[-6.504628,62.3876],[-6.449127,62.317816],[-6.409169,62.324042]]]]}}