{"type":"Feature","properties":{"iso3":"FSM","name":"Federated States of Micronesia","continent":"Oceania"},"geometry":{"type":"MultiPolygon","coordinates":[[[[163.026052,5.340888],[163.04656,5.323554],[163.019216,5.272691],[162.916189,5.286933],[162.91212,5.304185],[162.924083,5.321031],[162.990733,5.374823],[163.01059,5.379706],[163.026052,5.368842],[163.026052,5.340888]]],[[[158.290782,6.937974],[158.304698,6.924384],[158.324962,6.931138],[158.338227,6.879096],[158.338634,6.869086],[158.304454,6.865953],[158.317556,6.824693],[158.313813,6.808661],[158.292491,6.795071],[158.244477,6.788275],[158.225352,6.789496],[158.215099,6.800767],[158.193533,6.793443],[158.180186,6.802476],[158.160492,6.828111],[158.166026,6.85399],[158.153087,6.875922],[158.160492,6.890204],[158.132986,6.891913],[158.125824,6.907416],[158.132498,6.941352],[158.141856,6.950995],[158.178233,6.956041],[158.180919,6.978949],[158.208263,6.965277],[158.218028,6.970852],[158.276622,6.965277],[158.303477,6.942857],[158.290782,6.937974]]],[[[151.588634,7.383612],[151.622406,7.39175],[151.636404,7.387112],[151.650157,7.369371],[151.644542,7.336086],[151.634288,7.327867],[151.622732,7.342678],[151.607432,7.336127],[151.568126,7.342678],[151.622732,7.365912],[151.618419,7.375881],[151.596934,7.372748],[151.588634,7.383612]]],[[[151.87672,7.458726],[151.917654,7.458726],[151.890636,7.435248],[151.856212,7.424628],[151.863048,7.465562],[151.87672,7.458726]]],[[[138.192393,9.575873],[138.181651,9.558743],[138.184255,9.544379],[138.19752,9.539008],[138.219005,9.54857],[138.202403,9.521186],[138.177989,9.50019],[138.164073,9.504828],[138.156586,9.525784],[138.143809,9.521308],[138.068126,9.412055],[138.063813,9.436103],[138.073009,9.470404],[138.089122,9.501166],[138.112966,9.52147],[138.126231,9.565985],[138.141124,9.574368],[138.150076,9.541164],[138.164399,9.575873],[138.193614,9.588853],[138.192393,9.575873]]],[[[154.808116,0.927802],[154.812836,0.918158],[154.801768,0.918199],[154.798595,0.924465],[154.808116,0.927802]]],[[[154.714854,0.965562],[154.732921,0.967027],[154.726817,0.960639],[154.714854,0.965562]]],[[[154.793142,0.972113],[154.792328,0.962877],[154.778168,0.968817],[154.784353,0.975491],[154.793142,0.972113]]],[[[154.879242,3.751939],[154.87672,3.767971],[154.891856,3.778795],[154.894298,3.762844],[154.879242,3.751939]]],[[[154.789317,3.791815],[154.791759,3.776557],[154.773692,3.766262],[154.771251,3.78148],[154.789317,3.791815]]],[[[153.667735,5.286038],[153.685313,5.309719],[153.710704,5.314602],[153.707693,5.305365],[153.667735,5.286038]]],[[[157.161876,5.773871],[157.158946,5.777899],[157.16391,5.778713],[157.161876,5.773871]]],[[[149.315766,6.696926],[149.323497,6.719468],[149.324718,6.707099],[149.315766,6.696926]]],[[[157.936371,6.71719],[157.93922,6.727362],[157.948904,6.731676],[157.936371,6.71719]]],[[[151.856781,7.316596],[151.854503,7.370063],[151.865571,7.350653],[151.856781,7.316596]]],[[[149.18572,7.371649],[149.180837,7.381171],[149.187266,7.381578],[149.18572,7.371649]]],[[[150.407481,8.575507],[150.404633,8.586005],[150.409353,8.584662],[150.407481,8.575507]]],[[[149.668712,8.574693],[149.667817,8.604234],[149.675548,8.616441],[149.687266,8.616034],[149.668712,8.574693]]],[[[150.118175,8.976304],[150.124278,8.9855],[150.132986,8.98607],[150.118175,8.976304]]],[[[140.514171,9.767808],[140.531261,9.77558],[140.524669,9.764472],[140.515391,9.761176],[140.514171,9.767808]]]]}}