{"type":"Feature","properties":{"iso3":"GAB","name":"Gabon","continent":"Africa"},"geometry":{"type":"MultiPolygon","coordinates":[[[[13.294568,2.161058],[13.281132,2.044967],[13.206615,1.985151],[13.178193,1.907792],[13.191008,1.828727],[13.129617,1.592462],[13.238447,1.41963],[13.242995,1.328861],[13.169201,1.258581],[13.195453,1.221115],[13.2709,1.226024],[13.37694,1.294444],[13.543442,1.283489],[13.642247,1.357386],[13.741104,1.371313],[13.779758,1.426271],[13.98357,1.41684],[14.070696,1.375111],[14.14449,1.391622],[14.258178,1.319662],[14.28288,1.130113],[14.346442,1.087118],[14.400805,0.970329],[14.46044,0.921237],[14.447624,0.81623],[14.33838,0.693912],[14.328768,0.621204],[14.231823,0.542552],[14.075967,0.539451],[14.045582,0.497283],[14.059121,0.435272],[13.945226,0.350419],[13.871225,0.196423],[13.894893,0.043668],[13.931377,0.011628],[13.921145,-0.052967],[13.831228,-0.205413],[13.877426,-0.2605],[13.957318,-0.242],[14.095398,-0.276623],[14.138289,-0.336361],[14.159683,-0.455113],[14.320603,-0.444468],[14.454239,-0.539553],[14.489999,-0.600944],[14.44597,-0.775714],[14.457133,-0.856122],[14.39202,-1.008981],[14.465814,-1.224369],[14.426333,-1.331029],[14.487725,-1.40937],[14.438426,-1.502595],[14.462714,-1.5336],[14.37383,-1.604087],[14.402976,-1.670853],[14.441113,-1.679638],[14.406696,-1.735552],[14.404526,-1.893062],[14.237611,-1.991143],[14.238438,-2.120231],[14.151208,-2.259034],[14.234407,-2.354946],[14.14418,-2.390189],[14.090023,-2.498606],[13.8458,-2.466567],[13.906158,-2.359803],[13.746375,-2.09832],[13.60783,-2.311124],[13.458899,-2.441039],[13.025024,-2.338202],[12.969006,-2.372412],[13.008177,-2.276501],[12.95433,-2.190925],[12.921361,-2.194852],[12.885084,-2.147413],[12.804572,-1.919107],[12.632386,-1.825159],[12.523452,-1.863296],[12.499474,-1.917866],[12.426921,-1.88407],[12.440046,-2.045817],[12.499784,-2.09553],[12.45927,-2.329934],[12.062292,-2.414994],[11.948707,-2.335205],[11.739521,-2.413753],[11.655908,-2.345644],[11.568368,-2.329107],[11.57612,-2.485067],[11.624386,-2.632758],[11.530748,-2.866749],[11.636788,-2.833263],[11.778381,-3.005655],[11.693219,-3.074695],[11.696113,-3.179598],[11.944366,-3.303208],[11.954908,-3.335454],[11.884835,-3.413279],[11.824994,-3.571202],[11.905505,-3.643549],[11.838326,-3.710935],[11.687638,-3.69874],[11.569815,-3.54495],[11.482585,-3.509294],[11.413959,-3.587635],[11.212524,-3.697293],[11.114016,-3.936856],[11.021289,-3.857816],[10.96378,-3.691489],[10.646434,-3.451914],[10.635427,-3.313653],[10.346979,-3.044488],[9.902438,-2.700431],[9.703461,-2.443048],[9.794932,-2.500909],[9.840099,-2.45672],[9.850271,-2.528416],[10.011974,-2.63242],[10.067393,-2.581801],[10.147472,-2.577569],[10.137462,-2.527439],[10.080333,-2.491469],[10.094005,-2.560317],[10.015798,-2.50628],[9.970063,-2.554295],[9.955333,-2.515232],[9.978282,-2.500746],[9.86964,-2.409356],[9.751964,-2.470392],[9.723969,-2.379083],[9.70281,-2.374119],[9.703461,-2.435724],[9.597016,-2.352227],[9.573253,-2.207208],[9.271251,-1.876642],[9.333751,-1.903985],[9.374522,-1.888279],[9.374522,-1.925714],[9.467296,-1.922459],[9.456554,-1.977634],[9.543224,-2.070896],[9.563731,-2.031671],[9.503673,-1.96852],[9.485199,-1.870375],[9.441173,-1.851983],[9.436046,-1.888279],[9.367198,-1.82586],[9.340505,-1.888279],[9.314952,-1.842869],[9.246918,-1.815525],[9.220063,-1.579767],[9.016612,-1.315851],[8.983572,-1.23089],[9.15919,-1.468032],[9.264659,-1.535333],[9.274181,-1.659601],[9.402029,-1.614435],[9.415538,-1.669692],[9.415538,-1.607599],[9.559581,-1.607599],[9.490571,-1.559828],[9.456554,-1.470473],[9.37908,-1.562921],[9.292166,-1.5735],[9.250336,-1.497735],[9.354503,-1.350518],[9.326182,-1.278009],[9.322927,-1.370864],[9.262055,-1.366143],[9.18572,-1.410577],[9.15919,-1.346368],[9.03004,-1.299086],[9.033051,-1.193455],[8.997244,-1.155206],[9.003917,-1.212335],[8.966645,-1.104425],[8.867442,-0.976983],[8.922699,-1.003676],[8.930675,-0.965102],[8.894705,-0.978123],[8.847016,-0.922459],[8.695567,-0.586602],[8.709158,-0.565606],[8.772309,-0.633233],[8.844412,-0.800226],[8.860688,-0.733657],[8.914561,-0.72324],[8.88795,-0.681573],[8.929047,-0.68727],[9.004649,-0.805108],[8.99822,-0.860447],[9.065196,-0.698989],[9.087901,-0.668715],[9.114513,-0.681573],[9.100841,-0.599705],[9.306488,-0.332289],[9.350352,0.006781],[9.298839,0.283515],[9.345388,0.35578],[9.378673,0.307563],[9.35727,0.190131],[9.424327,0.208197],[9.494965,0.098456],[9.504242,0.187974],[9.553722,0.174058],[9.580251,0.121772],[9.643565,0.153022],[9.662608,0.126532],[9.712413,0.134833],[9.812185,0.023505],[9.761241,0.109198],[9.778087,0.134467],[9.819591,0.119086],[9.896332,0.183498],[10.025645,0.187974],[9.93629,0.215969],[9.747244,0.196438],[9.566417,0.318305],[9.505056,0.292304],[9.398692,0.488715],[9.305675,0.544257],[9.308849,0.614],[9.539073,0.681464],[9.559255,0.621527],[9.464041,0.598863],[9.516449,0.604153],[9.545909,0.564765],[9.573253,0.598863],[9.582774,0.481635],[9.607921,0.469184],[9.628429,0.6883],[9.578949,1.004381],[9.745128,1.059719],[9.792247,0.968817],[9.834107,0.994927],[9.944075,0.924854],[9.975494,0.982577],[10.029444,1.003506],[11.336341,0.999165],[11.322078,2.16576],[11.349777,2.291489],[11.671204,2.320996],[11.75275,2.281877],[12.202645,2.279552],[12.312096,2.312935],[12.749898,2.236712],[12.79558,2.258778],[13.04094,2.244205],[13.163827,2.283169],[13.284646,2.242242],[13.294568,2.161058]]],[[[8.997244,-0.627618],[9.041515,-0.669854],[9.038748,-0.743748],[8.992931,-0.761163],[8.949474,-0.661716],[8.996104,-0.603692],[8.997244,-0.627618]]],[[[9.376786,0.809986],[9.384086,0.809629],[9.379643,0.806971],[9.376786,0.809986]]]]}}