{"type":"Feature","properties":{"iso3":"GBR","name":"United Kingdom","continent":"Europe"},"geometry":{"type":"MultiPolygon","coordinates":[[[[-7.2471,55.069322],[-7.256744,55.050686],[-7.065053,55.04385],[-6.946685,55.19538],[-6.754506,55.177802],[-6.475942,55.248684],[-6.100982,55.212388],[-6.047231,55.178534],[-6.062082,55.074123],[-5.975738,55.053046],[-5.988271,54.988674],[-5.886342,54.940823],[-5.800526,54.820746],[-5.721832,54.783759],[-5.797597,54.84455],[-5.751617,54.856879],[-5.689849,54.793118],[-5.729319,54.728502],[-5.890736,54.672309],[-5.910959,54.619452],[-5.747955,54.680406],[-5.574696,54.68008],[-5.433461,54.466254],[-5.502024,54.339667],[-5.527659,54.345282],[-5.57844,54.413804],[-5.548695,54.442816],[-5.558013,54.511908],[-5.701975,54.577704],[-5.715647,54.536689],[-5.636952,54.52204],[-5.66393,54.510199],[-5.6256,54.461005],[-5.653554,54.388983],[-5.697906,54.362291],[-5.579701,54.383694],[-5.550526,54.365424],[-5.553049,54.298529],[-5.639963,54.235053],[-5.86205,54.230536],[-5.911977,54.091295],[-6.079579,54.034573],[-6.185862,54.092678],[-6.28465,54.105226],[-6.368108,54.097319],[-6.426761,54.05541],[-6.630624,54.041819],[-6.666436,54.114786],[-6.634552,54.150133],[-6.648448,54.173665],[-6.787824,54.202998],[-6.882185,54.277257],[-6.856657,54.292811],[-6.885957,54.345624],[-7.017836,54.413166],[-7.185629,54.336943],[-7.206661,54.304903],[-7.14589,54.25209],[-7.153331,54.224237],[-7.249088,54.197416],[-7.280042,54.126155],[-7.325982,54.154577],[-7.310324,54.114683],[-7.439619,54.146929],[-7.609014,54.139901],[-7.70477,54.200362],[-7.856441,54.211421],[-7.894966,54.293586],[-7.96801,54.31219],[-8.173837,54.461741],[-8.072448,54.487063],[-8.002194,54.543442],[-7.887137,54.532125],[-7.707871,54.604162],[-7.846416,54.631447],[-7.929666,54.696714],[-7.845899,54.731027],[-7.770503,54.706016],[-7.556149,54.738365],[-7.549741,54.779603],[-7.45507,54.863009],[-7.405254,55.003569],[-7.2471,55.069322]]],[[[-2.665354,51.617255],[-2.858713,51.546129],[-2.984039,51.558539],[-3.166656,51.456],[-3.184804,51.39761],[-3.539174,51.398505],[-3.73762,51.490871],[-3.782216,51.576646],[-3.854888,51.623847],[-3.98998,51.606513],[-3.974599,51.562974],[-4.213368,51.53913],[-4.293324,51.559149],[-4.289703,51.601549],[-4.241282,51.63935],[-4.139027,51.63231],[-4.070221,51.662299],[-4.315297,51.677476],[-4.379262,51.726874],[-4.310455,51.73371],[-4.371816,51.754788],[-4.358022,51.773139],[-4.426503,51.775295],[-4.460764,51.735785],[-4.639231,51.733181],[-4.71231,51.650092],[-4.848297,51.646308],[-4.941029,51.596503],[-5.021596,51.616034],[-5.11974,51.678412],[-4.844838,51.713813],[-4.879018,51.76203],[-4.82433,51.788275],[-4.921295,51.780015],[-4.892079,51.739407],[-4.910553,51.718207],[-5.149241,51.718085],[-5.182851,51.689276],[-5.230133,51.730048],[-5.11026,51.77851],[-5.117502,51.843695],[-5.300689,51.882025],[-5.298329,51.910956],[-5.088043,51.97602],[-5.070221,52.026353],[-4.84142,52.014838],[-4.720286,52.113349],[-4.673451,52.097398],[-4.675689,52.126939],[-4.637522,52.138495],[-4.513824,52.135688],[-4.197133,52.279283],[-4.096262,52.387885],[-4.062571,52.520982],[-3.947336,52.549262],[-4.053131,52.542426],[-4.114125,52.588609],[-4.105946,52.65351],[-4.001088,52.724107],[-4.144358,52.802802],[-4.129872,52.889228],[-4.064036,52.919176],[-4.406606,52.892524],[-4.481679,52.850898],[-4.509185,52.791449],[-4.606516,52.81509],[-4.762847,52.789496],[-4.596059,52.928412],[-4.358225,53.028469],[-4.343861,53.10106],[-4.177968,53.217597],[-3.831288,53.28913],[-3.870758,53.325629],[-3.840566,53.332831],[-3.602203,53.288886],[-3.330312,53.351793],[-3.095123,53.239325],[-3.084543,53.275458],[-3.185211,53.377265],[-3.058258,53.43476],[-2.8815,53.288398],[-2.775502,53.299872],[-2.708608,53.346137],[-2.810333,53.321723],[-2.924957,53.350002],[-3.099477,53.572008],[-2.911448,53.725043],[-3.049184,53.769517],[-3.05663,53.906155],[-2.896108,53.94774],[-2.834462,53.999823],[-2.916086,54.026557],[-2.795969,54.12519],[-2.850942,54.184638],[-2.802805,54.248725],[-2.939198,54.155097],[-2.984202,54.153144],[-3.049184,54.222073],[-3.05663,54.170233],[-3.144399,54.075141],[-3.231109,54.105129],[-3.248402,54.173651],[-3.215199,54.179836],[-3.207387,54.263007],[-3.232167,54.202541],[-3.306793,54.191881],[-3.394195,54.26439],[-3.413442,54.342963],[-3.634185,54.512885],[-3.516021,54.712877],[-3.439565,54.761461],[-3.387929,54.883368],[-3.254628,54.899807],[-3.317291,54.920315],[-3.291493,54.936672],[-3.122792,54.932685],[-3.03954,54.94717],[-3.090728,54.954413],[-3.040924,54.97248],[-3.570546,54.995429],[-3.581695,54.883612],[-3.844309,54.866278],[-3.8579,54.84455],[-3.823842,54.824693],[-4.011708,54.768215],[-4.042877,54.769477],[-4.063588,54.82685],[-4.083852,54.776923],[-4.122955,54.773017],[-4.209137,54.826239],[-4.200551,54.866278],[-4.270741,54.839423],[-4.402903,54.907294],[-4.417226,54.845933],[-4.347646,54.807318],[-4.371897,54.682278],[-4.496734,54.700629],[-4.596669,54.775295],[-4.85912,54.866278],[-4.925771,54.837388],[-4.95287,54.788967],[-4.867258,54.690131],[-4.85912,54.632961],[-4.944081,54.652777],[-4.959055,54.720933],[-5.157135,54.879096],[-5.177602,54.990546],[-5.115142,55.031562],[-5.047515,54.920315],[-4.995595,54.920315],[-5.049672,55.048977],[-5.007802,55.141181],[-4.882395,55.218573],[-4.758778,55.402289],[-4.650502,55.448472],[-4.617787,55.495592],[-4.687164,55.544135],[-4.666249,55.562201],[-4.692738,55.605211],[-4.808746,55.633612],[-4.920522,55.708564],[-4.861073,55.756741],[-4.886464,55.919664],[-4.785797,55.956977],[-4.481679,55.92829],[-4.673451,55.961859],[-4.783437,56.017646],[-4.82372,56.073676],[-4.837554,56.050605],[-4.77892,55.992092],[-4.851552,55.988023],[-4.866851,56.058336],[-4.755442,56.188381],[-4.873118,56.112006],[-4.893544,56.174262],[-4.920522,56.167914],[-4.88622,56.08039],[-4.89802,56.001166],[-4.954701,55.996568],[-4.913686,55.961859],[-4.99474,55.869818],[-5.026357,55.873725],[-5.123606,56.009914],[-5.078236,55.910956],[-5.171539,55.935533],[-5.180653,55.969306],[-5.242055,55.89289],[-5.20108,55.831488],[-5.296702,55.852688],[-5.334828,55.896674],[-5.338287,55.996568],[-5.204498,56.119452],[-5.104604,56.151516],[-4.920522,56.277777],[-5.064565,56.229315],[-5.368642,56.009426],[-5.43456,56.01496],[-5.454986,55.955634],[-5.317779,55.783026],[-5.433461,55.721015],[-5.490102,55.644599],[-5.46109,55.578803],[-5.584625,55.427436],[-5.525054,55.358629],[-5.616282,55.306586],[-5.782867,55.313544],[-5.791412,55.398627],[-5.725413,55.437567],[-5.721832,55.564602],[-5.669423,55.660712],[-5.454986,55.845771],[-5.61262,55.763861],[-5.669016,55.837836],[-5.586293,55.923326],[-5.671702,55.886908],[-5.694163,55.904975],[-5.57665,56.032538],[-5.6256,56.024482],[-5.690785,55.937649],[-5.696441,55.982164],[-5.564605,56.09809],[-5.539459,56.086859],[-5.558705,56.130805],[-5.509633,56.188381],[-5.605784,56.13996],[-5.547231,56.24018],[-5.49474,56.253119],[-5.598053,56.258612],[-5.572581,56.32807],[-5.44811,56.359687],[-5.537506,56.359687],[-5.457021,56.440863],[-5.20873,56.446845],[-5.064565,56.565131],[-5.190175,56.468655],[-5.378082,56.45897],[-5.410553,56.503648],[-5.454986,56.46955],[-5.433339,56.523627],[-5.356679,56.51968],[-5.242055,56.565131],[-5.41393,56.544664],[-5.286773,56.674994],[-5.012807,56.709296],[-5.238271,56.71662],[-5.11974,56.818427],[-5.667388,56.498481],[-5.758209,56.529975],[-5.755198,56.554023],[-5.85436,56.550482],[-6.008168,56.642279],[-5.839182,56.626532],[-5.855621,56.644721],[-5.759999,56.700751],[-5.543691,56.695461],[-5.749989,56.714545],[-5.896799,56.675116],[-6.186594,56.681098],[-6.234486,56.728583],[-5.979888,56.781562],[-5.860911,56.7508],[-5.886342,56.784857],[-5.756663,56.784857],[-5.850819,56.81802],[-5.66039,56.872992],[-5.744496,56.854153],[-5.783925,56.859931],[-5.735504,56.89411],[-5.921132,56.89411],[-5.852203,56.900336],[-5.880116,56.922024],[-5.831695,56.997138],[-5.755238,57.026557],[-5.6256,56.97663],[-5.523264,56.997138],[-5.670318,57.003974],[-5.701975,57.044908],[-5.780181,57.051744],[-5.776194,57.075832],[-5.645863,57.129462],[-5.558258,57.100409],[-5.407216,57.106391],[-5.547719,57.110093],[-5.668446,57.14765],[-5.673818,57.174994],[-5.644154,57.233222],[-5.578236,57.26675],[-5.407216,57.229926],[-5.492502,57.270901],[-5.440663,57.311835],[-5.57844,57.277655],[-5.72057,57.284491],[-5.701975,57.332343],[-5.501291,57.370998],[-5.44811,57.421698],[-5.563466,57.363105],[-5.639963,57.373928],[-5.617747,57.410102],[-5.707183,57.359768],[-5.807769,57.354926],[-5.821889,57.435533],[-5.870513,57.48078],[-5.839182,57.579291],[-5.650868,57.512641],[-5.516835,57.534857],[-5.588368,57.561021],[-5.66039,57.544582],[-5.811187,57.655097],[-5.75357,57.707465],[-5.681956,57.698717],[-5.803822,57.743842],[-5.807362,57.84394],[-5.751129,57.873358],[-5.674062,57.8605],[-5.667958,57.806952],[-5.622141,57.770209],[-5.587026,57.81859],[-5.637563,57.86636],[-5.620758,57.920885],[-5.550526,57.915107],[-5.556264,57.887763],[-5.48705,57.855862],[-5.454986,57.853705],[-5.414906,57.908149],[-5.221588,57.846869],[-5.392893,57.935614],[-5.347157,57.936713],[-5.07079,57.833197],[-5.221588,57.921332],[-5.195546,57.947659],[-5.216705,57.965888],[-5.427642,58.031195],[-5.41393,58.052314],[-5.447011,58.084377],[-5.276763,58.086412],[-5.297353,58.134833],[-5.255523,58.143785],[-5.392893,58.244696],[-5.375885,58.264228],[-5.276967,58.243394],[-5.129384,58.271389],[-4.933583,58.223049],[-4.982004,58.250922],[-4.940338,58.259467],[-5.096425,58.27676],[-5.17101,58.346666],[-5.143056,58.414781],[-5.016184,58.388129],[-5.098053,58.414781],[-5.10554,58.43651],[-5.05012,58.453803],[-4.995595,58.43651],[-5.10554,58.487372],[-5.103668,58.514228],[-5.016184,58.559394],[-4.988189,58.628323],[-4.835927,58.605048],[-4.818105,58.524644],[-4.776519,58.607164],[-4.660024,58.555854],[-4.751536,58.461615],[-4.612131,58.524644],[-4.58495,58.574164],[-4.426503,58.546373],[-4.495351,58.44953],[-4.343861,58.538886],[-4.234731,58.524644],[-4.029042,58.59516],[-3.895741,58.565619],[-3.597564,58.627143],[-3.364084,58.600816],[-3.350819,58.620836],[-3.412913,58.655585],[-3.358266,58.675482],[-3.34789,58.652045],[-3.019114,58.640326],[-3.129262,58.512641],[-3.053334,58.465766],[-3.129791,58.369289],[-3.22053,58.305569],[-3.384999,58.264594],[-3.515289,58.168402],[-3.809193,58.051907],[-3.88561,57.9914],[-4.023061,57.943061],[-4.084381,57.964179],[-3.988271,57.908271],[-4.009348,57.867906],[-4.298899,57.862779],[-4.392405,57.908271],[-4.307729,57.851467],[-4.039906,57.818183],[-3.98351,57.842353],[-3.914784,57.807685],[-3.786041,57.865424],[-3.782216,57.839423],[-3.975209,57.703274],[-4.008046,57.693793],[-4.042958,57.737291],[-4.294789,57.680162],[-4.420318,57.592963],[-4.201894,57.674994],[-4.004506,57.675971],[-4.187489,57.558824],[-4.262603,57.552069],[-4.207997,57.538398],[-4.248931,57.497463],[-4.173899,57.497463],[-4.034983,57.556871],[-4.083852,57.586127],[-3.837473,57.592963],[-3.625152,57.661933],[-3.637685,57.646226],[-3.590972,57.641425],[-3.611562,57.668118],[-3.535756,57.661933],[-3.482818,57.714016],[-3.421254,57.721381],[-3.034901,57.668606],[-2.932688,57.699612],[-2.432851,57.668118],[-1.99767,57.702826],[-1.829457,57.613471],[-1.759348,57.473578],[-1.980295,57.319281],[-2.068512,57.174628],[-2.065256,57.100531],[-2.18692,56.984687],[-2.219879,56.872626],[-2.426422,56.751288],[-2.514556,56.591498],[-2.727651,56.46955],[-3.055653,56.452135],[-3.238189,56.367743],[-3.323476,56.365912],[-3.230621,56.356024],[-2.884999,56.457994],[-2.814768,56.440416],[-2.804758,56.349107],[-2.576812,56.283922],[-2.648346,56.228705],[-2.806142,56.188381],[-2.964345,56.205634],[-3.127553,56.12287],[-3.178375,56.058092],[-3.342681,56.027167],[-3.671498,56.050849],[-3.837473,56.112616],[-3.656239,56.010199],[-3.096832,55.951972],[-2.939931,55.969306],[-2.802805,56.064846],[-2.635121,56.058051],[-2.578359,56.008002],[-2.14684,55.917304],[-1.816477,55.63288],[-1.768625,55.641913],[-1.74767,55.619208],[-1.767974,55.619208],[-1.630849,55.58511],[-1.522125,55.167467],[-1.370229,54.975531],[-1.275461,54.74844],[-1.172231,54.701239],[-1.192616,54.693793],[-1.164703,54.652777],[-1.206288,54.632961],[-1.152659,54.613186],[-1.138051,54.646552],[-0.562978,54.477362],[-0.447743,54.373196],[-0.370473,54.247707],[-0.277089,54.21776],[-0.233876,54.160468],[-0.07551,54.112128],[-0.16393,54.083401],[-0.219472,54.022773],[-0.151112,53.899319],[0.133474,53.642646],[0.136892,53.577135],[0.10963,53.562893],[0.120209,53.618109],[0.056163,53.641262],[-0.11262,53.637519],[-0.260365,53.735419],[-0.544423,53.709459],[-0.637034,53.732001],[-0.726471,53.700629],[-0.619537,53.711859],[-0.529937,53.67768],[-0.279368,53.707099],[-0.188629,53.620429],[0.219493,53.419501],[0.356212,53.188544],[0.335785,53.093451],[0.008556,52.898627],[0.09254,52.892524],[0.246755,52.795722],[0.325531,52.803168],[0.369884,52.773017],[0.485688,52.933498],[0.569591,52.969306],[1.013927,52.96015],[0.991547,52.967475],[0.966075,52.967597],[1.274669,52.929185],[1.644216,52.775824],[1.747244,52.62519],[1.771169,52.485907],[1.630544,52.270453],[1.582286,52.081488],[1.466807,52.048],[1.332286,51.94009],[1.157888,52.02851],[1.274425,51.960883],[1.069102,51.953437],[1.281993,51.946601],[1.199555,51.877672],[1.288259,51.860582],[1.219249,51.811835],[1.06544,51.775295],[0.98878,51.830268],[0.835704,51.73371],[0.698578,51.720038],[0.760753,51.692694],[0.945567,51.73371],[0.92449,51.588324],[0.771251,51.528266],[0.456065,51.505561],[0.384532,51.453111],[0.534841,51.491685],[0.694835,51.477037],[0.721934,51.456285],[0.569102,51.399604],[0.712901,51.384223],[0.700369,51.409817],[0.72641,51.419013],[0.753429,51.371527],[0.977224,51.349189],[1.448253,51.38288],[1.425141,51.332953],[1.382986,51.329779],[1.413097,51.221747],[1.384451,51.151679],[1.066905,51.064399],[0.97641,50.994452],[0.979828,50.918158],[0.762462,50.930894],[0.624197,50.85871],[0.370291,50.818793],[0.271007,50.747382],[-0.269683,50.831285],[-0.758209,50.777086],[-0.789947,50.730048],[-0.904124,50.771877],[-0.863637,50.802069],[-0.929799,50.839993],[-1.020741,50.843655],[-1.082753,50.780951],[-1.08731,50.849799],[-1.14981,50.846666],[-1.138051,50.780951],[-1.44929,50.912055],[-1.317291,50.800238],[-1.524729,50.761054],[-1.5572,50.723293],[-1.693023,50.739936],[-1.929107,50.695868],[-2.033844,50.737128],[-2.082672,50.698961],[-2.035634,50.713324],[-1.932485,50.644436],[-1.983713,50.596625],[-2.398346,50.645575],[-2.460072,50.606513],[-2.431223,50.570258],[-2.459543,50.527655],[-2.48351,50.590399],[-2.692942,50.692816],[-2.864817,50.733791],[-3.259836,50.674547],[-3.368153,50.617092],[-3.464426,50.678534],[-3.442047,50.623521],[-3.505971,50.520819],[-3.487457,50.459418],[-3.556264,50.432115],[-3.487457,50.411566],[-3.526926,50.349799],[-3.621571,50.321926],[-3.645619,50.22602],[-3.826324,50.234198],[-3.949941,50.318996],[-4.054351,50.30036],[-4.108266,50.336615],[-4.10497,50.370673],[-4.165517,50.37637],[-4.183909,50.431708],[-4.159535,50.459418],[-4.200551,50.459418],[-4.234731,50.4383],[-4.228505,50.397366],[-4.289906,50.397366],[-4.193756,50.376899],[-4.228505,50.370673],[-4.180043,50.356391],[-4.193756,50.322252],[-4.337717,50.370673],[-4.495351,50.328437],[-4.687164,50.342719],[-4.752105,50.330308],[-4.788442,50.242092],[-4.947255,50.199368],[-5.002431,50.14411],[-5.020375,50.191962],[-5.052968,50.195787],[-5.043446,50.14411],[-5.125966,50.09634],[-5.07079,50.089504],[-5.069488,50.042182],[-5.187734,49.964504],[-5.240387,49.988349],[-5.304351,50.080268],[-5.458119,50.125881],[-5.540924,50.113471],[-5.563466,50.059638],[-5.705149,50.052314],[-5.684641,50.161526],[-5.510976,50.219468],[-5.437978,50.194322],[-5.314849,50.253607],[-5.163564,50.347235],[-5.153676,50.399482],[-5.050282,50.428697],[-5.015614,50.538031],[-4.954823,50.561225],[-4.933583,50.52025],[-4.860951,50.519192],[-4.921864,50.554877],[-4.920522,50.582953],[-4.79247,50.595201],[-4.751943,50.670071],[-4.657297,50.711127],[-4.55012,50.809556],[-4.526438,51.01496],[-4.317291,51.000678],[-4.218495,51.072455],[-4.249013,51.14289],[-4.209828,51.172838],[-4.228505,51.186225],[-3.787099,51.246772],[-3.384999,51.186225],[-3.029286,51.220404],[-3.035553,51.199286],[-2.999582,51.233222],[-3.02184,51.322821],[-2.992177,51.321926],[-2.97468,51.384223],[-2.71642,51.499579],[-2.568959,51.644965],[-2.380767,51.761908],[-2.398061,51.782131],[-2.482086,51.742865],[-2.665354,51.617255]]],[[[-1.082753,50.713324],[-1.062327,50.692816],[-1.156361,50.650784],[-1.164133,50.619371],[-1.279205,50.582506],[-1.485951,50.669338],[-1.569488,50.658026],[-1.318512,50.772162],[-1.082753,50.713324]]],[[[-0.959869,50.808254],[-0.945627,50.791815],[-1.020741,50.788398],[-0.972564,50.829779],[-0.959869,50.808254]]],[[[0.911469,51.412177],[0.936371,51.371039],[0.79477,51.370551],[0.733897,51.412177],[0.766938,51.447943],[0.911469,51.412177]]],[[[-4.57726,53.27204],[-4.558461,53.252753],[-4.581899,53.242011],[-4.693959,53.302802],[-4.618886,53.317084],[-4.57726,53.27204]]],[[[-4.098134,53.309638],[-4.042877,53.302802],[-4.222035,53.182115],[-4.412831,53.132066],[-4.39037,53.173082],[-4.481679,53.179877],[-4.571034,53.275458],[-4.571034,53.392768],[-4.343495,53.420071],[-4.286529,53.40644],[-4.207428,53.3039],[-4.098134,53.309638]]],[[[-6.236399,55.311347],[-6.184804,55.30683],[-6.17809,55.280585],[-6.194814,55.262926],[-6.21109,55.295315],[-6.283559,55.297065],[-6.236399,55.311347]]],[[[-5.07079,55.509345],[-5.117787,55.439765],[-5.304677,55.462144],[-5.345693,55.482652],[-5.392893,55.646552],[-5.271352,55.723822],[-5.198313,55.704332],[-5.094228,55.566555],[-5.111562,55.519924],[-5.07079,55.509345]]],[[[-5.029775,55.749498],[-5.028798,55.723334],[-5.11559,55.784369],[-5.200795,55.895494],[-5.1669,55.920844],[-5.080922,55.879584],[-5.02892,55.819281],[-5.029775,55.749498]]],[[[-6.030385,55.729071],[-6.023508,55.688137],[-6.082428,55.652086],[-6.202545,55.630561],[-6.287343,55.578437],[-6.319244,55.628241],[-6.243235,55.660142],[-6.316762,55.715074],[-6.249989,55.776842],[-6.328725,55.783149],[-6.450307,55.682563],[-6.490956,55.67182],[-6.502431,55.697659],[-6.448638,55.776842],[-6.482167,55.790473],[-6.445221,55.848822],[-6.33137,55.88996],[-6.310902,55.818427],[-6.296986,55.867174],[-6.149078,55.935207],[-6.123687,55.935492],[-6.099233,55.801011],[-6.030385,55.729071]]],[[[-6.205719,56.102729],[-6.13801,56.124701],[-6.194325,56.035305],[-6.269887,56.037543],[-6.205719,56.102729]]],[[[-5.797597,56.112616],[-5.715932,56.153144],[-5.687978,56.124091],[-5.955393,55.820054],[-5.987538,55.794623],[-6.062408,55.809475],[-6.075185,55.915961],[-5.886342,55.976142],[-5.995595,55.986029],[-5.924428,56.055976],[-5.797597,56.112616]]],[[[-5.688303,56.202053],[-5.673655,56.178941],[-5.749135,56.161078],[-5.688303,56.202053]]],[[[-5.633127,56.263495],[-5.61262,56.263495],[-5.637441,56.189276],[-5.666656,56.22248],[-5.633127,56.263495]]],[[[-5.633127,56.318752],[-5.59789,56.321845],[-5.621693,56.276068],[-5.633127,56.318752]]],[[[-5.557973,56.414293],[-5.502756,56.421129],[-5.584625,56.38703],[-5.557973,56.414293]]],[[[-6.160024,56.46955],[-6.263661,56.483222],[-6.215321,56.503648],[-6.160024,56.46955]]],[[[-6.818593,56.537828],[-6.729237,56.530341],[-6.902455,56.443752],[-6.979726,56.487128],[-6.818593,56.537828]]],[[[-5.688303,56.434801],[-5.670318,56.393785],[-5.74234,56.414293],[-5.783925,56.373358],[-5.712229,56.380194],[-5.71996,56.352769],[-5.808705,56.318915],[-5.880116,56.325588],[-5.853505,56.343695],[-5.87267,56.357733],[-6.054555,56.294501],[-6.279286,56.264106],[-6.360178,56.303616],[-6.335439,56.34455],[-6.247222,56.311672],[-6.249989,56.332343],[-6.020823,56.382025],[-6.178944,56.359931],[-6.198842,56.390326],[-6.126536,56.448432],[-6.02184,56.464097],[-6.016672,56.503648],[-6.127431,56.474351],[-6.174306,56.516669],[-6.32433,56.544257],[-6.290395,56.571967],[-6.319203,56.59398],[-6.190745,56.644924],[-6.058258,56.640204],[-5.952138,56.524156],[-5.804189,56.517768],[-5.653554,56.427965],[-5.688303,56.434801]]],[[[-6.459218,56.678127],[-6.616322,56.575181],[-6.696278,56.575995],[-6.559234,56.665269],[-6.459218,56.678127]]],[[[-7.393951,57.010199],[-7.381988,56.987535],[-7.445302,56.947089],[-7.556223,56.962633],[-7.449208,57.05858],[-7.393951,57.010199]]],[[[-6.325185,57.05858],[-6.243235,57.010199],[-6.276031,56.953111],[-6.341868,56.941881],[-6.436757,56.998481],[-6.325185,57.05858]]],[[[-6.606353,57.051744],[-6.537465,57.072821],[-6.501536,57.063666],[-6.606353,57.051744]]],[[[-5.958608,57.284491],[-6.007802,57.303616],[-5.98998,57.325507],[-5.929351,57.307196],[-5.958608,57.284491]]],[[[-7.243764,57.325507],[-7.195424,57.305609],[-7.249582,57.244696],[-7.353017,57.242906],[-7.271067,57.216254],[-7.259918,57.159817],[-7.346181,57.154771],[-7.215891,57.120063],[-7.353017,57.099555],[-7.455434,57.236721],[-7.389719,57.311957],[-7.428131,57.3876],[-7.362864,57.407864],[-7.222646,57.346584],[-7.393951,57.380764],[-7.243764,57.325507]]],[[[-7.26358,57.4831],[-7.202138,57.462633],[-7.2447,57.449652],[-7.204091,57.425442],[-7.292063,57.404731],[-7.396148,57.433987],[-7.369618,57.489325],[-7.26358,57.4831]]],[[[-6.064443,57.346584],[-6.069081,57.436103],[-6.016672,57.462633],[-6.009836,57.511054],[-5.987213,57.502875],[-6.017649,57.418199],[-6.006459,57.339789],[-6.064443,57.346584]]],[[[-5.968251,57.51789],[-5.98998,57.532945],[-5.961903,57.577297],[-5.968251,57.51789]]],[[[-7.129384,57.652899],[-7.065053,57.633979],[-7.113108,57.60871],[-7.215891,57.641425],[-7.106028,57.592963],[-7.1256,57.571112],[-7.312082,57.552069],[-7.137685,57.545111],[-7.157541,57.511054],[-7.287465,57.508775],[-7.346181,57.544582],[-7.318267,57.552069],[-7.54483,57.592963],[-7.476552,57.661933],[-7.387115,57.661933],[-7.414418,57.648261],[-7.396555,57.635321],[-7.312082,57.688544],[-7.332509,57.661933],[-7.256744,57.648261],[-7.277252,57.661933],[-7.181711,57.688544],[-7.189117,57.655097],[-7.129384,57.652899]]],[[[-6.564117,57.346584],[-6.695953,57.364407],[-6.783844,57.456448],[-6.722401,57.456448],[-6.745229,57.475898],[-6.715932,57.514228],[-6.606801,57.443915],[-6.630605,57.501776],[-6.564117,57.503607],[-6.654775,57.552069],[-6.619781,57.607164],[-6.564117,57.558824],[-6.420766,57.51789],[-6.443471,57.488105],[-6.400258,57.520982],[-6.310902,57.462633],[-6.389556,57.552476],[-6.359853,57.592963],[-6.41454,57.633979],[-6.317494,57.697699],[-6.153879,57.589545],[-6.136057,57.46133],[-6.178863,57.403551],[-6.117909,57.397773],[-6.135243,57.357367],[-6.105702,57.339667],[-6.140289,57.312445],[-6.0454,57.308295],[-6.078114,57.284491],[-5.88622,57.242092],[-5.767893,57.277411],[-5.647369,57.264635],[-5.690907,57.189521],[-5.782053,57.166246],[-5.918853,57.050116],[-6.006744,57.028388],[-6.030385,57.044908],[-5.961822,57.142157],[-5.845367,57.181464],[-5.986236,57.174628],[-6.044016,57.229926],[-6.034088,57.181098],[-6.088612,57.127427],[-6.120961,57.193793],[-6.174306,57.201972],[-6.15982,57.187649],[-6.318349,57.161038],[-6.276723,57.195746],[-6.345611,57.1883],[-6.379791,57.22309],[-6.359486,57.229438],[-6.482167,57.311835],[-6.416412,57.33454],[-6.310902,57.298163],[-6.450551,57.346503],[-6.52123,57.407864],[-6.571523,57.3876],[-6.564117,57.346584]]],[[[-7.222646,57.709662],[-7.161204,57.737006],[-7.170033,57.715155],[-7.222646,57.709662]]],[[[-8.621002,57.833197],[-8.569081,57.823676],[-8.590891,57.804755],[-8.621002,57.833197]]],[[[-7.044586,57.902086],[-7.079335,57.880316],[-7.015533,57.921942],[-6.99706,57.893541],[-7.044586,57.902086]]],[[[-6.87328,58.216783],[-6.880035,58.257758],[-6.801991,58.226142],[-6.87328,58.216783]]],[[[-6.955149,57.743842],[-7.124623,57.830756],[-7.079335,57.81269],[-6.914174,57.867906],[-6.962554,57.887844],[-6.832265,57.902086],[-6.839101,57.928778],[-7.112782,57.99022],[-6.934641,58.052314],[-7.058217,58.038642],[-7.024037,58.079576],[-7.067494,58.06273],[-7.104888,58.094794],[-7.112782,58.175849],[-7.017201,58.189439],[-7.058217,58.213365],[-7.030873,58.244696],[-6.907338,58.216783],[-6.937082,58.211005],[-6.872874,58.116889],[-6.873931,58.179389],[-6.709381,58.189439],[-6.807729,58.285468],[-6.715566,58.339667],[-6.557485,58.368557],[-6.267405,58.51203],[-6.223053,58.499213],[-6.169993,58.429999],[-6.215321,58.367621],[-6.16747,58.353949],[-6.366119,58.23725],[-6.270904,58.216498],[-6.161122,58.258979],[-6.163319,58.233588],[-6.233551,58.184272],[-6.384674,58.209703],[-6.390696,58.133531],[-6.603179,58.085639],[-6.420644,58.105658],[-6.366119,58.058539],[-6.424469,58.003892],[-6.539296,58.017279],[-6.455474,57.969713],[-6.559804,57.915229],[-6.634999,57.951606],[-6.620025,57.928168],[-6.651194,57.923814],[-6.709381,58.003892],[-6.665842,58.044664],[-6.59203,58.052314],[-6.688303,58.058539],[-6.764027,58.003892],[-6.660959,57.880316],[-6.777659,57.902086],[-6.797353,57.887397],[-6.740712,57.845038],[-6.755605,57.826483],[-6.852691,57.833197],[-6.839101,57.81269],[-6.955149,57.743842]]],[[[-2.952952,58.839993],[-2.883656,58.83218],[-2.939931,58.730699],[-3.015696,58.812649],[-2.967193,58.812649],[-3.035553,58.820054],[-2.952952,58.839993]]],[[[-3.248402,58.792182],[-3.131703,58.806464],[-3.299306,58.77912],[-3.378774,58.874091],[-3.42219,58.87401],[-3.418446,58.904486],[-3.349355,58.928534],[-3.246083,58.896186],[-3.172719,58.826321],[-3.248402,58.792182]]],[[[-2.727651,58.970893],[-2.706532,58.93244],[-2.839345,58.882636],[-2.993764,58.958808],[-3.202789,58.91592],[-3.238515,58.950914],[-3.220448,59.024115],[-3.267486,59.014716],[-3.289418,58.956692],[-3.323232,58.95718],[-3.366689,59.016099],[-3.323801,59.127427],[-3.182729,59.147162],[-2.994496,59.07331],[-3.113922,59.008205],[-3.09732,58.994045],[-2.790151,58.992255],[-2.826243,58.937405],[-2.794789,58.926093],[-2.727651,58.970893]]],[[[-2.541982,59.120551],[-2.51476,59.093817],[-2.59732,59.07331],[-2.634429,59.108629],[-2.670725,59.081529],[-2.617787,59.127997],[-2.655181,59.151272],[-2.62564,59.162421],[-2.541982,59.120551]]],[[[-3.004791,59.127997],[-3.091786,59.142808],[-3.102406,59.190253],[-2.952952,59.183173],[-3.004791,59.127997]]],[[[-2.830068,59.196845],[-2.785959,59.196845],[-2.787913,59.247219],[-2.727651,59.224189],[-2.781361,59.141425],[-2.830068,59.196845]]],[[[-2.446401,59.293036],[-2.404897,59.316352],[-2.395497,59.295071],[-2.681874,59.196357],[-2.687978,59.217963],[-2.591135,59.278754],[-2.611562,59.293036],[-2.522125,59.306708],[-2.576812,59.271308],[-2.551625,59.270819],[-2.446401,59.293036]]],[[[-3.049184,59.31977],[-3.073354,59.32453],[-2.946685,59.353909],[-2.980946,59.325914],[-2.830068,59.258287],[-2.885365,59.230414],[-2.920318,59.283149],[-3.008168,59.271308],[-3.049184,59.31977]]],[[[-1.651275,59.528957],[-1.583119,59.559963],[-1.59675,59.53205],[-1.651275,59.528957]]],[[[-0.784576,60.615139],[-0.758372,60.607571],[-0.785227,60.576321],[-0.883534,60.570543],[-0.938832,60.621324],[-0.784576,60.615139]]],[[[-1.097035,60.41649],[-1.034413,60.450629],[-1.119252,60.391303],[-1.068267,60.396308],[-1.079172,60.355048],[-1.157216,60.350775],[-1.075307,60.32095],[-1.137115,60.279771],[-1.095855,60.275092],[-1.164703,60.25141],[-1.182932,60.271918],[-1.21939,60.238349],[-1.179026,60.232164],[-1.199452,60.20425],[-1.157867,60.224677],[-1.187245,60.19123],[-1.123769,60.155829],[-1.199452,60.129096],[-1.174428,60.060289],[-1.21939,60.03974],[-1.192616,59.997504],[-1.247304,59.997504],[-1.260976,59.8664],[-1.375966,59.908637],[-1.262603,60.115058],[-1.288889,60.155829],[-1.269358,60.185452],[-1.294057,60.179674],[-1.277699,60.233222],[-1.329254,60.20425],[-1.411122,60.258857],[-1.356557,60.196763],[-1.398101,60.211086],[-1.437734,60.163398],[-1.494293,60.170111],[-1.517934,60.184516],[-1.4794,60.214016],[-1.503651,60.243354],[-1.536773,60.210924],[-1.615142,60.215725],[-1.690175,60.285142],[-1.481435,60.316474],[-1.46642,60.278713],[-1.42276,60.326117],[-1.364003,60.2862],[-1.33609,60.306627],[-1.364003,60.32095],[-1.343495,60.347602],[-1.260365,60.355048],[-1.343495,60.395982],[-1.384429,60.382392],[-1.384429,60.41649],[-1.439036,60.430813],[-1.445953,60.492255],[-1.480092,60.457465],[-1.480092,60.485419],[-1.606679,60.477973],[-1.526967,60.55683],[-1.455068,60.508857],[-1.384429,60.512112],[-1.463857,60.537421],[-1.457997,60.56387],[-1.394154,60.614325],[-1.315541,60.594062],[-1.301422,60.643052],[-1.301422,60.564846],[-1.33609,60.525784],[-1.31192,60.470893],[-1.370229,60.409654],[-1.233632,60.443793],[-1.280995,60.461859],[-1.271962,60.48428],[-1.260365,60.464911],[-1.19929,60.492377],[-1.157867,60.443793],[-1.224192,60.411444],[-1.151723,60.388577],[-1.097035,60.41649]]],[[[-0.987172,60.697699],[-0.993479,60.635647],[-1.062327,60.662909],[-1.013905,60.615139],[-1.069163,60.615139],[-1.020741,60.594062],[-1.010732,60.565497],[-1.04186,60.553046],[-1.020741,60.51553],[-1.153879,60.508368],[-1.180043,60.624661],[-1.138051,60.649237],[-1.103424,60.615139],[-1.113922,60.714748],[-0.993479,60.731147],[-0.987172,60.697699]]],[[[-0.904693,60.684027],[-0.966176,60.690172],[-0.938832,60.79267],[-0.870107,60.845201],[-0.856191,60.823961],[-0.891021,60.79267],[-0.831776,60.840277],[-0.763905,60.825426],[-0.842763,60.724026],[-0.846181,60.675971],[-0.904693,60.684027]]],[[[-6.298818,49.935492],[-6.284169,49.922756],[-6.309153,49.913642],[-6.298818,49.935492]]],[[[-6.333648,49.959703],[-6.332509,49.941718],[-6.348053,49.956204],[-6.333648,49.959703]]],[[[-4.665435,51.18358],[-4.678538,51.16706],[-4.676422,51.193101],[-4.665435,51.18358]]],[[[-13.690419,57.596259],[-13.690419,57.597805],[-13.687652,57.596869],[-13.690419,57.596259]]],[[[-1.315094,60.093736],[-1.333567,60.043606],[-1.333119,60.073676],[-1.353871,60.051215],[-1.346995,60.10456],[-1.315094,60.093736]]],[[[-2.053212,60.155504],[-2.048085,60.129218],[-2.105377,60.132066],[-2.053212,60.155504]]],[[[-1.062856,60.164049],[-1.073801,60.107733],[-1.112945,60.116278],[-1.13565,60.167955],[-1.062856,60.164049]]],[[[-0.918772,60.386176],[-1.015207,60.334133],[-1.006418,60.368964],[-0.918772,60.386176]]]]}}