{"type":"Feature","properties":{"iso3":"GEO","name":"Georgia","continent":"Asia"},"geometry":{"type":"Polygon","coordinates":[[[41.551195,42.406457],[41.500173,42.64057],[41.482758,42.680243],[41.457367,42.71369],[41.424327,42.739895],[41.383474,42.75727],[41.307302,42.767646],[41.225352,42.802314],[41.205333,42.804429],[41.160899,42.790839],[41.150238,42.79564],[41.104747,42.846584],[41.081798,42.908149],[41.023123,42.989976],[40.958995,42.976386],[40.933767,42.982733],[40.903982,43.016343],[40.886567,43.024156],[40.855968,43.063056],[40.783051,43.084174],[40.682872,43.094306],[40.591807,43.085639],[40.520193,43.127265],[40.478526,43.134019],[40.398285,43.16234],[40.361176,43.165473],[40.335134,43.140855],[40.301036,43.188666],[40.268403,43.216376],[40.272797,43.247992],[40.257172,43.277411],[40.219086,43.319037],[40.133474,43.34162],[40.086925,43.370307],[39.985976,43.38899],[40.059187,43.535199],[40.096705,43.562639],[40.164297,43.575843],[40.23313,43.575765],[40.479834,43.508741],[40.519624,43.505175],[40.615536,43.535845],[40.651916,43.538971],[40.740179,43.495279],[40.874952,43.455643],[41.011791,43.375416],[41.042487,43.369834],[41.146666,43.37986],[41.180773,43.374692],[41.278751,43.333196],[41.350271,43.34335],[41.380657,43.334772],[41.41311,43.291286],[41.506128,43.25979],[41.577544,43.215296],[41.687408,43.220205],[41.82032,43.20124],[41.919332,43.205943],[42.011316,43.181861],[42.043356,43.18057],[42.075292,43.185272],[42.185363,43.225476],[42.354551,43.236018],[42.422867,43.22899],[42.534902,43.165067],[42.615207,43.13698],[42.673602,43.165893],[42.75153,43.176952],[42.829768,43.168761],[42.914827,43.121943],[43.000093,43.098662],[42.989758,43.05267],[42.998853,43.042206],[43.048256,43.016962],[43.155588,42.942393],[43.194345,42.926761],[43.517426,42.86046],[43.586259,42.835629],[43.662843,42.779845],[43.755964,42.763127],[43.800613,42.746462],[43.811775,42.717265],[43.788727,42.69308],[43.725682,42.6544],[43.722581,42.624867],[43.751107,42.598745],[43.885362,42.579211],[43.939726,42.55221],[43.973212,42.563992],[44.011504,42.600321],[44.055068,42.615307],[44.150824,42.618666],[44.197384,42.629105],[44.230147,42.653806],[44.272005,42.702382],[44.360682,42.703751],[44.508115,42.750286],[44.600977,42.749123],[44.679422,42.723672],[44.73637,42.677551],[44.761071,42.619234],[44.773473,42.609648],[44.833676,42.734085],[44.85936,42.75951],[44.902974,42.753076],[45.029788,42.688765],[45.066995,42.688455],[45.122961,42.702278],[45.155362,42.693261],[45.282693,42.586394],[45.32269,42.530118],[45.35597,42.519964],[45.47927,42.54234],[45.620657,42.530377],[45.698688,42.507587],[45.739616,42.471466],[45.736412,42.447539],[45.62138,42.224478],[45.631405,42.201172],[45.811601,42.115492],[45.881364,42.102031],[45.895162,42.091876],[45.923481,42.039631],[45.947562,42.022914],[45.995156,42.033456],[46.02673,42.01679],[46.05846,42.02033],[46.068278,42.015318],[46.074996,41.993484],[46.099181,41.985061],[46.224341,41.993484],[46.294156,41.93863],[46.406552,41.91504],[46.430892,41.890442],[46.371309,41.805692],[46.328314,41.766418],[46.297773,41.750812],[46.208321,41.755514],[46.188994,41.740141],[46.179537,41.705879],[46.180002,41.655159],[46.192767,41.610174],[46.21969,41.593302],[46.24005,41.615497],[46.2539,41.615911],[46.278394,41.578393],[46.29674,41.510387],[46.313948,41.493747],[46.366244,41.466566],[46.398284,41.458711],[46.445103,41.425948],[46.591554,41.372928],[46.607367,41.345023],[46.62287,41.349622],[46.657079,41.320631],[46.694803,41.269782],[46.674649,41.261669],[46.669482,41.229888],[46.64447,41.207977],[46.621113,41.114597],[46.601786,41.09403],[46.543546,41.097027],[46.522411,41.087002],[46.496779,41.044834],[46.47492,41.044111],[46.41265,41.09186],[46.332345,41.115889],[46.228578,41.195419],[46.135406,41.199915],[46.041613,41.165447],[45.969163,41.168289],[45.820748,41.208804],[45.709747,41.267715],[45.685872,41.29624],[45.708093,41.317117],[45.7453,41.329158],[45.74406,41.335359],[45.65559,41.352361],[45.511826,41.39458],[45.464801,41.430185],[45.396794,41.423261],[45.314422,41.451631],[45.281711,41.452923],[45.24962,41.4445],[44.955168,41.262702],[44.820706,41.273347],[44.801275,41.258516],[44.809543,41.244409],[44.847061,41.230766],[44.857706,41.219346],[44.847784,41.208907],[44.674926,41.208494],[44.612863,41.223118],[44.591366,41.21578],[44.551523,41.177023],[44.531008,41.181467],[44.516641,41.20684],[44.45494,41.180485],[44.410601,41.18772],[44.344921,41.213248],[44.308489,41.193817],[44.284976,41.190872],[44.218107,41.221568],[44.180331,41.229939],[44.168446,41.223583],[44.160074,41.1979],[44.124727,41.178056],[44.061269,41.184154],[43.955849,41.160486],[43.863245,41.158988],[43.820353,41.1455],[43.754156,41.108241],[43.566622,41.124054],[43.524144,41.122814],[43.450453,41.104676],[43.440428,41.106588],[43.451797,41.132581],[43.437586,41.156197],[43.383274,41.187203],[43.322606,41.19206],[43.230622,41.17263],[43.216204,41.180537],[43.192226,41.224978],[43.172021,41.242342],[43.103136,41.248801],[43.157241,41.26973],[43.18401,41.298979],[43.12391,41.312932],[43.002057,41.382695],[42.957719,41.437007],[42.926093,41.459073],[42.888989,41.469976],[42.868008,41.500207],[42.829974,41.472508],[42.766516,41.504341],[42.806823,41.542995],[42.819949,41.572347],[42.800932,41.57922],[42.660992,41.588264],[42.585235,41.578755],[42.565184,41.567128],[42.554952,41.550333],[42.535522,41.493489],[42.483846,41.442174],[42.463072,41.431839],[42.437854,41.430857],[42.262464,41.482327],[42.18929,41.481707],[42.158387,41.499897],[42.111775,41.493489],[42.069401,41.498605],[42.019585,41.485066],[41.947961,41.505581],[41.894011,41.485531],[41.862695,41.451786],[41.812982,41.421814],[41.760996,41.453543],[41.706839,41.463155],[41.703945,41.485117],[41.694953,41.489097],[41.669839,41.480467],[41.627257,41.480518],[41.520763,41.514228],[41.615733,41.632636],[41.676036,41.662177],[41.739757,41.749905],[41.743907,41.778632],[41.773936,41.821601],[41.773936,41.906928],[41.755707,42.006415],[41.684906,42.098944],[41.664073,42.113959],[41.649181,42.212226],[41.596202,42.349433],[41.55836,42.382799],[41.551195,42.406457]]]}}