{"type":"Feature","properties":{"iso3":"GGY","name":"Guernsey","continent":"Europe"},"geometry":{"type":"MultiPolygon","coordinates":[[[[-2.58023,49.493598],[-2.518219,49.51553],[-2.501698,49.506659],[-2.522125,49.479967],[-2.534088,49.436225],[-2.541982,49.430894],[-2.669342,49.430894],[-2.670766,49.438788],[-2.651845,49.445217],[-2.656565,49.459418],[-2.624623,49.465725],[-2.58023,49.493598]]],[[[-2.363759,49.446845],[-2.3544,49.427802],[-2.373525,49.411566],[-2.375478,49.435452],[-2.363759,49.446845]]],[[[-2.174469,49.731391],[-2.170318,49.723212],[-2.187896,49.710639],[-2.216868,49.70303],[-2.226226,49.707831],[-2.218495,49.718695],[-2.174469,49.731391]]],[[[-2.453684,49.481879],[-2.447825,49.483954],[-2.445221,49.474595],[-2.453359,49.462144],[-2.453684,49.481879]]]]}}