{"type":"Feature","properties":{"iso3":"GHA","name":"Ghana","continent":"Africa"},"geometry":{"type":"Polygon","coordinates":[[[-0.166109,11.13498],[-0.121745,11.092192],[-0.051077,11.098264],[0.016205,11.062582],[-0.0302,10.823785],[-0.07521,10.773659],[-0.088129,10.633486],[0.037341,10.57318],[0.176971,10.397687],[0.273244,10.406601],[0.308797,10.297099],[0.396596,10.283224],[0.353601,10.115508],[0.398146,10.052127],[0.355125,10.01262],[0.370189,9.947017],[0.32244,9.760671],[0.34988,9.680651],[0.336651,9.650833],[0.275285,9.685586],[0.260971,9.657164],[0.277636,9.606986],[0.377734,9.589416],[0.230197,9.575747],[0.243116,9.518697],[0.301924,9.507457],[0.228053,9.473971],[0.23136,9.418961],[0.411659,9.492238],[0.483515,9.470017],[0.482792,9.429839],[0.531368,9.401107],[0.504393,9.203109],[0.43127,9.02759],[0.505633,8.866333],[0.462483,8.788302],[0.372669,8.783754],[0.368084,8.761481],[0.443518,8.606866],[0.616324,8.488759],[0.712752,8.29797],[0.573846,8.203945],[0.609502,7.718961],[0.570538,7.683925],[0.567748,7.625737],[0.503049,7.574681],[0.495608,7.504298],[0.516692,7.411022],[0.548214,7.383271],[0.623042,7.397896],[0.645676,7.323585],[0.59772,7.158892],[0.59803,7.0312],[0.57891,6.996783],[0.494574,6.973116],[0.54625,6.914773],[0.516071,6.841806],[0.625832,6.727756],[0.63224,6.62399],[0.727428,6.571435],[0.711718,6.513376],[0.745721,6.4409],[0.873879,6.340131],[0.983536,6.324602],[1.025188,6.222334],[1.093401,6.160917],[1.176186,6.151512],[1.185395,6.100491],[1.048025,5.992662],[0.954845,5.791083],[0.723481,5.755439],[0.364919,5.78148],[0.25172,5.759101],[-0.062734,5.585842],[-0.371571,5.492743],[-0.507436,5.368842],[-0.637766,5.340888],[-0.784495,5.22427],[-0.99706,5.216783],[-1.233632,5.100735],[-1.601471,5.026679],[-1.757436,4.875434],[-1.912099,4.820868],[-1.967275,4.758124],[-2.090566,4.737128],[-2.252756,4.879136],[-2.356597,4.919623],[-3.103749,5.087714],[-3.115305,5.107815],[-3.087636,5.114976],[-2.937245,5.091295],[-2.901235,5.133612],[-2.780885,5.150875],[-2.75701,5.179866],[-2.789567,5.346858],[-2.732671,5.355721],[-2.734428,5.391145],[-2.793442,5.608134],[-2.877494,5.636815],[-2.969504,5.621441],[-2.964801,5.709782],[-3.029759,5.704252],[-3.022524,5.854502],[-3.139364,6.219286],[-3.183599,6.263908],[-3.262509,6.617142],[-3.210419,6.715999],[-3.241684,6.810903],[-3.109599,7.046393],[-3.045933,7.071249],[-2.972811,7.214961],[-2.989529,7.258938],[-2.941521,7.577161],[-2.797887,7.861278],[-2.793546,7.935951],[-2.610559,8.040001],[-2.617639,8.151493],[-2.513201,8.194023],[-2.619448,8.923617],[-2.686059,9.028261],[-2.774839,9.054978],[-2.759388,9.134818],[-2.661151,9.253907],[-2.713344,9.329923],[-2.672416,9.374028],[-2.674587,9.457486],[-2.761093,9.566239],[-2.740164,9.650833],[-2.795303,9.720002],[-2.736753,9.832579],[-2.79892,10.169613],[-2.754375,10.247954],[-2.841295,10.343272],[-2.771893,10.41182],[-2.859562,10.465616],[-2.928266,10.615219],[-2.919274,10.727202],[-2.815767,10.929153],[-2.838711,10.985119],[-1.070343,11.013902],[-0.932471,11.003102],[-0.883171,10.968634],[-0.839401,10.996462],[-0.703017,10.994159],[-0.634763,10.907966],[-0.576213,10.987754],[-0.46852,11.020129],[-0.425215,11.101468],[-0.368939,11.065217],[-0.318813,11.101365],[-0.301682,11.162937],[-0.166109,11.13498]]]}}