{"type":"Feature","properties":{"iso3":"GIN","name":"Guinea","continent":"Africa"},"geometry":{"type":"Polygon","coordinates":[[[-13.301096,9.04149],[-13.322174,9.083075],[-13.254872,9.154934],[-13.157704,9.185492],[-13.247304,9.186021],[-13.232818,9.267401],[-13.280629,9.165025],[-13.322174,9.192939],[-13.303822,9.337795],[-13.352854,9.338772],[-13.367909,9.282172],[-13.397532,9.28384],[-13.430816,9.352037],[-13.396637,9.439358],[-13.465403,9.418158],[-13.513987,9.449612],[-13.486684,9.569078],[-13.529042,9.505683],[-13.561391,9.508979],[-13.58845,9.569078],[-13.726226,9.511054],[-13.625803,9.647284],[-13.624379,9.720282],[-13.566518,9.771064],[-13.647776,9.831488],[-13.661285,9.754543],[-13.728912,9.744086],[-13.747182,9.767768],[-13.685292,9.946479],[-13.749745,9.863471],[-13.842844,9.860785],[-13.945383,9.966946],[-14.058339,10.025295],[-14.046132,10.079495],[-13.993764,10.076158],[-14.056752,10.106594],[-13.999908,10.199693],[-14.082834,10.14289],[-14.100575,10.058295],[-14.153188,10.05565],[-14.178782,10.110297],[-14.123647,10.162584],[-14.137766,10.179185],[-14.222401,10.106106],[-14.243886,10.182318],[-14.270131,10.159735],[-14.376698,10.234442],[-14.452545,10.214586],[-14.463043,10.330024],[-14.537262,10.403632],[-14.545522,10.495022],[-14.651194,10.475084],[-14.663808,10.529202],[-14.611399,10.592963],[-14.615224,10.691311],[-14.500234,10.891099],[-14.686106,10.648179],[-14.706899,10.739203],[-14.65331,10.807603],[-14.723134,10.765123],[-14.746449,10.710761],[-14.770009,10.718817],[-14.795074,10.768256],[-14.743886,10.856594],[-14.801259,10.823472],[-14.819732,10.912014],[-14.677235,11.047593],[-14.756825,10.981187],[-14.801259,10.980536],[-14.810658,11.014472],[-14.843495,10.967475],[-14.918568,11.028957],[-14.904124,10.975491],[-14.959584,10.980536],[-14.911122,10.92593],[-14.980051,10.874986],[-14.959584,10.768256],[-15.031565,10.792792],[-15.079457,10.85871],[-14.959056,11.035762],[-14.828212,11.334787],[-14.711061,11.497568],[-14.520944,11.51289],[-14.339223,11.61061],[-14.289692,11.66885],[-14.015135,11.63712],[-13.886409,11.675568],[-13.855041,11.743419],[-13.815767,11.686833],[-13.724765,11.72311],[-13.734919,12.019267],[-13.964853,12.14789],[-13.968264,12.18396],[-13.840003,12.277133],[-13.740836,12.256927],[-13.695025,12.292946],[-13.663399,12.475777],[-13.734635,12.585331],[-13.728279,12.673388],[-13.091703,12.638196],[-13.063642,12.62228],[-13.078267,12.496241],[-13.051989,12.472263],[-12.981038,12.466992],[-12.949489,12.535928],[-12.913135,12.536342],[-12.838617,12.466372],[-12.648009,12.425754],[-12.593671,12.361572],[-12.48776,12.389477],[-12.377121,12.313668],[-12.192042,12.348756],[-12.07918,12.408133],[-11.997583,12.386377],[-11.923944,12.418778],[-11.757805,12.383328],[-11.481646,12.428235],[-11.388422,12.403895],[-11.451467,12.352115],[-11.444594,12.289484],[-11.507794,12.191608],[-11.334678,12.026192],[-11.274992,11.996271],[-11.191173,12.01441],[-11.059811,12.192435],[-10.927675,12.212951],[-10.804943,12.095955],[-10.811041,12.04154],[-10.711357,11.890386],[-10.645159,11.90837],[-10.51509,12.052909],[-10.493489,12.124429],[-10.445688,12.120708],[-10.39458,12.17161],[-10.26694,12.217808],[-9.888772,12.060557],[-9.722994,12.025417],[-9.628167,12.170163],[-9.336816,12.269846],[-9.309169,12.357748],[-9.407251,12.445133],[-9.33418,12.496293],[-9.265864,12.495207],[-9.147318,12.465493],[-8.975907,12.368704],[-8.99756,12.23481],[-8.97384,12.187578],[-8.913896,12.169853],[-8.926298,12.064278],[-8.903715,12.030378],[-8.819793,12.012653],[-8.797004,11.913227],[-8.847233,11.657946],[-8.726517,11.649471],[-8.667967,11.510875],[-8.602183,11.472092],[-8.549577,11.490127],[-8.527563,11.423387],[-8.375324,11.367654],[-8.417957,11.325511],[-8.381267,11.325098],[-8.376719,11.294661],[-8.483224,11.28492],[-8.498779,11.233501],[-8.624611,11.122035],[-8.696234,10.962743],[-8.55955,10.971605],[-8.505755,11.052789],[-8.381318,11.053926],[-8.326593,11.02385],[-8.303649,10.874893],[-8.341941,10.763246],[-8.315586,10.753092],[-8.284425,10.511246],[-8.228873,10.423422],[-8.142056,10.429649],[-8.096116,10.346734],[-8.015708,10.339344],[-7.971214,10.281802],[-7.96801,10.209998],[-8.015708,10.110366],[-8.127535,10.037115],[-8.15849,9.984921],[-8.136269,9.969444],[-8.173837,9.941875],[-8.123505,9.844852],[-8.157611,9.530866],[-8.070433,9.397541],[-8.009868,9.383614],[-7.8706,9.418599],[-7.929563,9.183885],[-7.856234,9.170217],[-7.759392,9.091668],[-7.764198,9.063608],[-7.931837,8.996558],[-7.96894,8.812848],[-7.958915,8.781997],[-7.81019,8.753369],[-7.703944,8.633479],[-7.662447,8.374865],[-7.77102,8.386518],[-7.823833,8.477856],[-7.865588,8.420882],[-7.95628,8.494366],[-8.186343,8.493695],[-8.248872,8.453568],[-8.264581,8.2565],[-8.085522,8.162035],[-8.015708,8.183894],[-8.015708,8.088474],[-7.962636,8.015171],[-8.053845,8.028762],[-8.128879,7.882569],[-8.098261,7.791877],[-8.199779,7.583363],[-8.228976,7.544295],[-8.414805,7.612921],[-8.485446,7.557989],[-8.566527,7.623412],[-8.567405,7.688214],[-8.686571,7.694364],[-8.727576,7.622017],[-8.729617,7.50869],[-8.865371,7.346891],[-8.857827,7.273046],[-8.91219,7.250153],[-8.944385,7.278678],[-9.125407,7.190208],[-9.116054,7.224676],[-9.206281,7.298367],[-9.234341,7.381308],[-9.283796,7.374073],[-9.349218,7.421564],[-9.407354,7.378052],[-9.438101,7.421564],[-9.478357,7.376915],[-9.364411,7.614265],[-9.355471,7.741906],[-9.43867,7.866239],[-9.429265,8.036901],[-9.474223,8.028813],[-9.481406,8.164697],[-9.531894,8.212316],[-9.51081,8.261047],[-9.530189,8.30598],[-9.499131,8.343471],[-9.592045,8.405095],[-9.668372,8.38874],[-9.650543,8.464807],[-9.683513,8.487054],[-9.717981,8.452689],[-9.7463,8.468063],[-9.773585,8.563018],[-9.806813,8.506252],[-9.928149,8.493436],[-10.061681,8.422174],[-10.069277,8.486873],[-10.147981,8.524287],[-10.215625,8.486589],[-10.374737,8.49478],[-10.554364,8.311845],[-10.659784,8.333265],[-10.715181,8.2696],[-10.735283,8.287299],[-10.631879,8.532013],[-10.481862,8.672469],[-10.600201,8.819024],[-10.605989,9.063763],[-10.746342,9.083814],[-10.74257,9.163292],[-10.685209,9.224503],[-10.67384,9.293982],[-10.765462,9.385216],[-10.819361,9.388059],[-10.882819,9.560167],[-11.044928,9.78713],[-11.16027,9.872758],[-11.188537,9.972597],[-11.272666,9.996006],[-11.910095,9.992518],[-11.914953,9.931488],[-12.141347,9.874876],[-12.276739,9.929266],[-12.472335,9.881258],[-12.508327,9.860381],[-12.525561,9.732069],[-12.668628,9.542364],[-12.701597,9.420227],[-12.819135,9.29579],[-12.957912,9.272433],[-12.960212,9.186081],[-13.028864,9.095983],[-13.115913,9.043945],[-13.191774,9.072987],[-13.301096,9.04149]]]}}