{"type":"Feature","properties":{"iso3":"GMB","name":"Gambia","continent":"Africa"},"geometry":{"type":"Polygon","coordinates":[[[-16.753651,13.065009],[-16.786733,13.090074],[-16.775502,13.112738],[-16.796742,13.177232],[-16.795033,13.235907],[-16.802968,13.262193],[-16.820058,13.281317],[-16.824452,13.294582],[-16.81664,13.310614],[-16.829701,13.338528],[-16.809967,13.379869],[-16.762929,13.404975],[-16.678822,13.496161],[-16.671132,13.478664],[-16.652252,13.468248],[-16.616851,13.478176],[-16.590728,13.461371],[-16.585317,13.443345],[-16.612782,13.439154],[-16.624257,13.427232],[-16.608713,13.413723],[-16.59553,13.385077],[-16.590728,13.338528],[-16.545766,13.290107],[-16.495188,13.287909],[-16.419667,13.255561],[-16.413482,13.222073],[-16.419423,13.208197],[-16.39977,13.224311],[-16.377797,13.215033],[-16.415273,13.267035],[-16.439931,13.269599],[-16.439931,13.276435],[-16.384633,13.283881],[-16.374745,13.263861],[-16.257965,13.324897],[-16.230133,13.316392],[-16.22761,13.256008],[-16.209706,13.251166],[-16.151275,13.276435],[-16.151275,13.283881],[-16.172515,13.279283],[-16.19929,13.259101],[-16.210764,13.3133],[-16.227122,13.333686],[-16.216217,13.372748],[-16.176178,13.405422],[-16.161204,13.428697],[-16.135121,13.420478],[-15.994862,13.413031],[-15.941314,13.425442],[-15.891225,13.427232],[-15.874379,13.43887],[-15.849517,13.442206],[-15.764475,13.436916],[-15.706207,13.454576],[-15.668691,13.475735],[-15.644683,13.457913],[-15.620839,13.45482],[-15.589589,13.468248],[-15.565053,13.502509],[-15.543446,13.50967],[-15.500396,13.488186],[-15.470041,13.496161],[-15.45108,13.490912],[-15.418853,13.454576],[-15.340566,13.440823],[-15.304799,13.455308],[-15.294749,13.496161],[-15.302154,13.496161],[-15.304067,13.481147],[-15.321848,13.458238],[-15.351674,13.456732],[-15.415761,13.473212],[-15.46524,13.510159],[-15.490834,13.502997],[-15.556142,13.528306],[-15.575836,13.522895],[-15.610666,13.489325],[-15.672109,13.502997],[-15.769887,13.465074],[-16.09024,13.440497],[-16.141591,13.454576],[-16.178456,13.440985],[-16.27302,13.362616],[-16.289133,13.365871],[-16.289133,13.406806],[-16.30602,13.391669],[-16.302113,13.372016],[-16.316396,13.359036],[-16.302113,13.352769],[-16.321889,13.342841],[-16.390533,13.336859],[-16.52184,13.359036],[-16.503529,13.392564],[-16.503529,13.416938],[-16.519765,13.451321],[-16.554433,13.481838],[-16.548004,13.548082],[-16.561399,13.586914],[-15.518195,13.5831],[-15.502486,13.588267],[-15.496801,13.648341],[-15.467501,13.708286],[-15.394069,13.771512],[-15.347766,13.788643],[-15.304462,13.781873],[-15.267255,13.741798],[-15.245964,13.746733],[-15.17062,13.793784],[-15.097704,13.819984],[-15.016779,13.796885],[-14.915803,13.792441],[-14.879268,13.780581],[-14.831312,13.735623],[-14.802942,13.65232],[-14.74093,13.615449],[-14.667188,13.652889],[-14.626674,13.663508],[-14.585539,13.660459],[-14.542596,13.640822],[-14.50973,13.609093],[-14.486863,13.546539],[-14.470275,13.522354],[-14.365553,13.454839],[-14.329947,13.456441],[-14.271217,13.476956],[-14.196829,13.518788],[-14.139132,13.531552],[-14.092882,13.554729],[-14.034022,13.560207],[-13.988495,13.579146],[-13.94209,13.566925],[-13.901343,13.541629],[-13.8846,13.505533],[-13.84269,13.476646],[-13.818713,13.429362],[-13.822562,13.378203],[-13.851036,13.33575],[-13.900568,13.314563],[-14.056579,13.297174],[-14.116808,13.282162],[-14.201687,13.229555],[-14.284911,13.238547],[-14.368834,13.235705],[-14.43144,13.26144],[-14.470326,13.298259],[-14.529574,13.307277],[-14.592154,13.35314],[-14.661607,13.340918],[-14.698142,13.345181],[-14.731577,13.359005],[-14.790333,13.417348],[-14.829142,13.427011],[-14.862576,13.447061],[-14.949703,13.463081],[-15.015074,13.495741],[-15.13765,13.589973],[-15.160491,13.580981],[-15.203951,13.536901],[-15.217955,13.51468],[-15.227774,13.425176],[-15.248341,13.398977],[-15.277073,13.380296],[-15.342392,13.36257],[-15.379237,13.362519],[-15.519539,13.3866],[-15.596123,13.355827],[-15.6925,13.360348],[-15.818694,13.333528],[-15.8266,13.161678],[-15.833318,13.156847],[-16.673525,13.164314],[-16.708407,13.156692],[-16.748508,13.099227],[-16.753651,13.065009]]]}}