{"type":"Feature","properties":{"iso3":"GNB","name":"Guinea-Bissau","continent":"Africa"},"geometry":{"type":"MultiPolygon","coordinates":[[[[-13.728279,12.673388],[-13.734635,12.585331],[-13.725075,12.558149],[-13.67469,12.496086],[-13.660712,12.458672],[-13.684147,12.39201],[-13.68301,12.33868],[-13.695025,12.292946],[-13.71182,12.267521],[-13.740836,12.256927],[-13.808558,12.256101],[-13.795691,12.278735],[-13.812641,12.283592],[-13.840003,12.277133],[-13.883153,12.246437],[-13.943925,12.218635],[-13.965732,12.194244],[-13.972527,12.151559],[-13.918396,12.137762],[-13.869717,12.10071],[-13.842406,12.091304],[-13.807757,12.044279],[-13.734919,12.019267],[-13.723938,12.002783],[-13.734635,11.901859],[-13.719571,11.766105],[-13.729932,11.709829],[-13.770007,11.688693],[-13.815767,11.686833],[-13.820134,11.708072],[-13.842975,11.71727],[-13.846282,11.737269],[-13.870053,11.743677],[-13.870673,11.704145],[-13.886409,11.675568],[-13.903643,11.665387],[-13.923745,11.665026],[-13.945423,11.675671],[-14.015135,11.63712],[-14.058827,11.644045],[-14.118565,11.637999],[-14.161844,11.660943],[-14.289692,11.66885],[-14.339223,11.61061],[-14.520944,11.51289],[-14.562259,11.505604],[-14.64538,11.515061],[-14.686773,11.51072],[-14.711061,11.497568],[-14.828212,11.334787],[-14.863145,11.218645],[-14.959056,11.035762],[-15.020985,10.967475],[-15.085194,10.927639],[-15.09675,10.929348],[-15.093984,10.942532],[-15.069447,10.960028],[-15.048329,10.994818],[-15.083079,10.967475],[-15.114003,10.975165],[-15.099355,11.057685],[-15.082753,11.075426],[-15.065745,11.114569],[-15.042104,11.118313],[-15.042877,11.135443],[-15.000559,11.142239],[-15.020985,11.166083],[-14.999745,11.198961],[-15.000885,11.216783],[-15.014801,11.227525],[-15.038726,11.182603],[-15.083079,11.166083],[-15.081858,11.140204],[-15.102895,11.145657],[-15.110341,11.125149],[-15.124623,11.131985],[-15.130849,11.103664],[-15.154775,11.086982],[-15.206899,11.009589],[-15.230133,10.994818],[-15.258453,11.013617],[-15.271108,11.039211],[-15.230214,11.061835],[-15.214508,11.081448],[-15.206614,11.125149],[-15.217356,11.209418],[-15.206614,11.233791],[-15.229115,11.230373],[-15.234975,11.215562],[-15.225087,11.163967],[-15.23351,11.122545],[-15.259348,11.132636],[-15.294749,11.131985],[-15.318471,11.143378],[-15.358225,11.144232],[-15.373525,11.173774],[-15.409535,11.189602],[-15.410064,11.279202],[-15.426137,11.286526],[-15.418853,11.327135],[-15.38858,11.36994],[-15.377919,11.378363],[-15.351308,11.367621],[-15.329701,11.368476],[-15.2954,11.390815],[-15.268056,11.43301],[-15.343129,11.378363],[-15.358469,11.387356],[-15.361684,11.399115],[-15.35676,11.429592],[-15.331044,11.462633],[-15.353383,11.463324],[-15.366444,11.450751],[-15.384185,11.404731],[-15.42634,11.385199],[-15.449452,11.347073],[-15.494293,11.333889],[-15.502675,11.336656],[-15.507069,11.357896],[-15.489003,11.40469],[-15.453033,11.460354],[-15.476715,11.467963],[-15.4735,11.494452],[-15.456776,11.489081],[-15.43871,11.501899],[-15.432485,11.48078],[-15.420644,11.505276],[-15.412343,11.507717],[-15.405263,11.494452],[-15.397817,11.494452],[-15.412017,11.529242],[-15.405263,11.536038],[-15.35436,11.525051],[-15.348866,11.528266],[-15.35676,11.542873],[-15.349965,11.563381],[-15.335072,11.552436],[-15.30956,11.55386],[-15.30899,11.536038],[-15.289866,11.542792],[-15.290395,11.556342],[-15.316477,11.583808],[-15.336293,11.576972],[-15.336293,11.583808],[-15.294749,11.604926],[-15.27477,11.578111],[-15.258453,11.570258],[-15.240102,11.576972],[-15.252268,11.578803],[-15.253774,11.604926],[-15.277252,11.61164],[-15.281117,11.624823],[-15.240102,11.611762],[-15.226471,11.618598],[-15.233876,11.591254],[-15.209137,11.573961],[-15.192291,11.591254],[-15.212758,11.621731],[-15.194447,11.642808],[-15.186147,11.645901],[-15.148427,11.628811],[-15.143951,11.59809],[-15.124623,11.604926],[-15.128896,11.615383],[-15.115875,11.617743],[-15.089915,11.591254],[-15.143951,11.583808],[-15.124623,11.570217],[-15.128896,11.554429],[-15.12328,11.545478],[-15.114735,11.546332],[-15.105092,11.572903],[-15.023752,11.582668],[-15.007314,11.611762],[-15.039174,11.599066],[-15.079945,11.597968],[-15.083079,11.608344],[-15.062001,11.618598],[-15.062001,11.645901],[-15.082387,11.643256],[-15.089915,11.618598],[-15.103627,11.633979],[-15.124623,11.638495],[-15.102895,11.666409],[-15.110341,11.686835],[-15.117177,11.686835],[-15.130849,11.652737],[-15.171864,11.659573],[-15.161448,11.674872],[-15.135162,11.689521],[-15.130849,11.707953],[-15.148671,11.694525],[-15.171864,11.701117],[-15.175771,11.684475],[-15.192291,11.68008],[-15.18932,11.665473],[-15.206899,11.666815],[-15.212758,11.68008],[-15.228017,11.658596],[-15.236318,11.664293],[-15.231353,11.681301],[-15.206614,11.693671],[-15.219106,11.708157],[-15.212758,11.727851],[-15.186147,11.721625],[-15.199452,11.744534],[-15.226471,11.755113],[-15.241444,11.712104],[-15.240102,11.693671],[-15.259348,11.676825],[-15.274159,11.676581],[-15.26122,11.701117],[-15.272939,11.706204],[-15.275014,11.718492],[-15.268056,11.748358],[-15.284088,11.734117],[-15.288564,11.711086],[-15.322621,11.707953],[-15.281117,11.669827],[-15.285024,11.65644],[-15.293935,11.653144],[-15.30899,11.666409],[-15.322621,11.63227],[-15.336415,11.684394],[-15.349965,11.68008],[-15.343129,11.666409],[-15.35676,11.666409],[-15.352854,11.640082],[-15.336293,11.618598],[-15.343129,11.604926],[-15.391591,11.659573],[-15.394683,11.641913],[-15.371083,11.591254],[-15.391591,11.59809],[-15.396067,11.584621],[-15.40453,11.584459],[-15.412017,11.611762],[-15.418853,11.611762],[-15.42634,11.570217],[-15.43517,11.57453],[-15.43871,11.557115],[-15.449127,11.563788],[-15.468861,11.60578],[-15.428456,11.670478],[-15.42634,11.693671],[-15.476145,11.654364],[-15.493967,11.666409],[-15.487782,11.707953],[-15.508941,11.704535],[-15.538075,11.676215],[-15.551381,11.73314],[-15.517893,11.79267],[-15.463124,11.839993],[-15.457387,11.864651],[-15.43871,11.885443],[-15.418853,11.871243],[-15.410064,11.884182],[-15.397817,11.885443],[-15.312734,11.871243],[-15.189198,11.871243],[-15.161855,11.892971],[-15.13561,11.899156],[-15.089915,11.940131],[-15.066965,11.940131],[-15.062856,11.924994],[-15.087148,11.870347],[-15.086415,11.845404],[-15.069447,11.803616],[-15.002553,11.783515],[-14.982411,11.754136],[-14.935902,11.752997],[-14.925404,11.769436],[-14.951405,11.760647],[-14.996816,11.81037],[-15.046702,11.823472],[-15.070221,11.860745],[-15.042104,11.896064],[-15.023061,11.951077],[-14.993764,11.957221],[-15.000152,11.970608],[-15.017568,11.981513],[-15.04662,11.976467],[-15.079701,11.987942],[-15.140777,11.961168],[-15.192291,11.913398],[-15.215077,11.909613],[-15.313059,11.932807],[-15.35851,11.963202],[-15.404408,11.967231],[-15.456451,11.940131],[-15.497385,11.936998],[-15.528717,11.905951],[-15.555409,11.892971],[-15.593251,11.84455],[-15.676788,11.804755],[-15.744252,11.791938],[-15.830393,11.748358],[-15.809926,11.829535],[-15.791493,11.863227],[-15.734202,11.85814],[-15.734202,11.864976],[-15.753041,11.866116],[-15.776357,11.885688],[-15.795562,11.885443],[-15.811594,11.873684],[-15.817779,11.837592],[-15.850168,11.775336],[-15.860463,11.769436],[-15.880035,11.774359],[-15.877553,11.824042],[-15.894276,11.81623],[-15.905507,11.761949],[-15.958974,11.734809],[-15.969553,11.768256],[-15.931996,11.879584],[-15.921864,11.896918],[-15.897817,11.909573],[-15.891225,11.933905],[-15.865346,11.972235],[-15.821767,11.99787],[-15.781972,12.002834],[-15.767568,11.978746],[-15.72053,11.967434],[-15.706288,12.008287],[-15.713694,12.015815],[-15.742787,11.99494],[-15.761464,11.995307],[-15.781972,12.015815],[-15.837066,12.013861],[-15.863881,12.029486],[-15.871002,12.013007],[-15.889556,12.00259],[-15.932769,11.995307],[-15.925933,11.981106],[-15.932769,11.97484],[-15.946401,11.983629],[-15.944732,11.95307],[-15.967885,11.926988],[-16.055653,11.920233],[-16.124582,11.885443],[-16.158762,11.913398],[-16.183176,11.907904],[-16.243031,11.925442],[-16.27538,11.981106],[-16.323232,11.995307],[-16.338002,12.016995],[-16.355133,12.087348],[-16.357289,12.101142],[-16.319569,12.171698],[-16.282826,12.193996],[-16.277455,12.173285],[-16.261138,12.180325],[-16.268625,12.214423],[-16.257395,12.23017],[-16.148427,12.290676],[-16.104115,12.337958],[-16.06314,12.35102],[-16.107533,12.344672],[-16.155385,12.300035],[-16.22761,12.282701],[-16.271962,12.252346],[-16.305816,12.214423],[-16.324574,12.222154],[-16.316396,12.282701],[-16.350209,12.197211],[-16.365346,12.192328],[-16.384633,12.200832],[-16.391469,12.193996],[-16.405751,12.207668],[-16.415679,12.188463],[-16.443267,12.187161],[-16.457631,12.171942],[-16.466298,12.183905],[-16.50064,12.196601],[-16.508168,12.217841],[-16.53893,12.256049],[-16.567006,12.27733],[-16.576405,12.282701],[-16.603749,12.276516],[-16.624257,12.30386],[-16.672678,12.337958],[-16.721059,12.323676],[-16.728437,12.332531],[-16.705616,12.348033],[-16.668874,12.356715],[-16.533327,12.347826],[-16.462686,12.361314],[-16.412301,12.361727],[-16.22239,12.455055],[-16.181876,12.443376],[-16.090512,12.464305],[-15.973258,12.437226],[-15.893883,12.442756],[-15.711517,12.432214],[-15.677049,12.439294],[-15.424609,12.555049],[-15.249736,12.663621],[-15.195114,12.679434],[-13.728279,12.673388]]],[[[-15.946401,11.200263],[-15.911692,11.166327],[-15.894846,11.098863],[-15.877553,11.073635],[-15.894643,11.054348],[-15.963246,11.05622],[-15.978179,11.048082],[-15.981028,11.06623],[-15.925933,11.090399],[-15.930491,11.10163],[-15.941762,11.105373],[-15.951894,11.099921],[-15.953277,11.083564],[-15.966949,11.097846],[-15.953481,11.124457],[-15.957143,11.187242],[-15.946401,11.200263]]],[[[-15.973785,11.159247],[-15.974477,11.116197],[-16.017079,11.068671],[-16.03246,11.121487],[-16.022125,11.138821],[-16.044993,11.138739],[-16.056142,11.148586],[-16.056996,11.16356],[-16.034535,11.190497],[-15.981191,11.207099],[-15.973785,11.159247]]],[[[-16.048899,11.118313],[-16.06314,11.118313],[-16.053334,11.091539],[-16.062245,11.058417],[-16.055653,11.049465],[-16.076161,11.036119],[-16.131988,11.028957],[-16.131988,11.063666],[-16.151275,11.042548],[-16.145009,11.028957],[-16.165517,11.042548],[-16.188466,11.039618],[-16.213124,11.055569],[-16.248036,11.104682],[-16.20165,11.135647],[-16.186676,11.131985],[-16.206532,11.125149],[-16.199696,11.110826],[-16.179433,11.124661],[-16.169749,11.13227],[-16.161855,11.166205],[-16.138295,11.186591],[-16.117747,11.172919],[-16.115102,11.197455],[-16.099965,11.208197],[-16.079986,11.206244],[-16.05663,11.185207],[-16.069407,11.162746],[-16.067698,11.147895],[-16.048899,11.118313]]],[[[-15.857086,11.30268],[-15.831166,11.302965],[-15.825836,11.29267],[-15.836537,11.25552],[-15.837554,11.214016],[-15.846506,11.200995],[-15.871327,11.200263],[-15.896067,11.218207],[-15.896474,11.248725],[-15.880767,11.280585],[-15.857086,11.30268]]],[[[-15.658437,11.30268],[-15.658437,11.233791],[-15.663442,11.229885],[-15.678822,11.254136],[-15.693186,11.25552],[-15.685699,11.241197],[-15.698638,11.220852],[-15.706207,11.214504],[-15.711781,11.222398],[-15.726796,11.220771],[-15.720326,11.195624],[-15.726796,11.166083],[-15.740224,11.178616],[-15.754018,11.179145],[-15.763824,11.167914],[-15.773305,11.173082],[-15.781972,11.200263],[-15.759511,11.221869],[-15.775136,11.233791],[-15.754018,11.25552],[-15.754994,11.271715],[-15.736684,11.275539],[-15.723541,11.299018],[-15.699534,11.305813],[-15.658437,11.30268]]],[[[-16.172963,11.220771],[-16.251454,11.217678],[-16.278228,11.230373],[-16.281646,11.242621],[-16.261138,11.261664],[-16.262522,11.278632],[-16.248687,11.29442],[-16.206532,11.310126],[-16.197499,11.298407],[-16.158762,11.296454],[-16.154408,11.289211],[-16.151275,11.25552],[-16.172841,11.244574],[-16.172963,11.220771]]],[[[-15.665273,11.494452],[-15.651601,11.488227],[-15.658437,11.473944],[-15.652659,11.466051],[-15.679555,11.440416],[-15.693186,11.453518],[-15.704661,11.442694],[-15.735097,11.449856],[-15.740387,11.460354],[-15.735463,11.469428],[-15.713694,11.46776],[-15.693186,11.501899],[-15.685699,11.494452],[-15.665273,11.508734],[-15.660268,11.504706],[-15.665273,11.494452]]],[[[-16.254872,11.447252],[-16.302113,11.453518],[-16.25536,11.482733],[-16.236684,11.508002],[-16.165517,11.51557],[-16.164174,11.49608],[-16.213979,11.440416],[-16.254872,11.447252]]],[[[-16.275543,11.49551],[-16.309967,11.482652],[-16.339101,11.501288],[-16.391469,11.501899],[-16.419423,11.488227],[-16.411977,11.522406],[-16.421946,11.527981],[-16.38915,11.547675],[-16.309967,11.553453],[-16.282826,11.583808],[-16.267934,11.57689],[-16.248036,11.583808],[-16.241282,11.570217],[-16.244537,11.552151],[-16.275543,11.49551]]],[[[-16.022125,11.512152],[-16.001332,11.569037],[-15.95226,11.606757],[-15.939605,11.604926],[-15.930898,11.578681],[-15.922434,11.57803],[-15.918446,11.591254],[-15.906077,11.578437],[-15.909291,11.551703],[-15.89802,11.542873],[-15.91039,11.522691],[-15.913442,11.498358],[-15.89802,11.453518],[-15.965688,11.426703],[-15.973785,11.447252],[-15.981191,11.447252],[-15.987416,11.43301],[-15.997874,11.443508],[-16.035227,11.419989],[-16.083608,11.46776],[-16.022125,11.512152]]],[[[-15.4735,11.63227],[-15.487782,11.594672],[-15.471669,11.566148],[-15.521311,11.570217],[-15.542348,11.549709],[-15.569692,11.549709],[-15.569692,11.542873],[-15.548411,11.535142],[-15.552235,11.519517],[-15.566314,11.510484],[-15.575836,11.522406],[-15.621734,11.522447],[-15.630279,11.528998],[-15.632965,11.538235],[-15.607411,11.550116],[-15.585683,11.577541],[-15.562245,11.576972],[-15.560292,11.59219],[-15.528717,11.624823],[-15.51183,11.620429],[-15.4735,11.63227]]],[[[-16.165517,11.871243],[-16.148061,11.877265],[-16.079945,11.873236],[-16.022572,11.899644],[-15.994862,11.899115],[-15.987538,11.890448],[-15.989084,11.861518],[-16.014719,11.824042],[-16.029408,11.769192],[-16.041412,11.755113],[-16.051666,11.762193],[-16.083608,11.755113],[-16.121165,11.799791],[-16.154775,11.807766],[-16.165517,11.871243]]]]}}