{"type":"Feature","properties":{"iso3":"GNQ","name":"Equatorial Guinea","continent":"Africa"},"geometry":{"type":"MultiPolygon","coordinates":[[[[9.799571,2.341742],[9.81106,2.324872],[9.810853,2.264876],[9.823669,2.249011],[9.872141,2.211236],[9.990997,2.165605],[11.322078,2.16576],[11.329727,2.127442],[11.336341,0.999165],[10.029444,1.003506],[9.980765,0.997201],[9.971773,0.93984],[9.944075,0.924854],[9.908625,0.935086],[9.84961,0.989243],[9.804371,0.998354],[9.799083,1.058173],[9.847504,1.072455],[9.755138,1.105943],[9.703461,1.099799],[9.703787,1.120592],[9.717784,1.133287],[9.676443,1.105414],[9.6421,1.061591],[9.584321,1.042955],[9.551606,1.115424],[9.52475,1.133287],[9.506521,1.1376],[9.420421,1.109198],[9.396495,1.111477],[9.360199,1.146959],[9.35963,1.164862],[9.34669,1.181708],[9.374034,1.199897],[9.407563,1.28384],[9.434255,1.29975],[9.448253,1.319078],[9.464041,1.359849],[9.465343,1.414537],[9.492849,1.426581],[9.532237,1.462307],[9.56422,1.503404],[9.594249,1.57217],[9.614757,1.588039],[9.65919,1.565334],[9.685883,1.568834],[9.744477,1.600043],[9.724294,1.599026],[9.683442,1.571357],[9.665701,1.575588],[9.622325,1.616767],[9.60727,1.644436],[9.617524,1.671454],[9.71811,1.771796],[9.743012,1.815741],[9.746755,1.839911],[9.799083,1.901109],[9.809744,1.934963],[9.805837,1.976386],[9.764415,2.09634],[9.778087,2.123969],[9.786388,2.248114],[9.766938,2.310492],[9.799571,2.341742]]],[[[5.626231,-1.456231],[5.618663,-1.433038],[5.633067,-1.415785],[5.646251,-1.438409],[5.642751,-1.462823],[5.628917,-1.475681],[5.61199,-1.463637],[5.626231,-1.456231]]],[[[8.922699,3.750718],[8.959158,3.700832],[8.961599,3.660468],[8.951182,3.627427],[8.906993,3.582099],[8.896739,3.554429],[8.863536,3.515123],[8.840668,3.458075],[8.823416,3.444403],[8.815929,3.415513],[8.784923,3.395087],[8.774669,3.316555],[8.729747,3.264797],[8.686209,3.197333],[8.599864,3.238023],[8.559581,3.230618],[8.52768,3.248847],[8.469412,3.257961],[8.450206,3.272935],[8.422048,3.339301],[8.442149,3.421332],[8.473888,3.46308],[8.562755,3.456529],[8.5796,3.463324],[8.585134,3.479315],[8.573253,3.511786],[8.60141,3.529731],[8.621104,3.555854],[8.62794,3.648342],[8.667166,3.726264],[8.702403,3.760932],[8.743419,3.772406],[8.737153,3.758205],[8.76824,3.751695],[8.791759,3.758205],[8.84669,3.746405],[8.880626,3.747301],[8.908458,3.758205],[8.922699,3.750718]]]]}}