{"type":"Feature","properties":{"iso3":"GRC","name":"Greece","continent":"Europe"},"geometry":{"type":"MultiPolygon","coordinates":[[[[20.965262,40.849394],[21.112127,40.853942],[21.183027,40.870168],[21.295372,40.860866],[21.344878,40.873062],[21.381258,40.900502],[21.404926,40.908615],[21.505731,40.900903],[21.55365,40.870426],[21.581556,40.866292],[21.623724,40.894404],[21.648838,40.895799],[21.654833,40.9143],[21.685115,40.927994],[21.736998,40.919157],[21.765524,40.923911],[21.778133,40.93373],[21.783714,40.964167],[21.831256,40.99352],[21.894301,41.053826],[21.897195,41.081266],[21.909081,41.097493],[21.965098,41.124364],[22.029074,41.138575],[22.04406,41.149944],[22.103384,41.121522],[22.160332,41.151908],[22.205807,41.161416],[22.302649,41.1455],[22.306679,41.128447],[22.315051,41.124416],[22.367658,41.132374],[22.421814,41.114649],[22.571263,41.119507],[22.607333,41.135992],[22.624489,41.152631],[22.629347,41.177074],[22.64454,41.180227],[22.704898,41.139661],[22.727222,41.165809],[22.736731,41.204411],[22.740865,41.283579],[22.751303,41.315205],[22.780966,41.334894],[22.826027,41.340992],[23.115209,41.312673],[23.15717,41.316342],[23.199545,41.332982],[23.209777,41.368587],[23.224246,41.379026],[23.287705,41.398198],[23.326049,41.369311],[23.347236,41.371223],[23.414519,41.399903],[23.513014,41.397733],[23.578953,41.371998],[23.612439,41.371016],[23.672177,41.402952],[23.754446,41.400678],[23.777081,41.429049],[23.851598,41.439591],[23.894799,41.464344],[23.949887,41.437575],[23.964666,41.43835],[24.000736,41.464137],[24.034739,41.451321],[24.051999,41.463],[24.047348,41.525735],[24.076597,41.536019],[24.116491,41.533383],[24.146257,41.526769],[24.170235,41.511576],[24.181604,41.537362],[24.23328,41.561805],[24.250747,41.563459],[24.286403,41.54036],[24.286817,41.517622],[24.296119,41.515245],[24.438849,41.527699],[24.459209,41.549506],[24.510162,41.56165],[24.530936,41.547543],[24.549436,41.485428],[24.581062,41.460209],[24.579719,41.44419],[24.595842,41.429772],[24.644314,41.427653],[24.638217,41.41768],[24.699195,41.408946],[24.774436,41.348072],[24.794279,41.3474],[24.802858,41.361921],[24.803271,41.392668],[24.886367,41.400627],[25.08036,41.334067],[25.101858,41.336651],[25.116534,41.320735],[25.177098,41.293863],[25.21968,41.249731],[25.23911,41.240895],[25.285722,41.239396],[25.453464,41.280427],[25.505089,41.280582],[25.537955,41.312208],[25.551494,41.31567],[25.639758,41.311071],[25.679962,41.29717],[25.717479,41.31412],[25.763471,41.319029],[25.811013,41.341044],[25.882017,41.304043],[25.921187,41.316032],[25.959635,41.314999],[26.021853,41.341664],[26.120865,41.357787],[26.159002,41.421814],[26.175642,41.431891],[26.174299,41.445998],[26.145877,41.478038],[26.159312,41.493799],[26.163136,41.529146],[26.152491,41.547026],[26.1312,41.552659],[26.13027,41.582683],[26.115284,41.616634],[26.066915,41.635496],[26.055029,41.648751],[26.048105,41.689084],[26.060507,41.7073],[26.108359,41.727893],[26.189905,41.734689],[26.211816,41.750476],[26.226182,41.749675],[26.273931,41.714897],[26.35961,41.714897],[26.404362,41.691823],[26.476192,41.675726],[26.46441,41.648518],[26.576445,41.591003],[26.595461,41.612448],[26.602283,41.585163],[26.595461,41.537414],[26.606107,41.523048],[26.636389,41.399593],[26.631738,41.357528],[26.609724,41.330708],[26.569623,41.333602],[26.540168,41.351792],[26.489318,41.310865],[26.412113,41.265699],[26.331705,41.254124],[26.320543,41.246217],[26.336046,41.228906],[26.32106,41.187616],[26.336046,41.15258],[26.317339,41.122297],[26.339456,41.114494],[26.322403,41.088553],[26.32509,41.074083],[26.347621,41.040959],[26.374183,41.03114],[26.368085,41.007731],[26.333152,40.990729],[26.3562,40.968146],[26.349068,40.954556],[26.294395,40.92665],[26.304006,40.909029],[26.282199,40.90722],[26.260391,40.920449],[26.239204,40.885671],[26.226182,40.899313],[26.225252,40.883604],[26.211919,40.87947],[26.218637,40.871977],[26.205098,40.858386],[26.212022,40.84743],[26.158279,40.812187],[26.134508,40.767125],[26.112287,40.746971],[26.081591,40.735551],[26.043956,40.738471],[26.027354,40.796129],[26.00587,40.803941],[26.00587,40.810777],[26.053722,40.81623],[26.060557,40.820746],[26.053966,40.830959],[26.012218,40.824449],[26.00587,40.838772],[25.998383,40.838772],[26.00587,40.817043],[25.998383,40.817043],[25.951671,40.845526],[25.91863,40.852973],[25.896658,40.844916],[25.803233,40.856513],[25.732188,40.851752],[25.604503,40.876166],[25.567149,40.865424],[25.537771,40.870429],[25.486827,40.897121],[25.419688,40.906399],[25.340831,40.941718],[25.299653,40.95185],[25.266124,40.926907],[25.180675,40.942694],[25.138031,40.96011],[25.140147,40.983588],[25.169932,40.995795],[25.138438,41.010077],[25.039073,41.006049],[25.039561,40.989569],[24.99171,40.968451],[24.999034,40.949937],[24.989757,40.942125],[24.953868,40.941148],[24.8921,40.92064],[24.802013,40.853461],[24.765798,40.865424],[24.708751,40.851752],[24.662771,40.879706],[24.628673,40.858588],[24.596202,40.90119],[24.600759,40.913804],[24.575531,40.926703],[24.566661,40.951728],[24.505138,40.961615],[24.472911,40.951728],[24.464122,40.941148],[24.443126,40.948065],[24.391775,40.936469],[24.372244,40.91413],[24.312673,40.879706],[24.332367,40.86286],[24.331309,40.855048],[24.309825,40.850531],[24.305675,40.841742],[24.315278,40.832221],[24.340668,40.831285],[24.110118,40.727851],[24.07309,40.721422],[23.986339,40.732164],[23.874034,40.777655],[23.842052,40.783352],[23.809255,40.780422],[23.7317,40.751858],[23.697032,40.721422],[23.691742,40.69538],[23.700206,40.673651],[23.718028,40.658677],[23.755626,40.645657],[23.792654,40.587958],[23.84669,40.560289],[23.888845,40.563788],[23.914887,40.538886],[23.915538,40.529608],[23.907237,40.525377],[23.838227,40.518744],[23.823009,40.506985],[23.819021,40.487738],[23.826671,40.461371],[23.868175,40.41352],[23.915538,40.38935],[23.963878,40.379462],[24.002452,40.386379],[24.011567,40.401842],[23.991222,40.434068],[23.998709,40.440863],[23.991222,40.447699],[24.011404,40.449164],[24.053233,40.392483],[24.085785,40.366034],[24.108897,40.357408],[24.128429,40.36518],[24.179861,40.351508],[24.203949,40.317369],[24.233409,40.316881],[24.320649,40.227973],[24.383311,40.179145],[24.393809,40.152493],[24.361095,40.132392],[24.299978,40.128079],[24.286143,40.160549],[24.238292,40.186998],[24.168956,40.275295],[24.128429,40.290025],[24.019216,40.310492],[23.936534,40.36518],[23.833507,40.372016],[23.759613,40.349189],[23.730479,40.358954],[23.699718,40.326361],[23.693614,40.309231],[23.716319,40.255316],[23.75766,40.231676],[23.778575,40.202704],[23.867686,40.172756],[23.896739,40.171332],[23.940684,40.141547],[23.980235,40.130683],[23.991222,40.11872],[23.97755,40.090806],[24.004893,40.067206],[24.00172,40.058783],[23.984223,40.053616],[23.986827,40.042182],[23.993419,40.037543],[24.011729,40.043647],[24.019216,40.016303],[23.988048,39.989976],[23.998709,39.974758],[23.9699,39.968085],[23.97283,39.961859],[23.991222,39.961086],[23.991222,39.953599],[23.919688,39.956366],[23.922862,39.974758],[23.900645,39.971177],[23.902517,39.98843],[23.86085,40.005805],[23.8449,40.024115],[23.824067,40.021918],[23.826671,40.008857],[23.785167,40.067206],[23.793305,40.093817],[23.778331,40.10163],[23.764496,40.126166],[23.675466,40.217922],[23.641775,40.235419],[23.540294,40.244778],[23.484141,40.269599],[23.438487,40.279202],[23.398285,40.277737],[23.365001,40.261705],[23.340099,40.227973],[23.337657,40.208441],[23.363617,40.150458],[23.400645,40.143988],[23.498871,40.042304],[23.602712,39.998481],[23.670258,39.98607],[23.675955,39.961086],[23.697276,39.940497],[23.747895,39.930487],[23.703136,39.912665],[23.616466,39.923326],[23.470958,39.971625],[23.446544,39.974758],[23.360606,39.961086],[23.381602,40.002672],[23.352712,40.057074],[23.305919,40.104478],[23.324555,40.174954],[23.318614,40.210517],[23.299083,40.235419],[23.166189,40.279853],[23.148936,40.276435],[23.096934,40.306098],[23.029145,40.325751],[23.010916,40.351223],[22.963878,40.379462],[22.927501,40.388495],[22.888194,40.386298],[22.897716,40.402045],[22.889659,40.418362],[22.821625,40.502143],[22.94158,40.517157],[22.983165,40.55268],[22.976899,40.570624],[22.941742,40.587348],[22.949555,40.605414],[22.933767,40.630927],[22.910492,40.644599],[22.883067,40.647284],[22.854015,40.639472],[22.861095,40.620551],[22.850597,40.593411],[22.815115,40.572943],[22.778331,40.57807],[22.758556,40.567776],[22.742524,40.540351],[22.750336,40.522773],[22.736664,40.529608],[22.736664,40.515326],[22.723155,40.522773],[22.719005,40.510972],[22.710948,40.511623],[22.673513,40.526842],[22.657725,40.516669],[22.656261,40.504543],[22.675304,40.496161],[22.659679,40.492906],[22.650727,40.472805],[22.602875,40.481269],[22.579112,40.468207],[22.60377,40.443996],[22.606456,40.41356],[22.639985,40.383694],[22.658376,40.379462],[22.661143,40.369045],[22.620616,40.310492],[22.590831,40.23017],[22.552501,40.166571],[22.549653,40.143866],[22.572927,40.087714],[22.5713,40.054267],[22.587657,40.044908],[22.600271,40.016303],[22.667166,39.974351],[22.707856,39.961371],[22.710134,39.933783],[22.730479,39.885403],[22.801117,39.840318],[22.850271,39.790513],[22.871755,39.715806],[22.939464,39.580634],[23.004893,39.543402],[23.055919,39.527248],[23.101817,39.497382],[23.125662,39.454413],[23.210948,39.37934],[23.223806,39.358588],[23.271332,39.322943],[23.292247,39.268988],[23.342296,39.192613],[23.343761,39.179633],[23.30128,39.151353],[23.209727,39.131822],[23.230235,39.124416],[23.230235,39.11815],[23.203624,39.10456],[23.1692,39.106594],[23.115489,39.088284],[23.052013,39.097724],[23.07309,39.124416],[23.067719,39.138007],[23.081065,39.147203],[23.114106,39.159125],[23.100597,39.10456],[23.171723,39.134955],[23.182384,39.146145],[23.175548,39.155463],[23.181326,39.158677],[23.199229,39.151435],[23.217133,39.179633],[23.175548,39.23428],[23.179861,39.2508],[23.169119,39.268541],[23.134613,39.296942],[23.098155,39.312201],[23.020518,39.317532],[22.998057,39.357123],[22.935883,39.360582],[22.942882,39.344143],[22.929047,39.324205],[22.942882,39.303168],[22.84254,39.288479],[22.826182,39.272162],[22.826182,39.221259],[22.854015,39.159125],[22.88087,39.179633],[22.876964,39.190375],[22.89503,39.172797],[22.901866,39.179633],[22.920584,39.125149],[22.936046,39.111396],[22.942882,39.11815],[22.936046,39.131822],[22.961111,39.119045],[22.998057,39.06977],[22.991954,39.057318],[22.998057,39.049262],[22.958832,39.025133],[22.963878,39.008979],[23.042491,39.040107],[23.07309,39.042467],[23.07309,39.036282],[23.023285,39.00845],[23.007172,38.973944],[22.984548,38.954332],[22.936046,38.946845],[22.940603,38.936469],[22.898448,38.919623],[22.846528,38.926418],[22.836681,38.89647],[22.804698,38.891018],[22.792003,38.877997],[22.732677,38.872382],[22.718272,38.889797],[22.688975,38.877997],[22.621593,38.914496],[22.538829,38.877997],[22.525076,38.885443],[22.525076,38.85814],[22.572927,38.864325],[22.553884,38.84809],[22.563324,38.836249],[22.582774,38.831977],[22.600271,38.844468],[22.593435,38.830227],[22.641124,38.830227],[22.702647,38.850653],[22.748057,38.799221],[22.778331,38.781724],[22.829275,38.786078],[22.867198,38.755072],[22.887543,38.771145],[22.914887,38.77558],[22.945323,38.758124],[23.042003,38.746731],[23.059418,38.727729],[23.090505,38.649115],[23.104503,38.638414],[23.123546,38.636908],[23.156423,38.653469],[23.182465,38.653754],[23.196056,38.666327],[23.168142,38.679389],[23.186778,38.685981],[23.253754,38.661811],[23.305919,38.652655],[23.331228,38.630276],[23.333263,38.604234],[23.293305,38.579088],[23.285411,38.556464],[23.295421,38.568101],[23.307384,38.568549],[23.340587,38.545559],[23.381602,38.535346],[23.381602,38.528551],[23.340099,38.522366],[23.329275,38.508368],[23.334972,38.503607],[23.418468,38.50434],[23.519379,38.490668],[23.542979,38.511705],[23.567231,38.501125],[23.601329,38.473944],[23.573497,38.460883],[23.573497,38.453437],[23.596202,38.446763],[23.594005,38.426093],[23.625011,38.414008],[23.672862,38.356431],[23.709972,38.336737],[23.781993,38.343573],[23.95102,38.29092],[24.050629,38.210679],[24.069021,38.204739],[24.069509,38.173529],[24.080577,38.166002],[24.064138,38.155097],[24.059418,38.131293],[24.053233,38.14525],[24.037771,38.143744],[23.989024,38.122626],[24.009125,38.040595],[24.032725,38.007758],[24.011729,37.966864],[24.011729,37.925238],[24.034434,37.922919],[24.046397,37.905992],[24.011729,37.89175],[24.027843,37.880316],[24.053233,37.878079],[24.046397,37.870592],[24.066905,37.864407],[24.059337,37.848538],[24.066905,37.837104],[24.053233,37.822821],[24.076996,37.811103],[24.087413,37.785224],[24.081879,37.752509],[24.059418,37.733466],[24.07309,37.72724],[24.07309,37.719794],[24.059418,37.719794],[24.066905,37.699286],[24.065278,37.70482],[24.059418,37.699286],[24.072113,37.689521],[24.032725,37.651516],[23.949718,37.677436],[23.943044,37.689927],[23.94337,37.72724],[23.922699,37.721177],[23.902517,37.781887],[23.888845,37.7744],[23.865571,37.807685],[23.812999,37.829657],[23.807302,37.80858],[23.786632,37.812161],[23.778982,37.802314],[23.776622,37.814276],[23.764496,37.815985],[23.770844,37.828315],[23.766449,37.838935],[23.744802,37.857611],[23.742198,37.876654],[23.700531,37.925198],[23.697032,37.939521],[23.680186,37.945868],[23.628103,37.932685],[23.641775,37.952541],[23.626638,37.947496],[23.610362,37.962144],[23.560802,37.972805],[23.552989,37.980455],[23.597911,38.021145],[23.590587,38.038804],[23.574555,38.04678],[23.521821,38.042548],[23.49464,38.028876],[23.449962,38.02143],[23.395274,37.987942],[23.429454,37.980455],[23.408946,37.974311],[23.329845,37.980455],[23.226817,37.973619],[23.094086,37.911038],[23.052013,37.925238],[23.015147,37.925238],[23.010265,37.896959],[22.995128,37.882148],[23.012543,37.847561],[23.032237,37.850775],[23.073497,37.841132],[23.114106,37.850775],[23.182384,37.809149],[23.176443,37.789984],[23.182384,37.7744],[23.128184,37.760484],[23.120942,37.740912],[23.145844,37.725816],[23.175548,37.719794],[23.163829,37.681586],[23.175548,37.64468],[23.161876,37.64468],[23.16863,37.614163],[23.230235,37.582587],[23.237641,37.590033],[23.274669,37.561225],[23.336681,37.535468],[23.360362,37.547675],[23.359141,37.574286],[23.340587,37.600287],[23.312185,37.610541],[23.312185,37.617377],[23.34783,37.634426],[23.398692,37.637885],[23.409028,37.625922],[23.404307,37.59927],[23.374278,37.555894],[23.39503,37.541409],[23.422048,37.535468],[23.422048,37.528022],[23.395274,37.521796],[23.395274,37.51496],[23.479177,37.490668],[23.525645,37.459703],[23.520518,37.455064],[23.525645,37.439195],[23.446544,37.414618],[23.305919,37.411933],[23.312185,37.398261],[23.262706,37.401028],[23.264415,37.390815],[23.230235,37.384589],[23.229991,37.374945],[23.257579,37.370917],[23.251313,37.357327],[23.278005,37.34984],[23.186046,37.340644],[23.203624,37.30268],[23.16863,37.299506],[23.141449,37.309516],[23.141449,37.316352],[23.161876,37.316352],[23.161876,37.323147],[23.123383,37.324774],[23.114106,37.336168],[23.134613,37.329332],[23.122406,37.345689],[23.100597,37.357327],[23.092784,37.350775],[23.07309,37.355211],[23.072602,37.401109],[23.094981,37.389553],[23.105235,37.396918],[23.114106,37.425605],[23.141449,37.411933],[23.132009,37.448635],[23.097179,37.462226],[23.062022,37.454983],[23.045909,37.459703],[23.059418,37.466539],[23.045909,37.487006],[23.004893,37.459703],[22.980724,37.508775],[22.963878,37.521796],[22.939138,37.52497],[22.92156,37.540351],[22.901866,37.541653],[22.922374,37.528022],[22.88502,37.533149],[22.854015,37.51496],[22.819347,37.535468],[22.826182,37.549058],[22.802013,37.560858],[22.798839,37.576402],[22.778331,37.596869],[22.738455,37.580878],[22.72641,37.566352],[22.723155,37.541653],[22.736664,37.518378],[22.730479,37.494452],[22.750336,37.466539],[22.750336,37.442613],[22.764822,37.431789],[22.757986,37.398261],[22.819347,37.343695],[22.812511,37.329332],[22.826182,37.329332],[22.819347,37.316352],[22.906586,37.193915],[22.911632,37.183417],[22.900401,37.172919],[22.89503,37.133857],[22.903168,37.121283],[22.956391,37.123969],[22.963878,37.110297],[22.956391,37.095933],[22.9817,37.082709],[22.963878,37.082953],[22.999848,37.033271],[23.011729,36.986762],[22.990733,36.986762],[23.014985,36.963853],[23.011729,36.93891],[23.049001,36.876899],[23.045909,36.869086],[23.093272,36.818264],[23.091807,36.798326],[23.080577,36.788764],[23.114106,36.781317],[23.094412,36.76081],[23.088634,36.732896],[23.052013,36.747138],[23.030935,36.725572],[23.025645,36.715644],[23.039073,36.706204],[23.03419,36.695868],[23.059418,36.692572],[23.034434,36.674872],[23.035655,36.649075],[23.080577,36.579291],[23.15504,36.541083],[23.141449,36.528022],[23.148204,36.517157],[23.134613,36.507554],[23.151866,36.487291],[23.203624,36.456122],[23.196056,36.432522],[23.161876,36.446194],[23.139334,36.434068],[23.094737,36.443183],[23.066254,36.473456],[23.072113,36.493109],[23.051036,36.522447],[23.035655,36.528022],[22.972423,36.520209],[22.92921,36.59634],[22.874685,36.63052],[22.888927,36.642483],[22.884288,36.654242],[22.837169,36.68651],[22.819347,36.665229],[22.814952,36.670559],[22.817149,36.717963],[22.800792,36.775784],[22.786876,36.793443],[22.765147,36.804185],[22.685557,36.809475],[22.622569,36.803453],[22.577403,36.783026],[22.579112,36.740383],[22.546153,36.721422],[22.525076,36.685126],[22.549815,36.67829],[22.552501,36.650946],[22.533865,36.670559],[22.516775,36.666164],[22.51002,36.648017],[22.531016,36.632799],[22.526052,36.612372],[22.512706,36.602769],[22.504649,36.624254],[22.48406,36.606635],[22.486583,36.525092],[22.511485,36.46662],[22.511485,36.452338],[22.493907,36.43476],[22.504649,36.404527],[22.495453,36.405341],[22.490977,36.390937],[22.479747,36.402045],[22.4699,36.452338],[22.420421,36.473538],[22.408376,36.487128],[22.381358,36.480455],[22.354503,36.511908],[22.367442,36.547919],[22.383556,36.544176],[22.388194,36.556057],[22.373709,36.582709],[22.38795,36.602525],[22.367442,36.602525],[22.371349,36.642727],[22.38795,36.64411],[22.38795,36.650946],[22.368419,36.65648],[22.38795,36.706204],[22.358572,36.702094],[22.305431,36.775092],[22.306977,36.794582],[22.291677,36.820136],[22.221528,36.897528],[22.200206,36.906399],[22.175059,36.891181],[22.137869,36.917141],[22.133474,36.932115],[22.147716,36.956041],[22.153168,37.021186],[22.048106,37.035142],[21.9546,37.003648],[21.943126,36.993313],[21.921723,36.863227],[21.934906,36.834215],[21.928559,36.822252],[21.970225,36.801744],[21.970225,36.794989],[21.945079,36.789944],[21.935883,36.766018],[21.882579,36.726549],[21.874034,36.726711],[21.822765,36.80858],[21.764171,36.794989],[21.722504,36.822252],[21.707367,36.81802],[21.688487,36.849555],[21.688487,36.891181],[21.709483,36.92593],[21.709972,36.942694],[21.702647,36.957261],[21.688162,36.964545],[21.667979,36.959418],[21.681651,36.97309],[21.667735,36.970933],[21.661794,36.959418],[21.654796,36.994696],[21.599294,37.045722],[21.578624,37.076728],[21.569672,37.116197],[21.574392,37.192369],[21.592133,37.22016],[21.682302,37.283922],[21.695811,37.316352],[21.691417,37.356635],[21.674815,37.395982],[21.607107,37.499498],[21.549978,37.561469],[21.443044,37.618598],[21.402192,37.655422],[21.343272,37.669338],[21.323741,37.664944],[21.318533,37.637885],[21.312266,37.637885],[21.308279,37.666246],[21.298676,37.672593],[21.311046,37.693101],[21.31186,37.726304],[21.284923,37.785102],[21.227306,37.811916],[21.122081,37.837388],[21.107595,37.855455],[21.106212,37.878079],[21.133556,37.946357],[21.164399,37.929633],[21.207774,37.946031],[21.277517,38.000963],[21.291515,37.997219],[21.325938,38.02143],[21.325938,38.028876],[21.308849,38.031724],[21.284353,38.015286],[21.367035,38.12108],[21.374278,38.220649],[21.408539,38.18594],[21.40089,38.214789],[21.420665,38.202338],[21.473969,38.196031],[21.523936,38.166002],[21.603038,38.151801],[21.622325,38.154771],[21.674815,38.179674],[21.701345,38.205268],[21.764171,38.295803],[21.849457,38.341295],[21.915538,38.330512],[21.955903,38.336737],[22.020356,38.313218],[22.048839,38.274807],[22.089366,38.261664],[22.108653,38.267401],[22.137218,38.254218],[22.161388,38.213202],[22.206065,38.200181],[22.218516,38.188178],[22.312836,38.172268],[22.331228,38.1789],[22.414806,38.137885],[22.432791,38.143256],[22.511485,38.129299],[22.680431,38.066596],[22.778331,38.000963],[22.796397,37.976793],[22.867198,37.939521],[22.9463,37.946234],[22.975352,37.97899],[22.950938,38.002427],[22.899181,38.027777],[22.88087,38.028876],[22.887462,38.033637],[22.854015,38.035102],[22.875499,38.049302],[22.911632,38.060126],[22.942882,38.083482],[23.019054,38.065253],[23.039073,38.069892],[23.068614,38.058905],[23.172862,38.079495],[23.189708,38.094387],[23.216645,38.103339],[23.194184,38.126939],[23.175548,38.131293],[23.175548,38.144965],[23.223399,38.151801],[23.223399,38.159247],[23.128429,38.172268],[23.148936,38.18594],[23.122732,38.208075],[23.10963,38.21011],[23.066661,38.183173],[23.032237,38.18594],[23.032237,38.192776],[23.052013,38.192776],[23.025076,38.21662],[22.951915,38.225287],[22.933767,38.222073],[22.922374,38.207017],[22.950531,38.209784],[22.969493,38.192776],[22.908702,38.192776],[22.89503,38.241156],[22.88087,38.226955],[22.874685,38.241156],[22.805675,38.226955],[22.764822,38.247992],[22.798839,38.282131],[22.696462,38.316881],[22.675304,38.343573],[22.684418,38.36107],[22.670177,38.381537],[22.646495,38.38996],[22.626801,38.371527],[22.644867,38.369615],[22.646169,38.361802],[22.636729,38.356269],[22.612315,38.363837],[22.587169,38.336737],[22.587169,38.330512],[22.606456,38.323065],[22.600271,38.302639],[22.588634,38.293036],[22.562511,38.293524],[22.545665,38.302639],[22.528982,38.328803],[22.538829,38.336737],[22.525157,38.358832],[22.468435,38.421129],[22.401622,38.453437],[22.408376,38.415595],[22.373709,38.392035],[22.385997,38.380194],[22.394786,38.385159],[22.398611,38.375922],[22.381114,38.357856],[22.38795,38.35102],[22.382335,38.342678],[22.32252,38.35102],[22.284923,38.347317],[22.266449,38.358547],[22.224864,38.360053],[22.195974,38.339545],[22.18922,38.323065],[22.168793,38.35102],[22.145763,38.35399],[22.147716,38.364081],[22.132579,38.372748],[22.049083,38.398505],[22.011241,38.392035],[21.987641,38.41059],[21.957856,38.411689],[21.879242,38.377997],[21.864106,38.377672],[21.840505,38.398871],[21.831228,38.396674],[21.782237,38.363674],[21.771658,38.333645],[21.762543,38.328355],[21.716319,38.357856],[21.65797,38.357856],[21.613536,38.344957],[21.59962,38.35102],[21.535411,38.313951],[21.517751,38.295803],[21.476085,38.306057],[21.428396,38.330512],[21.445323,38.334052],[21.489757,38.309475],[21.483735,38.329047],[21.489757,38.336737],[21.476085,38.35102],[21.489757,38.357856],[21.469981,38.357856],[21.476085,38.371527],[21.42213,38.364081],[21.428477,38.383734],[21.41627,38.39411],[21.377452,38.398871],[21.369884,38.408189],[21.360118,38.467719],[21.32252,38.496283],[21.308604,38.494371],[21.353282,38.432929],[21.339041,38.432929],[21.336599,38.395697],[21.291189,38.377672],[21.291189,38.364081],[21.269542,38.367865],[21.272227,38.354438],[21.239268,38.331122],[21.212657,38.330512],[21.189626,38.341376],[21.181326,38.330512],[21.199962,38.323065],[21.175059,38.3133],[21.17449,38.302639],[21.15561,38.3039],[21.140391,38.336737],[21.085216,38.343573],[21.105724,38.352973],[21.106212,38.371527],[21.096446,38.366929],[21.106212,38.385159],[21.103282,38.37816],[21.113536,38.373928],[21.140391,38.398871],[21.122406,38.410346],[21.106212,38.398871],[21.086762,38.410468],[21.078949,38.432929],[21.106781,38.425442],[21.116222,38.428046],[21.119884,38.440375],[21.106212,38.432929],[21.106212,38.481391],[21.078949,38.487535],[21.099376,38.494371],[21.089692,38.500434],[21.095958,38.531928],[21.086681,38.536444],[21.047211,38.511379],[21.030528,38.51142],[21.016856,38.545885],[21.024669,38.608466],[21.003673,38.626451],[20.988129,38.664008],[20.979015,38.672553],[20.926606,38.676744],[20.914399,38.686225],[20.883149,38.779364],[20.859874,38.803534],[20.830577,38.787787],[20.811371,38.762519],[20.804047,38.773383],[20.773285,38.760932],[20.763682,38.781724],[20.72934,38.80976],[20.74936,38.857245],[20.805186,38.867743],[20.764496,38.891791],[20.756033,38.906887],[20.757498,38.94009],[20.769786,38.95897],[20.781586,38.935004],[20.817068,38.921373],[20.835948,38.9289],[20.859874,38.960517],[20.86671,38.960517],[20.871104,38.947252],[20.86671,38.926418],[20.903819,38.928046],[20.915782,38.936103],[20.920665,38.954332],[20.937185,38.944037],[20.975352,38.946845],[21.027354,38.932603],[21.025564,38.898017],[21.085216,38.864325],[21.099376,38.885443],[21.091645,38.904527],[21.102306,38.910834],[21.12086,38.910224],[21.167003,38.87519],[21.177419,38.876044],[21.181326,38.885443],[21.16684,38.910875],[21.154552,38.913398],[21.140147,38.941311],[21.14503,38.971381],[21.160818,38.974189],[21.159923,38.997748],[21.085216,39.062934],[21.074392,39.050035],[21.078949,39.036282],[21.055186,39.037502],[21.037364,39.021959],[21.05836,39.008979],[21.003184,39.015123],[21.003184,39.021959],[20.969981,39.037177],[20.953787,39.034166],[20.934825,39.056708],[20.948497,39.06977],[20.920177,39.064521],[20.901378,39.077216],[20.86671,39.053046],[20.886485,39.036444],[20.8449,39.036933],[20.859874,39.042467],[20.857758,39.058905],[20.854991,39.065497],[20.846202,39.062934],[20.846202,39.077216],[20.825694,39.06977],[20.838064,39.091742],[20.834158,39.108466],[20.822439,39.114488],[20.811371,39.10456],[20.805186,39.111396],[20.777192,39.090888],[20.777192,39.083441],[20.79184,39.080797],[20.784028,39.049262],[20.757498,39.021959],[20.743175,39.029486],[20.74936,39.013983],[20.823497,38.977851],[20.831798,38.96369],[20.766368,38.977607],[20.735118,38.9501],[20.703298,38.995795],[20.713878,39.011908],[20.70574,39.04857],[20.686534,39.072455],[20.595876,39.123847],[20.517833,39.200751],[20.478852,39.225165],[20.475108,39.255072],[20.482432,39.28266],[20.460216,39.277289],[20.448253,39.289496],[20.4192,39.283352],[20.393565,39.296942],[20.365571,39.287665],[20.32488,39.303778],[20.292817,39.333441],[20.290701,39.364651],[20.269705,39.387356],[20.258962,39.397284],[20.236013,39.399359],[20.242849,39.412421],[20.215587,39.440334],[20.267345,39.446926],[20.263927,39.460761],[20.215587,39.488715],[20.215587,39.49494],[20.255056,39.492377],[20.263927,39.508612],[20.222016,39.521308],[20.222423,39.508612],[20.190684,39.521674],[20.201915,39.529731],[20.183116,39.533271],[20.133556,39.529731],[20.145518,39.547065],[20.146658,39.570705],[20.160899,39.564358],[20.174571,39.57685],[20.174164,39.593207],[20.186046,39.603827],[20.181814,39.624457],[20.088878,39.673082],[20.004405,39.692776],[20.01607,39.701402],[20.089347,39.682799],[20.184122,39.637013],[20.199935,39.640062],[20.212027,39.667037],[20.24603,39.662903],[20.249027,39.684814],[20.28272,39.704399],[20.299463,39.728222],[20.278173,39.756748],[20.284684,39.780312],[20.275485,39.792404],[20.280033,39.80398],[20.298326,39.805427],[20.371604,39.784291],[20.388967,39.79814],[20.397028,39.818087],[20.392998,39.835451],[20.346902,39.894259],[20.317964,39.918391],[20.297913,39.986914],[20.376461,39.993736],[20.400439,40.045257],[20.432789,40.063809],[20.465965,40.060812],[20.499865,40.071457],[20.577793,40.067271],[20.647556,40.09404],[20.666779,40.13352],[20.660372,40.178892],[20.68528,40.191191],[20.696442,40.215066],[20.699129,40.278369],[20.736646,40.303639],[20.770442,40.36255],[20.770649,40.421978],[20.8092,40.436603],[20.826666,40.464818],[20.839999,40.471639],[20.911932,40.459547],[20.93684,40.472518],[20.957924,40.514944],[20.981489,40.523264],[21.018799,40.558972],[21.035336,40.65938],[21.018593,40.690902],[20.963505,40.736068],[20.943662,40.765265],[20.960922,40.780768],[20.967019,40.802007],[20.965262,40.849394]]],[[[24.128429,34.855292],[24.12143,34.836127],[24.135265,34.815009],[24.108572,34.816555],[24.046397,34.849066],[24.046397,34.855292],[24.080577,34.868964],[24.128429,34.862738],[24.128429,34.855292]]],[[[26.976085,35.431342],[27.011974,35.43769],[27.013357,35.431342],[26.999685,35.424506],[27.007091,35.397773],[26.958751,35.390326],[26.87672,35.349351],[26.848399,35.372382],[26.896739,35.421332],[26.91977,35.41828],[26.976085,35.431342]]],[[[26.321137,35.315253],[26.312348,35.296942],[26.265961,35.259996],[26.29949,35.185533],[26.321137,35.197943],[26.285004,35.150702],[26.293956,35.136461],[26.277517,35.100043],[26.235362,35.034084],[26.147227,35.002265],[26.105235,34.999335],[26.081716,35.019761],[26.020274,35.020941],[25.984874,35.03913],[25.960297,35.028957],[25.924083,35.034084],[25.881521,35.027086],[25.808116,35.005764],[25.601248,35.013577],[25.506196,34.984565],[25.415212,34.99372],[25.347667,34.991523],[25.303966,34.984768],[25.223155,34.954169],[25.15089,34.955715],[25.107758,34.937893],[25.059744,34.94359],[25.019054,34.931627],[24.983735,34.938707],[24.738536,34.931627],[24.755219,34.957913],[24.752126,34.995917],[24.759939,35.02733],[24.742849,35.077216],[24.70753,35.096137],[24.564626,35.106147],[24.5324,35.136461],[24.500743,35.152411],[24.464122,35.150133],[24.403819,35.175035],[24.40211,35.191107],[24.293224,35.182278],[24.217784,35.191107],[24.197276,35.205146],[24.111339,35.197943],[24.084646,35.204535],[24.080577,35.194525],[24.049815,35.191107],[23.987641,35.233303],[23.901866,35.231187],[23.860199,35.236314],[23.826671,35.25259],[23.782074,35.234687],[23.711681,35.236721],[23.68336,35.225816],[23.669119,35.237291],[23.587169,35.239488],[23.580333,35.259996],[23.552989,35.266832],[23.51824,35.294135],[23.525645,35.300971],[23.51824,35.307766],[23.552989,35.321479],[23.54184,35.336371],[23.546153,35.356187],[23.538585,35.374091],[23.573497,35.43476],[23.560883,35.458401],[23.577647,35.492906],[23.578461,35.500556],[23.566091,35.507025],[23.566091,35.527493],[23.581228,35.55268],[23.580333,35.575914],[23.604747,35.612616],[23.608165,35.551703],[23.619884,35.524075],[23.639496,35.518988],[23.639496,35.510565],[23.659434,35.501207],[23.702973,35.502875],[23.718435,35.512844],[23.730479,35.554185],[23.712738,35.607001],[23.723643,35.616889],[23.711192,35.648871],[23.741547,35.686957],[23.778982,35.671536],[23.767833,35.653876],[23.778982,35.575914],[23.79949,35.544623],[23.817149,35.534817],[23.929047,35.520697],[24.025401,35.520697],[24.044688,35.527655],[24.057628,35.552924],[24.094086,35.554185],[24.081798,35.589911],[24.115245,35.601304],[24.160411,35.597073],[24.182953,35.585598],[24.203298,35.541815],[24.182953,35.513251],[24.142589,35.507025],[24.081228,35.51496],[24.066905,35.507025],[24.071951,35.498358],[24.186697,35.451809],[24.222504,35.461168],[24.252452,35.479071],[24.264008,35.433173],[24.265473,35.369859],[24.340099,35.348334],[24.428071,35.369696],[24.464122,35.362454],[24.593598,35.391181],[24.676931,35.423489],[24.720958,35.427232],[24.840831,35.403998],[24.895518,35.424506],[24.95753,35.403998],[24.971202,35.424506],[25.018728,35.415025],[25.029633,35.403266],[25.053233,35.403998],[25.047048,35.380439],[25.055349,35.355211],[25.076996,35.344468],[25.197113,35.349351],[25.221365,35.335679],[25.306977,35.343166],[25.346365,35.336086],[25.361664,35.343166],[25.3685,35.335679],[25.375987,35.343166],[25.425304,35.299547],[25.453624,35.294135],[25.659923,35.349351],[25.707774,35.335679],[25.766368,35.335679],[25.724783,35.294135],[25.732188,35.287909],[25.729259,35.264553],[25.739024,35.259996],[25.737804,35.277411],[25.750987,35.284125],[25.758962,35.259996],[25.732188,35.246324],[25.735118,35.237494],[25.719493,35.211371],[25.724783,35.191107],[25.712738,35.182847],[25.728526,35.133368],[25.753184,35.133124],[25.795258,35.115139],[25.830333,35.122382],[25.847667,35.15058],[25.883067,35.164455],[25.895518,35.182115],[25.978526,35.195461],[26.060557,35.233303],[26.11964,35.215318],[26.108246,35.20539],[26.129731,35.195868],[26.179454,35.20718],[26.197765,35.219062],[26.190929,35.225816],[26.237804,35.268785],[26.259532,35.284491],[26.293956,35.287909],[26.286469,35.300971],[26.297211,35.300605],[26.296072,35.311713],[26.321137,35.315253]]],[[[27.211925,35.520697],[27.233165,35.504096],[27.232432,35.472235],[27.206798,35.477525],[27.180919,35.46894],[27.161632,35.4501],[27.156749,35.424506],[27.171072,35.431342],[27.165863,35.423326],[27.136241,35.403998],[27.143077,35.420396],[27.108897,35.431342],[27.093028,35.45185],[27.094249,35.461575],[27.108897,35.466051],[27.102061,35.479071],[27.118826,35.482652],[27.108897,35.520697],[27.11378,35.550971],[27.108897,35.561672],[27.067882,35.588935],[27.085704,35.626288],[27.115408,35.642239],[27.12794,35.693345],[27.154145,35.717963],[27.161794,35.746894],[27.156749,35.801215],[27.171072,35.808661],[27.184581,35.801215],[27.220958,35.82925],[27.232432,35.822333],[27.211925,35.77733],[27.218761,35.726142],[27.189789,35.697414],[27.156749,35.633979],[27.158539,35.612047],[27.184581,35.595771],[27.220876,35.551011],[27.204356,35.527655],[27.211925,35.520697]]],[[[23.278005,35.897447],[23.33074,35.864936],[23.333263,35.829169],[23.295665,35.859565],[23.271739,35.904242],[23.278005,35.897447]]],[[[23.011729,36.308295],[23.076915,36.270738],[23.103852,36.237209],[23.066254,36.226386],[23.058442,36.216457],[23.052013,36.144843],[23.014415,36.148342],[22.990733,36.13703],[22.987559,36.151557],[22.949555,36.164984],[22.946137,36.177965],[22.932302,36.177232],[22.908702,36.205959],[22.916189,36.285102],[22.901622,36.338324],[22.944591,36.38939],[22.956391,36.38345],[23.011729,36.308295]]],[[[25.735606,36.38345],[25.767833,36.401597],[25.802989,36.389594],[25.83546,36.366156],[25.855154,36.363593],[25.846853,36.350287],[25.817638,36.363593],[25.776866,36.353827],[25.743337,36.358832],[25.732432,36.373033],[25.735606,36.38345]]],[[[28.239757,36.432522],[28.225841,36.417955],[28.236339,36.373033],[28.211192,36.357652],[28.205089,36.322659],[28.175466,36.290432],[28.163422,36.237698],[28.148448,36.22606],[28.130544,36.185452],[28.103282,36.185452],[28.095225,36.167873],[28.085785,36.164984],[28.061697,36.116523],[28.096446,36.103502],[28.075938,36.075588],[28.08961,36.055121],[28.037608,36.068427],[27.993419,36.061957],[27.932302,36.025336],[27.863536,35.940985],[27.827403,35.913764],[27.780447,35.890041],[27.732677,35.915107],[27.71225,35.952704],[27.725352,35.96719],[27.75408,36.037177],[27.757091,36.084377],[27.708832,36.127102],[27.713552,36.139797],[27.684255,36.158149],[27.771983,36.197821],[27.767426,36.205959],[27.803233,36.270209],[27.837413,36.280992],[27.899669,36.340155],[27.959239,36.356757],[28.118419,36.42768],[28.18393,36.424465],[28.213878,36.455471],[28.23113,36.449774],[28.239757,36.432522]]],[[[25.382091,36.479641],[25.417979,36.470404],[25.479177,36.424384],[25.491384,36.397691],[25.489268,36.377834],[25.465099,36.342434],[25.426443,36.337958],[25.361664,36.356757],[25.409434,36.363593],[25.436778,36.390937],[25.425304,36.427151],[25.41627,36.432522],[25.421886,36.451117],[25.3685,36.46662],[25.382091,36.479641]]],[[[27.396821,36.438666],[27.387462,36.420844],[27.399587,36.410142],[27.420665,36.408637],[27.438487,36.418158],[27.44337,36.412055],[27.428233,36.385199],[27.37794,36.382025],[27.357432,36.410224],[27.362804,36.424994],[27.34962,36.43122],[27.314952,36.411363],[27.296886,36.427558],[27.297048,36.465155],[27.300629,36.473456],[27.310232,36.457709],[27.355805,36.479641],[27.3685,36.472398],[27.381684,36.444159],[27.396821,36.438666]]],[[[26.362153,36.637885],[26.393321,36.636542],[26.430512,36.61872],[26.459483,36.596666],[26.465994,36.582709],[26.454926,36.57685],[26.444672,36.589504],[26.415863,36.574897],[26.373302,36.572414],[26.348643,36.541083],[26.349457,36.515611],[26.317719,36.507554],[26.300955,36.513251],[26.282237,36.539862],[26.265961,36.547919],[26.273448,36.561591],[26.261485,36.587633],[26.266449,36.595933],[26.280284,36.589504],[26.29477,36.596584],[26.341645,36.569037],[26.365977,36.589504],[26.403819,36.589504],[26.39031,36.595445],[26.388927,36.613349],[26.362153,36.63052],[26.362153,36.637885]]],[[[27.869884,36.589504],[27.87672,36.561591],[27.867524,36.55683],[27.87672,36.541083],[27.843028,36.527899],[27.828298,36.528022],[27.828298,36.534247],[27.849376,36.547919],[27.792491,36.566962],[27.807872,36.575873],[27.76002,36.575873],[27.786957,36.606269],[27.787852,36.616848],[27.801524,36.624254],[27.801524,36.616848],[27.84197,36.644721],[27.861013,36.646715],[27.863048,36.637885],[27.822276,36.623765],[27.815278,36.610012],[27.824474,36.612942],[27.835704,36.602525],[27.869884,36.624254],[27.863048,36.602525],[27.869884,36.606676],[27.869884,36.589504]]],[[[24.868175,36.665229],[24.947927,36.624335],[24.963715,36.59634],[24.922862,36.602281],[24.849783,36.646918],[24.840831,36.665229],[24.868175,36.665229]]],[[[25.146251,36.719875],[25.185802,36.719143],[25.183442,36.706204],[25.09311,36.636623],[25.067393,36.637885],[25.104666,36.699368],[25.146251,36.719875]]],[[[21.764171,36.753974],[21.78004,36.747504],[21.777843,36.699368],[21.764171,36.719875],[21.750499,36.712388],[21.764171,36.753974]]],[[[24.474376,36.747138],[24.533376,36.768012],[24.546072,36.753974],[24.546072,36.688788],[24.48463,36.665229],[24.364594,36.663031],[24.326996,36.650946],[24.326996,36.699368],[24.340668,36.712388],[24.331391,36.718166],[24.354259,36.753974],[24.381602,36.733547],[24.395356,36.735907],[24.407237,36.707261],[24.426524,36.699368],[24.471446,36.70425],[24.459158,36.726711],[24.427094,36.733832],[24.408865,36.76081],[24.420258,36.771064],[24.474376,36.747138]]],[[[24.642263,36.788764],[24.665782,36.774644],[24.659353,36.750556],[24.644786,36.74726],[24.608165,36.781317],[24.621837,36.794989],[24.642263,36.788764]]],[[[25.27296,36.719875],[25.277599,36.723538],[25.251801,36.726711],[25.262706,36.767646],[25.306977,36.794989],[25.347992,36.747138],[25.399425,36.727973],[25.409434,36.712388],[25.390147,36.703681],[25.395193,36.6789],[25.37322,36.653713],[25.337901,36.66828],[25.27296,36.719875]]],[[[21.695811,36.740383],[21.700857,36.791083],[21.709483,36.801744],[21.72934,36.794989],[21.695811,36.740383]]],[[[24.608165,36.835924],[24.572765,36.781928],[24.539806,36.784491],[24.521169,36.817369],[24.53419,36.836127],[24.561778,36.845649],[24.585948,36.836493],[24.600759,36.84276],[24.608165,36.835924]]],[[[25.423106,36.832506],[25.446951,36.857408],[25.478363,36.870673],[25.470958,36.863227],[25.47641,36.862698],[25.477794,36.83515],[25.434418,36.822659],[25.423106,36.832506]]],[[[27.280935,36.907904],[27.291515,36.891832],[27.340994,36.881903],[27.355805,36.863227],[27.323416,36.8487],[27.214203,36.823879],[27.129893,36.76081],[27.083181,36.761217],[27.047537,36.775092],[26.992035,36.753607],[26.975759,36.74079],[26.986013,36.719875],[26.97169,36.716254],[26.965668,36.705552],[26.972911,36.6789],[26.937266,36.692776],[26.917735,36.716132],[26.92628,36.765611],[26.937673,36.76081],[26.958751,36.781317],[26.986013,36.767646],[27.020763,36.80858],[27.061209,36.839342],[27.164236,36.891181],[27.280935,36.907904]]],[[[25.608653,36.883734],[25.649669,36.911607],[25.684418,36.891181],[25.674001,36.879462],[25.608653,36.883734]]],[[[26.00587,36.93891],[26.035411,36.912991],[26.074229,36.898017],[26.07309,36.892076],[26.050141,36.896959],[26.00587,36.891181],[25.921397,36.841051],[25.879649,36.794989],[25.798676,36.772773],[25.755544,36.769965],[25.739024,36.794989],[25.753266,36.788764],[25.774099,36.807115],[25.807384,36.801744],[25.84547,36.80858],[25.863129,36.835924],[25.851573,36.831122],[25.843761,36.84512],[25.971853,36.898017],[25.950694,36.918443],[26.00587,36.93891]]],[[[25.081065,36.952623],[25.047048,36.969224],[25.030528,36.988959],[25.02589,37.00788],[25.035492,37.021918],[25.072765,37.042182],[25.087901,37.041978],[25.059906,36.97309],[25.081065,36.952623]]],[[[24.704356,37.035142],[24.751638,36.985785],[24.765798,36.949205],[24.710623,36.904202],[24.6692,36.978461],[24.676524,37.000434],[24.642263,37.027737],[24.649669,37.041978],[24.642263,37.048814],[24.655935,37.048814],[24.689301,37.029202],[24.704356,37.035142]]],[[[26.911632,36.945787],[26.931407,36.966864],[26.925304,36.981676],[26.953868,37.027899],[26.943614,37.040717],[26.917166,37.041653],[26.88559,37.075588],[26.889822,37.089789],[26.901622,37.077297],[26.986013,37.048814],[26.986013,37.041978],[26.972911,37.041978],[27.00587,37.016181],[27.007091,37.000434],[27.032481,37.012356],[27.044281,36.996243],[27.033865,36.952623],[27.047537,36.959418],[27.040375,36.945054],[26.993419,36.952623],[26.983409,36.929511],[26.951915,36.931627],[26.945079,36.92593],[26.929861,36.942776],[26.911632,36.945787]]],[[[25.807384,37.10342],[25.800548,37.095933],[25.780528,37.123969],[25.834646,37.1376],[25.82838,37.123969],[25.842052,37.110297],[25.836762,37.102362],[25.819102,37.09691],[25.807384,37.10342]]],[[[25.279796,37.048814],[25.268809,37.046129],[25.232188,37.005113],[25.188487,36.985297],[25.152843,36.986762],[25.103363,37.012885],[25.112966,37.06273],[25.156261,37.089789],[25.135753,37.093817],[25.150076,37.110541],[25.209809,37.144029],[25.23878,37.151842],[25.223969,37.134345],[25.259288,37.123969],[25.27296,37.1376],[25.266124,37.151842],[25.293305,37.151842],[25.26295,37.08983],[25.262869,37.075588],[25.279796,37.069281],[25.279796,37.062486],[25.266124,37.062486],[25.266124,37.054999],[25.279796,37.054999],[25.279796,37.048814]]],[[[25.526134,37.196234],[25.533702,37.20067],[25.574555,37.178534],[25.592459,37.142524],[25.595063,37.099677],[25.580821,37.017768],[25.552501,36.96894],[25.526134,36.959418],[25.491384,36.932115],[25.44988,36.918443],[25.432384,36.939276],[25.423106,36.966864],[25.388927,36.986762],[25.394054,36.998114],[25.380707,37.018744],[25.381033,37.033149],[25.366954,37.059556],[25.341807,37.082953],[25.371837,37.089057],[25.409434,37.123969],[25.47462,37.161811],[25.495128,37.189114],[25.526134,37.196234]]],[[[24.443696,37.178534],[24.436209,37.18537],[24.468272,37.202094],[24.520518,37.203925],[24.532074,37.185614],[24.5324,37.130113],[24.526134,37.144436],[24.518809,37.144436],[24.51531,37.12287],[24.498302,37.110297],[24.491466,37.117743],[24.498302,37.123969],[24.480968,37.129706],[24.464122,37.123969],[24.455821,37.135891],[24.450531,37.130113],[24.434418,37.134182],[24.422537,37.123969],[24.419119,37.135647],[24.430512,37.144436],[24.423513,37.149848],[24.436209,37.164862],[24.432791,37.172268],[24.443696,37.178534]]],[[[23.128429,37.288398],[23.158458,37.271389],[23.162364,37.244208],[23.131033,37.24372],[23.094412,37.274726],[23.128429,37.288398]]],[[[23.587169,37.370917],[23.547699,37.34984],[23.505138,37.34984],[23.5088,37.329901],[23.496837,37.320014],[23.374278,37.30268],[23.374278,37.309516],[23.463634,37.357327],[23.587169,37.370917]]],[[[24.367931,37.411933],[24.374848,37.438463],[24.436209,37.487006],[24.443696,37.487006],[24.443696,37.472724],[24.430512,37.446031],[24.469412,37.427476],[24.482677,37.412421],[24.477794,37.390815],[24.46339,37.394477],[24.45281,37.38345],[24.443696,37.34984],[24.411794,37.323961],[24.367931,37.309516],[24.38559,37.361151],[24.40211,37.370917],[24.388438,37.384589],[24.394786,37.41177],[24.367931,37.411933]]],[[[25.395193,37.418158],[25.306977,37.411933],[25.309255,37.436184],[25.3213,37.439195],[25.326427,37.462877],[25.322439,37.471015],[25.306977,37.472724],[25.312673,37.488227],[25.347992,37.508124],[25.377289,37.467434],[25.38559,37.489936],[25.395356,37.493964],[25.462901,37.470038],[25.457286,37.446031],[25.407725,37.436835],[25.402599,37.418158],[25.395193,37.418158]]],[[[24.94337,37.435492],[24.963715,37.418158],[24.964041,37.40176],[24.881847,37.363511],[24.888682,37.398261],[24.861339,37.398261],[24.881847,37.425605],[24.868175,37.431789],[24.886729,37.435289],[24.898123,37.448676],[24.902354,37.48017],[24.895356,37.510443],[24.929698,37.508124],[24.94809,37.485582],[24.95753,37.459703],[24.94337,37.435492]]],[[[23.477306,37.555894],[23.500824,37.53262],[23.525645,37.528022],[23.525645,37.521796],[23.481212,37.509589],[23.43629,37.521796],[23.43629,37.528022],[23.475434,37.540839],[23.477306,37.555894]]],[[[25.091319,37.582587],[25.047048,37.617377],[24.997895,37.637885],[24.984386,37.658026],[24.984874,37.67886],[25.053233,37.67886],[25.067393,37.672593],[25.059906,37.658352],[25.087901,37.64468],[25.10377,37.653754],[25.122732,37.651679],[25.149425,37.631049],[25.164806,37.645819],[25.245616,37.624213],[25.23878,37.617377],[25.252778,37.60871],[25.259288,37.590033],[25.234711,37.562893],[25.227306,37.537421],[25.215994,37.532904],[25.169932,37.538642],[25.125499,37.555894],[25.091319,37.582587]]],[[[24.374766,37.686265],[24.402517,37.655748],[24.395763,37.624661],[24.312999,37.538235],[24.293468,37.525702],[24.275401,37.531684],[24.278087,37.62287],[24.289317,37.645331],[24.305675,37.660834],[24.320649,37.658352],[24.327891,37.664984],[24.333832,37.672593],[24.320649,37.67886],[24.330414,37.683987],[24.361095,37.67886],[24.361664,37.685045],[24.374766,37.686265]]],[[[26.362153,37.686265],[26.319102,37.634263],[26.230642,37.571357],[26.12794,37.555813],[26.057872,37.519232],[25.976329,37.516018],[25.971853,37.535468],[25.979747,37.548651],[26.01238,37.575019],[26.042003,37.617011],[26.074229,37.637885],[26.197439,37.63227],[26.254242,37.652004],[26.280772,37.675442],[26.362153,37.686265]]],[[[23.546153,37.7744],[23.563162,37.768256],[23.544932,37.745063],[23.546153,37.733466],[23.532074,37.725328],[23.525645,37.69245],[23.484141,37.67886],[23.457367,37.69245],[23.468272,37.714504],[23.434418,37.733588],[23.42449,37.761786],[23.425629,37.768215],[23.546153,37.7744]]],[[[27.047537,37.72724],[27.058767,37.733791],[27.065278,37.729071],[27.061209,37.706732],[27.036957,37.712877],[27.000824,37.70661],[26.910004,37.678046],[26.869314,37.64468],[26.797374,37.64468],[26.787446,37.647203],[26.760916,37.689683],[26.708263,37.713568],[26.657237,37.704901],[26.628429,37.69066],[26.622895,37.67886],[26.609223,37.686265],[26.598399,37.677191],[26.583507,37.704169],[26.580251,37.74079],[26.594981,37.761379],[26.643891,37.772406],[26.658051,37.792792],[26.806407,37.814521],[26.842052,37.809149],[26.881847,37.785386],[26.916677,37.777818],[26.966075,37.747748],[26.9699,37.758775],[26.945079,37.788723],[26.973643,37.784491],[26.993419,37.796129],[26.993988,37.784003],[27.067882,37.7744],[27.033865,37.761379],[27.047537,37.72724]]],[[[20.901378,37.792426],[20.917979,37.765286],[20.986827,37.729885],[20.996349,37.699286],[20.954356,37.723863],[20.893891,37.733466],[20.843516,37.701565],[20.853038,37.672593],[20.846853,37.653306],[20.815115,37.651516],[20.704356,37.738349],[20.702159,37.754543],[20.642426,37.811103],[20.619477,37.822821],[20.627696,37.857611],[20.619477,37.864407],[20.68572,37.929592],[20.708995,37.925238],[20.741954,37.862291],[20.752452,37.854885],[20.777192,37.843329],[20.808849,37.849555],[20.850108,37.836412],[20.885997,37.813951],[20.901378,37.792426]]],[[[24.99171,37.768215],[24.994395,37.754096],[24.95753,37.706732],[24.963715,37.686265],[24.95753,37.686265],[24.916026,37.719794],[24.8921,37.768215],[24.865245,37.77383],[24.81658,37.823879],[24.799978,37.815985],[24.7942,37.843817],[24.775727,37.86225],[24.738536,37.89175],[24.716156,37.879096],[24.718028,37.898586],[24.683849,37.932685],[24.695649,37.935533],[24.693614,37.965766],[24.779063,38.00023],[24.793712,37.994086],[24.794688,37.977118],[24.830089,37.96308],[24.837576,37.925482],[24.848399,37.914862],[24.875011,37.905992],[24.953868,37.905992],[24.963715,37.896796],[24.94337,37.843329],[24.984874,37.815985],[24.971202,37.809149],[24.972016,37.796373],[24.95753,37.7744],[24.99171,37.768215]]],[[[23.408376,37.898586],[23.40211,37.912177],[23.422862,37.93301],[23.439464,37.939602],[23.468516,37.932034],[23.497732,37.966864],[23.46046,37.952541],[23.422048,37.960028],[23.457367,37.973619],[23.429454,37.987942],[23.47047,37.980455],[23.47047,37.994086],[23.478201,37.998847],[23.51824,37.999091],[23.536876,37.988023],[23.532725,37.975084],[23.546153,37.952541],[23.573497,37.952541],[23.539317,37.939521],[23.543468,37.92886],[23.521739,37.913967],[23.51824,37.898586],[23.501313,37.906073],[23.467052,37.884223],[23.408376,37.898586]]],[[[20.733572,38.062405],[20.718435,38.066311],[20.681651,38.097805],[20.614594,38.119818],[20.58074,38.115465],[20.564952,38.090318],[20.509776,38.110785],[20.496104,38.124457],[20.489268,38.159247],[20.468761,38.192776],[20.509776,38.172268],[20.509776,38.179674],[20.493826,38.191718],[20.445323,38.27619],[20.435069,38.278795],[20.427908,38.261664],[20.436046,38.21247],[20.425304,38.175279],[20.380056,38.151801],[20.374034,38.169013],[20.345388,38.182115],[20.339041,38.200181],[20.356944,38.228583],[20.351573,38.245917],[20.379649,38.273993],[20.3921,38.300116],[20.399913,38.364081],[20.406749,38.343573],[20.427257,38.363349],[20.455089,38.323065],[20.463227,38.331488],[20.479015,38.309475],[20.529796,38.33747],[20.539561,38.374213],[20.530935,38.392035],[20.55128,38.385159],[20.537771,38.426093],[20.54363,38.459174],[20.537771,38.473944],[20.571788,38.473944],[20.625824,38.351752],[20.62615,38.328437],[20.599132,38.302639],[20.630544,38.257961],[20.642914,38.253404],[20.681651,38.282131],[20.676768,38.271715],[20.693533,38.264635],[20.708995,38.226955],[20.751313,38.196763],[20.762218,38.170396],[20.797699,38.131293],[20.807791,38.099555],[20.794688,38.066107],[20.763682,38.069892],[20.733572,38.062405]]],[[[20.715831,38.392035],[20.757498,38.371527],[20.737559,38.371527],[20.743663,38.344387],[20.763682,38.330512],[20.763682,38.323065],[20.719412,38.315619],[20.705821,38.318264],[20.687836,38.336737],[20.695323,38.343573],[20.667328,38.371527],[20.647634,38.405666],[20.640147,38.446601],[20.614513,38.467108],[20.619477,38.481391],[20.635509,38.472968],[20.65447,38.501858],[20.671886,38.497545],[20.674083,38.485012],[20.661143,38.460883],[20.678233,38.461859],[20.708995,38.446601],[20.674815,38.377672],[20.715831,38.371527],[20.702159,38.385159],[20.722504,38.385159],[20.715831,38.392035]]],[[[20.941091,38.604234],[20.909353,38.562934],[20.907563,38.549018],[20.893891,38.549018],[20.93214,38.603013],[20.941091,38.604234]]],[[[26.163585,38.542792],[26.15089,38.530422],[26.144379,38.492906],[26.121918,38.487535],[26.142426,38.473944],[26.136404,38.467719],[26.154063,38.467271],[26.142426,38.446601],[26.139334,38.418891],[26.149913,38.343573],[26.163585,38.302639],[26.137055,38.299628],[26.113536,38.284247],[26.102224,38.261705],[26.112071,38.222602],[26.04005,38.200181],[26.019705,38.159247],[25.974864,38.166002],[25.92449,38.203111],[25.910411,38.226955],[25.894379,38.22248],[25.889822,38.247992],[25.873302,38.239732],[25.866059,38.245673],[25.876231,38.275295],[25.917247,38.288967],[25.934255,38.302639],[25.964366,38.302639],[25.975597,38.337226],[25.992198,38.343573],[25.985362,38.392035],[25.978038,38.385159],[25.950694,38.405666],[25.955577,38.428209],[25.943858,38.453437],[25.875255,38.483547],[25.834646,38.528551],[25.832774,38.544094],[25.848888,38.58039],[26.01588,38.602037],[26.063975,38.590033],[26.108246,38.542792],[26.121918,38.556464],[26.115733,38.5633],[26.130707,38.567206],[26.143565,38.564399],[26.163585,38.542792]]],[[[25.588878,38.611721],[25.621349,38.577786],[25.614919,38.576972],[25.604991,38.535346],[25.571544,38.541246],[25.560802,38.535346],[25.560802,38.5633],[25.523204,38.597398],[25.53297,38.606879],[25.543956,38.600491],[25.560069,38.60932],[25.580821,38.604234],[25.580821,38.611721],[25.588878,38.611721]]],[[[20.58546,38.617906],[20.55128,38.569525],[20.544607,38.569525],[20.562348,38.69123],[20.60255,38.781724],[20.645274,38.828192],[20.68629,38.850084],[20.717784,38.822699],[20.72934,38.781724],[20.723888,38.769965],[20.728852,38.730618],[20.696951,38.689846],[20.706065,38.680406],[20.722504,38.707261],[20.715994,38.627021],[20.695323,38.638414],[20.702159,38.617906],[20.687836,38.624742],[20.681651,38.604234],[20.648936,38.608588],[20.64088,38.600572],[20.647634,38.583808],[20.63087,38.588324],[20.633311,38.604234],[20.613617,38.607001],[20.602306,38.626776],[20.58546,38.617906]]],[[[24.676524,38.80976],[24.682872,38.784247],[24.657481,38.769232],[24.61378,38.773098],[24.600759,38.79267],[24.569998,38.778144],[24.566661,38.762519],[24.5324,38.796088],[24.573985,38.80976],[24.556977,38.845689],[24.546072,38.836982],[24.528331,38.851549],[24.505138,38.844468],[24.505219,38.855048],[24.482595,38.862779],[24.477794,38.877997],[24.470958,38.871161],[24.4546,38.884833],[24.436209,38.877997],[24.438813,38.897121],[24.462169,38.910956],[24.461111,38.967678],[24.491466,38.981024],[24.56072,38.944159],[24.573985,38.932603],[24.578624,38.875556],[24.642589,38.841702],[24.676524,38.80976]]],[[[24.587657,38.159247],[24.579926,38.084215],[24.594493,38.062405],[24.566661,37.987942],[24.509288,37.962551],[24.476899,37.96247],[24.447765,38.010565],[24.429698,38.021186],[24.403087,38.011908],[24.386404,37.996527],[24.40211,37.987942],[24.40211,37.980455],[24.386892,37.970364],[24.371755,37.97191],[24.338634,37.996731],[24.313813,38.029242],[24.326996,38.042548],[24.314789,38.064887],[24.292247,38.069892],[24.286306,38.086249],[24.248709,38.096869],[24.203949,38.090318],[24.210785,38.097805],[24.210785,38.124457],[24.186046,38.127387],[24.182953,38.134996],[24.210785,38.166002],[24.185313,38.217963],[24.156993,38.22956],[24.142589,38.226955],[24.148774,38.213202],[24.126231,38.217475],[24.131114,38.235826],[24.163097,38.267808],[24.153494,38.281317],[24.118175,38.254218],[24.109386,38.256293],[24.114757,38.275295],[24.100922,38.275295],[24.121593,38.309475],[24.079438,38.325385],[24.025401,38.330512],[24.059744,38.341254],[24.066905,38.35102],[24.042247,38.401516],[24.03891,38.395413],[23.980805,38.398871],[23.912364,38.392035],[23.843761,38.405666],[23.793956,38.398505],[23.709972,38.412502],[23.649181,38.405666],[23.614431,38.460883],[23.594005,38.453437],[23.635753,38.500922],[23.628103,38.514879],[23.635509,38.528551],[23.614106,38.557929],[23.599946,38.571357],[23.54005,38.582261],[23.505138,38.597398],[23.497732,38.631008],[23.453136,38.658026],[23.445974,38.676744],[23.381602,38.707261],[23.337657,38.738959],[23.323009,38.762519],[23.202322,38.829901],[23.143565,38.850653],[23.069102,38.846584],[23.036388,38.874457],[22.969412,38.889106],[22.956391,38.885443],[22.956391,38.877997],[22.983897,38.873521],[22.991954,38.864691],[22.990733,38.850653],[22.981781,38.845038],[22.855805,38.832953],[22.833018,38.82274],[22.833751,38.845404],[22.837413,38.854478],[22.874848,38.874905],[23.035655,38.926418],[23.043712,38.943061],[23.086762,38.954332],[23.097341,38.972073],[23.094412,38.98786],[23.127452,39.005805],[23.199718,39.008979],[23.299083,39.042467],[23.329845,39.021959],[23.371593,39.010321],[23.381602,39.001532],[23.37436,38.982489],[23.384613,38.967515],[23.425629,38.954332],[23.450694,38.874579],[23.480479,38.83808],[23.524669,38.823188],[23.567882,38.79385],[23.594005,38.789252],[23.591319,38.774156],[23.607595,38.77558],[23.619965,38.76553],[23.662283,38.755072],[23.672699,38.760443],[23.68336,38.755072],[23.702647,38.765082],[23.722667,38.761949],[23.738455,38.749416],[23.753591,38.719184],[23.857595,38.682522],[23.947765,38.66942],[23.966563,38.670111],[23.984223,38.686225],[24.005707,38.678046],[24.07309,38.679389],[24.15561,38.652655],[24.126231,38.635199],[24.121104,38.6081],[24.126475,38.598578],[24.231456,38.522366],[24.206554,38.506822],[24.188162,38.474107],[24.184337,38.439643],[24.203949,38.412502],[24.185069,38.40762],[24.210785,38.377672],[24.214854,38.336412],[24.250255,38.295071],[24.257823,38.258979],[24.245128,38.241156],[24.252452,38.227973],[24.326996,38.18594],[24.344412,38.159247],[24.392589,38.164008],[24.420665,38.147366],[24.477794,38.138739],[24.587657,38.159247]]],[[[23.43629,39.146145],[23.395274,39.146145],[23.398692,39.163642],[23.429454,39.176215],[23.444672,39.198472],[23.47047,39.213813],[23.503754,39.194281],[23.512869,39.178534],[23.505138,39.159125],[23.489024,39.168769],[23.475108,39.157782],[23.46046,39.131822],[23.43629,39.146145]]],[[[23.669688,39.11815],[23.627778,39.147284],[23.587169,39.207587],[23.601329,39.213813],[23.665538,39.169664],[23.730479,39.146145],[23.726736,39.131496],[23.792654,39.124416],[23.760265,39.090644],[23.716807,39.077216],[23.658051,39.097724],[23.669688,39.11815]]],[[[20.140391,39.241685],[20.190115,39.202623],[20.201915,39.179633],[20.168712,39.182807],[20.138438,39.209296],[20.125336,39.236029],[20.140391,39.241685]]],[[[23.936534,39.221259],[23.921641,39.190416],[23.895844,39.16177],[23.864513,39.143988],[23.833507,39.146145],[23.873057,39.180162],[23.889334,39.217475],[23.939789,39.279771],[23.957042,39.289496],[23.950206,39.275214],[23.972179,39.271918],[23.96697,39.251166],[23.936534,39.221259]]],[[[26.612315,39.049262],[26.610037,39.022935],[26.597423,39.011949],[26.567638,39.021959],[26.551443,39.015041],[26.539399,39.019355],[26.519298,39.036282],[26.526622,39.042467],[26.516124,39.052639],[26.526622,39.083441],[26.50587,39.109198],[26.489268,39.113674],[26.437022,39.103502],[26.54713,39.008979],[26.54713,38.98786],[26.489268,38.972561],[26.424164,38.967353],[26.339366,38.982856],[26.276378,39.010647],[26.165701,39.022406],[26.087901,39.083441],[26.160167,39.097724],[26.191417,39.12759],[26.225597,39.131822],[26.293468,39.177151],[26.28004,39.196438],[26.225597,39.207587],[26.187348,39.202053],[26.160167,39.183336],[26.145274,39.155666],[26.097423,39.105658],[26.063975,39.090888],[25.958344,39.117662],[25.888927,39.144721],[25.834646,39.179633],[25.834646,39.187079],[25.845958,39.190375],[25.855154,39.221259],[25.842052,39.228013],[25.853526,39.236396],[25.858653,39.259223],[25.883067,39.268988],[25.917247,39.296942],[25.936371,39.276557],[26.006196,39.286322],[26.033214,39.28266],[26.046886,39.303168],[26.060557,39.289496],[26.094005,39.310492],[26.162771,39.323635],[26.172537,39.335395],[26.163585,39.378852],[26.362153,39.378852],[26.354747,39.356513],[26.417491,39.330471],[26.379649,39.28266],[26.382172,39.277086],[26.424164,39.245103],[26.466319,39.229234],[26.504731,39.185004],[26.539724,39.165961],[26.526622,39.159125],[26.530772,39.150621],[26.54713,39.135321],[26.550548,39.119208],[26.567638,39.11815],[26.566254,39.097968],[26.579438,39.075344],[26.612315,39.049262]]],[[[25.012218,39.56387],[25.047374,39.545356],[25.040375,39.520575],[24.984874,39.466986],[24.973643,39.514635],[24.976573,39.537665],[24.997895,39.550198],[24.994477,39.558173],[25.012218,39.56387]]],[[[20.092052,39.433539],[20.117686,39.377997],[20.105724,39.364651],[20.0324,39.395006],[19.999278,39.399359],[19.954845,39.426093],[19.911794,39.430325],[19.907481,39.435004],[19.927501,39.44717],[19.879731,39.460761],[19.878754,39.454576],[19.865571,39.468573],[19.828868,39.572333],[19.748546,39.620022],[19.718923,39.673082],[19.681326,39.679999],[19.671723,39.724066],[19.653168,39.714667],[19.650157,39.741767],[19.626475,39.748236],[19.667491,39.793524],[19.799083,39.802802],[19.851817,39.82453],[19.928966,39.79206],[19.934337,39.782945],[19.948009,39.790351],[19.9463,39.759223],[19.933767,39.741156],[19.841563,39.704169],[19.839122,39.679877],[19.858653,39.666246],[19.858653,39.65884],[19.844981,39.65884],[19.844981,39.652655],[19.927501,39.625312],[19.923513,39.603502],[19.900157,39.604193],[19.911876,39.583401],[19.936534,39.472968],[20.032725,39.439276],[20.081879,39.447333],[20.092052,39.433539]]],[[[25.44988,40.0362],[25.436778,40.022528],[25.44988,39.98843],[25.401622,39.963772],[25.38559,39.944403],[25.388927,39.919501],[25.364106,39.917222],[25.347992,39.90644],[25.3685,39.898993],[25.341645,39.883857],[25.340343,39.874213],[25.355479,39.865546],[25.342784,39.854641],[25.369884,39.817125],[25.355479,39.810248],[25.348969,39.787665],[25.295258,39.807685],[25.290294,39.830756],[25.273123,39.835679],[25.256602,39.855902],[25.23878,39.858059],[25.279796,39.889106],[25.275157,39.903632],[25.250662,39.918524],[25.23878,39.919501],[25.197113,39.892808],[25.225108,39.885403],[25.194184,39.873603],[25.177257,39.845038],[25.190929,39.851874],[25.202159,39.84101],[25.221039,39.809963],[25.214529,39.803412],[25.14324,39.817084],[25.169932,39.848456],[25.164887,39.859076],[25.135753,39.837592],[25.128917,39.837592],[25.122081,39.858059],[25.047048,39.837592],[25.067393,39.858059],[25.047048,39.865546],[25.059906,39.885403],[25.053233,39.898993],[25.067393,39.90644],[25.059906,39.90644],[25.068207,39.920803],[25.047048,39.947455],[25.045421,39.984687],[25.033376,39.98843],[25.033376,39.995266],[25.132335,40.008857],[25.171886,39.996975],[25.225108,40.008857],[25.260997,39.990912],[25.28712,39.961086],[25.285167,39.953355],[25.347992,39.981594],[25.347992,39.990302],[25.382091,40.022528],[25.412852,40.022528],[25.44988,40.0362]]],[[[25.690684,40.447699],[25.695323,40.432685],[25.682628,40.423082],[25.589122,40.398139],[25.567149,40.399888],[25.466319,40.455756],[25.443533,40.481879],[25.461681,40.481594],[25.546641,40.515326],[25.575857,40.514716],[25.671886,40.487494],[25.69752,40.461005],[25.690684,40.447699]]],[[[24.786388,40.735053],[24.765473,40.73432],[24.759288,40.723375],[24.766612,40.711493],[24.786388,40.707831],[24.786388,40.687934],[24.769298,40.683417],[24.765798,40.669664],[24.780121,40.612209],[24.755707,40.61994],[24.744477,40.608466],[24.681814,40.594957],[24.642263,40.570624],[24.615001,40.598578],[24.603526,40.597805],[24.601329,40.609809],[24.586762,40.622016],[24.516775,40.639106],[24.511974,40.666815],[24.533376,40.718207],[24.566661,40.755561],[24.642263,40.803941],[24.7317,40.783515],[24.743826,40.759345],[24.775401,40.748765],[24.786388,40.735053]]],[[[23.884288,36.843573],[23.884288,36.832343],[23.87672,36.843695],[23.884288,36.843573]]],[[[23.459646,36.921373],[23.467296,36.906399],[23.457774,36.90644],[23.449718,36.929145],[23.459646,36.921373]]],[[[27.565684,36.24494],[27.616466,36.242621],[27.618663,36.228095],[27.610118,36.216498],[27.582856,36.212551],[27.518891,36.216864],[27.517426,36.230902],[27.526541,36.240058],[27.565684,36.24494]]],[[[27.185802,36.615668],[27.206065,36.587104],[27.198009,36.568305],[27.161388,36.56037],[27.129731,36.569525],[27.12615,36.580064],[27.137218,36.600084],[27.166759,36.615058],[27.185802,36.615668]]],[[[26.871837,37.134101],[26.886892,37.116604],[26.886892,37.105699],[26.849946,37.098456],[26.837576,37.112128],[26.852306,37.124579],[26.817231,37.119859],[26.810395,37.129381],[26.816905,37.146552],[26.776215,37.169664],[26.772716,37.182685],[26.808279,37.200263],[26.849783,37.187323],[26.844086,37.162014],[26.864268,37.153306],[26.871837,37.134101]]],[[[26.598806,37.355414],[26.60613,37.339545],[26.572439,37.347154],[26.548839,37.326565],[26.565196,37.308417],[26.567719,37.274644],[26.546397,37.277167],[26.54477,37.288398],[26.528575,37.300727],[26.538829,37.338121],[26.536388,37.372707],[26.568614,37.374416],[26.598806,37.355414]]],[[[24.739431,37.613837],[24.741222,37.595689],[24.71811,37.593573],[24.659679,37.606879],[24.694021,37.61518],[24.716075,37.631049],[24.732921,37.632066],[24.741059,37.625922],[24.739431,37.613837]]],[[[20.94516,38.652493],[20.952891,38.638861],[20.941661,38.627387],[20.898123,38.606024],[20.870616,38.582506],[20.870128,38.603502],[20.888357,38.628974],[20.903819,38.642768],[20.94516,38.652493]]],[[[20.800955,38.665269],[20.805349,38.661933],[20.796641,38.651068],[20.762869,38.639106],[20.759613,38.627387],[20.800059,38.595445],[20.75172,38.626044],[20.73699,38.652167],[20.74643,38.663479],[20.783051,38.674994],[20.800955,38.665269]]],[[[24.081309,39.352362],[24.094737,39.345526],[24.094005,39.330024],[24.081879,39.304755],[24.063162,39.297024],[24.053722,39.305243],[24.059418,39.314439],[24.041515,39.330512],[24.044932,39.341498],[24.058604,39.361274],[24.067149,39.363023],[24.069835,39.345689],[24.081309,39.352362]]]]}}