{"type":"Feature","properties":{"iso3":"GRD","name":"Grenada","continent":"Americas"},"geometry":{"type":"MultiPolygon","coordinates":[[[[-61.612945,12.214423],[-61.602773,12.182929],[-61.606313,12.133775],[-61.619781,12.10456],[-61.61384,12.08039],[-61.631581,12.044094],[-61.674428,12.02204],[-61.674428,12.029486],[-61.682973,12.025377],[-61.694936,12.002834],[-61.729644,12.015815],[-61.756947,12.003404],[-61.790517,12.008368],[-61.749501,12.036322],[-61.745961,12.05093],[-61.756418,12.087836],[-61.729644,12.166653],[-61.671457,12.23607],[-61.627675,12.236721],[-61.606028,12.223375],[-61.612945,12.214423]]],[[[-61.428049,12.454657],[-61.445668,12.459784],[-61.496246,12.440375],[-61.482655,12.468329],[-61.496246,12.468329],[-61.488881,12.482001],[-61.467275,12.475572],[-61.428049,12.529731],[-61.42162,12.513373],[-61.428049,12.454657]]]]}}