{"type":"Feature","properties":{"iso3":"GRL","name":"Greenland","continent":"Americas"},"geometry":{"type":"MultiPolygon","coordinates":[[[[-40.875803,65.096503],[-41.127553,65.104193],[-40.992421,64.990302],[-41.130116,64.981391],[-41.112213,64.930569],[-40.629058,64.692084],[-40.617991,64.484036],[-40.369293,64.373969],[-41.568471,64.28148],[-40.95934,64.08275],[-40.886342,64.166693],[-40.591624,64.12051],[-40.60204,63.979234],[-40.841664,63.952582],[-40.621693,63.924628],[-40.561106,63.835883],[-40.614125,63.807563],[-40.519643,63.740546],[-40.562489,63.684882],[-40.997914,63.702948],[-41.47289,63.863186],[-41.596425,63.801703],[-41.567738,63.755032],[-40.908518,63.660834],[-40.742787,63.538398],[-41.01415,63.565416],[-41.106272,63.525336],[-40.999338,63.466539],[-41.073638,63.447496],[-41.265859,63.564683],[-41.036285,63.425238],[-41.115956,63.390204],[-41.431874,63.567776],[-41.240102,63.403876],[-41.489613,63.530829],[-41.564849,63.493476],[-41.115956,63.315131],[-41.715932,63.552965],[-41.884429,63.47956],[-41.86205,63.409573],[-41.488515,63.237779],[-41.439687,63.142524],[-41.525054,63.097235],[-42.020904,63.253079],[-41.549469,63.052924],[-41.974843,63.074286],[-42.143951,63.205878],[-42.179677,63.116767],[-41.644521,62.997056],[-41.610097,62.951402],[-41.794667,62.881659],[-41.749664,62.849758],[-42.319447,62.816962],[-42.30016,62.931952],[-42.370432,62.929389],[-42.572825,62.879706],[-42.456125,62.841539],[-42.471018,62.78441],[-42.579661,62.825873],[-42.499379,62.726955],[-42.602651,62.766547],[-42.562164,62.71247],[-42.628407,62.684475],[-42.69579,62.778876],[-42.738189,62.692572],[-43.105702,62.760484],[-43.131256,62.711127],[-42.383697,62.571519],[-42.366444,62.467841],[-42.521596,62.53441],[-42.480295,62.47842],[-42.534169,62.482856],[-42.164377,62.390326],[-42.733062,62.503974],[-42.979888,62.47842],[-42.590484,62.334459],[-42.261138,62.314602],[-42.345611,62.096381],[-42.548492,61.951483],[-42.148101,62.023749],[-42.208608,61.920233],[-42.387115,61.92414],[-42.226389,61.88939],[-42.317291,61.768459],[-42.840688,61.79678],[-42.620107,61.710883],[-42.253733,61.711249],[-42.380849,61.687445],[-42.333079,61.648424],[-42.466664,61.615668],[-42.429433,61.569037],[-43.049428,61.602729],[-42.527455,61.533759],[-42.511057,61.436428],[-42.438832,61.444525],[-42.529042,61.356391],[-43.209462,61.35163],[-42.775054,61.279853],[-42.905385,61.245754],[-42.665191,61.259426],[-42.575836,61.197333],[-43.179189,61.218451],[-42.630483,61.108588],[-43.572011,61.14525],[-42.733632,61.069485],[-42.697743,60.982611],[-42.790924,60.970893],[-42.726674,60.930406],[-43.481842,60.941555],[-42.834096,60.823188],[-42.92162,60.79267],[-43.503774,60.848212],[-42.806508,60.745063],[-42.932729,60.650784],[-43.27538,60.676581],[-43.199615,60.656684],[-42.905385,60.621324],[-42.747182,60.690172],[-42.888173,60.601752],[-43.144399,60.608303],[-42.865834,60.579495],[-43.144399,60.54682],[-43.028391,60.525784],[-43.075063,60.502631],[-43.301096,60.557522],[-43.164418,60.495673],[-43.227447,60.470893],[-43.568837,60.56037],[-43.689198,60.7237],[-43.626617,60.570014],[-43.676503,60.554999],[-44.200185,60.601467],[-43.795522,60.477973],[-43.33731,60.45893],[-43.592681,60.321763],[-43.175282,60.400092],[-43.324534,60.380439],[-43.103424,60.313463],[-43.153432,60.280707],[-43.089752,60.258857],[-43.304107,60.229397],[-43.11026,60.183743],[-43.213287,60.135321],[-43.093373,60.110582],[-43.138173,60.080756],[-43.642649,60.191352],[-44.141835,60.183743],[-43.99474,60.306627],[-44.066762,60.371812],[-44.123891,60.276109],[-44.248931,60.335435],[-44.224192,60.232164],[-44.457753,60.145575],[-44.590199,59.989081],[-44.665517,60.088853],[-44.778147,60.003079],[-44.844472,60.149604],[-44.909657,60.08397],[-44.845448,60.041164],[-45.129221,60.070705],[-44.755116,60.20425],[-44.808949,60.214016],[-44.722401,60.328437],[-44.472646,60.537177],[-44.896311,60.21426],[-45.173818,60.133612],[-45.143056,60.251207],[-44.951527,60.319892],[-44.844472,60.471137],[-44.940338,60.464911],[-44.772369,60.656236],[-44.624745,60.731147],[-45.214223,60.438951],[-45.282704,60.464911],[-45.082997,60.643988],[-45.495595,60.492255],[-45.113881,60.717922],[-45.374379,60.708564],[-45.593088,60.474677],[-45.690745,60.565823],[-45.624664,60.649237],[-45.881093,60.518378],[-45.964711,60.576402],[-45.61144,60.686672],[-45.858022,60.697699],[-45.255035,60.907904],[-45.374908,61.004462],[-45.728342,60.766547],[-45.874867,60.756049],[-45.777903,60.823961],[-45.870188,60.847398],[-46.060658,60.721584],[-46.220082,60.761054],[-45.885365,60.930406],[-45.510243,60.982245],[-45.203236,61.193305],[-45.342681,61.104641],[-45.474477,61.218451],[-45.618479,61.019843],[-46.032826,60.913886],[-46.042877,60.991604],[-45.704742,61.068793],[-45.763295,61.08869],[-45.652659,61.142727],[-45.828725,61.210395],[-45.735666,61.316555],[-45.790761,61.33515],[-45.923207,61.242336],[-46.111928,61.25259],[-45.838206,61.163235],[-45.954213,61.136461],[-45.913319,61.101142],[-46.26183,61.089057],[-46.149403,61.038153],[-46.252187,60.985663],[-46.412953,61.08808],[-46.412953,61.012356],[-46.653147,60.985663],[-46.590077,60.930365],[-46.638295,60.912991],[-46.886545,60.937242],[-46.73058,60.89411],[-46.862294,60.800116],[-47.056508,60.860785],[-46.913889,60.930406],[-46.991607,60.952786],[-47.85912,60.868354],[-47.360219,60.885565],[-47.438344,60.827379],[-48.232777,60.820543],[-47.701527,61.004299],[-48.402211,60.986518],[-47.831858,61.050238],[-47.934885,61.08808],[-47.786366,61.176947],[-48.04662,61.098578],[-48.188832,61.165229],[-48.08788,61.297593],[-47.934193,61.320136],[-48.174469,61.297268],[-48.281565,61.188788],[-48.215443,61.142727],[-48.407216,61.133979],[-48.304799,61.183661],[-48.633168,61.211005],[-48.379872,61.314032],[-48.510854,61.300971],[-48.486073,61.348131],[-48.352895,61.345364],[-48.674713,61.395941],[-48.641103,61.436103],[-49.044911,61.39643],[-48.257924,61.531317],[-48.476145,61.533759],[-48.329335,61.596747],[-48.989654,61.457953],[-49.298573,61.561021],[-48.623158,61.637681],[-48.983266,61.608832],[-48.933217,61.636054],[-49.058339,61.674018],[-48.891225,61.775214],[-49.148305,61.725531],[-49.109242,61.828559],[-48.749867,61.958319],[-48.821278,61.992987],[-49.1669,61.856635],[-49.220082,61.724066],[-49.353179,61.766547],[-49.175649,61.896877],[-49.434926,61.847357],[-49.307607,61.970526],[-48.839223,62.074937],[-49.053822,62.088121],[-49.035024,62.181342],[-49.099436,62.181383],[-49.205637,62.018785],[-49.675282,62.000434],[-49.485463,62.072699],[-49.672109,62.094794],[-49.600331,62.124457],[-49.332631,62.081244],[-49.428212,62.116604],[-49.291737,62.178046],[-49.390859,62.209215],[-49.659576,62.149888],[-49.291737,62.266791],[-49.887563,62.245673],[-49.784535,62.286607],[-49.908559,62.364325],[-50.013824,62.32038],[-50.307729,62.491278],[-50.221018,62.661689],[-49.87328,62.896796],[-50.196645,62.80801],[-50.271799,62.705634],[-50.319569,62.739081],[-50.244456,62.842922],[-50.142649,62.938218],[-49.742014,63.031887],[-50.154856,62.967922],[-50.373891,62.786933],[-50.366689,62.88996],[-50.174957,63.0008],[-50.597035,62.974555],[-50.490875,63.014106],[-50.595123,63.080024],[-50.059438,63.229641],[-51.040679,63.180609],[-50.979115,63.241034],[-51.101064,63.328559],[-50.278554,63.403876],[-51.08731,63.383368],[-51.00475,63.472805],[-51.171132,63.381008],[-51.162343,63.474311],[-50.74413,63.554755],[-51.055287,63.526557],[-51.144521,63.613105],[-50.522084,63.640041],[-51.045766,63.664537],[-51.18517,63.628852],[-51.128489,63.526842],[-51.422515,63.541002],[-51.324045,63.613511],[-51.539215,63.685045],[-51.347401,63.719794],[-51.535512,63.705512],[-51.528676,63.764146],[-50.956207,63.915351],[-51.458404,63.817572],[-51.372426,63.960028],[-51.619374,64.007514],[-50.682688,64.171698],[-50.145375,64.201809],[-50.083852,64.123969],[-50.069895,64.179877],[-50.162587,64.24494],[-50.525461,64.18769],[-50.33316,64.349799],[-50.395375,64.355373],[-50.81428,64.178127],[-51.439931,64.082261],[-51.633168,64.115139],[-51.391184,64.148627],[-51.458648,64.189276],[-51.765126,64.18537],[-50.953277,64.219428],[-50.847157,64.254218],[-51.045766,64.28148],[-50.809641,64.427395],[-50.614654,64.379869],[-50.69636,64.452216],[-50.3662,64.389228],[-50.180287,64.446519],[-50.624501,64.466702],[-50.443023,64.555854],[-50.878,64.582221],[-50.836415,64.645575],[-50.484364,64.657375],[-50.66218,64.685614],[-50.480336,64.712877],[-50.275136,64.654853],[-50.171864,64.504055],[-49.592763,64.342963],[-50.062896,64.529731],[-50.113271,64.654242],[-50.00829,64.681464],[-50.189198,64.761298],[-49.997426,64.863715],[-50.295644,64.747707],[-50.538157,64.769192],[-50.835317,65.123358],[-50.689524,65.206366],[-50.879954,65.152289],[-50.976959,65.219672],[-50.882232,65.00849],[-50.762115,65.003241],[-50.718821,64.893378],[-50.772043,64.870551],[-50.637929,64.770168],[-51.14509,64.616645],[-51.198964,64.624823],[-51.146311,64.722968],[-51.025258,64.761298],[-51.252553,64.760199],[-51.79308,64.239936],[-52.152147,64.242126],[-52.124475,64.377618],[-52.194556,64.472236],[-52.044016,64.495551],[-52.155229,64.537251],[-52.030181,64.585028],[-52.150891,64.59341],[-52.045074,64.625312],[-52.156158,64.678778],[-52.097646,64.731838],[-51.531606,64.869086],[-51.244985,65.02143],[-51.662709,64.893744],[-51.590688,64.972968],[-51.662343,65.024807],[-51.879262,64.837063],[-52.066396,64.796454],[-51.943918,64.877387],[-52.057281,64.923733],[-52.183502,64.802314],[-52.216298,64.883531],[-52.042836,64.95775],[-52.272857,65.103949],[-52.125071,65.117336],[-52.207143,65.169013],[-52.00475,65.31623],[-52.296376,65.203274],[-52.196848,65.310614],[-52.320058,65.288275],[-52.327504,65.343492],[-52.488271,65.206366],[-52.485707,65.298163],[-52.567047,65.31623],[-51.745595,65.582099],[-51.857411,65.604478],[-51.491444,65.74079],[-50.53185,65.69302],[-50.943023,65.782375],[-51.441029,65.772528],[-51.970082,65.678209],[-51.994293,65.521918],[-52.473134,65.394965],[-52.546539,65.432318],[-52.452016,65.508734],[-52.614247,65.489814],[-52.481028,65.624335],[-52.767242,65.524848],[-52.786773,65.57689],[-52.663319,65.617906],[-52.766428,65.593695],[-52.578928,65.666571],[-52.744537,65.638739],[-52.642201,65.713446],[-52.69343,65.807278],[-52.824045,65.672512],[-53.239247,65.686184],[-52.877024,65.794501],[-53.239369,65.739895],[-52.694,65.939399],[-52.299184,65.837144],[-52.235748,65.93537],[-51.977406,66.003607],[-51.711171,65.939399],[-51.826039,65.996405],[-51.731028,66.07038],[-52.181711,65.997992],[-52.286855,65.914618],[-52.504547,65.905015],[-52.576405,66.008043],[-53.154124,65.860541],[-53.265981,65.912095],[-52.874908,66.021918],[-53.455393,65.960761],[-53.107655,66.021918],[-53.427113,66.022284],[-53.382069,66.078315],[-52.360992,66.440253],[-52.002268,66.485053],[-51.874664,66.642035],[-51.459055,66.704291],[-51.504709,66.732123],[-51.283355,66.844916],[-50.364003,66.829291],[-51.011627,66.905748],[-50.696645,67.00495],[-49.997426,66.981513],[-50.634267,67.015041],[-50.302846,67.06387],[-51.174672,66.927883],[-53.005849,66.200019],[-53.450917,66.103909],[-53.663197,66.138617],[-53.529693,66.233222],[-53.121938,66.289455],[-53.656972,66.275214],[-53.67748,66.377631],[-53.498687,66.474433],[-53.643178,66.417873],[-53.519439,66.528266],[-52.457265,66.522203],[-53.455678,66.605618],[-53.286488,66.693549],[-52.613149,66.707994],[-53.204498,66.748114],[-52.649037,66.800971],[-53.092275,66.766343],[-53.002065,66.855129],[-52.254221,66.82274],[-52.446929,66.873481],[-52.30956,66.894355],[-52.478139,66.961737],[-52.799794,66.892157],[-53.647043,66.911566],[-53.824859,66.974066],[-53.217519,66.994574],[-53.814036,67.049791],[-53.42984,67.095404],[-53.964915,67.077704],[-53.711659,67.192288],[-53.411855,67.196357],[-53.588124,67.221137],[-53.521474,67.24136],[-52.190663,67.371894],[-51.552846,67.331],[-51.176137,67.124905],[-50.346832,67.186957],[-51.182281,67.145413],[-51.52184,67.350491],[-51.132558,67.41352],[-52.114003,67.40119],[-53.113678,67.280097],[-53.251047,67.327135],[-53.766916,67.20661],[-53.874745,67.276028],[-53.782704,67.429674],[-52.909739,67.687201],[-53.087717,67.655585],[-53.047719,67.695787],[-52.532948,67.741889],[-52.827748,67.741889],[-52.409088,67.769232],[-51.754547,67.632636],[-51.348012,67.679511],[-50.579213,67.482489],[-50.104604,67.505316],[-50.551747,67.510199],[-50.87442,67.604682],[-50.281606,67.738471],[-49.935943,67.700263],[-50.286,67.745429],[-51.011627,67.62519],[-50.928782,67.654242],[-51.288889,67.714301],[-50.28775,67.814399],[-50.751129,67.910834],[-50.877268,67.8664],[-50.669423,67.851711],[-51.145253,67.76439],[-51.347483,67.872992],[-50.975942,67.886868],[-51.243886,67.969916],[-51.551666,67.939399],[-51.336903,67.837958],[-51.495351,67.727973],[-51.769643,67.699205],[-51.783355,67.761298],[-51.646108,67.760443],[-52.298818,67.810614],[-52.159006,67.891588],[-51.601308,67.947943],[-51.836781,67.940497],[-53.003774,67.757717],[-53.576731,67.518866],[-53.725494,67.531643],[-53.589182,67.650621],[-53.697336,67.645697],[-53.545562,67.711371],[-53.658437,67.79564],[-53.59557,67.831244],[-53.277984,67.805813],[-53.459625,67.873236],[-53.18399,67.83808],[-53.241282,67.842719],[-53.068186,67.88231],[-53.314361,67.913764],[-52.889231,67.981513],[-53.259145,67.988959],[-53.176584,68.046088],[-52.207102,67.926825],[-52.059316,67.975287],[-52.754506,67.98664],[-53.135894,68.109117],[-53.149281,68.173285],[-53.457753,68.152777],[-53.307973,68.18651],[-52.388987,68.077623],[-52.75414,68.168647],[-52.582875,68.191067],[-51.975209,68.054023],[-51.217112,68.070868],[-50.61974,67.913764],[-50.178456,67.920396],[-51.417063,68.198188],[-50.997955,68.180732],[-51.357004,68.248358],[-51.155629,68.294827],[-51.175771,68.384182],[-50.772043,68.495429],[-50.848012,68.507148],[-51.649037,68.413479],[-51.232167,68.329047],[-51.31314,68.282782],[-52.445139,68.181464],[-52.542836,68.295559],[-52.758046,68.282701],[-52.670074,68.260932],[-52.714467,68.215481],[-52.919789,68.255439],[-52.61498,68.32982],[-53.389475,68.331529],[-53.08849,68.317857],[-52.411366,68.50845],[-52.642201,68.515855],[-52.193186,68.572211],[-51.812896,68.578559],[-51.964426,68.564276],[-51.86441,68.516995],[-51.148834,68.56391],[-51.035715,68.584174],[-51.07372,68.701402],[-50.88036,68.619574],[-50.825266,68.673774],[-50.991119,68.735582],[-50.654693,68.831204],[-51.248606,68.749579],[-51.217112,68.845445],[-50.987416,68.920844],[-51.155995,68.886908],[-51.062001,69.114407],[-50.790191,69.128485],[-50.74413,69.0987],[-50.944936,69.047187],[-50.634267,69.072008],[-50.334381,68.907782],[-50.460072,69.029608],[-50.264963,69.057766],[-50.221669,68.959906],[-50.210194,69.06387],[-50.676178,69.111558],[-50.130116,69.20246],[-50.430979,69.194485],[-50.47053,69.292955],[-50.390289,69.325629],[-50.600087,69.276801],[-50.543202,69.258043],[-50.593902,69.221381],[-51.094146,69.201117],[-50.867665,69.283677],[-50.951894,69.300116],[-50.758412,69.47606],[-50.20287,69.523261],[-50.874501,69.4914],[-50.775258,69.650295],[-50.424184,69.599189],[-50.794423,69.672065],[-50.574941,69.789008],[-50.20995,69.758612],[-50.306508,69.873277],[-50.561269,69.916164],[-50.560943,69.974921],[-50.209706,70.01675],[-50.471059,70.057929],[-51.259674,69.963039],[-50.860829,70.024115],[-51.221059,70.073961],[-51.43871,69.966457],[-52.329498,70.053616],[-52.609975,70.217108],[-54.018707,70.413235],[-54.611073,70.65469],[-54.155385,70.828803],[-52.790639,70.756781],[-51.549428,70.431586],[-50.56664,70.333686],[-50.637685,70.391262],[-50.516916,70.497992],[-50.559722,70.53266],[-50.74413,70.428209],[-50.992787,70.424954],[-51.058583,70.439032],[-50.942738,70.469794],[-51.325917,70.555406],[-51.182281,70.626207],[-50.867665,70.517646],[-50.89745,70.557807],[-50.78661,70.548082],[-50.991119,70.613186],[-50.63622,70.620266],[-51.445139,70.73192],[-51.170766,70.806098],[-50.638295,70.729153],[-50.894114,70.808051],[-50.847157,70.873236],[-51.123647,70.843899],[-51.914866,71.02143],[-51.831939,71.069403],[-50.936147,70.986884],[-51.476552,71.063788],[-51.223297,71.140774],[-52.242747,71.126776],[-51.535756,71.31269],[-51.749013,71.360419],[-52.534332,71.153062],[-52.114491,71.398017],[-51.370107,71.471625],[-51.682281,71.509589],[-52.426259,71.37226],[-52.992258,71.421332],[-52.737782,71.512681],[-51.781606,71.602729],[-51.64623,71.717515],[-52.166412,71.613105],[-53.265981,71.709906],[-52.89566,71.835639],[-52.683176,72.004096],[-53.351877,71.774319],[-53.398264,72.01496],[-53.698313,72.125922],[-53.813547,72.301988],[-53.581125,72.349514],[-53.870229,72.356635],[-53.920969,72.349066],[-53.835113,72.162421],[-53.410512,71.8664],[-53.639801,71.747789],[-53.885487,71.75434],[-53.76887,71.719672],[-53.765859,71.640326],[-54.081614,71.717353],[-54.090199,71.644232],[-53.848785,71.545478],[-53.912587,71.450507],[-54.625152,71.351304],[-55.205881,71.481594],[-55.26769,71.484036],[-55.131744,71.404039],[-55.514475,71.449164],[-55.662709,71.597561],[-55.569325,71.641059],[-55.887115,71.676581],[-55.464019,71.80268],[-55.284657,71.768622],[-55.370107,71.825995],[-55.330434,71.883124],[-54.853342,71.912991],[-54.555247,72.033759],[-54.383209,72.223212],[-54.529042,72.177436],[-54.630238,72.024604],[-55.267812,71.927314],[-55.60969,71.990465],[-54.883453,72.251166],[-54.951772,72.360419],[-54.684885,72.367174],[-55.651275,72.442939],[-55.459137,72.525946],[-54.32433,72.476386],[-55.016591,72.535468],[-54.664662,72.613756],[-54.877065,72.666571],[-54.627309,72.688137],[-54.753774,72.737779],[-54.526601,72.778754],[-54.924428,72.78559],[-54.602935,72.83397],[-54.843007,73.013414],[-55.712717,73.087226],[-55.335317,73.182807],[-55.459462,73.189643],[-55.162587,73.182196],[-55.459462,73.25788],[-55.269114,73.386623],[-55.095123,73.354153],[-56.031117,73.638373],[-55.843088,73.683092],[-55.99592,73.679918],[-55.91454,73.761461],[-55.651682,73.701361],[-55.945465,73.861233],[-55.662465,73.84394],[-56.101918,74.012152],[-55.993886,74.012112],[-56.41161,74.067328],[-56.19872,74.121283],[-56.29898,74.111558],[-56.124257,74.279608],[-57.295766,74.099758],[-56.321929,74.287746],[-56.713246,74.347846],[-56.154652,74.369086],[-56.758656,74.444485],[-56.168324,74.477525],[-56.241933,74.497707],[-56.191884,74.55329],[-57.158315,74.738267],[-57.144032,74.793769],[-56.795237,74.813951],[-57.016265,74.906968],[-58.121409,75.046698],[-58.076975,75.087714],[-58.1315,75.108222],[-57.940663,75.150946],[-58.439361,75.314276],[-58.27599,75.388414],[-58.700103,75.348456],[-58.184397,75.48428],[-58.395172,75.556627],[-58.310292,75.643256],[-58.55724,75.65412],[-58.405914,75.71894],[-59.041615,75.701361],[-59.067535,75.7626],[-59.282867,75.766099],[-59.139516,75.841864],[-59.272206,75.880113],[-59.772939,75.801418],[-59.611236,75.903225],[-60.500844,76.067369],[-60.733632,75.999172],[-60.907297,76.081488],[-60.847646,76.103461],[-60.924062,76.165676],[-62.16686,76.221991],[-62.266754,76.289944],[-62.736318,76.25731],[-62.756418,76.201321],[-62.819569,76.280015],[-63.341379,76.373684],[-63.476918,76.376899],[-63.810699,76.159125],[-64.096669,76.145738],[-64.199534,76.311591],[-64.429067,76.349026],[-64.401763,76.253363],[-64.671783,76.271674],[-64.603993,76.193834],[-64.683176,76.185858],[-64.594146,76.136054],[-65.342641,76.175849],[-65.344553,76.057318],[-65.662343,76.040473],[-65.860504,76.092719],[-65.701405,76.185533],[-65.760081,76.202826],[-65.578277,76.230292],[-65.740142,76.27851],[-66.207265,76.277818],[-66.413726,76.086127],[-66.927154,76.266506],[-67.295481,76.179836],[-66.451283,75.923774],[-66.564809,75.916571],[-68.472808,76.091742],[-68.545969,76.104193],[-68.4381,76.1435],[-68.52009,76.168036],[-68.79247,76.166815],[-69.617828,76.371039],[-69.600819,76.431708],[-68.732777,76.586249],[-68.031117,76.584052],[-67.985585,76.622707],[-68.070546,76.644721],[-68.002268,76.673733],[-69.239898,76.676581],[-70.085194,76.795844],[-69.581899,76.988674],[-69.728871,77.016425],[-70.521108,76.787177],[-70.987213,76.89704],[-70.694569,76.931627],[-71.384429,77.023993],[-71.001047,77.155422],[-70.69929,77.150865],[-70.92516,77.178168],[-69.733469,77.239],[-66.411855,77.114447],[-66.170074,77.198676],[-66.63683,77.153998],[-69.061879,77.25727],[-68.369496,77.376858],[-67.435943,77.383572],[-66.260569,77.251858],[-66.196767,77.260728],[-66.663482,77.417792],[-66.067047,77.466213],[-66.215077,77.545396],[-66.163238,77.56859],[-66.68399,77.671617],[-66.663482,77.719428],[-67.140859,77.672268],[-67.250111,77.574774],[-67.591664,77.524359],[-68.356435,77.499945],[-68.370269,77.566555],[-68.729848,77.669135],[-68.814809,77.658026],[-68.609975,77.564887],[-68.638417,77.509711],[-69.222564,77.452908],[-70.255442,77.557359],[-69.518178,77.687445],[-69.479604,77.754218],[-70.675649,77.680162],[-69.992909,77.828315],[-70.376983,77.862779],[-71.312815,77.769843],[-71.429514,77.793036],[-71.240346,77.852607],[-71.312164,77.888821],[-72.241689,77.938544],[-72.335764,78.002387],[-72.296946,78.048407],[-73.05724,78.158271],[-72.460764,78.288642],[-72.850575,78.315334],[-72.584299,78.425116],[-72.632069,78.494086],[-71.554555,78.643459],[-70.81428,78.598944],[-70.745839,78.69538],[-69.908559,78.803941],[-68.780751,78.836656],[-69.148264,78.915758],[-67.182851,79.157864],[-65.818837,79.129096],[-65.880849,79.140611],[-64.819447,79.552395],[-64.974355,79.649848],[-64.930247,79.689765],[-65.032338,79.754625],[-64.964711,79.775824],[-65.100901,79.840806],[-64.949818,79.96015],[-65.073354,80.008531],[-63.814687,80.138577],[-64.140859,80.158759],[-64.222768,80.255683],[-64.473297,80.105658],[-65.863352,80.01203],[-66.433339,80.117336],[-67.05012,80.061184],[-67.164459,80.162909],[-67.462392,80.184719],[-67.518666,80.26553],[-66.724965,80.488715],[-66.779693,80.523627],[-66.053375,80.665839],[-65.525217,80.663398],[-65.689931,80.694892],[-65.124745,80.779731],[-64.979237,80.902737],[-64.434438,81.027981],[-63.655019,81.149075],[-62.779937,80.758775],[-63.154449,80.936754],[-63.344716,81.121527],[-62.976796,81.228339],[-62.196401,81.199123],[-61.545522,81.06623],[-61.07608,81.12051],[-60.892974,81.166164],[-61.295644,81.349595],[-60.773183,81.491645],[-61.454254,81.745022],[-60.533559,81.912746],[-58.83849,81.86225],[-58.695546,81.778876],[-58.72704,81.695136],[-57.644928,81.591295],[-57.190826,81.424994],[-56.452545,81.33808],[-57.747548,81.650946],[-58.137766,81.666978],[-58.617096,81.893297],[-59.426625,81.979682],[-57.713246,82.167304],[-56.466461,82.235541],[-56.307525,82.166449],[-55.958892,82.272773],[-55.271637,82.249579],[-55.327789,82.234076],[-55.139638,82.162746],[-55.25536,82.275295],[-55.575551,82.275051],[-54.440745,82.372707],[-53.576975,82.12934],[-53.61441,82.03856],[-53.503489,81.93651],[-53.821523,81.700507],[-53.807851,81.588202],[-53.472035,81.508734],[-53.650217,81.536078],[-53.485707,81.550279],[-53.553944,81.652777],[-52.94872,81.852688],[-52.964263,82.036322],[-51.38622,81.904853],[-49.921498,81.611762],[-49.61384,81.645941],[-51.066274,81.933905],[-49.829091,81.871161],[-49.475575,81.927151],[-50.581288,82.153998],[-51.082834,82.479926],[-49.011342,82.454535],[-47.557525,82.208238],[-47.605865,82.180365],[-46.008168,82.0362],[-46.050445,81.954413],[-44.704457,81.758857],[-44.172922,81.837714],[-44.931793,82.033433],[-44.398793,82.105211],[-44.780873,82.182115],[-44.562856,82.293402],[-42.302113,82.215074],[-43.835439,82.341986],[-43.884877,82.372748],[-43.765736,82.39765],[-45.744211,82.753567],[-42.048248,82.756334],[-42.145172,82.727932],[-41.829091,82.641669],[-41.812978,82.530585],[-41.614735,82.479682],[-41.555491,82.533515],[-41.640248,82.57038],[-41.615834,82.636664],[-41.898061,82.72899],[-41.577545,82.747301],[-40.22761,82.567532],[-40.005605,82.488837],[-40.054799,82.412055],[-39.755971,82.395941],[-39.859486,82.43537],[-39.759145,82.502427],[-40.009511,82.563544],[-39.901845,82.60456],[-39.953114,82.693061],[-40.317209,82.730699],[-45.062978,82.913316],[-44.86498,82.872382],[-45.974436,82.842841],[-46.846995,82.959662],[-45.981597,82.920844],[-46.700917,83.002753],[-45.970693,83.096503],[-45.077219,82.961819],[-43.363515,82.920844],[-45.120432,83.036689],[-45.485666,83.110826],[-45.446156,83.155341],[-42.850209,83.099555],[-44.000966,83.201972],[-42.891184,83.208197],[-43.322581,83.23607],[-42.665842,83.281195],[-41.740712,83.194648],[-41.931549,83.092108],[-41.669545,83.13996],[-40.690297,82.986518],[-39.437611,82.961819],[-38.590891,82.747626],[-38.494496,82.815497],[-39.124582,82.971381],[-37.272084,83.009589],[-38.759185,83.046576],[-36.881012,83.153551],[-38.68342,83.208401],[-38.861684,83.256659],[-38.724477,83.277086],[-38.827504,83.352851],[-38.738149,83.393744],[-38.868479,83.427314],[-37.813059,83.359524],[-37.738189,83.372707],[-38.059682,83.43476],[-37.585439,83.508043],[-36.449778,83.361762],[-36.696116,83.414252],[-36.483754,83.43476],[-36.535471,83.451158],[-36.857086,83.480536],[-36.738596,83.538031],[-35.243601,83.537177],[-34.702463,83.606024],[-34.52123,83.542182],[-34.362904,83.602932],[-33.830474,83.461982],[-33.742787,83.489407],[-34.085439,83.56509],[-32.490712,83.634101],[-30.647125,83.601752],[-29.148305,83.477525],[-28.630116,83.521959],[-28.555776,83.514879],[-28.92512,83.475735],[-28.562571,83.420478],[-28.150461,83.43476],[-28.445221,83.455227],[-28.384633,83.471259],[-25.649648,83.297553],[-26.075429,83.208482],[-32.161733,83.060981],[-33.439809,83.159613],[-32.50475,83.065823],[-35.620432,82.907172],[-35.298248,82.89289],[-35.551503,82.766547],[-35.471018,82.746161],[-34.951039,82.904853],[-34.024281,82.919623],[-33.843129,82.886298],[-33.804351,82.841702],[-33.934641,82.797919],[-33.884633,82.794501],[-33.72289,82.817532],[-33.731028,82.891547],[-33.602651,82.94538],[-31.82665,82.994574],[-31.665598,82.931708],[-31.391998,83.020697],[-30.096913,83.126207],[-28.142812,83.047919],[-25.221425,83.167873],[-24.840932,83.112616],[-24.945668,83.103461],[-24.785064,83.028388],[-25.149281,82.852851],[-25.903554,82.783637],[-23.933095,82.916409],[-23.872548,82.908108],[-23.97997,82.873684],[-23.911936,82.822008],[-23.989735,82.771877],[-23.384185,82.85224],[-21.339508,82.626288],[-21.44933,82.547024],[-22.30602,82.427395],[-22.217641,82.406399],[-22.437327,82.339993],[-23.886708,82.278876],[-29.852284,82.13935],[-31.582102,82.22012],[-29.905141,82.098375],[-32.562856,81.883287],[-32.813303,81.794379],[-32.667144,81.676988],[-32.147939,81.681301],[-31.680165,81.834784],[-29.788442,81.948228],[-29.549672,81.890041],[-29.038564,81.999905],[-27.761952,82.062445],[-24.619862,81.987494],[-24.681793,81.942776],[-24.641103,81.804999],[-24.706207,81.781195],[-26.703765,81.541205],[-26.387196,81.42772],[-23.766347,81.746039],[-23.40392,81.718817],[-23.307729,81.792548],[-23.360463,81.882392],[-23.288442,81.90176],[-23.312123,81.965033],[-23.195424,82.022284],[-21.388417,82.083441],[-21.069203,81.933254],[-21.024648,81.766547],[-21.23762,81.539293],[-23.266754,80.896308],[-23.268951,80.801337],[-23.897084,80.600653],[-23.093251,80.727973],[-23.101959,80.783637],[-22.934641,80.814887],[-22.980133,80.872504],[-22.747548,80.931464],[-20.951283,81.235745],[-19.851186,81.542914],[-20.050649,81.587348],[-19.70816,81.695502],[-19.639516,81.636461],[-19.025543,81.618842],[-19.466461,81.404364],[-18.523752,81.505683],[-17.855336,81.403754],[-17.860748,81.466132],[-17.50593,81.38817],[-17.14684,81.413398],[-17.190989,81.447252],[-16.835317,81.524115],[-17.046539,81.562242],[-17.000722,81.58983],[-16.475697,81.624701],[-16.540028,81.684556],[-16.489003,81.7272],[-15.290028,81.838813],[-12.570058,81.696234],[-11.37682,81.47602],[-13.335683,81.027045],[-14.552724,80.990627],[-14.132192,80.886176],[-14.294911,80.784329],[-15.395823,80.659613],[-17.062978,80.662828],[-17.239898,80.722317],[-18.322255,80.558051],[-19.471669,80.665432],[-20.809885,80.562242],[-20.406809,80.538886],[-20.352651,80.460598],[-19.488026,80.634833],[-18.055084,80.491767],[-16.89623,80.583686],[-15.793446,80.437242],[-16.401723,80.30858],[-16.344106,80.26789],[-16.447336,80.219306],[-17.872874,80.161119],[-19.474355,80.260199],[-20.171213,80.104315],[-19.991322,80.088853],[-20.193959,80.034125],[-20.077016,79.989732],[-20.408925,79.854641],[-20.114329,79.823188],[-19.848622,79.682807],[-19.485666,79.773668],[-19.207753,79.708482],[-19.385325,79.624091],[-19.352651,79.57392],[-19.565907,79.385932],[-19.466054,79.314765],[-19.603586,79.179918],[-19.262278,79.390692],[-19.241689,79.283108],[-18.874745,79.236558],[-19.231313,79.097317],[-19.878529,79.031968],[-19.77599,78.881252],[-19.881337,78.836859],[-20.948842,78.783026],[-20.856923,78.718085],[-21.192983,78.644477],[-20.842437,78.608547],[-21.295033,78.299994],[-21.23998,78.184394],[-21.366444,78.144273],[-21.342926,78.066555],[-21.629994,77.998114],[-21.578765,77.887885],[-21.779652,77.851752],[-21.967275,77.679185],[-21.49352,77.673529],[-21.597076,77.561591],[-21.51887,77.583726],[-21.292714,77.674547],[-21.401479,77.75019],[-20.962148,77.970364],[-19.142242,77.687201],[-19.020579,77.633775],[-19.357981,77.526353],[-20.092152,77.701361],[-20.821523,77.65351],[-20.278432,77.533026],[-20.339019,77.516913],[-20.892201,77.530015],[-20.203277,77.421536],[-20.465403,77.382799],[-19.492014,77.293036],[-19.443715,77.209866],[-19.274566,77.189276],[-19.062652,77.186713],[-19.108713,77.215481],[-19.036285,77.320136],[-18.564565,77.288275],[-18.2683,77.12759],[-18.258616,76.946967],[-18.380279,76.819403],[-18.612782,76.776435],[-18.628407,76.701606],[-19.032379,76.83275],[-20.513417,76.945705],[-20.805002,76.871039],[-21.730051,76.890815],[-20.805247,76.850775],[-21.250356,76.81151],[-21.661122,76.645697],[-22.265859,76.859361],[-22.469879,76.835598],[-22.323354,76.765326],[-22.744211,76.698432],[-22.515004,76.665676],[-22.332997,76.517157],[-22.145009,76.645819],[-21.805165,76.588568],[-22.086293,76.554999],[-21.674794,76.527086],[-22.01183,76.482327],[-21.68106,76.490627],[-22.504018,76.451361],[-21.613352,76.445136],[-21.571278,76.397284],[-21.696604,76.261054],[-21.652089,76.237738],[-21.120513,76.284613],[-20.558217,76.149726],[-20.674916,76.136054],[-20.42101,76.136054],[-21.062734,76.28852],[-20.894439,76.307929],[-20.489125,76.223578],[-19.937734,76.257961],[-19.69811,76.143704],[-19.721425,76.075263],[-20.269399,75.992336],[-21.983876,75.992662],[-19.934967,75.934027],[-19.345326,75.732611],[-19.612294,75.684231],[-19.39623,75.559963],[-19.341908,75.411322],[-19.427235,75.225531],[-19.573842,75.148749],[-19.879791,75.149807],[-20.01594,75.21011],[-19.947987,75.279527],[-20.140248,75.336086],[-20.667836,75.293158],[-21.669057,75.592678],[-22.263092,75.669501],[-21.407948,75.458319],[-22.461334,75.534573],[-21.429189,75.43183],[-20.517201,75.14232],[-21.181996,75.121894],[-21.760732,74.985297],[-22.436391,75.170233],[-21.769114,74.960191],[-21.115956,75.090888],[-20.676625,75.074408],[-20.626373,75.06037],[-20.764231,74.840725],[-20.609731,74.734849],[-21.097646,74.673163],[-20.202301,74.679511],[-19.718373,74.58747],[-19.35554,74.684516],[-19.269602,74.648871],[-19.386301,74.560736],[-18.974762,74.484361],[-19.349233,74.285468],[-19.626536,74.238593],[-20.200673,74.279771],[-20.35733,74.445258],[-21.628896,74.446763],[-22.046539,74.600084],[-22.114247,74.594224],[-21.801137,74.397406],[-22.436391,74.320543],[-22.069081,74.294257],[-22.097564,74.214301],[-22.304107,74.175605],[-22.178578,74.151557],[-22.2294,74.101304],[-22.477935,74.087795],[-22.028879,74.013251],[-21.812652,73.847602],[-21.851064,73.747626],[-21.788442,73.659247],[-21.702748,73.696723],[-21.908559,74.015815],[-21.784657,74.053046],[-20.29601,73.886135],[-20.287709,73.797919],[-20.490305,73.734524],[-20.521596,73.571438],[-20.400543,73.496527],[-20.543284,73.449042],[-21.543202,73.490424],[-21.620188,73.45718],[-21.555328,73.424384],[-21.598866,73.391547],[-22.314076,73.250434],[-23.449941,73.436103],[-23.968495,73.588568],[-24.025502,73.687201],[-23.571685,73.716498],[-22.662221,73.548651],[-22.175038,73.627875],[-22.799469,73.567613],[-24.060048,73.820258],[-24.433461,73.711615],[-24.471588,73.655748],[-24.375396,73.559556],[-24.426137,73.540961],[-24.941518,73.612494],[-24.973785,73.702338],[-25.672475,73.956448],[-25.734853,73.940253],[-25.550893,73.811225],[-24.692047,73.531562],[-25.292226,73.473538],[-25.498891,73.402533],[-25.452626,73.345771],[-25.965403,73.241889],[-26.825551,73.342678],[-27.332387,73.498114],[-27.450103,73.457221],[-26.396962,73.238023],[-26.713368,73.134711],[-27.044342,73.186225],[-27.725901,73.134426],[-27.403554,73.110663],[-27.3662,73.012844],[-27.507395,72.947089],[-27.441396,72.936713],[-27.327626,72.968329],[-27.260121,73.127183],[-26.651682,73.103217],[-26.444488,73.196682],[-25.052561,73.08393],[-24.984283,73.025784],[-25.13561,72.939765],[-25.696156,72.902737],[-26.082631,72.782416],[-27.355946,72.860663],[-26.396962,72.771308],[-26.761383,72.717434],[-26.349477,72.74494],[-26.452952,72.600043],[-25.651845,72.81977],[-25.256215,72.811184],[-24.716786,72.686428],[-24.708363,72.587714],[-24.601308,72.552191],[-25.132314,72.436184],[-25.909739,72.422512],[-25.28893,72.39057],[-25.488515,72.238715],[-25.458485,72.129096],[-25.208119,72.356391],[-24.546376,72.423407],[-23.744537,72.236802],[-23.711252,72.181952],[-23.809071,72.134752],[-23.758412,72.120795],[-23.108388,72.06684],[-23.16808,72.026028],[-22.503407,71.900784],[-23.123199,71.631903],[-22.408437,71.771389],[-22.64387,71.675442],[-22.59553,71.574123],[-22.214426,71.756496],[-21.894521,71.743476],[-22.190541,71.648627],[-22.112538,71.619289],[-22.489898,71.557685],[-22.497792,71.367336],[-22.3933,71.256822],[-22.30602,71.415107],[-22.132395,71.490912],[-21.774159,71.514635],[-21.818756,71.428778],[-21.695668,71.41649],[-21.856191,71.348619],[-21.606516,71.333197],[-21.963368,71.270453],[-21.766835,71.265123],[-21.661122,71.188544],[-21.712799,71.137885],[-21.846669,71.19538],[-21.715728,71.119696],[-22.333363,71.059475],[-21.674794,71.06566],[-21.990102,70.976264],[-21.60025,70.964789],[-21.744293,70.800279],[-21.887278,70.8133],[-21.665842,70.802232],[-21.76773,70.750963],[-21.545725,70.709377],[-21.76415,70.709377],[-21.579213,70.674628],[-21.760854,70.57807],[-21.50182,70.553127],[-21.538238,70.497056],[-21.940053,70.390326],[-22.022857,70.499498],[-22.341379,70.43891],[-22.479156,70.855414],[-22.64859,70.723049],[-22.56607,70.571601],[-22.610748,70.45954],[-23.345448,70.440579],[-24.066274,70.689683],[-24.207509,70.861314],[-24.227691,71.043524],[-24.669423,71.271959],[-24.61498,71.339342],[-25.096059,71.304836],[-25.641591,71.541653],[-26.275502,71.570502],[-26.401479,71.642483],[-26.785146,71.546536],[-27.931386,72.010484],[-28.188385,71.99726],[-28.620269,72.134467],[-28.665273,72.103095],[-28.360422,72.007148],[-28.468739,71.978339],[-27.861806,71.908026],[-27.801625,71.874457],[-28.007965,71.897162],[-27.33137,71.718817],[-27.40803,71.642483],[-28.474273,71.585395],[-28.419911,71.54975],[-27.650787,71.613105],[-27.122548,71.57217],[-27.306549,71.526313],[-27.219594,71.481391],[-25.805043,71.490668],[-25.460113,71.381985],[-25.4169,71.284735],[-25.780019,71.257473],[-25.595082,71.19538],[-25.986887,71.069037],[-26.828359,70.935289],[-27.506174,70.942125],[-27.771352,71.146715],[-27.90746,71.140326],[-27.618153,70.953803],[-28.363637,70.989976],[-28.411122,70.968817],[-27.920888,70.881293],[-28.041575,70.712388],[-28.336049,70.626207],[-28.239817,70.599514],[-28.310292,70.56387],[-29.222483,70.461615],[-29.110585,70.39411],[-28.281361,70.510728],[-28.274566,70.38349],[-28.041331,70.384833],[-26.743316,70.484117],[-26.321278,70.379788],[-26.698638,70.290432],[-26.935048,70.326117],[-27.903961,70.092434],[-28.57372,70.099677],[-27.976877,70.013495],[-27.594716,70.060492],[-27.473622,69.959784],[-27.283681,69.992011],[-27.102895,70.203315],[-26.909657,70.248725],[-26.326161,70.19831],[-25.305287,70.413235],[-25.247629,70.413479],[-25.359527,70.371649],[-25.272939,70.35932],[-25.343984,70.287014],[-25.000885,70.365627],[-23.863352,70.133734],[-22.109731,70.155219],[-22.296132,70.001288],[-23.278676,69.859687],[-22.917836,69.819281],[-22.99885,69.765611],[-23.33434,69.861518],[-23.389272,69.852607],[-23.256215,69.774563],[-23.929799,69.756008],[-23.579701,69.633124],[-23.814198,69.512274],[-24.308013,69.601752],[-24.085683,69.518704],[-24.149526,69.441352],[-24.094228,69.42829],[-24.342844,69.442532],[-24.479604,69.363023],[-24.707509,69.434516],[-24.758941,69.407782],[-24.61498,69.318427],[-24.745473,69.301581],[-24.649078,69.290473],[-24.675526,69.244615],[-25.190989,69.283677],[-25.258534,69.252753],[-24.99177,69.166938],[-25.327545,69.132799],[-25.242421,69.078681],[-25.293446,69.037258],[-25.656484,69.091864],[-25.553782,69.047187],[-25.656484,69.009345],[-25.445058,68.98078],[-25.701527,68.962144],[-25.598459,68.921129],[-25.625478,68.875881],[-25.789215,68.888577],[-25.944488,68.790229],[-26.235219,68.792629],[-26.325551,68.679145],[-26.743804,68.705227],[-27.022288,68.589545],[-27.324086,68.609687],[-27.259836,68.571031],[-27.314443,68.535102],[-27.582183,68.578559],[-27.722727,68.544257],[-27.602366,68.495429],[-27.742584,68.477525],[-27.980336,68.571112],[-28.007069,68.471015],[-28.356516,68.502875],[-28.253489,68.447577],[-28.507924,68.447577],[-28.663157,68.36164],[-29.172109,68.399807],[-29.096995,68.31037],[-29.447906,68.263373],[-29.395172,68.22427],[-29.895172,68.39643],[-30.069447,68.32099],[-29.993886,68.263373],[-30.049509,68.242174],[-30.272776,68.26557],[-30.008168,68.126044],[-30.145334,68.104967],[-30.337636,68.099351],[-30.394643,68.198188],[-30.67162,68.257554],[-30.816884,68.255805],[-30.49474,68.18476],[-30.437367,68.078559],[-31.12442,68.057196],[-31.403676,68.162746],[-31.474233,68.152777],[-31.431386,68.102525],[-31.693837,68.09927],[-31.748525,68.21426],[-31.528879,68.235907],[-31.969065,68.25609],[-32.145009,68.389065],[-32.131744,68.459784],[-32.314809,68.443508],[-32.370595,68.579088],[-32.487172,68.623928],[-32.424794,68.544827],[-32.540151,68.504136],[-32.50121,68.429023],[-32.234527,68.358832],[-32.070709,68.194322],[-32.451161,68.239],[-32.425201,68.195461],[-32.051503,68.155504],[-31.995595,68.05036],[-32.146392,68.05036],[-32.048695,67.939765],[-32.1787,67.92182],[-32.145131,67.875312],[-32.519154,67.872219],[-32.900258,67.701321],[-33.186106,67.700141],[-33.104156,67.598578],[-33.324045,67.562201],[-33.269887,67.478013],[-33.331858,67.368638],[-33.575917,67.380439],[-33.381744,67.261664],[-33.66808,67.223212],[-33.516265,67.200629],[-33.546132,67.103949],[-33.879994,67.015041],[-33.729156,67.00141],[-33.975657,66.994574],[-33.893666,66.967841],[-33.999135,66.954495],[-33.948313,66.926947],[-34.019399,66.839993],[-33.937001,66.780666],[-34.069163,66.808987],[-34.047597,66.75434],[-34.256459,66.584784],[-34.267405,66.650092],[-34.404449,66.645168],[-34.397328,66.707424],[-34.530507,66.638251],[-34.434316,66.5633],[-34.702463,66.41234],[-34.653961,66.371405],[-34.947987,66.291897],[-35.164866,66.399319],[-35.236806,66.323635],[-35.057729,66.273098],[-35.216379,66.241034],[-35.460317,66.327582],[-35.589345,66.289455],[-35.815582,66.436591],[-35.881093,66.419176],[-35.551503,66.241034],[-35.669911,66.224677],[-35.576283,66.155829],[-35.609364,66.11107],[-35.745025,66.199205],[-35.710601,66.123033],[-35.942494,66.103909],[-35.732045,66.096584],[-35.932973,66.074123],[-35.873647,66.056098],[-36.08967,65.932563],[-36.346588,65.987779],[-36.380686,65.92886],[-36.339752,66.075914],[-36.519521,66.084377],[-36.579986,66.07038],[-36.476959,66.049262],[-36.521637,65.990912],[-36.909006,65.932563],[-36.880849,65.869045],[-36.990142,65.841498],[-37.097035,65.959621],[-37.03185,66.05268],[-37.097971,66.050238],[-37.122914,65.904934],[-37.237294,65.905219],[-37.114369,65.816881],[-37.272084,65.830146],[-37.162221,65.782375],[-37.689809,65.946845],[-37.814809,65.883043],[-37.758697,66.066636],[-37.169667,66.316799],[-37.576283,66.32392],[-37.847483,66.440253],[-37.923411,66.37226],[-38.0985,66.394477],[-38.142974,66.359117],[-37.70759,66.273871],[-37.951894,66.25137],[-37.854237,66.199449],[-37.888417,66.158515],[-38.106679,66.114488],[-37.959625,66.075873],[-37.998931,65.938422],[-38.269643,65.905178],[-38.443959,66.021918],[-38.450754,65.912095],[-38.121449,65.815863],[-38.245839,65.637274],[-38.507924,65.60399],[-38.430287,65.679348],[-38.538319,65.710395],[-38.782053,65.664211],[-38.60733,65.590644],[-39.074534,65.555162],[-39.149648,65.672512],[-39.366444,65.721747],[-39.201812,65.607611],[-39.423411,65.54149],[-39.547597,65.619778],[-39.505279,65.65884],[-39.686635,65.679999],[-39.63561,65.624091],[-39.759389,65.64057],[-39.72936,65.565375],[-39.82844,65.501654],[-40.04719,65.583157],[-40.065338,65.519721],[-40.211659,65.508002],[-39.780263,65.398139],[-39.942006,65.368394],[-39.875885,65.271552],[-39.765981,65.267768],[-39.999989,65.200141],[-39.916819,65.165351],[-39.971588,65.145819],[-40.091176,65.166327],[-39.965688,65.107652],[-40.281361,65.001166],[-40.602773,65.145209],[-40.704457,65.055487],[-40.875803,65.096503]]],[[[-44.598012,59.964057],[-44.52831,59.987291],[-44.515289,59.956041],[-44.598012,59.964057]]],[[[-44.350982,59.984524],[-44.45401,60.008368],[-44.442942,60.137885],[-44.203684,60.053168],[-44.350982,59.984524]]],[[[-44.203603,60.107367],[-44.244985,60.147366],[-44.032094,60.055487],[-44.203603,60.107367]]],[[[-45.303782,60.142157],[-45.269683,60.184516],[-45.221262,60.170111],[-45.303782,60.142157]]],[[[-45.152943,60.382392],[-45.196401,60.269192],[-45.40099,60.189643],[-45.356801,60.374335],[-45.152943,60.382392]]],[[[-45.056142,60.382392],[-45.094065,60.447821],[-45.002105,60.450629],[-45.056142,60.382392]]],[[[-44.995269,60.413072],[-44.950429,60.452948],[-45.118235,60.313463],[-44.995269,60.413072]]],[[[-45.358388,60.477973],[-45.352284,60.45775],[-45.425038,60.426825],[-45.358388,60.477973]]],[[[-45.974721,60.669745],[-45.811635,60.67182],[-45.978505,60.623277],[-45.974721,60.669745]]],[[[-45.892812,60.697699],[-46.089426,60.64289],[-46.207509,60.676581],[-45.892812,60.697699]]],[[[-46.63268,60.752346],[-46.568349,60.774359],[-46.509145,60.752346],[-46.63268,60.752346]]],[[[-46.276357,60.772773],[-46.398834,60.725775],[-46.345286,60.690172],[-46.502349,60.703925],[-46.276357,60.772773]]],[[[-47.317942,60.813137],[-47.22232,60.786444],[-47.358876,60.79267],[-47.317942,60.813137]]],[[[-47.002594,60.806952],[-46.986806,60.776313],[-47.037465,60.794989],[-47.002594,60.806952]]],[[[-47.22232,60.813137],[-47.195058,60.827053],[-47.146596,60.813137],[-47.183176,60.799302],[-47.22232,60.813137]]],[[[-46.30309,60.820543],[-46.365305,60.784857],[-46.427235,60.800116],[-46.30309,60.820543]]],[[[-47.194407,60.84101],[-47.101145,60.868842],[-47.11734,60.82685],[-47.194407,60.84101]]],[[[-47.181386,60.8758],[-47.2447,60.844631],[-47.24767,60.868842],[-47.181386,60.8758]]],[[[-47.17394,60.882025],[-47.071523,60.930406],[-47.098053,60.899156],[-47.17394,60.882025]]],[[[-47.051015,60.895697],[-47.011871,60.926337],[-46.961659,60.930406],[-47.051015,60.895697]]],[[[-46.553863,60.796332],[-46.812652,60.753404],[-46.48351,60.890123],[-46.164133,60.911444],[-46.553863,60.796332]]],[[[-46.529652,60.991889],[-46.427235,60.978217],[-46.45108,60.926174],[-46.529652,60.991889]]],[[[-48.161122,61.057074],[-48.331451,61.059556],[-48.044097,61.067572],[-48.161122,61.057074]]],[[[-48.934804,61.265611],[-48.847035,61.304592],[-48.723134,61.293524],[-48.934804,61.265611]]],[[[-48.68871,61.369289],[-48.515533,61.336575],[-48.832997,61.341295],[-48.68871,61.369289]]],[[[-49.164784,61.701361],[-49.096913,61.63288],[-49.216624,61.656684],[-49.164784,61.701361]]],[[[-50.686106,63.099066],[-50.630727,63.093695],[-50.758412,63.068061],[-50.686106,63.099066]]],[[[-50.682688,63.123358],[-50.864247,63.105943],[-50.771962,63.19184],[-50.682688,63.123358]]],[[[-50.49767,63.174506],[-50.675852,63.136949],[-50.602203,63.204657],[-50.49767,63.174506]]],[[[-52.066762,64.164862],[-51.881665,64.167514],[-52.044735,64.104883],[-52.066762,64.164862]]],[[[-50.805531,64.527981],[-51.138661,64.263739],[-51.338612,64.245795],[-51.161855,64.301418],[-51.206776,64.337226],[-51.025258,64.521145],[-50.805531,64.527981]]],[[[-51.299306,64.380805],[-51.505116,64.383979],[-51.094146,64.569525],[-51.299306,64.380805]]],[[[-43.706695,59.902533],[-43.659169,59.883205],[-43.896718,59.792629],[-43.905873,59.871039],[-44.096099,59.808092],[-44.113393,59.860338],[-43.961334,59.978176],[-43.706695,59.902533]]],[[[-43.206451,59.970893],[-43.343861,59.917914],[-43.329213,59.995836],[-43.206451,59.970893]]],[[[-44.008412,59.99136],[-44.300526,59.875678],[-44.398793,59.90941],[-44.200103,60.027899],[-44.008412,59.99136]]],[[[-43.377187,59.99136],[-43.493723,59.911282],[-43.46935,60.026801],[-43.377187,59.99136]]],[[[-43.171702,60.07392],[-43.189524,59.995917],[-43.576405,60.080756],[-43.481435,60.039252],[-43.60261,59.925198],[-43.89977,59.992174],[-43.722483,60.062812],[-43.910797,60.047797],[-44.129628,60.142035],[-43.171702,60.07392]]],[[[-47.722035,60.759101],[-47.653066,60.759101],[-47.913726,60.684027],[-48.235951,60.800116],[-47.92927,60.836737],[-47.722035,60.759101]]],[[[-42.77477,60.902533],[-42.624257,60.895697],[-42.908925,60.876044],[-42.77477,60.902533]]],[[[-42.493886,61.451158],[-42.390289,61.485338],[-42.468088,61.43887],[-42.493886,61.451158]]],[[[-42.082387,61.87641],[-42.171783,61.80744],[-42.120229,61.790107],[-42.262685,61.753119],[-42.082387,61.87641]]],[[[-42.302113,62.574652],[-42.142649,62.527411],[-42.192983,62.485826],[-42.302113,62.574652]]],[[[-42.035268,62.767035],[-41.863271,62.745917],[-42.186147,62.739325],[-42.020904,62.725491],[-42.116567,62.684516],[-42.425649,62.725491],[-42.349355,62.8133],[-42.035268,62.767035]]],[[[-41.917958,62.814846],[-41.815541,62.80801],[-41.9558,62.838446],[-41.870107,62.829169],[-41.917958,62.814846]]],[[[-41.585846,63.010403],[-41.451772,63.014106],[-41.544545,62.893378],[-41.585846,63.010403]]],[[[-41.527496,63.081732],[-41.331899,63.084459],[-41.385487,63.047349],[-41.527496,63.081732]]],[[[-41.212148,63.157457],[-41.352122,63.125922],[-41.43517,63.210191],[-41.212148,63.157457]]],[[[-41.147043,63.284369],[-41.158803,63.218817],[-41.240102,63.287787],[-41.218129,63.237616],[-41.342193,63.284735],[-41.414784,63.232164],[-41.847401,63.432929],[-41.838938,63.48786],[-41.700022,63.499823],[-41.147043,63.284369]]],[[[-51.223297,63.513739],[-51.395863,63.466539],[-51.316396,63.529853],[-51.223297,63.513739]]],[[[-40.773346,63.64411],[-40.681304,63.654486],[-40.838124,63.634345],[-40.773346,63.64411]]],[[[-40.67101,64.219428],[-41.062001,64.226874],[-40.827138,64.313788],[-40.67101,64.219428]]],[[[-40.143422,64.487006],[-40.458567,64.48192],[-40.588124,64.696275],[-40.869537,64.904731],[-40.716542,64.932278],[-40.499623,64.829576],[-40.439198,64.740871],[-40.541005,64.715888],[-40.376129,64.616645],[-40.483388,64.62759],[-40.443471,64.565741],[-40.143422,64.487006]]],[[[-39.547231,65.319322],[-39.491607,65.288275],[-39.793609,65.322455],[-39.752797,65.376899],[-39.491607,65.322455],[-39.547231,65.319322]]],[[[-37.217437,65.583157],[-37.050893,65.577582],[-37.16926,65.532701],[-37.217437,65.583157]]],[[[-52.937611,65.65884],[-52.865142,65.609809],[-53.190826,65.57689],[-52.937611,65.65884]]],[[[-36.936269,65.679348],[-37.093739,65.608832],[-37.200063,65.673529],[-37.059478,65.730862],[-36.936269,65.679348]]],[[[-36.785512,65.87108],[-36.785512,65.761217],[-36.958363,65.804429],[-36.785512,65.87108]]],[[[-37.453969,65.792548],[-37.32311,65.701321],[-37.422922,65.631537],[-37.601064,65.596747],[-37.692779,65.654975],[-37.706654,65.57331],[-37.949818,65.624091],[-37.954335,65.796373],[-37.837758,65.861518],[-37.641184,65.905015],[-37.272084,65.761217],[-37.453969,65.792548]]],[[[-36.22997,65.919582],[-36.182769,65.884752],[-36.359609,65.821357],[-36.22997,65.919582]]],[[[-36.750722,65.905219],[-36.50475,65.929755],[-36.621938,65.79857],[-36.73705,65.802232],[-36.68342,65.840399],[-36.750722,65.905219]]],[[[-35.551503,66.206936],[-35.387034,66.248481],[-35.484486,66.184882],[-35.551503,66.206936]]],[[[-33.865712,66.823228],[-33.95226,66.795233],[-33.966461,66.854804],[-33.865712,66.823228]]],[[[-33.47525,67.186957],[-33.370269,67.208075],[-33.410471,67.152777],[-33.47525,67.186957]]],[[[-33.249379,67.357652],[-33.24649,67.305609],[-33.331288,67.337836],[-33.249379,67.357652]]],[[[-29.712717,68.221666],[-29.836252,68.145941],[-30.014394,68.21426],[-29.712717,68.221666]]],[[[-53.098053,68.454413],[-52.971791,68.440823],[-53.035553,68.46662],[-52.992258,68.495429],[-52.854482,68.424018],[-52.976877,68.363837],[-53.207916,68.399807],[-53.098053,68.454413]]],[[[-51.834096,68.605211],[-51.886342,68.604804],[-51.863922,68.612128],[-51.834096,68.605211]]],[[[-51.956899,68.635688],[-51.823354,68.637274],[-52.398427,68.56623],[-52.401235,68.616889],[-51.956899,68.635688]]],[[[-52.351064,68.642483],[-53.121938,68.571112],[-52.526112,68.715074],[-52.128285,68.707668],[-52.351064,68.642483]]],[[[-51.223297,69.914252],[-50.680531,69.870307],[-50.935902,69.742987],[-50.955434,69.578803],[-51.16747,69.511949],[-51.370025,69.695136],[-51.031117,69.868109],[-51.361073,69.852851],[-51.223297,69.914252]]],[[[-52.902903,69.34512],[-53.574452,69.235256],[-53.844635,69.265041],[-54.265736,69.395413],[-53.402984,69.439195],[-53.553944,69.509589],[-53.389882,69.571234],[-53.772857,69.458808],[-53.999623,69.502753],[-53.882924,69.585354],[-53.930084,69.603949],[-54.737375,69.589057],[-54.962473,69.676093],[-54.96349,69.732896],[-54.684885,69.756008],[-54.389394,69.681545],[-54.911855,69.820624],[-54.794097,69.879543],[-54.848744,69.907457],[-54.78661,69.965318],[-54.245961,69.913886],[-54.761342,70.035102],[-54.841908,70.174954],[-54.329742,70.324042],[-53.490346,70.242499],[-53.121938,70.153876],[-52.765289,69.948432],[-51.998158,69.80508],[-51.917551,69.729926],[-52.014027,69.679511],[-51.837473,69.643622],[-52.277699,69.446479],[-52.902903,69.34512]]],[[[-54.718984,70.379788],[-54.926503,70.374742],[-55.026357,70.476752],[-54.798655,70.457994],[-54.682118,70.413967],[-54.718984,70.379788]]],[[[-51.663075,70.723049],[-51.505116,70.674628],[-51.861318,70.723049],[-51.663075,70.723049]]],[[[-51.81664,70.942125],[-51.587758,70.888251],[-52.161366,70.891669],[-52.064524,70.978583],[-51.81664,70.942125]]],[[[-53.896596,71.082465],[-53.95401,71.17064],[-53.647043,71.313951],[-53.391347,71.154853],[-53.512441,71.037746],[-53.896596,71.082465]]],[[[-52.484853,71.264309],[-52.66161,71.168402],[-52.957428,71.154446],[-53.169545,71.303127],[-52.971791,71.387152],[-52.35143,71.309027],[-52.484853,71.264309]]],[[[-53.293853,71.538642],[-53.466908,71.634101],[-52.777211,71.665432],[-53.293853,71.538642]]],[[[-55.68692,71.917182],[-55.411041,71.894232],[-55.560862,71.821438],[-55.76476,71.867743],[-55.68692,71.917182]]],[[[-55.047963,72.318834],[-55.339101,72.176703],[-55.647043,72.179023],[-55.449859,72.258857],[-55.602854,72.277899],[-55.044057,72.383368],[-55.047963,72.318834]]],[[[-55.802113,72.689399],[-56.198354,72.688788],[-55.684804,72.78559],[-55.802113,72.689399]]],[[[-55.73941,72.614244],[-55.820953,72.617621],[-55.575551,72.765082],[-54.984609,72.82331],[-55.52892,72.555243],[-55.579213,72.575385],[-55.47997,72.614244],[-55.73941,72.614244]]],[[[-55.60969,73.036038],[-55.100413,72.980618],[-55.299713,72.922187],[-55.671295,72.986396],[-55.60969,73.036038]]],[[[-56.031117,73.570461],[-55.490346,73.452704],[-55.713938,73.394355],[-55.647572,73.419257],[-56.083892,73.553534],[-56.031117,73.570461]]],[[[-56.127065,73.827094],[-56.317006,73.786607],[-56.744781,73.868354],[-56.623891,73.923285],[-55.984853,73.855862],[-56.127065,73.827094]]],[[[-56.518219,74.494818],[-57.509511,74.481391],[-56.71288,74.560736],[-56.466868,74.512356],[-56.518219,74.494818]]],[[[-69.496653,76.592271],[-69.677724,76.53384],[-70.013783,76.556586],[-69.496653,76.592271]]],[[[-71.576283,77.390448],[-71.343495,77.376858],[-72.131825,77.321601],[-72.576812,77.411607],[-72.234242,77.458726],[-71.576283,77.390448]]],[[[-70.356597,77.417792],[-70.055002,77.40412],[-71.079945,77.377753],[-71.302602,77.452541],[-70.356597,77.417792]]],[[[-53.27477,82.172349],[-53.339467,82.258734],[-53.244985,82.29914],[-52.786773,82.317532],[-52.465199,82.199897],[-51.231435,82.013983],[-52.105214,81.995429],[-53.27477,82.172349]]],[[[-44.529164,82.413764],[-44.426137,82.358466],[-45.070424,82.222561],[-44.734609,82.098375],[-45.035024,82.059272],[-45.423411,82.184475],[-46.875966,82.360012],[-47.180735,82.511786],[-47.749867,82.625312],[-46.324208,82.678534],[-44.529164,82.413764]]],[[[-47.852162,82.783637],[-48.330922,82.791897],[-48.406606,82.868313],[-47.442047,82.810981],[-47.852162,82.783637]]],[[[-39.437611,83.10517],[-39.301259,83.096625],[-39.666493,82.99551],[-40.536244,83.150458],[-39.437611,83.10517]]],[[[-40.103342,83.056138],[-39.862172,82.982245],[-41.44872,83.161444],[-40.858062,83.172593],[-40.103342,83.056138]]],[[[-38.83434,83.174018],[-38.661692,83.127875],[-40.64859,83.322699],[-40.296051,83.350491],[-38.83434,83.174018]]],[[[-23.439687,69.742987],[-23.227773,69.683905],[-23.593373,69.715033],[-23.439687,69.742987]]],[[[-26.208323,70.565375],[-26.096262,70.529242],[-26.160024,70.465074],[-26.38268,70.489651],[-26.208323,70.565375]]],[[[-27.719065,70.739814],[-27.722768,70.888577],[-27.239858,70.894355],[-27.719065,70.739814]]],[[[-25.31725,70.746975],[-25.321523,70.653876],[-26.071156,70.531236],[-26.281809,70.584866],[-28.137359,70.45954],[-27.963368,70.631252],[-27.67809,70.65412],[-27.149648,70.877834],[-26.308909,70.938544],[-25.703765,71.085842],[-25.725453,70.990546],[-25.410064,70.92475],[-25.341176,70.825426],[-25.451527,70.797593],[-25.31725,70.746975]]],[[[-25.56192,71.107164],[-25.341176,71.078681],[-25.3756,71.056138],[-25.307688,71.017279],[-25.56192,71.107164]]],[[[-21.949086,72.428697],[-22.725901,72.453518],[-22.67516,72.36164],[-22.303049,72.25727],[-22.045318,72.271674],[-22.175282,72.213813],[-22.181874,72.13109],[-22.524892,72.134833],[-22.600209,72.154975],[-22.497792,72.209621],[-22.684641,72.171291],[-23.065094,72.310004],[-24.053293,72.442939],[-24.06314,72.53734],[-24.351796,72.591295],[-24.48526,72.826565],[-23.146799,72.840196],[-22.586741,72.607611],[-21.951731,72.488105],[-21.949086,72.428697]]],[[[-24.799916,72.915961],[-24.941396,72.779202],[-25.286855,72.834052],[-24.799916,72.915961]]],[[[-21.928619,72.737779],[-21.918935,72.684801],[-22.654042,72.698065],[-22.819569,72.818793],[-23.163319,72.877916],[-24.574127,72.927883],[-24.536488,72.991889],[-23.238271,73.075263],[-21.969594,72.943834],[-21.915842,72.922756],[-22.160268,72.822659],[-21.928619,72.737779]]],[[[-21.325917,73.148098],[-21.203521,73.146064],[-21.462514,73.121405],[-21.325917,73.148098]]],[[[-24.524281,73.047919],[-25.710439,73.189276],[-25.312367,73.320014],[-25.24352,73.411119],[-24.460072,73.425035],[-23.230214,73.251125],[-24.970448,73.325344],[-22.892445,73.158026],[-24.524281,73.047919]]],[[[-20.352691,74.251654],[-20.140248,74.213202],[-21.268666,74.087795],[-21.97997,74.225287],[-21.858062,74.343695],[-21.24706,74.457099],[-20.547597,74.409898],[-20.352691,74.251654]]],[[[-18.735219,74.632473],[-18.823354,74.547309],[-19.207509,74.576483],[-18.904897,74.675482],[-18.735219,74.632473]]],[[[-18.37149,74.711615],[-18.324452,74.652981],[-18.482574,74.629218],[-18.578359,74.714667],[-18.37149,74.711615]]],[[[-19.809967,74.890855],[-19.741119,74.881334],[-20.138254,74.699286],[-20.662587,74.805243],[-20.47997,75.039455],[-20.339101,75.054185],[-19.967152,74.984605],[-20.17512,74.938951],[-20.13858,74.901435],[-19.809967,74.890855]]],[[[-17.316965,75.136135],[-17.618398,74.935736],[-17.605946,74.991685],[-17.880116,75.035956],[-18.892649,74.999213],[-18.838206,75.263088],[-18.948069,75.334174],[-18.539622,75.375067],[-18.316803,75.299994],[-18.001454,75.41234],[-17.814361,75.321519],[-18.176869,75.246039],[-18.027333,75.232652],[-18.000722,75.148627],[-17.721669,75.081488],[-17.589915,75.152533],[-17.316965,75.136135]]],[[[-18.550282,76.054145],[-18.550282,75.944281],[-18.65331,75.903266],[-18.62914,75.961575],[-19.106435,76.473456],[-19.05724,76.593695],[-18.763173,76.588568],[-18.998891,76.636664],[-19.083648,76.718899],[-19.030019,76.759833],[-18.673411,76.655463],[-18.699208,76.343573],[-18.550282,76.054145]]],[[[-18.0065,77.636908],[-18.227162,77.637356],[-17.92809,77.857245],[-17.633534,77.827826],[-17.808909,77.655463],[-18.0065,77.636908]]],[[[-21.3815,77.864325],[-21.36852,77.927436],[-21.127756,77.990302],[-21.3815,77.864325]]],[[[-19.318023,77.883287],[-19.261342,77.808987],[-20.473541,77.948554],[-19.995717,77.999945],[-19.746653,77.894436],[-19.318023,77.883287]]],[[[-19.171376,77.995307],[-19.16393,78.076606],[-19.29483,78.104071],[-18.877675,78.144721],[-19.111562,77.932278],[-19.172678,77.918891],[-19.171376,77.995307]]],[[[-20.379506,78.136054],[-20.814605,78.174994],[-20.467641,78.249457],[-20.346506,78.182929],[-20.379506,78.136054]]],[[[-19.445058,78.200019],[-19.628407,78.25495],[-19.630035,78.364814],[-19.352406,78.21483],[-19.445058,78.200019]]],[[[-18.917836,78.443549],[-18.9051,78.341498],[-19.05663,78.292304],[-18.897084,78.242133],[-19.073801,78.185045],[-19.271108,78.230658],[-19.257436,78.384345],[-18.917836,78.443549]]],[[[-18.234934,78.616929],[-18.615875,78.532538],[-18.451527,78.625922],[-18.234934,78.616929]]],[[[-18.20519,78.736762],[-18.239858,78.785142],[-18.161773,78.829291],[-18.00475,78.779039],[-18.20519,78.736762]]],[[[-19.124379,78.710679],[-19.577056,78.748196],[-19.075673,78.931138],[-19.165273,78.895657],[-19.020741,78.868354],[-19.195139,78.792141],[-19.055409,78.792629],[-19.281361,78.765937],[-19.050771,78.752427],[-19.124379,78.710679]]],[[[-17.532948,79.032213],[-17.964955,78.955878],[-17.896637,78.969468],[-17.921457,79.06273],[-17.60554,79.193834],[-17.421539,79.136217],[-17.532948,79.032213]]],[[[-18.764272,79.973293],[-17.740834,80.091213],[-17.277496,80.013129],[-17.836293,79.742499],[-18.17394,79.693671],[-19.393137,79.8487],[-18.956207,79.929429],[-18.985911,80.002997],[-18.764272,79.973293]]],[[[-19.522857,80.03026],[-19.704091,80.057563],[-19.349924,80.213202],[-18.737131,80.13817],[-19.522857,80.03026]]],[[[-17.732818,81.595649],[-18.281484,81.718492],[-17.793772,81.746161],[-17.365956,81.611274],[-17.732818,81.595649]]],[[[-19.459584,81.953192],[-19.658193,82.094062],[-19.260365,82.09101],[-18.63093,81.819729],[-19.045033,81.8251],[-19.459584,81.953192]]],[[[-66.775624,80.598578],[-66.952789,80.634833],[-66.593088,80.621487],[-66.775624,80.598578]]],[[[-66.320505,80.820258],[-66.373118,80.824897],[-66.297963,80.826524],[-66.320505,80.820258]]]]}}