{"type":"Feature","properties":{"iso3":"GTM","name":"Guatemala","continent":"Americas"},"geometry":{"type":"Polygon","coordinates":[[[-89.361621,14.415478],[-89.390611,14.435993],[-89.396864,14.426046],[-89.398182,14.445373],[-89.4311,14.418708],[-89.446835,14.415529],[-89.485283,14.427389],[-89.503033,14.420051],[-89.541351,14.381526],[-89.544245,14.400052],[-89.555175,14.410827],[-89.569877,14.412015],[-89.584062,14.401809],[-89.590573,14.385971],[-89.576078,14.35313],[-89.598351,14.32799],[-89.592175,14.31383],[-89.558586,14.302823],[-89.544917,14.261818],[-89.52466,14.247374],[-89.524505,14.231768],[-89.638322,14.200556],[-89.689844,14.170015],[-89.752605,14.07524],[-89.747644,14.037646],[-89.762268,14.029997],[-89.802963,14.055474],[-89.835855,14.059091],[-89.890788,14.035889],[-90.022976,13.936954],[-90.047367,13.894295],[-90.08708,13.870472],[-90.106976,13.844066],[-90.114314,13.796265],[-90.098307,13.731404],[-90.401159,13.858588],[-90.500209,13.8947],[-90.580413,13.913267],[-90.707278,13.928889],[-90.910333,13.911135],[-91.04374,13.913585],[-91.165761,13.926703],[-91.316461,13.955679],[-91.551869,14.057278],[-91.762558,14.180174],[-91.908193,14.28384],[-92.049591,14.408026],[-92.246257,14.546279],[-92.226097,14.549346],[-92.208062,14.570507],[-92.160804,14.683498],[-92.191655,14.835297],[-92.15468,14.900797],[-92.154215,14.995933],[-92.142356,15.007483],[-92.103831,15.01787],[-92.073807,15.073706],[-92.20336,15.237159],[-92.211292,15.272066],[-91.739848,16.060985],[-91.723776,16.068788],[-90.485738,16.0707],[-90.448195,16.07926],[-90.437421,16.098863],[-90.434475,16.107183],[-90.455585,16.099742],[-90.459487,16.116795],[-90.435302,16.136277],[-90.448144,16.154416],[-90.42613,16.163149],[-90.461812,16.189142],[-90.465584,16.208107],[-90.458505,16.22175],[-90.434475,16.236323],[-90.457833,16.249138],[-90.459435,16.25906],[-90.448144,16.271101],[-90.42768,16.263608],[-90.441297,16.285364],[-90.434475,16.291565],[-90.414063,16.287844],[-90.414011,16.298386],[-90.444888,16.30836],[-90.404684,16.331511],[-90.398793,16.347582],[-90.40719,16.36045],[-90.420807,16.353008],[-90.418223,16.367167],[-90.40874,16.372335],[-90.379853,16.367271],[-90.391377,16.385978],[-90.394917,16.419206],[-90.420807,16.415123],[-90.475842,16.430729],[-90.482302,16.456051],[-90.497753,16.46804],[-90.508915,16.471089],[-90.532893,16.459927],[-90.543719,16.490209],[-90.584724,16.480235],[-90.633094,16.483336],[-90.612061,16.507624],[-90.61263,16.518114],[-90.648183,16.529586],[-90.633765,16.592167],[-90.647356,16.600073],[-90.6672,16.586999],[-90.654023,16.61661],[-90.667717,16.652576],[-90.73531,16.746576],[-90.80037,16.786832],[-90.79696,16.805435],[-90.810602,16.812928],[-90.831738,16.805435],[-90.919071,16.836338],[-90.968887,16.874372],[-90.952764,16.890908],[-90.955193,16.898763],[-90.98625,16.901088],[-90.983253,16.878609],[-90.993072,16.874372],[-91.016688,16.894836],[-91.054928,16.908013],[-91.066866,16.918193],[-91.076943,16.949509],[-91.112238,16.990489],[-91.126552,17.024595],[-91.1712,17.028006],[-91.206754,17.065368],[-91.229595,17.113995],[-91.259205,17.124331],[-91.279514,17.180089],[-91.290418,17.189081],[-91.364884,17.189753],[-91.372945,17.213576],[-91.442502,17.237967],[-91.438264,17.253677],[-91.430771,17.254969],[-90.991986,17.25192],[-90.990901,17.801964],[-90.98284,17.810542],[-90.962221,17.81602],[-89.160496,17.814314],[-89.149205,17.036271],[-89.184353,16.495872],[-89.236512,15.893915],[-89.228244,15.880841],[-89.177446,15.900271],[-89.040323,15.901718],[-88.951878,15.879652],[-88.913971,15.893948],[-88.8662,15.860338],[-88.831614,15.868638],[-88.787343,15.859076],[-88.753285,15.839789],[-88.749501,15.818793],[-88.726796,15.815172],[-88.625966,15.753892],[-88.63622,15.702094],[-88.609242,15.702094],[-88.595204,15.714667],[-88.605458,15.743069],[-88.582183,15.745022],[-88.57433,15.769965],[-88.550282,15.798285],[-88.557688,15.852932],[-88.550282,15.852932],[-88.544057,15.83926],[-88.532135,15.846829],[-88.503041,15.841376],[-88.48884,15.846747],[-88.543284,15.885159],[-88.564524,15.914984],[-88.607574,15.938422],[-88.619862,15.953274],[-88.605458,15.969631],[-88.550282,15.942328],[-88.447906,15.85871],[-88.344838,15.811957],[-88.256337,15.740383],[-88.221547,15.725898],[-88.23262,15.721419],[-88.241586,15.688242],[-88.247761,15.695684],[-88.295588,15.675013],[-88.316672,15.6746],[-88.352561,15.616903],[-88.398992,15.572797],[-88.973427,15.140395],[-89.109827,15.091457],[-89.160806,15.060245],[-89.188582,14.996088],[-89.1691,14.978415],[-89.169152,14.95206],[-89.198814,14.899815],[-89.231448,14.867311],[-89.23243,14.8485],[-89.189409,14.783001],[-89.170547,14.738791],[-89.146213,14.710858],[-89.142694,14.691275],[-89.159411,14.665979],[-89.160393,14.581282],[-89.172149,14.570404],[-89.221087,14.580093],[-89.245685,14.572988],[-89.323044,14.487463],[-89.355497,14.475448],[-89.363791,14.446561],[-89.361621,14.415478]]]}}