{"type":"Feature","properties":{"iso3":"GUY","name":"Guyana","continent":"Americas"},"geometry":{"type":"MultiPolygon","coordinates":[[[[-56.481819,1.941614],[-56.55892,1.906655],[-56.620234,1.93456],[-56.724156,1.916137],[-56.806476,1.873582],[-57.011167,1.918566],[-57.104494,2.021454],[-57.238439,1.948539],[-57.319416,1.977141],[-57.429487,1.900299],[-57.561159,1.708967],[-57.758821,1.713462],[-57.905376,1.648557],[-57.991003,1.650417],[-58.027229,1.516859],[-58.148616,1.519082],[-58.18727,1.567606],[-58.260548,1.560319],[-58.320492,1.601221],[-58.413458,1.47203],[-58.513659,1.43888],[-58.481103,1.333873],[-58.51893,1.267262],[-58.682589,1.282455],[-58.815966,1.187267],[-58.897873,1.217808],[-58.966499,1.310154],[-59.259918,1.387436],[-59.326943,1.509521],[-59.412105,1.553265],[-59.530729,1.703075],[-59.680849,1.757387],[-59.645476,1.827693],[-59.758751,1.862136],[-59.741698,2.263791],[-59.913444,2.378719],[-59.905073,2.447862],[-59.996462,2.674773],[-59.993724,2.857294],[-59.969229,3.042709],[-59.82177,3.356592],[-59.821357,3.484388],[-59.862879,3.58172],[-59.69506,3.683058],[-59.671805,3.756232],[-59.598606,3.802405],[-59.581785,3.899195],[-59.527654,3.939528],[-59.653693,4.064197],[-59.646174,4.134038],[-59.738468,4.202768],[-59.69046,4.384462],[-59.809626,4.465749],[-60.159992,4.527787],[-60.161543,4.565201],[-60.087697,4.607523],[-60.032455,4.725423],[-59.981502,5.057419],[-60.091237,5.158239],[-60.123018,5.231852],[-60.255206,5.25645],[-60.333083,5.193767],[-60.419796,5.207228],[-60.463126,5.180021],[-60.739854,5.202138],[-61.396713,5.945581],[-61.256101,6.114382],[-61.121562,6.186652],[-61.112854,6.254141],[-61.159492,6.331268],[-61.139752,6.441262],[-61.21197,6.561435],[-61.139312,6.70445],[-60.933821,6.731735],[-60.901239,6.76442],[-60.913383,6.811213],[-60.700347,6.767082],[-60.63955,6.837723],[-60.39419,6.948466],[-60.303575,7.054144],[-60.299932,7.121013],[-60.372021,7.172277],[-60.475322,7.188503],[-60.534905,7.125768],[-60.617639,7.18039],[-60.643555,7.25067],[-60.599862,7.32188],[-60.730578,7.525433],[-60.601257,7.63385],[-60.53984,7.800093],[-60.37476,7.823606],[-60.231125,7.964114],[-60.129219,8.028813],[-60.046485,8.032922],[-59.967679,8.18839],[-59.829289,8.245105],[-59.815595,8.287764],[-60.020985,8.55801],[-59.837799,8.369289],[-59.543446,8.229478],[-59.433746,8.130316],[-59.491689,8.201321],[-59.761301,8.355455],[-59.78185,8.394192],[-59.755849,8.410875],[-59.104807,8.013617],[-58.833416,7.7383],[-58.73763,7.588334],[-58.743902,7.619352],[-58.682377,7.603534],[-58.489735,7.376125],[-58.464223,7.312201],[-58.485015,7.01081],[-58.568186,6.906806],[-58.611399,6.509711],[-58.686431,6.382473],[-58.606801,6.416327],[-58.581166,6.463446],[-58.567006,6.636705],[-58.461537,6.821845],[-58.398427,6.883368],[-58.312164,6.892157],[-58.178212,6.817572],[-58.067863,6.821703],[-58.005675,6.791758],[-57.598578,6.427246],[-57.533522,6.273656],[-57.494261,6.334822],[-57.408801,6.312765],[-57.289824,6.234739],[-57.167307,6.08511],[-57.137259,5.882092],[-57.183055,5.73141],[-57.161518,5.638906],[-57.265208,5.403366],[-57.335695,5.316886],[-57.288824,5.30854],[-57.271667,5.222861],[-57.247638,5.271772],[-57.184903,5.183147],[-57.233324,5.142116],[-57.288979,5.171029],[-57.321432,5.070157],[-57.280452,5.026103],[-57.490259,4.99135],[-57.686939,5.006259],[-57.762335,4.93554],[-57.842795,4.929881],[-57.925374,4.796142],[-57.837421,4.65088],[-57.956639,4.391438],[-57.953848,4.299015],[-58.067691,4.151143],[-58.032138,3.987716],[-57.875145,3.812197],[-57.829773,3.662439],[-57.72611,3.607197],[-57.644048,3.51666],[-57.658207,3.39522],[-57.468761,3.343182],[-57.425043,3.387495],[-57.366752,3.36561],[-57.308409,3.39491],[-57.284173,3.148956],[-57.246243,3.141618],[-57.20702,3.035681],[-57.234615,2.970362],[-57.188623,2.95951],[-57.219629,2.908299],[-57.206348,2.856571],[-57.099533,2.778591],[-57.05597,2.642372],[-57.027238,2.648212],[-57.000573,2.514163],[-56.959593,2.524705],[-56.930836,2.393292],[-56.70519,2.029645],[-56.579772,2.016803],[-56.481819,1.941614]]],[[[-58.37857,6.972113],[-58.333608,6.965277],[-58.46052,6.883368],[-58.447011,6.943061],[-58.37857,6.972113]]]]}}