{"type":"Feature","properties":{"iso3":"HKG","name":"Hong Kong S.A.R.","continent":"Asia"},"geometry":{"type":"MultiPolygon","coordinates":[[[[114.229828,22.555813],[114.209321,22.523708],[114.230398,22.532945],[114.242035,22.550198],[114.254568,22.550971],[114.253266,22.539455],[114.27003,22.52558],[114.278005,22.529853],[114.27768,22.511664],[114.289236,22.505194],[114.298513,22.501003],[114.332774,22.511949],[114.335134,22.506415],[114.253754,22.451768],[114.231212,22.469794],[114.211762,22.470567],[114.217133,22.447943],[114.20224,22.458075],[114.167491,22.448065],[114.211762,22.4206],[114.209321,22.398668],[114.23821,22.43537],[114.267182,22.430732],[114.272553,22.409654],[114.288992,22.426011],[114.276459,22.443996],[114.301606,22.456529],[114.300792,22.465033],[114.323741,22.480048],[114.33074,22.474107],[114.325043,22.46426],[114.335704,22.461737],[114.332774,22.440009],[114.337413,22.431586],[114.342784,22.43769],[114.347585,22.422919],[114.359874,22.461168],[114.370209,22.440009],[114.39975,22.436143],[114.401296,22.412746],[114.381765,22.419053],[114.370209,22.397976],[114.384939,22.387356],[114.38974,22.365953],[114.376394,22.370632],[114.37558,22.353461],[114.36085,22.345771],[114.357595,22.332424],[114.352306,22.351915],[114.34197,22.345771],[114.332774,22.359768],[114.334321,22.375312],[114.320404,22.380764],[114.318614,22.38939],[114.300059,22.381578],[114.278005,22.390977],[114.268728,22.378445],[114.276459,22.348049],[114.266368,22.365953],[114.258393,22.362087],[114.272553,22.320705],[114.29127,22.316555],[114.292084,22.305162],[114.303884,22.306708],[114.311615,22.297309],[114.297699,22.285631],[114.290538,22.28795],[114.289561,22.273912],[114.300059,22.277045],[114.303152,22.269192],[114.296723,22.258287],[114.278331,22.270453],[114.273367,22.295762],[114.264822,22.301947],[114.266368,22.315985],[114.255544,22.322333],[114.253022,22.295762],[114.238943,22.281684],[114.195486,22.318264],[114.186534,22.308743],[114.191417,22.301947],[114.171886,22.288723],[114.159516,22.322252],[114.12436,22.342231],[114.123546,22.337144],[114.104828,22.369859],[114.097504,22.363023],[114.079112,22.365953],[114.020518,22.350369],[114.014985,22.358995],[113.982677,22.366767],[113.970632,22.387071],[113.964366,22.380683],[113.97462,22.372056],[113.944835,22.362087],[113.914399,22.376125],[113.918305,22.387844],[113.896983,22.408759],[113.94101,22.426785],[113.954112,22.44949],[113.97755,22.458848],[113.998627,22.488552],[114.012706,22.486111],[114.01116,22.472886],[114.026785,22.478258],[114.03061,22.49551],[114.057953,22.504869],[114.091464,22.534388],[114.113995,22.528807],[114.128878,22.538109],[114.148722,22.538109],[114.161951,22.560536],[114.173217,22.563946],[114.183035,22.556195],[114.229828,22.555813]]],[[[114.13738,22.178778],[114.11085,22.177069],[114.114106,22.216132],[114.104259,22.215969],[114.1067,22.235785],[114.125743,22.213446],[114.132823,22.216132],[114.125743,22.205227],[114.154633,22.203599],[114.139089,22.191107],[114.145356,22.178697],[114.13738,22.178778]]],[[[114.215587,22.285631],[114.23585,22.277818],[114.251475,22.25906],[114.245291,22.241889],[114.256114,22.203599],[114.243663,22.20128],[114.232758,22.211493],[114.222667,22.238837],[114.216807,22.23432],[114.222667,22.224758],[114.211762,22.216132],[114.219493,22.191881],[114.207693,22.189561],[114.206554,22.212388],[114.191417,22.209947],[114.193696,22.225531],[114.182709,22.23253],[114.183849,22.241034],[114.167247,22.227851],[114.160981,22.240383],[114.12908,22.248887],[114.112559,22.271511],[114.139089,22.288723],[114.165701,22.279364],[114.196788,22.291856],[114.215587,22.285631]]],[[[113.846446,22.197089],[113.839203,22.204901],[113.839203,22.234198],[113.849213,22.234198],[113.849213,22.244127],[113.856781,22.245998],[113.850597,22.256741],[113.876801,22.272284],[113.892507,22.292711],[113.921479,22.291856],[113.928396,22.284857],[113.961925,22.301174],[113.976736,22.298082],[114.017345,22.335517],[114.020518,22.328518],[114.043793,22.345771],[114.054861,22.33633],[114.050222,22.319932],[114.031423,22.324571],[114.029633,22.308987],[114.012706,22.311347],[114.012706,22.298082],[114.022146,22.301907],[114.018891,22.264594],[113.995372,22.267768],[114.007253,22.252102],[113.992442,22.241197],[114.014985,22.227078],[114.000173,22.216132],[113.981944,22.208238],[113.980642,22.23725],[113.945649,22.23725],[113.921479,22.223985],[113.918305,22.219224],[113.928396,22.210761],[113.919119,22.205024],[113.906261,22.204006],[113.892507,22.222398],[113.846446,22.197089]]]]}}