{"type":"Feature","properties":{"iso3":"HMD","name":"Heard Island and McDonald Islands","continent":"Oceania"},"geometry":{"type":"Polygon","coordinates":[[[73.735118,-53.1124],[73.812185,-53.118504],[73.661632,-53.146661],[73.609548,-53.179864],[73.580821,-53.187595],[73.473399,-53.189223],[73.440196,-53.173272],[73.404145,-53.139337],[73.36378,-53.074802],[73.371267,-53.06463],[73.353282,-53.05169],[73.364431,-53.037286],[73.253673,-53.015069],[73.236013,-52.982029],[73.296886,-52.961602],[73.377452,-53.017022],[73.399587,-52.990981],[73.426524,-53.003188],[73.412852,-53.009373],[73.425629,-53.025323],[73.447032,-53.02809],[73.487966,-53.009373],[73.56422,-53.016778],[73.632579,-53.044122],[73.699474,-53.100844],[73.735118,-53.1124]]]}}