{"type":"Feature","properties":{"iso3":"HND","name":"Honduras","continent":"Americas"},"geometry":{"type":"MultiPolygon","coordinates":[[[[-89.361621,14.415478],[-89.363791,14.446561],[-89.355497,14.475448],[-89.323044,14.487463],[-89.245685,14.572988],[-89.221087,14.580093],[-89.172149,14.570404],[-89.160393,14.581282],[-89.159411,14.665979],[-89.145226,14.683446],[-89.144502,14.708302],[-89.170547,14.738791],[-89.189409,14.783001],[-89.23243,14.8485],[-89.231448,14.867311],[-89.198814,14.899815],[-89.169152,14.95206],[-89.1691,14.978415],[-89.188582,14.996088],[-89.160806,15.060245],[-89.109827,15.091457],[-88.973427,15.140395],[-88.398992,15.572797],[-88.352561,15.616903],[-88.316672,15.6746],[-88.295588,15.675013],[-88.247761,15.695684],[-88.241586,15.688242],[-88.23262,15.721419],[-88.220937,15.725653],[-88.169749,15.691962],[-88.145253,15.684516],[-88.118886,15.695868],[-88.060902,15.755764],[-88.036285,15.770941],[-88.041615,15.786689],[-87.992258,15.784613],[-87.933909,15.818793],[-87.92455,15.84219],[-87.954579,15.864],[-87.908762,15.868069],[-87.846059,15.893866],[-87.760081,15.899563],[-87.742096,15.904486],[-87.736318,15.918606],[-87.722157,15.922919],[-87.626047,15.887681],[-87.636301,15.90351],[-87.591298,15.935492],[-87.617299,15.894599],[-87.509633,15.798651],[-87.4794,15.786038],[-87.447336,15.792141],[-87.426829,15.818793],[-87.391184,15.818427],[-87.379954,15.839504],[-87.345082,15.850328],[-87.24177,15.827379],[-87.151723,15.796861],[-86.91686,15.760403],[-86.799631,15.784613],[-86.77066,15.806545],[-86.741567,15.792141],[-86.699086,15.788642],[-86.47057,15.804185],[-86.414662,15.776435],[-86.374745,15.770941],[-86.338287,15.781399],[-86.243235,15.838609],[-86.207143,15.87401],[-86.172597,15.887519],[-86.137807,15.895657],[-85.994862,15.900702],[-85.933258,15.936672],[-85.91218,15.959296],[-85.903188,15.983466],[-85.919179,16.00373],[-86.012766,16.019965],[-86.007924,16.031073],[-85.981842,16.033149],[-85.813466,16.004543],[-85.703196,15.976467],[-85.692047,15.971503],[-85.687001,15.935492],[-85.679555,15.935492],[-85.675038,15.947089],[-85.656221,15.948768],[-85.608464,15.907072],[-85.488578,15.869567],[-85.25425,15.884085],[-85.196355,15.907448],[-85.07578,15.986247],[-84.999949,15.987942],[-84.854464,15.929751],[-84.676552,15.876203],[-84.662277,15.865637],[-84.680854,15.834917],[-84.68108,15.794267],[-84.660054,15.774494],[-84.615713,15.779518],[-84.609409,15.808983],[-84.59987,15.808278],[-84.575485,15.783895],[-84.550255,15.787693],[-84.477437,15.778756],[-84.452811,15.795648],[-84.577975,15.82258],[-84.633055,15.847125],[-84.64183,15.862907],[-84.464168,15.829792],[-84.294638,15.81101],[-83.894171,15.485181],[-83.799062,15.429348],[-83.745676,15.415839],[-83.72997,15.401557],[-83.735911,15.388617],[-83.750803,15.386786],[-83.862782,15.448879],[-83.906361,15.451972],[-83.91808,15.463121],[-83.904408,15.469387],[-83.945953,15.517768],[-83.963735,15.512519],[-84.004018,15.537584],[-84.024526,15.535102],[-84.055247,15.510932],[-84.089345,15.524604],[-84.068837,15.548163],[-84.103627,15.551215],[-84.100006,15.523261],[-84.075754,15.490424],[-84.089345,15.482978],[-84.13036,15.551215],[-84.171946,15.545071],[-84.21288,15.551215],[-84.19872,15.520738],[-84.180409,15.514472],[-84.185536,15.482978],[-84.1787,15.482978],[-84.175608,15.498277],[-84.155588,15.507392],[-84.146555,15.535102],[-84.127797,15.53262],[-84.092152,15.450914],[-84.124176,15.430243],[-84.099517,15.37759],[-84.082509,15.360093],[-84.03539,15.341864],[-84.025868,15.351223],[-84.03539,15.380561],[-84.010081,15.356757],[-84.00536,15.341295],[-84.01358,15.325344],[-83.999908,15.308824],[-83.931752,15.311672],[-83.931752,15.304877],[-83.958974,15.298041],[-83.938385,15.259223],[-83.90099,15.243394],[-83.859527,15.251288],[-83.821889,15.270697],[-83.877065,15.304877],[-83.891672,15.323391],[-84.0006,15.360093],[-84.03539,15.401068],[-84.026519,15.408677],[-83.994374,15.421536],[-83.905141,15.383531],[-83.871327,15.342841],[-83.814076,15.321682],[-83.795155,15.298041],[-83.815663,15.278144],[-83.799224,15.274604],[-83.774526,15.285712],[-83.767201,15.256415],[-83.769439,15.219224],[-83.759836,15.202094],[-83.747182,15.209703],[-83.747385,15.222886],[-83.739898,15.222886],[-83.731028,15.203437],[-83.7058,15.237209],[-83.690256,15.245917],[-83.633778,15.256415],[-83.630035,15.291815],[-83.623362,15.296088],[-83.544667,15.280992],[-83.527659,15.284369],[-83.533599,15.272162],[-83.527659,15.256415],[-83.532867,15.211249],[-83.544423,15.204983],[-83.555898,15.209296],[-83.564809,15.231391],[-83.592519,15.237209],[-83.622467,15.19595],[-83.621449,15.176174],[-83.603383,15.181952],[-83.609486,15.196926],[-83.603383,15.209296],[-83.595937,15.209296],[-83.587026,15.167182],[-83.574452,15.160468],[-83.554921,15.16828],[-83.526601,15.199897],[-83.481801,15.215562],[-83.502309,15.246283],[-83.517201,15.2897],[-83.529612,15.301011],[-83.548166,15.291815],[-83.592641,15.312242],[-83.610219,15.304877],[-83.616363,15.311672],[-83.610219,15.325344],[-83.669586,15.342922],[-83.688954,15.360582],[-83.725331,15.375881],[-83.71939,15.394232],[-83.702992,15.402004],[-83.661366,15.373765],[-83.542592,15.315741],[-83.40803,15.266425],[-83.356313,15.229722],[-83.310862,15.106431],[-83.284291,15.068345],[-83.253814,15.044623],[-83.130444,14.997012],[-83.177399,14.996812],[-83.217732,14.982497],[-83.262019,14.983195],[-83.285661,14.992109],[-83.272974,15.003039],[-83.334237,15.006449],[-83.349352,14.996812],[-83.354546,15.010067],[-83.390306,15.03097],[-83.415472,14.996941],[-83.45919,14.982497],[-83.485855,15.01048],[-83.509084,15.01154],[-83.513218,14.968855],[-83.523037,14.977692],[-83.528618,14.973402],[-83.526861,14.948365],[-83.54735,14.955212],[-83.542441,14.945084],[-83.604272,14.909194],[-83.615615,14.872685],[-83.649954,14.888498],[-83.691967,14.886974],[-83.710622,14.878344],[-83.714498,14.867233],[-83.705015,14.838527],[-83.723619,14.851575],[-83.746563,14.852195],[-83.744522,14.836667],[-83.765296,14.828786],[-83.821055,14.825479],[-83.801211,14.803775],[-83.839503,14.797418],[-83.869475,14.777109],[-83.889939,14.790726],[-83.885004,14.781347],[-83.896554,14.780443],[-83.924718,14.803775],[-83.929859,14.771658],[-83.924718,14.763441],[-84.040757,14.76034],[-84.047811,14.770805],[-84.075199,14.771632],[-84.11176,14.793413],[-84.122716,14.784525],[-84.095431,14.736104],[-84.128736,14.734192],[-84.168191,14.714969],[-84.195011,14.718715],[-84.226379,14.749773],[-84.261803,14.758532],[-84.267281,14.677736],[-84.287796,14.66722],[-84.338387,14.674687],[-84.362934,14.715615],[-84.408435,14.649417],[-84.482694,14.619471],[-84.519048,14.638281],[-84.534215,14.633733],[-84.52742,14.660398],[-84.600439,14.662517],[-84.680847,14.685461],[-84.699321,14.674687],[-84.72485,14.72564],[-84.745288,14.739101],[-84.747045,14.764475],[-84.76694,14.766903],[-84.758568,14.77866],[-84.77017,14.805144],[-84.792132,14.82106],[-84.8181,14.828657],[-84.904219,14.816978],[-85.015659,14.728172],[-85.033048,14.669571],[-85.053925,14.66306],[-85.020206,14.633733],[-85.048163,14.605776],[-85.022222,14.605802],[-85.029637,14.588956],[-85.065242,14.554255],[-85.086378,14.54454],[-85.119322,14.573969],[-85.137538,14.578491],[-85.14547,14.564254],[-85.151826,14.485964],[-85.178491,14.455605],[-85.178491,14.427648],[-85.205828,14.407158],[-85.171877,14.38101],[-85.159035,14.361063],[-85.158027,14.338273],[-85.169629,14.321763],[-85.215207,14.301583],[-85.277813,14.29732],[-85.321351,14.281326],[-85.340807,14.253369],[-85.358532,14.250888],[-85.384008,14.226445],[-85.409123,14.166165],[-85.431732,14.132834],[-85.474675,14.103404],[-85.510641,14.093792],[-85.527953,14.050901],[-85.593608,14.03346],[-85.612806,14.00974],[-85.647868,13.999302],[-85.644613,13.988786],[-85.651486,13.98199],[-85.666188,13.984471],[-85.699235,13.9615],[-85.727347,13.965014],[-85.747449,13.888275],[-85.723006,13.863418],[-85.740293,13.825639],[-85.758301,13.839286],[-85.824162,13.847683],[-85.861602,13.904424],[-85.883564,13.913855],[-85.9155,13.907447],[-85.929401,13.912098],[-85.957772,13.946101],[-86.028413,13.996072],[-86.031256,14.022582],[-86.020197,14.055164],[-86.09673,14.044079],[-86.121689,14.027207],[-86.138019,13.996175],[-86.184063,13.966875],[-86.218583,13.914371],[-86.284108,13.845719],[-86.313564,13.776602],[-86.340126,13.756655],[-86.410096,13.749033],[-86.426529,13.752986],[-86.448233,13.772959],[-86.490814,13.759497],[-86.541664,13.782131],[-86.66269,13.764691],[-86.727234,13.768256],[-86.766198,13.74526],[-86.774053,13.654594],[-86.751573,13.624415],[-86.756586,13.55938],[-86.724288,13.439413],[-86.740205,13.381923],[-86.709922,13.348902],[-86.704031,13.298828],[-86.725477,13.273299],[-86.7493,13.261285],[-86.816221,13.291929],[-86.8495,13.288828],[-86.910789,13.239581],[-86.933216,13.188188],[-86.925516,13.163642],[-86.932338,13.108529],[-86.920245,13.096178],[-86.922932,13.086386],[-86.948409,13.069694],[-86.983187,13.021868],[-87.029618,12.996081],[-87.035045,12.979777],[-87.084654,12.995926],[-87.314036,12.981553],[-87.293568,13.011054],[-87.269154,13.029446],[-87.31668,13.034206],[-87.331776,13.04267],[-87.352813,13.072537],[-87.351064,13.088406],[-87.303944,13.098334],[-87.361806,13.113349],[-87.419342,13.111355],[-87.422109,13.149929],[-87.43578,13.189399],[-87.484527,13.270087],[-87.501943,13.269599],[-87.512237,13.286689],[-87.501943,13.304389],[-87.467763,13.324897],[-87.440419,13.359036],[-87.42691,13.356024],[-87.379018,13.372016],[-87.379018,13.393134],[-87.400624,13.41116],[-87.42984,13.409369],[-87.447296,13.420478],[-87.469635,13.402981],[-87.47643,13.379706],[-87.472279,13.367011],[-87.482045,13.359036],[-87.547597,13.355007],[-87.557159,13.365871],[-87.542836,13.365871],[-87.542836,13.372016],[-87.581329,13.38288],[-87.598866,13.384345],[-87.61856,13.372016],[-87.60558,13.406806],[-87.619252,13.412014],[-87.624013,13.466254],[-87.636464,13.46369],[-87.660146,13.440945],[-87.65099,13.412543],[-87.665679,13.386013],[-87.692779,13.366482],[-87.738881,13.362372],[-87.781361,13.382595],[-87.782948,13.396267],[-87.817169,13.406562],[-87.738412,13.441687],[-87.721153,13.460833],[-87.720584,13.486982],[-87.733426,13.507704],[-87.779469,13.509978],[-87.789934,13.532819],[-87.760091,13.616948],[-87.755026,13.689915],[-87.731359,13.722213],[-87.737844,13.738775],[-87.703608,13.814998],[-87.790606,13.870472],[-87.817891,13.91587],[-87.832903,13.91525],[-87.860911,13.890187],[-87.900108,13.89414],[-87.925326,13.879619],[-87.952595,13.892029],[-88.015321,13.866364],[-88.023641,13.891169],[-88.072888,13.943414],[-88.087538,13.980543],[-88.099036,13.989819],[-88.177533,13.985194],[-88.235075,13.992868],[-88.244893,13.989251],[-88.244376,13.9661],[-88.233369,13.954498],[-88.236367,13.938143],[-88.2636,13.933104],[-88.285433,13.905974],[-88.319256,13.897602],[-88.326206,13.885071],[-88.355067,13.890962],[-88.358917,13.875278],[-88.392946,13.879774],[-88.433228,13.871067],[-88.470151,13.852489],[-88.496816,13.851197],[-88.488677,13.88135],[-88.502293,13.91711],[-88.49542,13.975143],[-88.504361,13.983695],[-88.558104,13.990904],[-88.633862,14.014469],[-88.690938,14.009999],[-88.692695,14.025295],[-88.704865,14.038033],[-88.746645,14.052477],[-88.73923,14.099942],[-88.746387,14.111336],[-88.777341,14.099735],[-88.838759,14.100407],[-88.860334,14.158517],[-88.881263,14.1842],[-88.906016,14.199574],[-88.957175,14.185182],[-88.965986,14.191383],[-88.98353,14.242129],[-89.018128,14.271688],[-89.032985,14.323675],[-89.083085,14.335328],[-89.09448,14.344862],[-89.091844,14.374834],[-89.107476,14.39597],[-89.122178,14.394678],[-89.153985,14.351296],[-89.200158,14.36468],[-89.225531,14.382147],[-89.361621,14.415478]]],[[[-87.615142,13.290107],[-87.613881,13.26732],[-87.624338,13.252916],[-87.646555,13.249172],[-87.667063,13.256008],[-87.660146,13.262193],[-87.673818,13.283881],[-87.615142,13.290107]]],[[[-87.622304,13.368883],[-87.57079,13.372016],[-87.588124,13.357978],[-87.576283,13.318549],[-87.591298,13.304389],[-87.659006,13.331692],[-87.643463,13.367743],[-87.634429,13.373481],[-87.622304,13.368883]]],[[[-86.878733,16.127265],[-86.872548,16.120998],[-86.878733,16.093166],[-86.913197,16.090155],[-86.963721,16.066388],[-86.997405,16.083959],[-86.988735,16.095466],[-86.944251,16.116508],[-86.878733,16.127265]]],[[[-86.606542,16.285029],[-86.599333,16.309298],[-86.570447,16.33244],[-86.44039,16.396545],[-86.332125,16.429448],[-86.181751,16.428225],[-86.22387,16.412101],[-86.243112,16.417881],[-86.312123,16.412502],[-86.453071,16.351511],[-86.491022,16.325488],[-86.548153,16.312853],[-86.600504,16.269449],[-86.606542,16.285029]]],[[[-85.911473,16.462043],[-85.884145,16.502834],[-85.851131,16.517218],[-85.81695,16.498309],[-85.822061,16.486163],[-85.844254,16.483779],[-85.86272,16.452221],[-85.882363,16.451047],[-85.947068,16.40319],[-85.950847,16.412308],[-85.926691,16.454782],[-85.911473,16.462043]]],[[[-83.941151,17.418647],[-83.912343,17.411119],[-83.930328,17.40941],[-83.941151,17.418647]]]]}}