{"type":"Feature","properties":{"iso3":"HRV","name":"Croatia","continent":"Europe"},"geometry":{"type":"MultiPolygon","coordinates":[[[[16.515302,46.501711],[16.577623,46.470653],[16.594263,46.482978],[16.659272,46.464193],[16.712395,46.412672],[16.742885,46.399624],[16.75508,46.381873],[16.769343,46.39611],[16.803449,46.388694],[16.827531,46.374018],[16.837659,46.381873],[16.875073,46.342857],[16.871766,46.327199],[16.889232,46.292163],[16.940702,46.251493],[16.974808,46.210565],[17.028035,46.18049],[17.052943,46.153463],[17.116195,46.123129],[17.208593,46.116566],[17.24859,46.080238],[17.275875,46.012025],[17.307811,46.006392],[17.316803,45.997659],[17.290138,45.991457],[17.290138,45.984636],[17.327138,45.972027],[17.337887,45.984636],[17.342124,45.958643],[17.38915,45.963087],[17.399692,45.959935],[17.406203,45.943657],[17.426667,45.956731],[17.511933,45.95394],[17.591102,45.936215],[17.645775,45.891825],[17.656524,45.84542],[17.809176,45.814414],[17.838218,45.799635],[17.857959,45.775863],[17.870051,45.773486],[17.889791,45.792141],[17.975367,45.792141],[18.080477,45.771729],[18.12895,45.785372],[18.211219,45.785372],[18.317672,45.747286],[18.367178,45.75819],[18.383818,45.743204],[18.404385,45.741809],[18.481797,45.791418],[18.504224,45.784028],[18.530269,45.79085],[18.57347,45.816688],[18.62215,45.868416],[18.633002,45.891929],[18.655636,45.907587],[18.674343,45.910377],[18.775525,45.882834],[18.804878,45.913633],[18.828339,45.905726],[18.901306,45.931203],[18.90699,45.9157],[18.872884,45.895236],[18.90699,45.867951],[18.855314,45.857357],[18.848699,45.809556],[18.900169,45.764908],[18.917325,45.706565],[18.962697,45.683052],[18.968485,45.668738],[18.912365,45.619232],[18.90358,45.573085],[18.941717,45.538927],[18.960217,45.539134],[19.018095,45.567401],[19.040936,45.545025],[19.095092,45.526059],[19.106255,45.511642],[19.077212,45.491643],[19.00962,45.498671],[18.99639,45.473815],[18.997144,45.455517],[19.031319,45.416201],[19.02262,45.402392],[18.975527,45.39113],[18.977491,45.371209],[19.03024,45.345137],[19.082956,45.339224],[19.096229,45.329121],[19.104147,45.298726],[19.158482,45.276171],[19.28975,45.23631],[19.378073,45.229592],[19.397296,45.223287],[19.407838,45.203133],[19.405358,45.179672],[19.393929,45.171624],[19.304279,45.166547],[19.291359,45.177709],[19.279474,45.177244],[19.267795,45.165823],[19.225937,45.161947],[19.185319,45.168045],[19.143875,45.199516],[19.121861,45.195795],[19.141705,45.162154],[19.137674,45.146031],[19.060056,45.146858],[19.044863,45.137246],[19.082277,45.084949],[19.095402,45.020922],[19.087238,44.977101],[19.09809,44.970021],[19.118554,44.97555],[19.131679,44.953175],[19.06667,44.905684],[19.018405,44.925683],[18.991429,44.914934],[18.994323,44.894832],[19.015821,44.865635],[18.889627,44.86119],[18.817797,44.887545],[18.78338,44.913745],[18.772631,44.942478],[18.804568,44.973845],[18.791752,45.001544],[18.738318,45.01591],[18.684058,45.084794],[18.671346,45.086861],[18.648711,45.062677],[18.616672,45.097662],[18.549596,45.094768],[18.53492,45.090427],[18.541121,45.055287],[18.51704,45.055856],[18.466087,45.074046],[18.412033,45.112441],[18.322323,45.12288],[18.237884,45.157451],[18.213286,45.153782],[18.20233,45.144067],[18.192512,45.108514],[18.153651,45.097558],[18.090296,45.107997],[18.035002,45.143344],[18.003479,45.149338],[17.911185,45.081074],[17.835738,45.064434],[17.797497,45.081952],[17.741377,45.133267],[17.684739,45.163963],[17.651563,45.165358],[17.629962,45.157348],[17.572395,45.120399],[17.481858,45.114405],[17.496224,45.14169],[17.472349,45.13275],[17.447751,45.1343],[17.458086,45.146134],[17.443307,45.162051],[17.436176,45.151922],[17.382432,45.139623],[17.268951,45.189543],[17.24549,45.155384],[17.187095,45.148563],[17.098418,45.177657],[17.055734,45.200446],[17.036303,45.23047],[17.008295,45.216156],[17.013566,45.230574],[17.008295,45.244165],[16.998683,45.2314],[16.961166,45.250934],[16.967987,45.237292],[16.947317,45.23569],[16.93264,45.278788],[16.924372,45.284524],[16.86174,45.232227],[16.830734,45.216983],[16.824223,45.189077],[16.811718,45.181223],[16.786293,45.178846],[16.587028,45.220858],[16.528944,45.222254],[16.481919,45.199516],[16.435513,45.132853],[16.389211,45.116834],[16.38177,45.107584],[16.381976,45.083709],[16.356965,45.048621],[16.340635,45.005936],[16.316244,45.001234],[16.212994,45.031464],[16.121527,45.096163],[16.067474,45.169595],[16.024375,45.184323],[16.029233,45.205045],[16.020448,45.213934],[15.878855,45.217241],[15.824801,45.210988],[15.792348,45.189801],[15.780049,45.160294],[15.78377,45.100917],[15.755968,45.042213],[15.76744,44.993224],[15.763616,44.97555],[15.730853,44.927233],[15.734264,44.902118],[15.773435,44.845016],[15.76868,44.827342],[15.730647,44.817007],[15.716074,44.80321],[15.728476,44.769103],[15.805681,44.696653],[15.856427,44.703577],[15.876271,44.724816],[15.888776,44.724248],[15.905416,44.690141],[15.913064,44.684509],[15.937352,44.688953],[15.948101,44.678101],[15.955646,44.653193],[15.968978,44.63924],[16.028303,44.624719],[16.044736,44.589372],[16.034917,44.585393],[16.006082,44.541003],[16.026649,44.52519],[16.04732,44.52333],[16.0837,44.534905],[16.104887,44.532373],[16.116463,44.52147],[16.159664,44.416101],[16.159871,44.400702],[16.13827,44.377602],[16.171343,44.377086],[16.202866,44.359774],[16.203176,44.333057],[16.189533,44.308511],[16.18757,44.282414],[16.215785,44.208155],[16.275523,44.157357],[16.326889,44.082375],[16.367197,44.058139],[16.414016,44.055813],[16.439647,44.014007],[16.501039,43.992716],[16.555816,43.937474],[16.678599,43.840684],[16.698236,43.788078],[16.712602,43.771515],[16.82381,43.707307],[17.030516,43.54848],[17.084569,43.513237],[17.142757,43.489336],[17.239495,43.478407],[17.270501,43.463214],[17.286417,43.437376],[17.267607,43.353324],[17.289931,43.30343],[17.328689,43.260358],[17.400209,43.216045],[17.42677,43.165713],[17.442067,43.152432],[17.587381,43.082126],[17.628412,43.046573],[17.659004,42.993656],[17.662725,42.965699],[17.63451,42.950403],[17.580658,42.942084],[17.549653,42.955308],[17.534516,42.950629],[17.515636,42.958889],[17.488292,42.982611],[17.470876,43.013414],[17.501964,43.030992],[17.487966,43.03498],[17.433604,43.017401],[17.460216,43.030992],[17.432302,43.0362],[17.427419,43.060858],[17.404552,43.0515],[17.316254,43.127265],[17.172374,43.18183],[17.113943,43.213202],[17.100271,43.231676],[17.066661,43.244859],[17.051117,43.274237],[17.0324,43.282375],[16.93393,43.373603],[16.880626,43.405951],[16.752452,43.419501],[16.625824,43.449042],[16.534841,43.497138],[16.524669,43.51081],[16.504405,43.503974],[16.391449,43.51081],[16.391449,43.517646],[16.434255,43.521877],[16.473399,43.538153],[16.433849,43.54975],[16.336762,43.551174],[16.239594,43.526557],[16.117686,43.524482],[16.117686,43.517646],[16.164887,43.504096],[16.172374,43.489691],[16.11085,43.489691],[16.113129,43.478909],[16.039561,43.49079],[16.014008,43.503974],[16.007823,43.497138],[15.973481,43.503119],[15.966319,43.51081],[15.964366,43.503892],[15.961274,43.515041],[15.983653,43.521064],[15.987315,43.544908],[15.959483,43.538153],[15.94809,43.552883],[15.925304,43.55858],[15.941905,43.560004],[15.944184,43.566718],[15.917979,43.572903],[15.93214,43.586575],[15.917979,43.606391],[15.925304,43.613837],[15.918956,43.62873],[15.966319,43.633734],[15.966319,43.641181],[15.904796,43.648017],[15.952973,43.650865],[15.93214,43.668443],[15.945974,43.672309],[15.95045,43.688544],[15.938975,43.696438],[15.939708,43.677639],[15.931163,43.6765],[15.892914,43.700507],[15.870779,43.703192],[15.844005,43.729926],[15.792166,43.754462],[15.706309,43.763414],[15.68214,43.797187],[15.632986,43.810452],[15.617442,43.825507],[15.663097,43.812974],[15.678884,43.811835],[15.678884,43.819281],[15.574067,43.859524],[15.512218,43.911078],[15.455089,43.928046],[15.358084,44.025702],[15.319509,44.045233],[15.212901,44.131049],[15.212738,44.148261],[15.144542,44.195461],[15.160411,44.213202],[15.152192,44.235297],[15.110362,44.26435],[15.140636,44.282457],[15.157563,44.280341],[15.176606,44.249945],[15.197927,44.25731],[15.207774,44.272773],[15.185395,44.285386],[15.206554,44.285386],[15.19809,44.301663],[15.247569,44.277981],[15.279552,44.251776],[15.295258,44.250678],[15.281749,44.285386],[15.302745,44.29914],[15.278168,44.309801],[15.261241,44.332587],[15.42449,44.267971],[15.503591,44.259223],[15.525238,44.260688],[15.528656,44.271796],[15.449229,44.285386],[15.406016,44.320624],[15.307953,44.354397],[15.15504,44.466702],[15.080089,44.536078],[15.007335,44.569729],[14.901378,44.690172],[14.8838,44.723619],[14.895193,44.736151],[14.8838,44.788764],[14.8838,44.861477],[14.921641,44.958808],[14.852794,45.093655],[14.827403,45.113959],[14.765961,45.137356],[14.657888,45.196601],[14.6067,45.244371],[14.57602,45.262274],[14.568614,45.275946],[14.582205,45.285346],[14.570811,45.293647],[14.534353,45.31269],[14.552257,45.297675],[14.551931,45.288072],[14.533051,45.283881],[14.510509,45.29975],[14.402354,45.338609],[14.329763,45.35399],[14.311534,45.34398],[14.271983,45.290107],[14.232595,45.149359],[14.209239,45.12637],[14.179373,45.134508],[14.195323,45.120592],[14.193126,45.105618],[14.154307,45.078925],[14.158214,45.053209],[14.143891,45.053209],[14.159434,45.040351],[14.166189,45.018948],[14.163748,44.995754],[14.151378,44.977484],[14.139903,44.97134],[14.101329,44.97427],[14.068858,44.94953],[14.083832,44.986396],[14.075694,45.004828],[14.054535,45.018459],[14.051931,45.038031],[14.040294,45.038967],[14.044281,45.00141],[14.071544,44.993354],[14.075694,44.98371],[14.044444,44.951402],[14.034679,44.956366],[14.039073,44.93183],[14.034679,44.922309],[14.022634,44.9206],[14.027843,44.908637],[14.020518,44.901109],[13.972667,44.901109],[13.993012,44.881293],[13.986176,44.881293],[13.993012,44.867621],[13.972667,44.847154],[13.972667,44.826646],[13.989431,44.8251],[14.000011,44.813056],[13.963878,44.811835],[13.931651,44.820502],[13.924815,44.813056],[13.918712,44.829047],[13.890147,44.833482],[13.883149,44.826646],[13.904307,44.817288],[13.90447,44.798774],[13.917979,44.778266],[13.903168,44.772406],[13.896983,44.813056],[13.849132,44.826646],[13.853852,44.837063],[13.845551,44.840155],[13.849132,44.847154],[13.842296,44.854641],[13.815684,44.856594],[13.78712,44.875067],[13.794607,44.881293],[13.819591,44.867662],[13.833751,44.873358],[13.842296,44.888129],[13.815278,44.883531],[13.794607,44.894965],[13.808116,44.915432],[13.774099,44.963813],[13.660818,45.061225],[13.62322,45.073065],[13.636892,45.093573],[13.612559,45.117865],[13.63852,45.130032],[13.726248,45.134508],[13.683604,45.143378],[13.600597,45.137274],[13.595958,45.145413],[13.599376,45.171291],[13.589122,45.175482],[13.594412,45.187323],[13.582286,45.196601],[13.594493,45.212633],[13.589122,45.230699],[13.595225,45.2508],[13.57545,45.264879],[13.602712,45.285346],[13.57545,45.306464],[13.609548,45.320136],[13.561778,45.326361],[13.54127,45.346137],[13.540538,45.356757],[13.554942,45.36107],[13.554942,45.367336],[13.543142,45.376166],[13.513357,45.436225],[13.520763,45.457261],[13.504568,45.483873],[13.507091,45.511908],[13.585139,45.489247],[13.624107,45.462745],[13.759294,45.463169],[13.819859,45.432628],[13.889002,45.423637],[13.923005,45.448958],[13.969824,45.462963],[13.98264,45.475313],[13.961452,45.493142],[13.971891,45.514226],[14.013956,45.507973],[14.092917,45.473918],[14.145524,45.476243],[14.218698,45.497172],[14.326805,45.4749],[14.372797,45.477845],[14.468915,45.525594],[14.482144,45.542441],[14.498577,45.596184],[14.556145,45.656697],[14.580949,45.667808],[14.591905,45.663364],[14.593868,45.616183],[14.603067,45.603574],[14.669833,45.564558],[14.668489,45.533966],[14.781144,45.493348],[14.797164,45.465185],[14.838815,45.458983],[14.881603,45.469784],[14.900826,45.493142],[14.904444,45.514432],[14.922634,45.514949],[14.962631,45.493142],[15.007383,45.480843],[15.056166,45.479912],[15.139262,45.430045],[15.18422,45.4256],[15.281578,45.450974],[15.325193,45.452834],[15.361367,45.482031],[15.311034,45.505906],[15.296668,45.522959],[15.268556,45.601662],[15.287883,45.610344],[15.297391,45.625692],[15.373769,45.640213],[15.333875,45.682639],[15.304936,45.672149],[15.283025,45.680107],[15.250883,45.70765],[15.255017,45.723463],[15.303799,45.746149],[15.429063,45.775295],[15.441052,45.782168],[15.440328,45.811468],[15.451284,45.815137],[15.48539,45.810176],[15.523527,45.826816],[15.626054,45.820202],[15.666051,45.831674],[15.676076,45.841699],[15.659436,45.888828],[15.67556,45.925157],[15.674216,45.993163],[15.697987,46.036209],[15.683931,46.051144],[15.631531,46.070574],[15.603833,46.090986],[15.58988,46.113517],[15.589983,46.138684],[15.604349,46.167002],[15.639799,46.207672],[15.661297,46.21532],[15.749767,46.210772],[15.768887,46.21935],[15.789144,46.24307],[15.81829,46.255524],[15.879323,46.259308],[15.948721,46.284204],[16.019208,46.298829],[16.049922,46.316735],[16.059619,46.332315],[16.057965,46.377532],[16.106024,46.373734],[16.143851,46.394714],[16.191807,46.369781],[16.275626,46.373165],[16.278727,46.387351],[16.250925,46.404998],[16.234905,46.493339],[16.260931,46.513576],[16.340276,46.543827],[16.406264,46.539486],[16.440371,46.519022],[16.481298,46.519022],[16.515302,46.501711]]],[[[18.437355,42.559212],[18.437148,42.493402],[18.454925,42.464722],[18.492855,42.442372],[18.49643,42.416327],[18.474457,42.441352],[18.413097,42.461859],[18.411876,42.47602],[18.238943,42.559068],[18.220551,42.579169],[18.223481,42.614691],[18.21754,42.620103],[18.07602,42.651313],[18.057384,42.667914],[18.077322,42.667914],[18.043224,42.702053],[18.028331,42.691311],[17.961192,42.729397],[17.901622,42.751899],[17.880707,42.768744],[17.892833,42.790839],[17.865082,42.789944],[17.834972,42.807196],[17.806651,42.811916],[17.780121,42.796942],[17.720958,42.826239],[17.748709,42.803412],[17.761892,42.778713],[17.748709,42.77204],[17.748871,42.790839],[17.72877,42.800767],[17.44044,42.873358],[17.442719,42.898627],[17.417247,42.9112],[17.350922,42.92178],[17.271332,42.963365],[17.213878,42.982611],[17.095388,42.984442],[17.046153,42.995063],[17.017914,43.013821],[17.028168,43.030992],[17.001638,43.0515],[17.023123,43.048651],[17.073253,43.024156],[17.158702,43.030992],[17.240245,43.022773],[17.390473,42.977729],[17.454112,42.942288],[17.460216,42.92178],[17.50766,42.909084],[17.518891,42.908149],[17.522146,42.919623],[17.532074,42.9206],[17.55893,42.912828],[17.641612,42.884467],[17.65268,42.873358],[17.673676,42.875067],[17.715994,42.844184],[17.741466,42.83926],[17.701915,42.868476],[17.713634,42.880805],[17.707367,42.88703],[17.678722,42.879381],[17.653331,42.890937],[17.679468,42.915676],[17.701586,42.9195],[17.786748,42.901388],[17.81176,42.909863],[17.826229,42.888649],[17.827159,42.853122],[17.858475,42.816974],[17.904467,42.804546],[17.995315,42.740441],[18.224138,42.628071],[18.311574,42.601225],[18.338653,42.602517],[18.385265,42.566524],[18.437355,42.559212]]],[[[16.858165,42.784003],[16.921072,42.777167],[16.93393,42.770941],[16.936371,42.75552],[16.905447,42.731757],[16.884939,42.729397],[16.858165,42.742987],[16.834321,42.730943],[16.820811,42.73607],[16.809825,42.749823],[16.822276,42.755113],[16.824067,42.764065],[16.818858,42.769355],[16.802989,42.763495],[16.810232,42.775336],[16.858165,42.784003]]],[[[17.658946,42.742987],[17.730479,42.713446],[17.748871,42.694566],[17.385916,42.770941],[17.37379,42.759996],[17.323741,42.790839],[17.392345,42.801703],[17.371593,42.790839],[17.486013,42.782172],[17.523692,42.764838],[17.597504,42.749823],[17.590668,42.742987],[17.658946,42.742987]]],[[[17.131847,42.96955],[17.200206,42.92178],[17.19337,42.914293],[17.174327,42.922024],[17.107432,42.914293],[17.01531,42.928616],[16.972911,42.926703],[16.85141,42.900702],[16.691417,42.928209],[16.655447,42.926256],[16.638438,42.93476],[16.706798,42.962104],[16.706798,42.96955],[16.631684,42.982611],[16.65268,42.992377],[16.72047,42.990058],[16.824067,42.962104],[16.878673,42.962104],[16.915538,42.974514],[17.032074,42.982611],[17.111095,42.964301],[17.131847,42.96955]]],[[[16.241222,43.071967],[16.249848,43.079413],[16.252126,43.062405],[16.210297,43.033271],[16.087169,43.011461],[16.063162,43.017401],[16.084483,43.025946],[16.087087,43.041409],[16.079112,43.05329],[16.063162,43.0515],[16.048839,43.065172],[16.130219,43.088446],[16.170177,43.087714],[16.199718,43.079413],[16.194672,43.074408],[16.228201,43.078681],[16.241222,43.071967]]],[[[16.693126,43.127265],[16.559825,43.142971],[16.371593,43.195502],[16.391449,43.202338],[16.415294,43.198472],[16.439789,43.209784],[16.446056,43.202338],[16.460297,43.215969],[16.460297,43.209784],[16.49643,43.218085],[16.554942,43.187934],[16.583263,43.188666],[16.520518,43.22899],[16.562755,43.22899],[16.583263,43.215969],[16.616384,43.223538],[16.659516,43.215969],[16.693126,43.188666],[16.68629,43.18183],[16.727712,43.164618],[16.848155,43.16234],[16.864431,43.16885],[16.896739,43.154771],[17.018565,43.140855],[17.155284,43.140326],[17.19337,43.127265],[16.693126,43.127265]]],[[[16.500743,43.284247],[16.421886,43.317572],[16.405772,43.332709],[16.42628,43.325181],[16.426768,43.331488],[16.439789,43.332709],[16.434906,43.346422],[16.453461,43.353176],[16.42628,43.39411],[16.493907,43.38231],[16.687673,43.377021],[16.809825,43.353176],[16.809825,43.346381],[16.796153,43.346381],[16.816254,43.340237],[16.830333,43.346381],[16.858165,43.325181],[16.885102,43.321967],[16.892345,43.312201],[16.872325,43.287991],[16.864431,43.291693],[16.846202,43.273383],[16.813162,43.267768],[16.628266,43.263739],[16.500743,43.284247]]],[[[16.391449,43.346381],[16.375987,43.333441],[16.348643,43.33869],[16.281749,43.369371],[16.207042,43.387274],[16.213227,43.39411],[16.20045,43.40705],[16.220063,43.415229],[16.277029,43.411933],[16.298188,43.403632],[16.302745,43.387274],[16.329845,43.389716],[16.391449,43.346381]]],[[[15.678884,43.648017],[15.740408,43.627509],[15.672048,43.637437],[15.60377,43.674709],[15.611339,43.682115],[15.650157,43.673041],[15.678884,43.648017]]],[[[15.261241,43.867092],[15.266368,43.857001],[15.395681,43.772406],[15.30893,43.805609],[15.247895,43.849026],[15.227794,43.874457],[15.240733,43.880764],[15.261241,43.867092]]],[[[15.302745,43.966376],[15.261241,44.011054],[15.296397,44.005601],[15.349946,43.976304],[15.384044,43.97016],[15.391612,43.942206],[15.426768,43.922065],[15.446056,43.887519],[15.407074,43.896145],[15.397716,43.908108],[15.358653,43.919379],[15.349946,43.929145],[15.356781,43.93537],[15.302745,43.966376]]],[[[15.254405,44.01789],[15.223318,44.050279],[15.206554,44.045233],[15.199067,44.058824],[15.189138,44.047797],[15.121837,44.092231],[15.068696,44.133979],[15.071462,44.146389],[15.062511,44.161933],[15.225759,44.06623],[15.247081,44.046698],[15.254405,44.01789]]],[[[14.842784,44.148261],[14.85727,44.152045],[14.869151,44.14053],[14.835216,44.141669],[14.819835,44.153022],[14.822439,44.168687],[14.842784,44.148261]]],[[[15.144542,43.949652],[15.216807,43.912787],[15.220225,43.90119],[15.195486,43.895209],[15.145518,43.923896],[15.133311,43.92121],[15.175548,43.890937],[15.196788,43.886379],[15.194509,43.872626],[15.106619,43.925442],[15.042817,43.990424],[15.003103,44.052314],[14.955089,44.075588],[14.870128,44.140815],[14.84962,44.175605],[14.863292,44.175605],[14.939138,44.127143],[14.954438,44.103217],[14.993826,44.087836],[15.007335,44.093004],[15.002778,44.083157],[15.022716,44.072211],[15.041352,44.026435],[15.088227,43.989651],[15.11378,43.983791],[15.144542,43.949652]]],[[[14.876964,44.55976],[14.761485,44.658637],[14.733653,44.703192],[14.779959,44.669501],[14.845225,44.600531],[14.8838,44.579657],[14.880138,44.609198],[14.904063,44.610012],[14.966319,44.573432],[15.003917,44.536078],[15.041189,44.527493],[15.075531,44.484076],[15.007335,44.504543],[15.011729,44.514879],[14.972911,44.536119],[14.911143,44.552314],[14.911143,44.545478],[14.965994,44.523871],[15.048025,44.439439],[15.09669,44.415188],[15.064952,44.437934],[15.041515,44.47663],[15.083263,44.461859],[15.254405,44.340033],[15.235118,44.336249],[15.16505,44.367377],[15.16505,44.360541],[15.215831,44.338121],[15.227061,44.326361],[15.206554,44.326361],[15.220225,44.31273],[15.13087,44.332587],[15.172374,44.29914],[15.128754,44.311998],[15.09669,44.340033],[15.09669,44.346259],[15.110362,44.346259],[15.110362,44.353705],[15.089203,44.374213],[15.106944,44.37519],[15.117198,44.387193],[15.083018,44.401516],[15.049001,44.39468],[15.020763,44.429999],[14.958832,44.466702],[14.897472,44.490912],[14.897472,44.497056],[14.91863,44.504543],[14.876964,44.55976]]],[[[14.445567,44.565985],[14.526622,44.50373],[14.534353,44.484076],[14.511974,44.482245],[14.485037,44.500637],[14.438162,44.538642],[14.438162,44.545478],[14.466075,44.538642],[14.422618,44.573879],[14.404063,44.579657],[14.386567,44.565619],[14.363048,44.573432],[14.369884,44.579657],[14.364757,44.587226],[14.382579,44.603258],[14.375987,44.623033],[14.349376,44.655341],[14.335785,44.716783],[14.397472,44.685614],[14.390391,44.662177],[14.404063,44.610338],[14.445567,44.565985]]],[[[14.740489,44.778266],[14.75408,44.757758],[14.724946,44.767646],[14.699474,44.765204],[14.657888,44.798774],[14.70574,44.792548],[14.699474,44.813056],[14.726817,44.798774],[14.685802,44.847154],[14.726817,44.840277],[14.719981,44.854641],[14.753266,44.845852],[14.756114,44.835679],[14.740489,44.820502],[14.822439,44.77143],[14.85906,44.717353],[14.84962,44.703192],[14.740489,44.778266]]],[[[14.513927,44.662177],[14.508556,44.645331],[14.527517,44.647895],[14.534353,44.634263],[14.513357,44.618842],[14.472992,44.620266],[14.427908,44.656562],[14.394542,44.707587],[14.397227,44.751614],[14.368175,44.761054],[14.361583,44.815985],[14.329845,44.83393],[14.314138,44.893785],[14.2942,44.908637],[14.301524,44.922309],[14.292491,44.940334],[14.301524,44.943427],[14.325206,44.93651],[14.35963,44.908637],[14.38738,44.909003],[14.397227,44.929104],[14.39031,44.960395],[14.404063,44.94953],[14.411388,44.956366],[14.37672,44.986884],[14.340831,45.055609],[14.278494,45.113349],[14.288585,45.14883],[14.31365,45.172431],[14.356212,45.169257],[14.364106,45.15762],[14.363048,45.093573],[14.387706,45.039049],[14.417654,44.997992],[14.466075,44.98371],[14.473481,44.971422],[14.451915,44.922309],[14.459239,44.915432],[14.449962,44.898017],[14.451915,44.850898],[14.466563,44.804836],[14.451915,44.798774],[14.472911,44.765204],[14.466075,44.729804],[14.472179,44.707953],[14.513927,44.662177]]],[[[14.723399,44.943345],[14.628917,44.978176],[14.62086,45.0456],[14.603282,45.038967],[14.616954,45.024644],[14.510509,45.032172],[14.460134,45.052395],[14.425059,45.087348],[14.44158,45.099799],[14.462657,45.10102],[14.467052,45.124091],[14.476329,45.128363],[14.530121,45.134833],[14.521251,45.14883],[14.539561,45.170396],[14.536876,45.201728],[14.549815,45.221422],[14.543793,45.235745],[14.534353,45.237535],[14.548839,45.248725],[14.595876,45.237535],[14.58546,45.23786],[14.583995,45.23017],[14.62379,45.175482],[14.597423,45.166449],[14.643728,45.156806],[14.665294,45.161811],[14.670909,45.143459],[14.658946,45.108344],[14.665294,45.087348],[14.695974,45.073432],[14.740489,45.073065],[14.740001,45.044338],[14.799815,45.005194],[14.814952,44.977484],[14.784679,44.969306],[14.760916,44.977484],[14.747244,44.970038],[14.760753,44.955146],[14.756847,44.948717],[14.723399,44.943345]]],[[[16.310313,43.507758],[16.375255,43.49018],[16.333344,43.481391],[16.281993,43.487942],[16.24643,43.481431],[16.211436,43.490058],[16.218923,43.497748],[16.2435,43.49494],[16.252208,43.499945],[16.248057,43.508287],[16.264415,43.512885],[16.310313,43.507758]]],[[[14.759776,44.29206],[14.791677,44.272528],[14.789724,44.266913],[14.748546,44.261664],[14.739594,44.280178],[14.749685,44.280219],[14.759776,44.29206]]],[[[14.613455,44.340806],[14.661388,44.308661],[14.640798,44.311835],[14.595063,44.347113],[14.613455,44.340806]]],[[[14.797862,44.377672],[14.811209,44.350043],[14.801036,44.343085],[14.756196,44.364],[14.76824,44.384223],[14.763438,44.415351],[14.782888,44.418931],[14.803233,44.405504],[14.797862,44.377672]]],[[[14.244151,44.661444],[14.265798,44.679511],[14.280447,44.677558],[14.274181,44.661689],[14.256847,44.653062],[14.256684,44.63703],[14.271169,44.612535],[14.232595,44.626044],[14.244151,44.661444]]]]}}