{"type":"Feature","properties":{"iso3":"HTI","name":"Haiti","continent":"Americas"},"geometry":{"type":"MultiPolygon","coordinates":[[[[-71.757436,19.71011],[-71.745048,19.664899],[-71.743084,19.600071],[-71.715127,19.537465],[-71.703861,19.41463],[-71.733472,19.355461],[-71.776519,19.327504],[-71.753729,19.283785],[-71.716522,19.247767],[-71.639111,19.21211],[-71.643658,19.152475],[-71.661383,19.117594],[-71.710424,19.081653],[-71.783702,18.996309],[-71.865402,18.964425],[-71.862456,18.947088],[-71.796259,18.957061],[-71.733472,18.882569],[-71.720346,18.765445],[-71.744066,18.711443],[-71.791779,18.680682],[-71.841579,18.617986],[-71.880285,18.605403],[-71.955474,18.618606],[-71.992629,18.611139],[-72.009838,18.598814],[-71.904056,18.48479],[-71.901575,18.469778],[-71.918164,18.449237],[-71.912169,18.430737],[-71.858167,18.413554],[-71.826438,18.376166],[-71.71151,18.316144],[-71.774038,18.201474],[-71.776829,18.181785],[-71.762204,18.132486],[-71.760654,18.086804],[-71.776235,18.039252],[-71.892974,18.162787],[-71.92809,18.183783],[-72.071767,18.237535],[-72.190541,18.22484],[-72.440297,18.223944],[-72.518788,18.210354],[-72.550933,18.224758],[-72.556304,18.220852],[-72.54955,18.182359],[-72.55899,18.172553],[-72.613271,18.185004],[-72.754994,18.176174],[-72.750111,18.160305],[-72.76301,18.156724],[-72.776031,18.163153],[-72.8037,18.146145],[-72.858876,18.151313],[-72.885894,18.141425],[-72.985341,18.178656],[-73.125559,18.189846],[-73.163401,18.210354],[-73.296213,18.23078],[-73.355865,18.224921],[-73.365102,18.227362],[-73.359853,18.240383],[-73.310455,18.245063],[-73.310455,18.251288],[-73.377268,18.258124],[-73.458241,18.257514],[-73.526194,18.23078],[-73.55012,18.258734],[-73.563466,18.251044],[-73.578114,18.216864],[-73.591664,18.223944],[-73.60969,18.216783],[-73.619618,18.22191],[-73.619008,18.251288],[-73.633209,18.24726],[-73.645619,18.221096],[-73.659983,18.210354],[-73.646311,18.258734],[-73.673573,18.23078],[-73.690989,18.237616],[-73.694081,18.223944],[-73.737782,18.190741],[-73.809316,18.159166],[-73.827463,18.142035],[-73.844879,18.114691],[-73.802805,18.071926],[-73.793813,18.028998],[-73.87328,18.02619],[-73.899973,18.03913],[-73.903798,18.05386],[-73.989573,18.163153],[-74.105051,18.247626],[-74.165761,18.265611],[-74.176666,18.273179],[-74.18342,18.29328],[-74.242177,18.313951],[-74.248931,18.306545],[-74.267812,18.312974],[-74.330922,18.286038],[-74.372182,18.298489],[-74.408315,18.328274],[-74.445912,18.346381],[-74.463206,18.398179],[-74.489166,18.429389],[-74.454416,18.477769],[-74.461822,18.491441],[-74.443512,18.503811],[-74.431752,18.550116],[-74.414133,18.565579],[-74.426259,18.608222],[-74.418528,18.617499],[-74.340199,18.653388],[-74.287994,18.651516],[-74.278798,18.666571],[-74.25593,18.670315],[-74.159983,18.659166],[-74.029124,18.603746],[-73.971547,18.601304],[-73.959299,18.582994],[-73.9405,18.587633],[-73.898549,18.568793],[-73.842926,18.565253],[-73.803334,18.539252],[-73.779408,18.546698],[-73.748118,18.539252],[-73.704457,18.573472],[-73.62206,18.587633],[-73.586415,18.579169],[-73.585846,18.561998],[-73.606109,18.549018],[-73.632639,18.552924],[-73.632639,18.546698],[-73.673451,18.556098],[-73.714589,18.546698],[-73.674916,18.530178],[-73.66983,18.508857],[-73.652211,18.50137],[-73.620432,18.505764],[-73.604726,18.498277],[-73.569651,18.518378],[-73.526682,18.523505],[-73.36852,18.511949],[-73.286244,18.484036],[-73.166982,18.483547],[-73.098012,18.455268],[-72.985585,18.470404],[-72.898997,18.450507],[-72.904164,18.434149],[-72.858306,18.446682],[-72.754994,18.429389],[-72.716461,18.43773],[-72.68932,18.459662],[-72.628285,18.554145],[-72.596547,18.560858],[-72.429758,18.546698],[-72.416086,18.56037],[-72.371409,18.52558],[-72.353831,18.530097],[-72.343414,18.570136],[-72.343414,18.642279],[-72.325063,18.671373],[-72.330434,18.683295],[-72.385081,18.710598],[-72.433461,18.716783],[-72.491078,18.7685],[-72.51537,18.765815],[-72.54955,18.785631],[-72.617787,18.88935],[-72.651967,18.918606],[-72.70873,18.945543],[-72.813547,19.052924],[-72.818349,19.078559],[-72.776031,19.094794],[-72.716461,19.103949],[-72.707183,19.118638],[-72.713124,19.137437],[-72.762441,19.163072],[-72.803375,19.23192],[-72.768625,19.286566],[-72.713979,19.293402],[-72.728342,19.32038],[-72.770579,19.336168],[-72.772939,19.376451],[-72.768625,19.388983],[-72.744374,19.374457],[-72.723459,19.38349],[-72.730621,19.426418],[-72.67984,19.409491],[-72.699127,19.445868],[-72.760894,19.454332],[-72.814768,19.504828],[-72.966908,19.575019],[-73.002187,19.603461],[-73.01887,19.600735],[-73.120798,19.629096],[-73.149078,19.614936],[-73.186025,19.627102],[-73.221099,19.649644],[-73.241282,19.631049],[-73.28425,19.625718],[-73.409495,19.635972],[-73.457834,19.672187],[-73.468129,19.724799],[-73.427154,19.790269],[-73.365102,19.813544],[-73.365102,19.82099],[-73.420318,19.82099],[-73.404164,19.832506],[-73.344594,19.834052],[-73.222768,19.886949],[-73.187123,19.911444],[-73.167104,19.93769],[-73.143707,19.920315],[-73.115305,19.923407],[-73.060374,19.910346],[-72.99177,19.917182],[-72.967275,19.902899],[-72.960113,19.918402],[-72.941274,19.928046],[-72.898997,19.923407],[-72.840443,19.941636],[-72.776031,19.943915],[-72.67398,19.921373],[-72.628041,19.897284],[-72.568715,19.879869],[-72.544342,19.851264],[-72.517568,19.834133],[-72.489735,19.824652],[-72.474436,19.834052],[-72.425933,19.813788],[-72.385081,19.810452],[-72.378733,19.794664],[-72.330434,19.752102],[-72.330434,19.745836],[-72.350901,19.752102],[-72.333852,19.718573],[-72.316151,19.71483],[-72.30309,19.739081],[-72.312896,19.738756],[-72.316151,19.765692],[-72.274648,19.756252],[-72.256418,19.761868],[-72.238393,19.786444],[-72.218658,19.786933],[-72.20523,19.77619],[-72.213735,19.752102],[-72.196767,19.742499],[-72.131825,19.745836],[-72.110504,19.727688],[-72.058217,19.722642],[-72.018544,19.697455],[-71.968861,19.732327],[-71.864735,19.715074],[-71.857574,19.710028],[-71.872304,19.692125],[-71.912099,19.690619],[-71.901601,19.672309],[-71.850657,19.677639],[-71.821441,19.656684],[-71.813303,19.680732],[-71.842437,19.692328],[-71.84439,19.711127],[-71.836741,19.717353],[-71.757436,19.71011]]],[[[-73.628896,18.094224],[-73.592275,18.089342],[-73.577992,18.081122],[-73.577992,18.066962],[-73.610829,18.057563],[-73.667226,18.063137],[-73.707672,18.094224],[-73.699941,18.108303],[-73.687856,18.100491],[-73.676381,18.1081],[-73.659983,18.094224],[-73.628896,18.094224]]],[[[-73.796498,18.628648],[-73.772694,18.63935],[-73.73998,18.636868],[-73.714955,18.623481],[-73.714589,18.601304],[-73.73762,18.588202],[-73.769521,18.588365],[-73.794423,18.601874],[-73.796498,18.628648]]],[[[-72.850575,20.088528],[-72.802398,20.087226],[-72.667795,20.032294],[-72.627553,20.008246],[-72.638905,19.984849],[-72.739858,20.002427],[-72.844309,20.034491],[-72.878489,20.026435],[-72.899403,20.030422],[-72.960357,20.061225],[-72.901112,20.082017],[-72.850575,20.088528]]],[[[-73.258656,18.878485],[-73.289906,18.904202],[-73.299631,18.925523],[-73.296213,18.93651],[-73.245961,18.968411],[-73.200795,18.968695],[-72.993398,18.892035],[-72.846099,18.827094],[-72.817047,18.793118],[-72.805898,18.745673],[-72.808746,18.720404],[-72.831125,18.696438],[-72.855702,18.727688],[-73.037424,18.759589],[-73.125559,18.813625],[-73.214589,18.836615],[-73.238515,18.851508],[-73.258656,18.878485]]]]}}