{"type":"Feature","properties":{"iso3":"HUN","name":"Hungary","continent":"Europe"},"geometry":{"type":"Polygon","coordinates":[[[22.877601,47.946739],[22.836053,47.902452],[22.763602,47.874753],[22.752854,47.86124],[22.760295,47.838916],[22.75182,47.827676],[22.703864,47.817186],[22.637719,47.771555],[22.562994,47.757215],[22.528475,47.761039],[22.454371,47.787394],[22.423675,47.782563],[22.407345,47.743082],[22.395873,47.735692],[22.309366,47.735046],[22.27309,47.723755],[22.207874,47.673732],[22.197642,47.639315],[22.172837,47.615389],[22.162089,47.586244],[22.09956,47.570948],[22.007886,47.517411],[21.988869,47.492942],[22.001582,47.393827],[21.981531,47.366102],[21.919003,47.349669],[21.862159,47.297424],[21.823608,47.214923],[21.819887,47.172729],[21.77989,47.140741],[21.763767,47.105214],[21.69421,47.069169],[21.632819,47.022686],[21.670749,46.994394],[21.648528,46.942976],[21.588687,46.906182],[21.591788,46.860707],[21.583416,46.847943],[21.536597,46.835023],[21.502904,46.80531],[21.470451,46.743014],[21.505178,46.723247],[21.501767,46.703507],[21.483577,46.684852],[21.436241,46.673741],[21.396037,46.626354],[21.374436,46.618448],[21.316249,46.616639],[21.300953,46.603926],[21.291341,46.546721],[21.247623,46.497473],[21.245142,46.47688],[21.274391,46.438355],[21.280695,46.416393],[21.257544,46.404171],[21.195636,46.398099],[21.17879,46.384457],[21.168661,46.362753],[21.164527,46.318259],[21.144476,46.283739],[21.099208,46.27635],[21.051459,46.236094],[21.033475,46.231339],[20.999162,46.251597],[20.961748,46.248341],[20.906558,46.26219],[20.875139,46.254387],[20.839689,46.271079],[20.819638,46.271699],[20.778504,46.260072],[20.739333,46.237489],[20.735509,46.222503],[20.744707,46.192272],[20.710291,46.188086],[20.698819,46.15646],[20.663989,46.137753],[20.600117,46.12964],[20.548957,46.15615],[20.468549,46.174134],[20.444157,46.1469],[20.283237,46.1438],[20.242826,46.108091],[20.188462,46.140389],[20.170479,46.145505],[20.138026,46.136461],[20.098442,46.154962],[20.034983,46.142973],[19.993125,46.159406],[19.92915,46.16354],[19.79045,46.129072],[19.669321,46.1731],[19.549948,46.16416],[19.487523,46.134239],[19.499305,46.108608],[19.47295,46.098686],[19.453727,46.07755],[19.404738,46.060239],[19.378899,46.033677],[19.306966,46.026649],[19.286915,46.016159],[19.263454,45.981432],[19.148009,45.984068],[19.125788,45.993111],[19.111009,46.012955],[19.088478,46.018846],[19.06543,46.012025],[19.049721,45.993111],[19.048584,45.963449],[19.005589,45.96257],[18.981818,45.950788],[18.977684,45.943502],[18.987502,45.923813],[18.981818,45.921849],[18.886526,45.930428],[18.828339,45.905726],[18.804878,45.913633],[18.775525,45.882834],[18.674343,45.910377],[18.655636,45.907587],[18.633002,45.891929],[18.623597,45.868674],[18.57347,45.816688],[18.530269,45.79085],[18.504224,45.784028],[18.481797,45.791418],[18.404385,45.741809],[18.384128,45.7431],[18.367178,45.75819],[18.317672,45.747286],[18.211219,45.785372],[18.12895,45.785372],[18.080477,45.771729],[17.975367,45.792141],[17.889791,45.792141],[17.870051,45.773486],[17.858062,45.771729],[17.838218,45.799635],[17.809176,45.814414],[17.656524,45.84542],[17.645775,45.891825],[17.591102,45.936215],[17.511933,45.95394],[17.426667,45.956731],[17.406203,45.943657],[17.399692,45.959935],[17.38915,45.963087],[17.345328,45.955697],[17.337887,45.984636],[17.327138,45.972027],[17.290138,45.984636],[17.290138,45.991457],[17.316803,45.997659],[17.307811,46.006392],[17.275875,46.012025],[17.24859,46.080238],[17.208593,46.116566],[17.101209,46.128193],[17.052943,46.153463],[17.028035,46.18049],[16.974808,46.210565],[16.940702,46.251493],[16.889232,46.292163],[16.871766,46.327199],[16.875073,46.342857],[16.837659,46.381873],[16.820916,46.3781],[16.769343,46.39611],[16.75508,46.381873],[16.742885,46.399624],[16.712395,46.412672],[16.659272,46.464193],[16.594263,46.482978],[16.577623,46.470653],[16.515302,46.501711],[16.500832,46.544809],[16.467139,46.564704],[16.430242,46.604392],[16.376395,46.629093],[16.368437,46.642994],[16.410502,46.668367],[16.405024,46.687255],[16.357585,46.699011],[16.357275,46.715832],[16.343426,46.714178],[16.314177,46.743324],[16.29949,46.77951],[16.327509,46.825463],[16.325339,46.839442],[16.301878,46.843214],[16.272009,46.863962],[16.135376,46.855849],[16.094035,46.862774],[16.122871,46.876365],[16.170723,46.918533],[16.22395,46.941064],[16.232942,46.966075],[16.261054,46.97809],[16.274903,47.004315],[16.387764,47.002042],[16.415566,46.989433],[16.486363,46.998554],[16.467553,47.018423],[16.424661,47.024082],[16.493184,47.049145],[16.493701,47.059816],[16.461765,47.068498],[16.454323,47.081701],[16.460835,47.0963],[16.481919,47.10524],[16.509514,47.137537],[16.497318,47.149681],[16.447089,47.139708],[16.433653,47.145754],[16.441818,47.177121],[16.412776,47.187173],[16.409262,47.203683],[16.424661,47.225594],[16.421354,47.243035],[16.466622,47.263421],[16.473237,47.276805],[16.43882,47.336569],[16.424351,47.345199],[16.434273,47.35556],[16.433963,47.39685],[16.456597,47.411836],[16.481919,47.392302],[16.589406,47.425633],[16.640875,47.452919],[16.636845,47.4932],[16.677359,47.509866],[16.689141,47.53803],[16.68139,47.550561],[16.65059,47.566555],[16.656172,47.585934],[16.63023,47.622004],[16.608422,47.628773],[16.575453,47.624949],[16.509617,47.64314],[16.481919,47.638954],[16.407815,47.66133],[16.43913,47.690475],[16.461145,47.684532],[16.512924,47.706004],[16.526877,47.720137],[16.531115,47.742978],[16.567805,47.754192],[16.689865,47.729568],[16.702474,47.7236],[16.730379,47.685902],[16.797455,47.675463],[16.850165,47.712929],[16.864738,47.686729],[16.902668,47.682026],[17.075371,47.708484],[17.050566,47.730989],[17.040644,47.801114],[17.05563,47.812354],[17.039507,47.837365],[17.004367,47.852377],[17.004057,47.863281],[17.067619,47.881626],[17.087463,47.922632],[17.075164,47.927773],[17.076818,47.934956],[17.095731,47.95573],[17.085603,47.970148],[17.184821,48.020274],[17.337887,47.998725],[17.36941,47.981207],[17.472039,47.888809],[17.526609,47.872118],[17.572601,47.829536],[17.604227,47.834239],[17.639884,47.819201],[17.676678,47.789177],[17.741997,47.76538],[17.825713,47.750006],[18.11262,47.762486],[18.23592,47.753882],[18.273024,47.756259],[18.347851,47.776775],[18.552593,47.792846],[18.663698,47.775896],[18.692843,47.777963],[18.767671,47.822302],[18.814916,47.832194],[18.748757,47.870723],[18.742246,47.889455],[18.754751,47.951803],[18.744519,47.967357],[18.756198,47.981827],[18.794232,47.993144],[18.821001,48.030454],[18.838467,48.040015],[18.996494,48.066214],[19.098503,48.070736],[19.222526,48.060582],[19.29322,48.087764],[19.428199,48.085852],[19.481735,48.111328],[19.481735,48.13267],[19.513982,48.203958],[19.623226,48.227006],[19.643896,48.224809],[19.686994,48.196904],[19.756551,48.200315],[19.774327,48.185897],[19.766679,48.159],[19.776084,48.149517],[19.821663,48.157914],[19.846261,48.152669],[19.884295,48.129621],[19.905069,48.124299],[19.928633,48.130087],[19.99695,48.167914],[20.105263,48.202795],[20.134512,48.246669],[20.170892,48.244033],[20.22908,48.270905],[20.272385,48.252456],[20.324268,48.279948],[20.370157,48.334338],[20.420593,48.429241],[20.481674,48.478747],[20.481674,48.526083],[20.800311,48.569233],[20.845477,48.545823],[20.891365,48.541095],[20.945832,48.518978],[21.035956,48.514637],[21.109336,48.489109],[21.219924,48.518719],[21.261782,48.50319],[21.276561,48.50872],[21.302296,48.539907],[21.32183,48.54758],[21.424563,48.561275],[21.49939,48.535075],[21.521818,48.50009],[21.591684,48.49301],[21.613388,48.440352],[21.67757,48.372346],[21.727697,48.340901],[21.759012,48.333769],[21.789398,48.335526],[21.929338,48.372914],[22.018015,48.379735],[22.077856,48.375808],[22.09646,48.379425],[22.13284,48.404798],[22.156508,48.40206],[22.201983,48.418157],[22.271849,48.403455],[22.25676,48.357282],[22.29128,48.357566],[22.298721,48.349143],[22.297378,48.314003],[22.308126,48.293694],[22.357116,48.243103],[22.434217,48.236747],[22.477418,48.24393],[22.55576,48.177164],[22.605472,48.097039],[22.693219,48.101768],[22.745722,48.116289],[22.801429,48.090968],[22.85476,48.047301],[22.861581,48.028387],[22.849489,47.993144],[22.832435,47.978933],[22.840807,47.966789],[22.877601,47.946739]]]}}