{"type":"Feature","properties":{"iso3":"IMN","name":"Isle of Man","continent":"Europe"},"geometry":{"type":"Polygon","coordinates":[[[-4.612131,54.056952],[-4.620758,54.069648],[-4.656402,54.063788],[-4.704498,54.084866],[-4.766225,54.059231],[-4.790151,54.063788],[-4.790151,54.071234],[-4.769683,54.07746],[-4.770863,54.096829],[-4.737172,54.124905],[-4.71227,54.21662],[-4.663971,54.233547],[-4.598378,54.276597],[-4.530995,54.366116],[-4.442006,54.404364],[-4.367787,54.419013],[-4.351308,54.413804],[-4.377553,54.361884],[-4.3756,54.348334],[-4.358225,54.317613],[-4.324696,54.310207],[-4.31192,54.287177],[-4.348256,54.259508],[-4.365631,54.235053],[-4.399159,54.222073],[-4.390777,54.194729],[-4.475494,54.153144],[-4.474599,54.140815],[-4.529286,54.119086],[-4.549794,54.100653],[-4.590932,54.091051],[-4.612131,54.056952]]]}}