{"type":"Feature","properties":{"iso3":"IND","name":"India","continent":"Asia"},"geometry":{"type":"MultiPolygon","coordinates":[[[[77.800346,35.495406],[77.883132,35.431068],[78.044259,35.491633],[78.001161,35.268908],[78.335301,34.594375],[78.664583,34.526421],[78.95118,34.349171],[78.976192,34.217163],[78.730109,34.079265],[78.800905,33.494236],[79.075048,33.295743],[79.420084,33.275169],[79.339787,33.013257],[79.613913,32.765035],[79.472113,32.565472],[79.320466,32.592267],[78.989834,32.364098],[78.77145,32.461663],[78.713262,32.637518],[78.384807,32.547549],[78.457981,32.229662],[78.741994,31.945338],[78.670887,31.770517],[78.795324,31.633781],[78.699516,31.510016],[78.73848,31.334988],[78.921008,31.269685],[79.131397,31.438433],[79.394978,31.036711],[79.577809,30.938371],[79.833504,30.961522],[80.196066,30.748098],[80.188418,30.576998],[80.575267,30.466255],[80.996275,30.22689],[80.883879,30.210405],[80.354299,29.730279],[80.386752,29.626823],[80.228312,29.441718],[80.258181,29.202456],[80.113073,29.072206],[80.036386,28.837026],[80.468814,28.571849],[80.517596,28.680033],[81.146344,28.372249],[81.299409,28.142521],[81.417335,28.147017],[81.855654,27.850937],[82.02722,27.912406],[82.401926,27.677175],[82.652143,27.70415],[82.752137,27.494964],[83.132786,27.444217],[83.304868,27.331925],[83.353857,27.44029],[83.480981,27.469746],[83.85334,27.346194],[83.842717,27.418069],[84.079601,27.509536],[84.577039,27.329031],[84.657654,27.203405],[84.640239,27.028377],[84.817489,27.0106],[85.28728,26.736974],[85.598578,26.854383],[85.828538,26.566131],[86.01137,26.654447],[86.284428,26.61202],[86.695204,26.418234],[87.015443,26.568974],[87.083294,26.432083],[87.30049,26.34599],[87.416452,26.426967],[87.552051,26.386711],[87.869809,26.464639],[87.961225,26.378959],[88.074189,26.453942],[88.167517,26.725037],[87.975488,27.095143],[88.02334,27.474655],[88.159662,27.77412],[88.099924,27.928322],[88.594003,28.106606],[88.780141,28.028342],[88.842773,27.892407],[88.741642,27.53168],[88.884631,27.286346],[88.730067,27.150954],[89.128079,26.813455],[89.341657,26.854331],[89.800079,26.70049],[90.089157,26.741728],[90.328574,26.890659],[90.717077,26.767049],[91.313217,26.778677],[91.460598,26.869369],[91.702133,26.803481],[92.03586,26.854848],[92.080371,26.921571],[91.987904,27.122273],[92.081852,27.275132],[92.023598,27.44678],[91.604465,27.532145],[91.63577,27.782525],[91.566023,27.821074],[91.680131,27.849823],[91.908736,27.7319],[92.239568,27.865277],[92.275225,27.811689],[92.574977,27.847806],[92.71077,27.949702],[92.65484,28.105831],[93.207825,28.340539],[93.355432,28.624065],[93.927786,28.682752],[94.01145,28.85302],[94.347311,29.024349],[94.287505,29.147938],[94.63043,29.319452],[94.761482,29.174706],[95.367406,29.036496],[95.487577,29.068994],[95.550684,29.230284],[95.717165,29.218284],[95.744781,29.340432],[96.141966,29.368467],[96.205424,29.256949],[96.366862,29.244211],[96.174625,29.108845],[96.195323,28.941106],[96.366568,29.036537],[96.457605,28.994588],[96.592584,28.757884],[96.301852,28.420711],[97.11555,28.366564],[97.328663,28.190012],[97.355122,28.023045],[97.338172,27.901554],[97.241227,27.907858],[96.862129,27.599298],[97.106041,27.082586],[96.865332,27.171624],[96.724152,27.356264],[96.142586,27.25751],[95.392658,26.691757],[95.119082,26.604217],[95.041775,26.287596],[95.139546,26.029937],[95.012009,25.931442],[95.013456,25.777704],[94.871656,25.598025],[94.608003,25.394627],[94.550125,25.245282],[94.708565,25.02589],[94.29536,24.332599],[94.13506,23.877303],[93.660464,24.011223],[93.474842,23.957505],[93.348545,24.088893],[93.302966,24.041143],[93.425956,23.690803],[93.372729,23.169827],[93.272787,23.00591],[93.152381,23.049938],[93.161062,22.860983],[93.070835,22.69288],[93.174292,22.269391],[93.119515,22.180973],[93.022363,22.196217],[92.979575,22.009355],[92.889244,21.966722],[92.708067,22.147952],[92.575879,21.977574],[92.495883,22.695618],[92.352223,22.960331],[92.261686,23.685119],[92.108414,23.718243],[92.00351,23.647421],[91.922688,23.722972],[91.918141,23.459939],[91.743681,23.272327],[91.791327,23.080375],[91.586068,22.944466],[91.413572,23.248634],[91.360966,23.247523],[91.374608,23.095723],[91.313527,23.101046],[91.287275,23.355552],[91.140824,23.6121],[91.132349,23.720646],[91.363033,24.099848],[91.55868,24.089668],[91.624515,24.203459],[91.72115,24.148992],[91.796598,24.221598],[91.844244,24.155323],[91.949974,24.375387],[92.08826,24.38164],[92.252177,24.902977],[92.442037,24.855409],[92.474386,24.93667],[92.033999,25.181668],[90.399784,25.149009],[89.834599,25.282437],[89.815272,25.995107],[89.658382,26.207859],[89.579937,26.166104],[89.549087,25.968855],[89.315147,26.006786],[89.131593,26.133755],[89.103532,26.313692],[88.975323,26.417872],[88.891246,26.385781],[89.023537,26.268837],[88.975323,26.224344],[88.663404,26.264444],[88.651932,26.407071],[88.395927,26.599566],[88.315105,26.465052],[88.434581,26.465156],[88.495456,26.378081],[88.155632,26.128484],[88.103335,25.814808],[88.227462,25.804266],[88.512767,25.523714],[88.741952,25.512759],[88.841998,25.332822],[88.975323,25.302643],[88.909642,25.189161],[88.784224,25.160946],[88.441299,25.18973],[88.37567,24.94561],[88.296812,24.869698],[88.114911,24.916413],[88.02179,24.645603],[88.138785,24.49525],[88.475405,24.315468],[88.660149,24.338257],[88.743038,24.247539],[88.683765,24.166536],[88.717148,23.943139],[88.577621,23.827616],[88.540104,23.649953],[88.770168,23.488826],[88.710016,23.241218],[88.959975,23.202693],[88.842773,22.964568],[88.944524,22.848012],[88.927988,22.548134],[89.078159,22.150845],[89.036876,21.925116],[88.928722,21.986558],[88.924083,21.926337],[89.088227,21.633734],[88.886078,21.661811],[88.872081,21.74901],[88.727875,21.559882],[88.763031,22.130561],[88.656261,21.941067],[88.679942,22.204413],[88.567068,21.850816],[88.56544,21.771186],[88.624034,21.778022],[88.578136,21.571682],[88.516124,21.612616],[88.514985,21.937201],[88.441905,21.616156],[88.336436,21.708726],[88.321788,21.605658],[88.273123,21.797919],[88.254405,21.554674],[88.146739,21.959215],[88.20338,22.15176],[87.985118,22.265937],[87.927989,22.424221],[87.94752,22.277655],[88.132579,22.179145],[88.140636,22.060126],[87.867198,21.7508],[87.200938,21.551988],[86.917654,21.327379],[86.83725,21.174709],[86.953868,20.780585],[86.878754,20.780585],[87.043224,20.697984],[86.774181,20.511949],[86.768321,20.343451],[86.490408,20.174058],[86.397227,19.982856],[86.173025,20.1022],[86.356456,19.970404],[85.480479,19.666327],[85.570323,19.875637],[85.463552,19.902899],[85.268077,19.780015],[85.130219,19.498725],[85.247813,19.653144],[85.403168,19.671291],[85.330089,19.604967],[85.576508,19.690619],[85.180431,19.475002],[84.791026,19.120592],[84.73878,19.14765],[84.66505,18.930121],[84.113129,18.298285],[83.613943,18.045152],[83.341319,17.717434],[83.246918,17.716254],[83.292491,17.677476],[83.222911,17.586493],[82.387706,17.126939],[82.252696,16.929185],[82.31422,16.846625],[82.348888,16.956488],[82.345958,16.706122],[82.203461,16.512681],[81.717621,16.312201],[81.540212,16.373684],[81.259613,16.332709],[81.019216,15.792385],[80.904307,15.871283],[80.896495,16.031073],[80.830251,15.747626],[80.776134,15.884263],[80.69044,15.900702],[80.279633,15.70067],[80.052989,15.092597],[80.141856,14.571234],[80.196951,14.565009],[80.137055,14.269924],[80.046641,14.20661],[80.106619,14.234036],[80.309581,13.479315],[80.152517,13.71894],[80.052989,13.619086],[80.345551,13.321234],[80.18336,12.54682],[79.952159,12.229926],[80.005138,12.241767],[79.820323,11.878648],[79.754161,11.596991],[79.821951,11.391059],[79.684337,11.312201],[79.796886,11.359036],[79.855317,11.159857],[79.8567,10.29328],[79.528575,10.338324],[79.304942,10.268134],[79.240001,10.179755],[79.279063,10.035834],[78.931488,9.561672],[78.933442,9.416449],[79.039887,9.314683],[79.29713,9.312649],[79.438243,9.176337],[78.988943,9.278266],[78.41212,9.09984],[78.182791,8.877102],[78.062755,8.373196],[77.510916,8.075995],[77.315603,8.127753],[76.99586,8.368109],[76.558604,8.890692],[76.657563,8.966376],[76.516856,8.990627],[76.362966,9.325181],[76.240245,9.939399],[76.338878,9.699408],[76.323985,9.846177],[76.361095,9.80386],[76.353282,9.535346],[76.477061,9.50373],[76.36378,9.899237],[76.182384,10.105658],[76.21339,10.253241],[76.153168,10.22016],[75.735525,11.371527],[75.324555,11.899115],[75.393403,11.97484],[75.210623,12.016995],[74.824962,12.838202],[74.932872,12.866441],[74.850597,12.857164],[74.770274,13.052436],[74.709972,13.64057],[74.504731,14.01024],[74.438731,14.22012],[74.494965,14.247463],[74.351899,14.530219],[74.427745,14.476264],[74.295909,14.565009],[74.339041,14.605943],[74.25294,14.71894],[74.111339,14.780341],[74.21811,14.865383],[74.125011,14.845852],[73.913097,15.078925],[73.891287,15.343207],[73.782888,15.407904],[73.945323,15.385688],[73.806163,15.452216],[73.865977,15.537584],[73.796397,15.500393],[73.735118,15.586005],[73.838145,15.654283],[73.697927,15.662828],[73.341319,16.432074],[73.275727,17.078599],[73.125987,17.556545],[73.200694,17.586493],[73.139171,17.600775],[72.935232,18.244778],[73.056977,18.280951],[72.917328,18.356391],[72.924653,18.535631],[72.990245,18.469957],[72.855317,18.681138],[72.887055,18.807034],[72.995128,18.731024],[72.912608,18.923489],[73.042166,18.995754],[72.974783,19.163072],[72.8213,18.903306],[72.802745,18.957587],[72.785411,19.31391],[73.010509,19.224311],[73.001801,19.286566],[72.763438,19.380194],[72.769216,19.490465],[72.879161,19.532375],[72.749197,19.5126],[72.731293,19.754584],[72.650076,19.841986],[72.940278,20.759426],[72.771983,21.023871],[72.815929,21.121487],[72.615001,21.105862],[72.693533,21.178453],[72.578868,21.367011],[72.810395,21.635077],[73.132009,21.757799],[72.550304,21.666693],[72.562755,21.839423],[72.714041,21.982978],[72.507091,21.962307],[72.519542,22.088446],[72.57545,22.194525],[72.74822,22.164049],[72.917491,22.27143],[72.391856,22.253485],[72.397227,22.366767],[72.328298,22.260728],[72.161794,22.280951],[72.317231,22.184882],[72.307628,22.079006],[72.038422,21.947577],[72.167328,21.879136],[72.077647,21.894436],[72.104503,21.835761],[72.004161,21.857733],[71.996104,21.799506],[72.166026,21.793931],[72.298839,21.626288],[72.104503,21.222154],[71.140636,20.765692],[70.730805,20.723212],[70.054445,21.153155],[68.953298,22.276028],[69.047537,22.464016],[69.168793,22.42064],[69.212087,22.273912],[69.485362,22.347561],[69.515961,22.448147],[69.601085,22.363837],[69.733409,22.480048],[69.788748,22.423163],[70.144705,22.547797],[70.517914,23.003892],[70.484223,23.122138],[70.363536,22.938707],[70.150727,22.961005],[69.728852,22.754828],[69.585704,22.761176],[68.866222,23.019965],[68.552257,23.259711],[68.536388,23.421332],[68.430919,23.436591],[68.481293,23.525133],[68.431163,23.493598],[68.408865,23.621324],[68.821625,23.878404],[68.294119,23.590399],[68.1574,23.600816],[68.280447,23.685981],[68.175629,23.798245],[68.330433,23.966574],[68.724466,23.965179],[68.725913,24.289216],[68.79919,24.329085],[68.819654,24.250304],[69.563071,24.276762],[69.670558,24.188706],[69.972039,24.165219],[70.087174,24.28255],[70.520946,24.424919],[70.567661,24.272809],[70.755453,24.231442],[71.073057,24.402103],[70.954821,24.584521],[71.043343,24.669064],[71.00319,24.808203],[70.646623,25.431369],[70.632308,25.701378],[70.303698,25.684583],[70.114976,25.881729],[70.064643,25.980327],[70.162931,26.493319],[70.1296,26.562514],[69.815562,26.580291],[69.50416,26.735165],[69.534443,27.125581],[70.323852,28.000437],[70.559806,27.998447],[70.710391,27.74115],[70.831573,27.701463],[71.860864,27.950207],[72.354581,28.767186],[72.901524,29.022622],[73.232873,29.536596],[73.370332,29.927322],[73.944354,30.188288],[73.842345,30.35298],[74.319215,30.893413],[74.658833,31.083789],[74.514862,31.141821],[74.61191,31.440201],[74.499463,31.699875],[74.540804,31.810876],[75.34861,32.242012],[75.054881,32.455539],[74.689322,32.471352],[74.632581,32.568168],[74.671752,32.840581],[74.59341,32.757872],[74.329344,32.776424],[74.322006,32.972045],[73.988486,33.20862],[74.157778,33.494236],[73.963061,33.72156],[74.262474,33.929946],[74.259684,33.994386],[73.976704,34.004592],[73.88441,34.0842],[73.990553,34.218507],[73.774856,34.370952],[73.948592,34.662743],[74.348877,34.773434],[75.777111,34.503812],[76.023401,34.677161],[76.63959,34.741136],[76.782011,34.930892],[76.952956,34.94655],[77.023133,35.086335],[77.800346,35.495406]]],[[[80.968272,15.795233],[80.942638,15.741034],[80.8685,15.811957],[80.968272,15.795233]]],[[[73.646332,10.084703],[73.632579,10.057278],[73.643891,10.09455],[73.646332,10.084703]]],[[[73.662283,10.144599],[73.659353,10.13996],[73.654633,10.141506],[73.662283,10.144599]]],[[[72.64975,10.56684],[72.627533,10.554796],[72.648611,10.573961],[72.64975,10.56684]]],[[[72.548839,10.779446],[72.541189,10.772895],[72.540863,10.776516],[72.548839,10.779446]]],[[[73.671397,10.829739],[73.681244,10.82807],[73.67628,10.824368],[73.671397,10.829739]]],[[[72.750011,11.119086],[72.739513,11.108832],[72.739513,11.113959],[72.750011,11.119086]]],[[[73.013194,11.502183],[73.005626,11.479641],[73.004405,11.496487],[73.013194,11.502183]]],[[[72.716156,11.694159],[72.701101,11.686428],[72.705089,11.692328],[72.716156,11.694159]]],[[[93.872813,12.268866],[93.85377,12.260565],[93.860606,12.281195],[93.872813,12.268866]]],[[[94.280935,13.443549],[94.290782,13.422919],[94.261892,13.429267],[94.280935,13.443549]]],[[[93.920258,7.024319],[93.847911,6.785305],[93.684337,7.020901],[93.676443,7.181871],[93.855317,7.214179],[93.920258,7.024319]]],[[[93.731212,7.369371],[93.644216,7.257514],[93.594005,7.314765],[93.696951,7.445054],[93.731212,7.369371]]],[[[93.429454,7.955268],[93.40211,7.890082],[93.306651,7.938544],[93.370291,8.01732],[93.429454,7.955268]]],[[[93.565929,7.999335],[93.573985,7.924872],[93.518321,7.965806],[93.565929,7.999335]]],[[[93.531912,8.034735],[93.494965,7.996283],[93.446625,8.154364],[93.523448,8.225816],[93.531912,8.034735]]],[[[73.077159,8.315253],[73.044688,8.252427],[73.022472,8.274359],[73.077159,8.315253]]],[[[93.134532,8.24018],[93.17628,8.212877],[93.081554,8.242377],[93.069835,8.346625],[93.134532,8.24018]]],[[[93.607677,8.548041],[93.628184,8.486558],[93.60141,8.438178],[93.607677,8.548041]]],[[[92.811373,9.23117],[92.831981,9.145025],[92.731212,9.130845],[92.708507,9.201606],[92.811373,9.23117]]],[[[92.585092,10.771269],[92.535423,10.524861],[92.421788,10.546203],[92.37568,10.775031],[92.482796,10.885622],[92.585092,10.771269]]],[[[92.676524,11.412543],[92.593516,11.378363],[92.627615,11.477362],[92.676524,11.412543]]],[[[92.266775,11.589545],[92.234548,11.540351],[92.217296,11.591254],[92.266775,11.589545]]],[[[93.042491,11.961168],[93.066417,11.899115],[92.957205,12.008694],[93.014659,12.037177],[93.042491,11.961168]]],[[[93.103282,12.190497],[93.102306,12.119534],[93.059581,12.138739],[93.103282,12.190497]]],[[[92.733084,12.97248],[92.694672,12.803778],[92.684906,12.945054],[92.733084,12.97248]]],[[[93.052745,13.283881],[93.036794,13.062161],[92.964041,13.084662],[92.880707,12.930406],[92.964041,12.864936],[92.990571,12.519232],[92.936046,12.419908],[92.84669,12.433539],[92.901866,12.344794],[92.745616,11.996649],[92.737478,11.878648],[92.79949,11.899115],[92.689952,11.660061],[92.765636,11.629584],[92.726736,11.506171],[92.625662,11.595404],[92.539724,11.894436],[92.629405,11.943752],[92.668224,12.200995],[92.784028,12.189358],[92.740896,12.819648],[92.958507,13.550238],[93.066417,13.537095],[93.004242,13.331041],[93.052745,13.283881]]],[[[93.039073,13.667467],[93.052745,13.640204],[92.990571,13.667467],[93.039073,13.667467]]],[[[88.872895,21.595526],[88.879731,21.529975],[88.830821,21.577379],[88.872895,21.595526]]],[[[88.050548,21.70539],[88.119314,21.859524],[88.144379,21.657782],[88.050548,21.70539]]],[[[88.636241,21.921373],[88.646332,21.787909],[88.591807,21.804389],[88.636241,21.921373]]],[[[88.080903,21.849351],[88.094249,21.937893],[88.132579,21.920478],[88.080903,21.849351]]],[[[72.172699,10.809231],[72.179047,10.8487],[72.195649,10.872707],[72.172699,10.809231]]],[[[72.789073,11.261664],[72.775483,11.186754],[72.774181,11.222886],[72.789073,11.261664]]]]}}