{"type":"Feature","properties":{"iso3":"IOT","name":"British Indian Ocean Territory","continent":"Africa"},"geometry":{"type":"MultiPolygon","coordinates":[[[[72.46754,-7.383884],[72.480317,-7.364679],[72.480642,-7.390558],[72.432872,-7.432224],[72.426931,-7.403985],[72.432872,-7.346775],[72.426036,-7.322931],[72.379242,-7.296808],[72.357677,-7.268324],[72.370942,-7.270196],[72.432872,-7.316095],[72.438975,-7.340265],[72.432872,-7.425388],[72.46754,-7.383884]]],[[[72.484223,-7.278253],[72.49464,-7.296157],[72.473806,-7.34002],[72.479015,-7.361912],[72.468028,-7.34059],[72.486501,-7.302423],[72.439708,-7.226739],[72.484223,-7.278253]]],[[[71.350352,-6.65252],[71.362071,-6.652927],[71.355235,-6.656345],[71.350352,-6.65252]]],[[[71.261404,-6.388604],[71.267345,-6.37005],[71.267589,-6.382745],[71.261404,-6.388604]]],[[[71.33839,-6.195896],[71.360525,-6.177341],[71.351085,-6.200291],[71.344737,-6.204848],[71.33839,-6.195896]]],[[[71.773204,-5.440199],[71.764659,-5.433852],[71.771739,-5.433364],[71.773204,-5.440199]]],[[[72.221446,-5.327813],[72.230968,-5.319268],[72.228282,-5.324802],[72.221446,-5.327813]]],[[[71.737071,-5.285252],[71.747081,-5.269952],[71.745453,-5.278741],[71.737071,-5.285252]]],[[[71.760265,-5.236586],[71.768565,-5.234145],[71.766449,-5.23919],[71.760265,-5.236586]]],[[[71.966156,-5.234796],[71.962738,-5.226983],[71.966482,-5.227472],[71.966156,-5.234796]]]]}}