{"type":"Feature","properties":{"iso3":"IRL","name":"Ireland","continent":"Europe"},"geometry":{"type":"MultiPolygon","coordinates":[[[[-7.2471,55.069322],[-7.266503,55.065167],[-7.291152,55.046615],[-7.355024,55.040931],[-7.405254,55.003569],[-7.40112,54.994836],[-7.413109,54.984965],[-7.408665,54.951117],[-7.445251,54.932152],[-7.444735,54.884455],[-7.45507,54.863009],[-7.543385,54.793091],[-7.551705,54.754695],[-7.543023,54.743791],[-7.556149,54.738365],[-7.649683,54.744877],[-7.736603,54.707463],[-7.770503,54.706016],[-7.845899,54.731027],[-7.880109,54.711029],[-7.929666,54.696714],[-7.907135,54.686689],[-7.914835,54.671651],[-7.906619,54.661316],[-7.864347,54.649069],[-7.846416,54.631447],[-7.814996,54.639457],[-7.753553,54.614497],[-7.710558,54.624264],[-7.707951,54.604763],[-7.749264,54.596152],[-7.848844,54.54091],[-7.887137,54.532125],[-8.002194,54.543442],[-8.072448,54.487063],[-8.173837,54.461741],[-8.146346,54.430736],[-8.05648,54.365882],[-8.002194,54.357923],[-7.981033,54.326556],[-7.950802,54.300873],[-7.880264,54.287023],[-7.86967,54.226872],[-7.856441,54.211421],[-7.782078,54.2],[-7.70477,54.200362],[-7.632682,54.168529],[-7.620796,54.144965],[-7.609014,54.139901],[-7.502302,54.125121],[-7.439619,54.146929],[-7.414659,54.145688],[-7.425769,54.136955],[-7.403962,54.135043],[-7.390216,54.121194],[-7.326964,54.113597],[-7.310324,54.114683],[-7.333165,54.142743],[-7.325982,54.154577],[-7.295545,54.165119],[-7.297353,54.125896],[-7.280042,54.126155],[-7.263505,54.140986],[-7.265366,54.16114],[-7.24578,54.166979],[-7.261128,54.18088],[-7.249088,54.197416],[-7.153331,54.224237],[-7.159739,54.24067],[-7.14589,54.25209],[-7.181495,54.269763],[-7.1755,54.283664],[-7.209038,54.293431],[-7.211467,54.30418],[-7.199168,54.303457],[-7.184647,54.316634],[-7.193949,54.329967],[-7.18947,54.335692],[-7.159894,54.335186],[-7.127028,54.349759],[-7.078504,54.394717],[-7.049255,54.411512],[-7.017836,54.413166],[-6.922028,54.372703],[-6.905956,54.349035],[-6.879705,54.341594],[-6.856657,54.292811],[-6.882185,54.277257],[-6.837743,54.260513],[-6.823946,54.23235],[-6.787824,54.202998],[-6.744777,54.184187],[-6.694651,54.197985],[-6.640339,54.168013],[-6.634552,54.150133],[-6.643957,54.131839],[-6.666436,54.114786],[-6.655791,54.103314],[-6.657082,54.091945],[-6.672534,54.068432],[-6.630624,54.041819],[-6.616465,54.037271],[-6.595071,54.052412],[-6.564013,54.04895],[-6.47854,54.067709],[-6.450894,54.068432],[-6.433892,54.055306],[-6.377513,54.063264],[-6.366919,54.075098],[-6.368108,54.097319],[-6.354827,54.110652],[-6.327128,54.097888],[-6.28465,54.105226],[-6.163808,54.036444],[-6.126536,54.030219],[-6.107289,54.013617],[-6.110992,54.001288],[-6.160756,53.974433],[-6.222768,53.995429],[-6.359853,54.016018],[-6.359853,54.00849],[-6.347808,54.003607],[-6.366282,53.981024],[-6.378285,53.934882],[-6.372955,53.899319],[-6.350819,53.881415],[-6.317291,53.87108],[-6.243235,53.865139],[-6.254994,53.822211],[-6.244985,53.806871],[-6.222768,53.796291],[-6.243276,53.782538],[-6.248443,53.755764],[-6.241322,53.685614],[-6.229888,53.656562],[-6.222768,53.646064],[-6.187082,53.630072],[-6.169789,53.605658],[-6.092397,53.577135],[-6.077301,53.554633],[-6.081532,53.525946],[-6.133372,53.461086],[-6.140859,53.471137],[-6.158355,53.472846],[-6.194814,53.461086],[-6.130605,53.442613],[-6.112904,53.412665],[-6.122955,53.402167],[-6.11026,53.394029],[-6.050852,53.385403],[-6.062001,53.367377],[-6.132314,53.391588],[-6.215321,53.358059],[-6.21817,53.347154],[-6.155181,53.299384],[-6.096995,53.285549],[-6.105458,53.265204],[-6.104888,53.229438],[-6.071034,53.184272],[-6.078114,53.166205],[-6.030385,53.111029],[-6.033803,53.064154],[-6.051625,53.009263],[-5.99352,52.957424],[-6.01183,52.949652],[-6.037953,52.919664],[-6.071929,52.872016],[-6.064443,52.864569],[-6.107289,52.839789],[-6.130116,52.815985],[-6.153879,52.768378],[-6.147857,52.746161],[-6.215321,52.665961],[-6.22057,52.647284],[-6.206451,52.588528],[-6.209096,52.545844],[-6.282948,52.467108],[-6.317738,52.447943],[-6.356191,52.409003],[-6.365549,52.3935],[-6.366119,52.344428],[-6.390045,52.358832],[-6.468861,52.360012],[-6.462961,52.377997],[-6.49649,52.364325],[-6.49649,52.3581],[-6.456125,52.335842],[-6.448638,52.322699],[-6.454986,52.312242],[-6.423736,52.307929],[-6.409169,52.289252],[-6.372955,52.322699],[-6.38976,52.2956],[-6.369781,52.27261],[-6.318349,52.24079],[-6.347035,52.197252],[-6.377065,52.178209],[-6.399485,52.185492],[-6.380971,52.207587],[-6.394032,52.212836],[-6.425608,52.193793],[-6.469106,52.19359],[-6.469106,52.199774],[-6.448638,52.199774],[-6.472564,52.206977],[-6.579742,52.178209],[-6.597157,52.179592],[-6.641428,52.202786],[-6.715566,52.21662],[-6.805572,52.212836],[-6.805572,52.220364],[-6.77599,52.233222],[-6.764027,52.261298],[-6.792958,52.240424],[-6.812652,52.235297],[-6.832265,52.24079],[-6.839101,52.234565],[-6.839101,52.212836],[-6.818593,52.220364],[-6.832265,52.19359],[-6.818593,52.19359],[-6.818593,52.186184],[-6.897084,52.152045],[-6.932118,52.124661],[-6.948964,52.130927],[-6.90392,52.162299],[-6.903717,52.172187],[-6.92101,52.212836],[-6.970123,52.247382],[-6.997385,52.289211],[-6.989898,52.251654],[-6.969472,52.220364],[-6.982289,52.195624],[-6.97997,52.18594],[-6.955149,52.186184],[-6.955149,52.179348],[-7.017201,52.138373],[-7.106028,52.130927],[-7.071848,52.165717],[-7.106353,52.173],[-7.120229,52.171942],[-7.120229,52.165717],[-7.106028,52.152045],[-7.149648,52.156317],[-7.16747,52.138373],[-7.187367,52.132758],[-7.243764,52.138373],[-7.435455,52.125678],[-7.541412,52.097398],[-7.565297,52.083726],[-7.579416,52.101264],[-7.599965,52.10102],[-7.631093,52.079047],[-7.627349,52.06269],[-7.602162,52.071682],[-7.546783,52.059272],[-7.551015,52.042792],[-7.582631,52.02851],[-7.589915,51.991156],[-7.635406,51.976752],[-7.688466,51.980373],[-7.709299,51.973863],[-7.723297,51.944566],[-7.829335,51.953437],[-7.83849,51.975898],[-7.849843,51.980129],[-7.856679,51.942857],[-7.869862,51.929511],[-7.901194,51.912665],[-7.922231,51.911811],[-7.880605,51.891995],[-7.891469,51.881903],[-8.008168,51.85578],[-8.023061,51.843573],[-8.00414,51.829901],[-8.020579,51.82392],[-8.134185,51.804755],[-8.246205,51.80272],[-8.247955,51.813422],[-8.223256,51.823676],[-8.230092,51.836737],[-8.20165,51.841986],[-8.175404,51.857164],[-8.202789,51.864],[-8.18224,51.884508],[-8.187082,51.893134],[-8.210194,51.884508],[-8.24356,51.89289],[-8.284657,51.891995],[-8.293202,51.903306],[-8.347401,51.891995],[-8.408844,51.891791],[-8.429351,51.884508],[-8.354156,51.872992],[-8.329254,51.861314],[-8.347401,51.829901],[-8.298329,51.829901],[-8.305165,51.81623],[-8.296295,51.811591],[-8.319488,51.802558],[-8.284657,51.802558],[-8.301991,51.785875],[-8.297353,51.766018],[-8.345693,51.724677],[-8.410024,51.709784],[-8.435536,51.692694],[-8.4558,51.712307],[-8.483957,51.713813],[-8.464182,51.695014],[-8.468984,51.684068],[-8.483957,51.678412],[-8.491119,51.698676],[-8.55842,51.706366],[-8.548329,51.696357],[-8.517486,51.692694],[-8.502105,51.700344],[-8.497548,51.692694],[-8.521148,51.678412],[-8.539174,51.648383],[-8.531728,51.610785],[-8.572662,51.644965],[-8.638173,51.637437],[-8.757639,51.644965],[-8.726552,51.631334],[-8.690012,51.631293],[-8.702952,51.617011],[-8.682525,51.610785],[-8.699778,51.597235],[-8.696156,51.576646],[-8.742787,51.575629],[-8.765126,51.590277],[-8.853871,51.595933],[-8.88801,51.555569],[-8.928944,51.545966],[-8.933176,51.535346],[-8.991119,51.562974],[-9.072865,51.549384],[-9.120758,51.562974],[-9.120758,51.555569],[-9.107737,51.549384],[-9.115712,51.537909],[-9.1433,51.523871],[-9.192535,51.524604],[-9.189605,51.508368],[-9.203969,51.508002],[-9.223785,51.487291],[-9.26476,51.487291],[-9.272125,51.508368],[-9.335317,51.476996],[-9.381418,51.473619],[-9.346669,51.500922],[-9.372914,51.491278],[-9.367787,51.508368],[-9.319936,51.535061],[-9.327463,51.542548],[-9.401845,51.500922],[-9.413889,51.511135],[-9.401845,51.545966],[-9.443267,51.559516],[-9.456532,51.555569],[-9.447987,51.543647],[-9.547475,51.525295],[-9.552805,51.511461],[-9.580719,51.508368],[-9.611318,51.493842],[-9.628407,51.494086],[-9.629628,51.504055],[-9.655914,51.520168],[-9.717193,51.480414],[-9.703521,51.473619],[-9.77184,51.453111],[-9.768951,51.464301],[-9.777943,51.462226],[-9.820221,51.445705],[-9.813385,51.473619],[-9.833892,51.487291],[-9.793813,51.499661],[-9.740061,51.529771],[-9.683095,51.542548],[-9.621653,51.582831],[-9.545888,51.610785],[-9.59203,51.613715],[-9.785024,51.552476],[-9.847524,51.549384],[-9.786366,51.573472],[-9.770334,51.592231],[-9.607981,51.642401],[-9.594553,51.655504],[-9.458608,51.683987],[-9.442942,51.720038],[-9.457265,51.724595],[-9.489817,51.714545],[-9.521474,51.725531],[-9.531728,51.751532],[-9.560211,51.761623],[-9.55663,51.730902],[-9.545888,51.720038],[-9.62682,51.685045],[-9.874135,51.656195],[-9.930084,51.637437],[-9.941884,51.621324],[-10.028798,51.596503],[-10.070058,51.603949],[-10.116119,51.600287],[-10.156077,51.582831],[-10.162831,51.590277],[-10.149241,51.610785],[-10.059804,51.631293],[-10.070668,51.65705],[-10.100819,51.659247],[-10.088124,51.671617],[-10.003774,51.678046],[-9.956858,51.706366],[-9.956858,51.713813],[-9.997792,51.713813],[-9.980702,51.731879],[-9.888539,51.761623],[-9.902252,51.741156],[-9.867909,51.748603],[-9.856516,51.758612],[-9.8544,51.775295],[-9.785512,51.7685],[-9.785512,51.775295],[-9.813385,51.782131],[-9.813385,51.788275],[-9.754506,51.819078],[-9.73766,51.836737],[-9.671051,51.843004],[-9.580719,51.870185],[-9.580719,51.877672],[-9.653147,51.871772],[-9.758046,51.846991],[-9.791737,51.826809],[-9.840077,51.823676],[-9.833892,51.81623],[-9.86384,51.804267],[-9.874867,51.802558],[-9.868031,51.823676],[-9.882192,51.823676],[-9.902252,51.810004],[-9.949941,51.802558],[-10.016754,51.774644],[-10.039377,51.782131],[-10.084543,51.755927],[-10.13561,51.741156],[-10.12975,51.75434],[-10.224355,51.782131],[-10.186147,51.789618],[-10.177073,51.813666],[-10.194203,51.839097],[-10.234609,51.85102],[-10.27123,51.821682],[-10.341054,51.788275],[-10.346588,51.801093],[-10.334706,51.830268],[-10.341054,51.843573],[-10.388905,51.846177],[-10.381947,51.877672],[-10.395619,51.884508],[-10.25414,51.908677],[-10.251576,51.922349],[-10.287994,51.95185],[-10.306874,51.953437],[-10.306874,51.959621],[-10.258453,51.973863],[-10.266225,51.988471],[-10.128163,52.02851],[-10.033274,52.041083],[-9.992665,52.055894],[-9.971059,52.089911],[-9.963612,52.089911],[-9.963735,52.071967],[-9.954335,52.064154],[-9.926381,52.06269],[-9.929596,52.071926],[-9.908437,52.130927],[-9.877512,52.119534],[-9.77184,52.124701],[-9.792958,52.138373],[-9.758168,52.152045],[-9.956858,52.145209],[-9.943756,52.124701],[-9.954661,52.108791],[-9.970326,52.131659],[-9.997792,52.138373],[-10.028066,52.139635],[-10.186269,52.109442],[-10.217519,52.130927],[-10.242055,52.119778],[-10.27892,52.136379],[-10.306874,52.130927],[-10.306874,52.124701],[-10.272084,52.117906],[-10.272084,52.111721],[-10.368316,52.124701],[-10.354075,52.111721],[-10.436594,52.097398],[-10.460764,52.103013],[-10.467519,52.115139],[-10.478179,52.152045],[-10.450917,52.165717],[-10.461293,52.179999],[-10.409291,52.199774],[-10.416656,52.186184],[-10.394602,52.174791],[-10.37206,52.175605],[-10.373158,52.197821],[-10.36148,52.206692],[-10.371571,52.211575],[-10.366567,52.228217],[-10.320546,52.234565],[-10.275787,52.268134],[-10.171864,52.286811],[-10.156077,52.278632],[-10.166249,52.234565],[-10.100819,52.24079],[-10.044911,52.269273],[-10.036041,52.290351],[-10.059804,52.309638],[-10.013539,52.306342],[-10.0183,52.296047],[-10.008778,52.253363],[-9.947499,52.237616],[-9.872222,52.232652],[-9.825592,52.258246],[-9.813385,52.255072],[-9.826487,52.248236],[-9.810048,52.242133],[-9.73766,52.248236],[-9.753407,52.258287],[-9.869374,52.273139],[-9.881093,52.296047],[-9.849233,52.284735],[-9.833892,52.289211],[-9.861887,52.296047],[-9.861887,52.303453],[-9.826487,52.309638],[-9.837636,52.326402],[-9.834462,52.37523],[-9.850982,52.385443],[-9.931752,52.399848],[-9.949941,52.412095],[-9.915883,52.425605],[-9.848378,52.428412],[-9.748931,52.456732],[-9.703521,52.483547],[-9.634633,52.473578],[-9.638783,52.487128],[-9.650502,52.493842],[-9.683095,52.494615],[-9.675201,52.504828],[-9.683095,52.515123],[-9.673207,52.533881],[-9.675649,52.545844],[-9.648305,52.57038],[-9.617909,52.577216],[-9.497467,52.57038],[-9.470326,52.561835],[-9.438385,52.577135],[-9.272125,52.577216],[-9.052398,52.631822],[-9.044179,52.620836],[-9.005605,52.620836],[-8.95995,52.652289],[-8.751169,52.67296],[-8.867502,52.693305],[-8.932688,52.687079],[-8.960846,52.693671],[-8.962066,52.700019],[-8.949371,52.706936],[-8.952056,52.73432],[-8.954498,52.744696],[-8.969879,52.748481],[-8.942616,52.775214],[-9.02359,52.747138],[-9.025787,52.73428],[-9.058217,52.696763],[-9.146799,52.623765],[-9.254791,52.611396],[-9.285797,52.590806],[-9.333079,52.597724],[-9.278676,52.625718],[-9.278961,52.639309],[-9.383656,52.613105],[-9.434478,52.612006],[-9.475453,52.619574],[-9.490712,52.634101],[-9.524892,52.63703],[-9.538442,52.645453],[-9.533274,52.660956],[-9.544179,52.666653],[-9.580719,52.665961],[-9.552805,52.639309],[-9.694407,52.605618],[-9.706858,52.580227],[-9.730824,52.584052],[-9.757476,52.571967],[-9.93635,52.556708],[-9.93635,52.562934],[-9.87564,52.586819],[-9.824086,52.59516],[-9.621653,52.713772],[-9.628407,52.727444],[-9.593658,52.741034],[-9.538197,52.742255],[-9.498647,52.752509],[-9.483795,52.78266],[-9.491282,52.803168],[-9.450347,52.830471],[-9.429189,52.857733],[-9.42748,52.877753],[-9.365305,52.91413],[-9.354075,52.933498],[-9.477651,52.940334],[-9.387603,53.008612],[-9.39509,53.015448],[-9.272206,53.146674],[-9.251088,53.151923],[-9.158599,53.111029],[-9.096669,53.127021],[-9.072865,53.118476],[-9.070058,53.134467],[-9.128163,53.151923],[-9.128163,53.15941],[-9.069569,53.166205],[-9.004058,53.145738],[-9.004058,53.151923],[-9.045644,53.166205],[-9.045644,53.173733],[-9.009633,53.166083],[-8.986684,53.176988],[-8.978871,53.175767],[-8.984202,53.166205],[-8.974233,53.157945],[-8.936391,53.145738],[-8.956858,53.179877],[-8.928212,53.205878],[-8.894846,53.220893],[-8.932688,53.214667],[-9.045644,53.220893],[-8.963124,53.235175],[-8.963124,53.241929],[-8.991119,53.241929],[-8.991119,53.248196],[-8.942616,53.261786],[-8.942616,53.268622],[-9.022084,53.275458],[-9.077056,53.263983],[-9.401438,53.247992],[-9.447865,53.231879],[-9.511708,53.228339],[-9.532948,53.234442],[-9.566396,53.261786],[-9.547271,53.27912],[-9.554555,53.290717],[-9.57136,53.290473],[-9.585194,53.250434],[-9.596832,53.237698],[-9.612294,53.236151],[-9.628407,53.248196],[-9.60912,53.276313],[-9.617299,53.321479],[-9.597401,53.330064],[-9.576975,53.32392],[-9.56078,53.341213],[-9.601145,53.364895],[-9.552805,53.385403],[-9.621653,53.378485],[-9.60851,53.366604],[-9.606597,53.349351],[-9.615468,53.334662],[-9.634633,53.330064],[-9.652496,53.341254],[-9.638417,53.385403],[-9.658844,53.389065],[-9.684722,53.37523],[-9.743072,53.314399],[-9.806711,53.301581],[-9.842926,53.32331],[-9.886586,53.317206],[-9.902252,53.32392],[-9.887196,53.359198],[-9.841298,53.367906],[-9.785512,53.392768],[-9.785512,53.398993],[-9.820221,53.398993],[-9.820221,53.40644],[-9.799184,53.412665],[-9.799184,53.419501],[-9.825185,53.416693],[-9.860178,53.394232],[-9.875396,53.395209],[-9.881093,53.40644],[-9.847524,53.433743],[-9.884755,53.419501],[-9.911448,53.425971],[-9.925649,53.409735],[-9.922353,53.389228],[-9.961415,53.379584],[-10.01415,53.381252],[-10.049306,53.409817],[-10.063222,53.412665],[-10.127553,53.409857],[-10.141754,53.419501],[-10.176503,53.412665],[-10.156972,53.439643],[-10.142242,53.445705],[-10.067983,53.443834],[-10.052968,53.453599],[-10.052968,53.461086],[-10.074208,53.465766],[-10.087148,53.481513],[-10.020579,53.470445],[-10.012074,53.481513],[-10.107289,53.494452],[-10.128163,53.508857],[-10.134755,53.527086],[-10.152659,53.543606],[-10.193471,53.538031],[-10.203236,53.543606],[-10.180287,53.555487],[-10.107655,53.549791],[-10.115102,53.570299],[-10.070668,53.570014],[-10.025746,53.562893],[-10.005238,53.543606],[-9.971059,53.562893],[-10.046783,53.59927],[-9.930735,53.599799],[-9.867909,53.617377],[-9.822865,53.606431],[-9.696767,53.598212],[-9.696767,53.604438],[-9.714101,53.609849],[-9.783762,53.606269],[-9.908437,53.646064],[-9.922678,53.690741],[-9.899526,53.743842],[-9.908437,53.762112],[-9.789215,53.786607],[-9.752024,53.776353],[-9.566396,53.796291],[-9.566396,53.803656],[-9.621653,53.817328],[-9.601145,53.824164],[-9.605458,53.839179],[-9.594838,53.848212],[-9.560211,53.865139],[-9.586903,53.871975],[-9.572825,53.882229],[-9.566396,53.899319],[-9.586903,53.892483],[-9.615468,53.89883],[-9.758168,53.899319],[-9.856597,53.866278],[-9.910756,53.85871],[-9.943756,53.879381],[-9.931386,53.885159],[-9.92516,53.913031],[-9.908437,53.920356],[-9.908437,53.947089],[-9.915883,53.947089],[-9.915883,53.953843],[-9.868031,53.961371],[-9.811635,53.941718],[-9.807607,53.91828],[-9.787506,53.916083],[-9.785512,53.947089],[-9.812652,53.966295],[-9.826487,53.967597],[-9.820221,53.953843],[-9.831695,53.956285],[-9.849599,53.997504],[-9.877675,54.001899],[-9.898915,54.025336],[-9.897694,54.055121],[-9.861887,54.071234],[-9.876088,54.080634],[-9.8544,54.091051],[-9.861887,54.097886],[-9.833892,54.112128],[-9.855092,54.117377],[-9.881093,54.112128],[-9.87857,54.103949],[-9.895375,54.097886],[-9.888539,54.091051],[-9.917388,54.069729],[-9.945546,54.06623],[-9.970693,54.078559],[-9.990956,54.104682],[-9.908437,54.118354],[-9.95108,54.141262],[-9.956858,54.153144],[-9.930084,54.145697],[-9.977284,54.180487],[-9.952016,54.174628],[-9.93635,54.187323],[-10.010894,54.218329],[-10.025746,54.20775],[-10.011464,54.197089],[-10.016998,54.188666],[-10.052968,54.187323],[-10.039377,54.166815],[-10.087148,54.159329],[-10.069163,54.144273],[-10.06664,54.12519],[-10.094594,54.118354],[-10.069081,54.103664],[-10.066884,54.094916],[-10.117421,54.095893],[-10.126576,54.106024],[-10.128163,54.12519],[-10.099599,54.165473],[-10.091217,54.194973],[-10.059804,54.222073],[-10.091135,54.22248],[-10.115102,54.235053],[-10.096059,54.235175],[-10.073476,54.269192],[-9.997792,54.303941],[-9.971791,54.277248],[-9.936838,54.270697],[-9.922678,54.276597],[-9.907216,54.264472],[-9.888539,54.269192],[-9.90331,54.237942],[-9.927154,54.226752],[-9.952016,54.228502],[-9.977284,54.242499],[-9.983632,54.222968],[-9.909901,54.204413],[-9.868031,54.228217],[-9.881663,54.240383],[-9.875152,54.256496],[-9.843861,54.276597],[-9.765004,54.255561],[-9.799184,54.276597],[-9.799184,54.283515],[-9.758168,54.283515],[-9.829213,54.296861],[-9.846018,54.321438],[-9.843984,54.328762],[-9.785512,54.33808],[-9.706939,54.317613],[-9.53539,54.310207],[-9.494374,54.317613],[-9.463979,54.303941],[-9.384511,54.297187],[-9.334218,54.318305],[-9.268422,54.303941],[-9.24767,54.276597],[-9.211008,54.275621],[-9.2176,54.248725],[-9.195872,54.242499],[-9.195872,54.235053],[-9.215077,54.227118],[-9.210357,54.217841],[-9.149322,54.180609],[-9.141225,54.145697],[-9.134999,54.145697],[-9.128896,54.193061],[-9.134999,54.20775],[-9.090199,54.22663],[-9.051259,54.289496],[-8.956858,54.283515],[-8.939036,54.289984],[-8.856597,54.263007],[-8.807362,54.263007],[-8.765126,54.276597],[-8.737457,54.264106],[-8.676422,54.271308],[-8.648346,54.263007],[-8.63329,54.232367],[-8.605051,54.225653],[-8.572662,54.200344],[-8.51122,54.20775],[-8.51122,54.214545],[-8.559234,54.227729],[-8.572133,54.246527],[-8.621002,54.255561],[-8.621002,54.263007],[-8.593739,54.283515],[-8.558217,54.275214],[-8.540761,54.284369],[-8.470286,54.276597],[-8.50414,54.297187],[-8.562652,54.303046],[-8.572662,54.31391],[-8.567209,54.324164],[-8.531728,54.310207],[-8.511708,54.317369],[-8.519154,54.326728],[-8.562123,54.33808],[-8.661366,54.338039],[-8.668284,54.351752],[-8.663889,54.35928],[-8.47411,54.429999],[-8.466705,54.475002],[-8.443023,54.447333],[-8.384185,54.468248],[-8.287343,54.479438],[-8.210194,54.501939],[-8.210194,54.509426],[-8.243276,54.510199],[-8.270985,54.523668],[-8.216379,54.55036],[-8.218861,54.56977],[-8.172515,54.594468],[-8.175404,54.619289],[-8.137563,54.605618],[-8.120839,54.646552],[-8.234934,54.629381],[-8.292104,54.605618],[-8.280344,54.629625],[-8.301747,54.639797],[-8.427968,54.571723],[-8.456614,54.564643],[-8.432281,54.587795],[-8.384755,54.605658],[-8.387685,54.619859],[-8.400054,54.628567],[-8.421864,54.619289],[-8.418691,54.641303],[-8.43163,54.641303],[-8.461537,54.602851],[-8.49413,54.632961],[-8.553456,54.622626],[-8.564036,54.608832],[-8.596913,54.619289],[-8.672597,54.619452],[-8.690012,54.626125],[-8.681956,54.63581],[-8.691396,54.641303],[-8.791819,54.659613],[-8.778147,54.68008],[-8.79776,54.691962],[-8.795522,54.698432],[-8.755198,54.705756],[-8.733266,54.732611],[-8.636586,54.768459],[-8.536204,54.766913],[-8.456614,54.756415],[-8.456614,54.762641],[-8.526601,54.772773],[-8.5454,54.783759],[-8.529897,54.788072],[-8.484934,54.789374],[-8.444692,54.763129],[-8.426666,54.757229],[-8.408193,54.762641],[-8.461293,54.793524],[-8.55842,54.817857],[-8.554351,54.827541],[-8.524892,54.831529],[-8.490712,54.851996],[-8.471018,54.840522],[-8.401967,54.84455],[-8.325673,54.831529],[-8.325673,54.838324],[-8.365387,54.845404],[-8.381337,54.855943],[-8.380849,54.872504],[-8.366689,54.88109],[-8.312652,54.87934],[-8.337026,54.903632],[-8.374013,54.907294],[-8.380116,54.889228],[-8.409291,54.88703],[-8.450795,54.922065],[-8.46345,54.940823],[-8.450429,54.946275],[-8.418446,54.934556],[-8.366567,54.948188],[-8.418609,54.968085],[-8.456614,54.995429],[-8.456614,55.002875],[-8.437734,55.009833],[-8.415028,55.002875],[-8.404693,55.012885],[-8.403188,55.030666],[-8.374013,55.036363],[-8.347401,55.064276],[-8.33788,55.058417],[-8.335072,55.035061],[-8.319976,55.034329],[-8.305165,55.058051],[-8.320424,55.104926],[-8.278472,55.160549],[-8.206532,55.146877],[-8.141265,55.160549],[-8.159576,55.138739],[-8.156484,55.124498],[-8.114858,55.154731],[-8.020985,55.188788],[-7.999582,55.219631],[-7.976796,55.22191],[-7.950185,55.210273],[-7.958648,55.199205],[-8.00414,55.180976],[-8.00414,55.17414],[-7.961985,55.187201],[-7.949045,55.179836],[-7.908559,55.188422],[-7.894887,55.17414],[-7.898793,55.156399],[-7.860097,55.167914],[-7.872874,55.151597],[-7.894887,55.146877],[-7.894887,55.140082],[-7.856435,55.138983],[-7.834706,55.164984],[-7.860097,55.194648],[-7.866119,55.214911],[-7.798695,55.25609],[-7.791249,55.248684],[-7.815745,55.194648],[-7.798695,55.180976],[-7.770741,55.188422],[-7.7176,55.166571],[-7.695627,55.133205],[-7.702504,55.099066],[-7.668202,55.147203],[-7.695058,55.207465],[-7.716054,55.22191],[-7.723948,55.214586],[-7.709299,55.17414],[-7.723134,55.175727],[-7.750234,55.194648],[-7.791737,55.206],[-7.788157,55.218573],[-7.760854,55.25609],[-7.725087,55.252672],[-7.673492,55.273871],[-7.643951,55.272773],[-7.611399,55.2414],[-7.619944,55.204901],[-7.614491,55.19599],[-7.572743,55.180976],[-7.564117,55.155748],[-7.527821,55.132554],[-7.525787,55.116156],[-7.541412,55.092231],[-7.641021,55.050686],[-7.641021,55.04385],[-7.581166,55.050442],[-7.561838,55.044501],[-7.572743,55.023383],[-7.634185,54.995429],[-7.681386,54.961249],[-7.681386,54.954413],[-7.643381,54.965277],[-7.537994,55.019924],[-7.529368,55.030707],[-7.469106,55.04385],[-7.456166,55.056138],[-7.450022,55.072333],[-7.454416,55.086249],[-7.477528,55.096381],[-7.46288,55.119534],[-7.46288,55.143459],[-7.541412,55.198065],[-7.54955,55.215399],[-7.549387,55.225165],[-7.527089,55.236762],[-7.516225,55.254136],[-7.51358,55.274359],[-7.524322,55.290269],[-7.478586,55.283922],[-7.46288,55.290269],[-7.469106,55.3039],[-7.427968,55.286566],[-7.405914,55.286933],[-7.367787,55.310614],[-7.347524,55.314276],[-7.327504,55.308498],[-7.312082,55.290269],[-7.339955,55.290269],[-7.320872,55.282172],[-7.276601,55.275824],[-7.256744,55.284003],[-7.350697,55.335191],[-7.353017,55.358547],[-7.400217,55.380276],[-7.384429,55.386379],[-7.208852,55.34512],[-7.129058,55.285834],[-6.975697,55.248684],[-6.953521,55.25434],[-6.939565,55.239081],[-6.942779,55.218573],[-7.034088,55.196845],[-7.099762,55.165473],[-7.172841,55.1435],[-7.216624,55.108344],[-7.2471,55.069322]]],[[[-9.662668,53.275458],[-9.638336,53.251044],[-9.658315,53.232652],[-9.692372,53.226386],[-9.710357,53.238593],[-9.720082,53.266059],[-9.710357,53.275458],[-9.684722,53.282416],[-9.662668,53.275458]]],[[[-9.963612,53.953843],[-9.940541,53.959947],[-9.922678,53.953843],[-9.937367,53.923529],[-9.93635,53.892483],[-9.957997,53.880601],[-10.0183,53.912909],[-10.055531,53.913723],[-10.055816,53.958808],[-10.06664,53.967597],[-10.087229,53.971381],[-10.162831,53.961371],[-10.26594,53.975002],[-10.26594,53.981838],[-10.218495,53.986029],[-10.201487,53.996161],[-10.189565,54.016018],[-10.173573,54.008368],[-10.156077,54.016018],[-10.134429,54.000312],[-10.063222,54.022773],[-9.975901,54.021145],[-9.956858,54.016018],[-9.93635,53.989244],[-9.956858,53.989244],[-9.954661,53.973334],[-9.963612,53.953843]]],[[[-8.524892,55.009711],[-8.496571,55.000678],[-8.483957,54.975531],[-8.527415,54.967515],[-8.565826,54.975531],[-8.565826,54.995429],[-8.5454,55.002875],[-8.550526,55.008002],[-8.543528,55.015326],[-8.524892,55.009711]]],[[[-9.816965,51.638861],[-9.799306,51.636786],[-9.813547,51.627631],[-9.892161,51.611274],[-9.917877,51.619371],[-9.915517,51.629055],[-9.881663,51.641059],[-9.816965,51.638861]]],[[[-10.312652,51.925523],[-10.297678,51.918402],[-10.322662,51.903266],[-10.405832,51.884101],[-10.426015,51.88227],[-10.429026,51.889838],[-10.351674,51.931138],[-10.312652,51.925523]]],[[[-9.648346,53.101711],[-9.64094,53.101549],[-9.642445,53.093817],[-9.660512,53.090644],[-9.811431,53.1376],[-9.801178,53.14647],[-9.777496,53.146796],[-9.752187,53.135403],[-9.696685,53.136542],[-9.671051,53.13052],[-9.663442,53.123196],[-9.671539,53.109198],[-9.648346,53.101711]]]]}}