{"type":"Feature","properties":{"iso3":"IRN","name":"Iran","continent":"Asia"},"geometry":{"type":"MultiPolygon","coordinates":[[[[44.806993,39.639902],[44.872279,39.625076],[44.940698,39.468083],[45.087976,39.350726],[45.146267,39.228666],[45.30171,39.201381],[45.429712,39.059477],[45.438601,39.004235],[46.126052,38.862668],[46.367588,38.92362],[46.553726,38.889824],[46.866162,39.165362],[46.953754,39.16066],[47.030907,39.199598],[47.10222,39.308403],[47.291356,39.379613],[47.406904,39.476816],[47.54116,39.51516],[47.823106,39.680318],[47.971418,39.704554],[48.33894,39.378941],[48.153525,39.319048],[48.10619,39.26918],[48.142157,39.181201],[48.256258,39.119784],[48.301475,39.05803],[48.293672,39.004597],[48.058544,38.948373],[48.000046,38.902588],[47.993122,38.850085],[48.21037,38.729756],[48.310312,38.600151],[48.415267,38.618109],[48.607865,38.395978],[48.777725,38.444812],[48.874278,38.434068],[48.874848,38.242743],[48.944509,37.903388],[49.014496,37.739163],[49.132498,37.623358],[49.441742,37.494859],[49.826182,37.453559],[49.933767,37.474433],[50.195649,37.38935],[50.322276,37.153266],[50.478852,37.03498],[51.004731,36.767646],[51.909028,36.582709],[53.447602,36.881903],[53.885916,36.905829],[54.006521,36.952623],[54.004242,36.914618],[53.947602,36.898749],[53.609141,36.876899],[53.70102,36.816596],[53.889171,36.793606],[54.014334,36.821112],[54.033539,36.949123],[53.997244,36.99372],[54.02003,37.027737],[53.913748,37.34276],[54.186594,37.323744],[54.533343,37.440817],[54.638969,37.433272],[54.783663,37.517453],[54.809398,37.603339],[54.787281,37.651863],[54.826658,37.735269],[55.121731,37.944713],[55.447395,38.083671],[55.708672,38.118656],[55.978422,38.065895],[56.299747,38.080235],[56.325481,38.10522],[56.297059,38.165785],[56.436482,38.255082],[56.585207,38.234567],[56.729384,38.27105],[57.038409,38.187283],[57.163983,38.276476],[57.207288,38.27074],[57.344334,38.081062],[57.327074,37.994116],[57.352395,37.967529],[57.496263,37.922312],[57.691186,37.92027],[57.800017,37.867638],[58.173534,37.781623],[58.206814,37.678735],[58.357812,37.633311],[58.462302,37.637497],[58.549325,37.701576],[58.68172,37.642716],[58.779802,37.65964],[58.795615,37.687727],[59.034567,37.624526],[59.211714,37.516316],[59.312276,37.530346],[59.351653,37.493837],[59.37036,37.319429],[59.478157,37.204138],[59.572725,37.18339],[59.604971,37.123885],[59.653237,37.149672],[60.019209,37.025803],[60.34229,36.637145],[61.165806,36.636318],[61.186167,36.552809],[61.146686,36.357265],[61.223064,36.128804],[61.141415,35.982353],[61.241047,35.893883],[61.231745,35.671881],[61.290036,35.548064],[61.200843,35.401148],[61.195055,35.318104],[61.102451,35.25666],[61.096353,35.193202],[61.147306,35.102096],[61.074752,34.933114],[61.06545,34.814724],[60.959927,34.723205],[60.957964,34.649411],[60.699685,34.516396],[60.890474,34.318914],[60.643667,34.306641],[60.492772,34.139028],[60.528016,33.84145],[60.486881,33.71138],[60.511789,33.638387],[60.655553,33.559891],[60.911971,33.528446],[60.912075,33.501522],[60.832183,33.484495],[60.829082,33.416282],[60.5676,33.151285],[60.562949,33.058268],[60.830323,32.248885],[60.81482,32.087862],[60.778336,32.021044],[60.821744,31.494668],[61.686911,31.373177],[61.742308,31.32088],[61.826334,31.034593],[61.7852,30.831401],[60.844379,29.858179],[61.337372,29.374384],[61.342333,29.25452],[61.478035,29.087476],[61.4708,29.047866],[61.566505,28.870978],[61.89279,28.5426],[62.362787,28.418887],[62.575643,28.229027],[62.761523,28.246442],[62.735684,27.994985],[62.814698,27.494964],[62.756045,27.348099],[62.778783,27.299833],[62.742351,27.266812],[62.892419,27.213482],[63.189559,27.254462],[63.271259,27.203405],[63.319628,27.117312],[63.260924,27.115607],[63.231365,27.065843],[63.261647,26.871746],[63.182272,26.83025],[63.163772,26.645093],[62.753564,26.644163],[62.671037,26.597706],[62.428003,26.564788],[62.306977,26.51368],[62.243415,26.350641],[62.123835,26.373999],[62.103268,26.325113],[61.832949,26.225377],[61.760085,25.837597],[61.66035,25.769178],[61.676369,25.6928],[61.643193,25.613321],[61.620042,25.285486],[61.588227,25.202094],[61.562348,25.244818],[61.552745,25.205064],[61.482595,25.193671],[61.524181,25.173163],[61.497406,25.125434],[61.420584,25.096869],[61.411717,25.059408],[61.185068,25.123249],[61.170269,25.16444],[61.03061,25.209784],[60.633474,25.27497],[60.604747,25.397162],[60.532074,25.44892],[60.403331,25.388861],[60.402029,25.344672],[60.470063,25.303087],[60.423523,25.304965],[60.319223,25.329851],[60.271251,25.379584],[60.207367,25.373114],[60.215974,25.33828],[60.181977,25.319892],[60.045325,25.363858],[59.903806,25.329863],[59.774873,25.389869],[59.53799,25.39975],[59.453902,25.461607],[59.043956,25.399604],[58.923513,25.513373],[58.825206,25.56037],[58.546397,25.593655],[58.389659,25.610297],[58.207286,25.549302],[58.07309,25.563625],[57.963227,25.693183],[57.884044,25.691636],[57.787446,25.635443],[57.771251,25.730455],[57.734711,25.747707],[57.520681,25.743557],[57.304373,25.79975],[57.253591,25.95897],[57.198578,25.995022],[57.166759,26.082994],[57.212901,26.166246],[57.133067,26.263739],[57.087901,26.398993],[57.090017,26.618801],[57.024913,26.850979],[56.93572,26.945543],[56.973318,27.002997],[56.871349,27.00845],[56.844086,27.040229],[56.875987,27.064399],[56.808849,27.139553],[56.757335,27.12523],[56.353038,27.201606],[56.123709,27.160631],[55.939301,27.026679],[55.665863,26.995429],[55.554454,26.899888],[55.575043,26.907172],[55.580414,26.859117],[55.521739,26.784573],[55.442231,26.759914],[55.270844,26.792548],[55.205903,26.726386],[55.118175,26.707587],[54.801524,26.498236],[54.619965,26.508246],[54.56129,26.584662],[54.389415,26.605129],[54.308116,26.714993],[54.171397,26.706122],[53.995128,26.745592],[53.728282,26.704739],[53.491547,26.854315],[53.444102,26.975653],[53.028656,27.104071],[52.732188,27.301337],[52.601329,27.352932],[52.579112,27.392768],[52.666515,27.415351],[52.670095,27.448635],[52.459646,27.632636],[52.244884,27.681383],[52.011241,27.832709],[51.683443,27.830581],[51.496424,27.893041],[51.428156,27.961147],[51.399876,27.931713],[51.269759,28.140454],[51.28533,28.240912],[51.149425,28.39053],[51.08074,28.533922],[51.058849,28.735907],[50.978689,28.816636],[50.87615,28.832017],[50.804861,28.93358],[50.823253,28.996649],[50.899262,28.949449],[50.929942,29.054633],[50.816417,29.144192],[50.693696,29.12344],[50.643809,29.143459],[50.633067,29.195502],[50.687022,29.283881],[50.655284,29.449123],[50.456065,29.634101],[50.396983,29.654731],[50.243826,29.866848],[50.144867,29.938056],[50.127696,30.120673],[50.073416,30.195746],[49.914561,30.203925],[49.600759,30.030097],[49.532237,30.022935],[49.469086,30.161689],[49.245128,30.15648],[49.221202,30.264553],[49.178477,30.225898],[49.143321,30.233547],[48.921153,30.380764],[49.082367,30.403795],[49.202891,30.346625],[49.263845,30.449652],[49.211192,30.506334],[49.183849,30.487047],[48.981456,30.515611],[48.945649,30.479722],[49.02947,30.450263],[49.017345,30.414944],[48.946462,30.421576],[48.880138,30.374579],[48.85963,30.31623],[48.936046,30.21011],[48.915294,30.042182],[48.659516,30.052232],[48.658702,29.983629],[48.61085,29.957017],[48.464307,29.989127],[48.383072,30.13842],[48.397025,30.220999],[48.305713,30.312828],[48.192076,30.331276],[48.140916,30.441916],[48.013586,30.463878],[48.001545,30.994647],[47.672935,30.994698],[47.678929,31.407851],[47.834475,31.805708],[47.580232,32.103495],[47.491344,32.148633],[47.509224,32.213797],[47.395794,32.33702],[47.416413,32.387973],[47.343342,32.458692],[47.265311,32.484685],[47.152553,32.455178],[47.090593,32.474556],[46.715887,32.756012],[46.479312,32.891792],[46.273433,32.959488],[46.09701,32.95432],[46.075719,32.994344],[46.126156,33.047984],[46.030296,33.105681],[46.153441,33.154256],[46.174318,33.18118],[46.155301,33.260219],[46.036239,33.367939],[45.974434,33.490799],[45.852581,33.494365],[45.915626,33.535809],[45.885964,33.63092],[45.734552,33.583119],[45.485781,33.938653],[45.380361,33.97356],[45.544537,34.15063],[45.55756,34.311964],[45.46077,34.340463],[45.417052,34.444359],[45.4987,34.486242],[45.500664,34.591688],[45.695588,34.550244],[45.683495,34.660211],[45.627375,34.720828],[45.676571,34.818289],[45.745404,34.840975],[45.755119,34.909963],[45.850203,34.906811],[45.857025,35.021274],[45.913197,35.087317],[46.009212,35.06091],[46.143106,35.099512],[46.169254,35.216249],[46.115407,35.226326],[46.120161,35.318517],[45.963995,35.494165],[45.983115,35.5353],[45.959344,35.578708],[45.999238,35.572145],[45.995879,35.658393],[46.037065,35.691569],[46.23788,35.715547],[46.325058,35.787843],[46.281392,35.828305],[46.163518,35.797506],[46.07696,35.856986],[45.749021,35.810994],[45.646857,35.933208],[45.53999,35.99398],[45.32052,35.99398],[45.348322,36.087514],[45.264193,36.250192],[45.282693,36.274893],[45.238871,36.402999],[45.083739,36.412817],[44.991393,36.53374],[45.035266,36.689596],[44.996199,36.741686],[44.831248,36.791916],[44.883441,36.886845],[44.887368,37.015933],[44.752699,37.103318],[44.753526,37.215326],[44.801585,37.292686],[44.565941,37.447173],[44.587438,37.584012],[44.540878,37.632717],[44.59612,37.716381],[44.534418,37.769194],[44.429102,37.779142],[44.367142,37.860222],[44.202087,37.897171],[44.236038,37.993832],[44.36709,38.162478],[44.372413,38.249501],[44.459177,38.322416],[44.424657,38.377038],[44.289524,38.382258],[44.297017,38.622321],[44.256812,38.653921],[44.250508,38.709215],[44.275002,38.843573],[44.205756,38.875664],[44.158007,38.957468],[44.194801,39.120533],[44.077702,39.200063],[44.026025,39.386176],[44.176507,39.411549],[44.29495,39.381215],[44.387967,39.414495],[44.455043,39.687139],[44.565734,39.765894],[44.806993,39.639902]]],[[[54.526378,26.309638],[54.526378,26.251939],[54.490896,26.278713],[54.492198,26.309638],[54.526378,26.309638]]],[[[54.036876,26.48843],[53.963064,26.492174],[53.902843,26.5362],[54.018809,26.555569],[54.036876,26.48843]]],[[[53.317149,26.799994],[53.22283,26.799547],[53.158458,26.838568],[53.382009,26.803127],[53.317149,26.799994]]],[[[56.322276,26.834418],[56.341156,26.87934],[56.404145,26.893052],[56.379161,26.83869],[56.322276,26.834418]]],[[[56.212413,27.002997],[56.287446,26.955146],[56.193533,26.924547],[56.080821,26.785346],[55.947032,26.696275],[55.876638,26.742906],[55.772716,26.688381],[55.685557,26.690497],[55.520518,26.603258],[55.285411,26.559963],[55.273774,26.649807],[55.351899,26.647447],[55.764496,26.793891],[55.781016,26.889635],[55.739431,26.932929],[55.757986,26.954047],[55.897716,26.906806],[56.041026,26.975653],[56.212413,27.002997]]],[[[56.472992,27.106024],[56.508474,27.074368],[56.495291,27.052314],[56.434581,27.054836],[56.472992,27.106024]]],[[[50.305817,29.271275],[50.334651,29.258661],[50.316531,29.207572],[50.305817,29.271275]]],[[[54.54656,25.9265],[54.553233,25.899848],[54.509776,25.913764],[54.54656,25.9265]]],[[[55.894298,26.679429],[55.903982,26.64525],[55.869314,26.613023],[55.855479,26.64411],[55.894298,26.679429]]],[[[53.639415,26.688788],[53.65919,26.66885],[53.601248,26.679592],[53.639415,26.688788]]],[[[55.048676,25.885769],[55.032644,25.854641],[55.015636,25.871853],[55.048676,25.885769]]]]}}