{"type":"Feature","properties":{"iso3":"IRQ","name":"Iraq","continent":"Asia"},"geometry":{"type":"Polygon","coordinates":[[[44.766135,37.14192],[44.760658,37.085644],[44.885715,37.005081],[44.883441,36.886845],[44.823393,36.809331],[44.979456,36.749024],[45.045911,36.668047],[44.993408,36.549656],[45.005914,36.518702],[45.083739,36.412817],[45.238871,36.402999],[45.282693,36.274893],[45.258508,36.262232],[45.348322,36.087514],[45.313699,36.010413],[45.33809,35.979304],[45.453122,36.011653],[45.53999,35.99398],[45.646857,35.933208],[45.749021,35.810994],[46.07696,35.856986],[46.163518,35.797506],[46.302992,35.826548],[46.327074,35.8035],[46.253486,35.727743],[46.037065,35.691569],[45.995879,35.658393],[45.963995,35.494165],[46.120161,35.318517],[46.101454,35.234285],[46.154164,35.226636],[46.130393,35.131397],[46.151064,35.111605],[46.009212,35.06091],[45.913197,35.087317],[45.861882,35.032798],[45.850203,34.906811],[45.755119,34.909963],[45.745404,34.840975],[45.666752,34.80692],[45.635023,34.736951],[45.705613,34.557737],[45.500664,34.591688],[45.503455,34.494175],[45.426767,34.45751],[45.46077,34.340463],[45.55756,34.311964],[45.544537,34.15063],[45.380361,33.97356],[45.47927,33.941185],[45.645151,33.697918],[45.721116,33.640764],[45.72773,33.590096],[45.885964,33.63092],[45.927925,33.550873],[45.852581,33.494365],[45.968232,33.494236],[46.036239,33.367939],[46.164189,33.243347],[46.167187,33.168338],[46.030296,33.105681],[46.12042,33.061678],[46.09701,32.95432],[46.273433,32.959488],[46.479312,32.891792],[46.715887,32.756012],[47.090593,32.474556],[47.321948,32.468226],[47.410832,32.395285],[47.40246,32.323506],[47.504004,32.226742],[47.490413,32.15654],[47.578057,32.106155],[47.834475,31.805708],[47.678929,31.407851],[47.672935,30.994698],[48.001545,30.994647],[48.013586,30.463878],[48.140916,30.441916],[48.200086,30.323938],[48.296359,30.319753],[48.408704,30.202344],[48.381108,30.145345],[48.453145,30.001426],[48.554942,29.956488],[48.520518,29.9289],[48.411876,29.938422],[48.119151,30.044989],[47.969005,30.004055],[47.934825,30.107082],[47.948009,29.994045],[47.674175,30.098216],[47.358225,30.092118],[47.197098,30.03424],[47.110488,29.960911],[46.85345,29.44456],[46.532436,29.095745],[46.357459,29.063137],[44.698232,29.199718],[42.075395,31.079861],[40.424126,31.920533],[39.157744,32.121348],[39.291999,32.244519],[39.235775,32.352858],[39.046329,32.308494],[39.028759,32.328338],[38.979977,32.472102],[39.057181,32.496596],[38.774511,33.371685],[40.690467,34.331497],[40.936033,34.386068],[40.98802,34.42852],[41.204234,34.793123],[41.20134,35.243018],[41.261078,35.494165],[41.363501,35.655241],[41.354509,35.825566],[41.236583,36.077024],[41.276994,36.354785],[41.385411,36.516377],[41.817323,36.599731],[42.376806,37.062001],[42.357238,37.109984],[42.564668,37.152049],[42.709465,37.347179],[42.77158,37.374903],[42.937048,37.320152],[43.114815,37.371131],[43.263385,37.310695],[43.336145,37.32023],[43.463269,37.248684],[43.80206,37.20357],[43.89363,37.224912],[43.990369,37.312504],[44.069025,37.313727],[44.235005,37.236772],[44.248337,37.16967],[44.180021,37.087608],[44.22777,36.994125],[44.284821,36.969166],[44.343112,37.042443],[44.454423,37.076343],[44.610279,37.178352],[44.766135,37.14192]]]}}