{"type":"Feature","properties":{"iso3":"ISL","name":"Iceland","continent":"Europe"},"geometry":{"type":"MultiPolygon","coordinates":[[[[-14.563629,66.384508],[-14.610748,66.363227],[-14.788197,66.33039],[-14.867177,66.305854],[-14.959137,66.296454],[-14.99059,66.285834],[-15.014801,66.268378],[-14.978261,66.259508],[-14.935211,66.22191],[-14.952138,66.193305],[-15.05602,66.148139],[-15.134633,66.143256],[-15.161,66.133612],[-15.179351,66.111314],[-15.133453,66.0987],[-15.074127,66.097113],[-15.061391,66.089342],[-15.055776,66.07038],[-15.09675,66.056098],[-15.075999,66.049628],[-14.852691,66.037177],[-14.770416,66.067857],[-14.71935,66.07038],[-14.677317,66.05622],[-14.663238,66.041164],[-14.651479,66.006741],[-14.616933,65.997748],[-14.603342,65.95303],[-14.623769,65.939399],[-14.622874,65.923896],[-14.650461,65.88817],[-14.726796,65.850653],[-14.800526,65.827948],[-14.822987,65.815863],[-14.821156,65.798407],[-14.891265,65.761217],[-14.834869,65.770901],[-14.788197,65.796047],[-14.844106,65.735175],[-14.808705,65.727729],[-14.772817,65.732001],[-14.694407,65.7508],[-14.479726,65.774888],[-14.361562,65.79678],[-14.329498,65.782375],[-14.372874,65.740383],[-14.397613,65.730048],[-14.395131,65.721503],[-14.378977,65.70718],[-14.274322,65.672512],[-14.357818,65.656073],[-14.382232,65.630276],[-14.433909,65.604804],[-14.454213,65.583441],[-14.530181,65.545478],[-14.557037,65.51789],[-14.562367,65.501166],[-14.52831,65.530829],[-14.472646,65.552314],[-14.320221,65.652411],[-14.271718,65.655951],[-14.192372,65.631537],[-14.247629,65.665025],[-14.027903,65.610419],[-13.871409,65.619045],[-13.85969,65.614163],[-13.850942,65.591986],[-13.869618,65.57689],[-13.815012,65.569403],[-13.821278,65.54149],[-13.805776,65.528632],[-13.787668,65.521674],[-13.715443,65.558295],[-13.685292,65.555162],[-13.679067,65.53856],[-13.651194,65.535346],[-13.609609,65.514228],[-13.607981,65.492133],[-13.651194,65.459621],[-13.63683,65.426093],[-13.677846,65.411811],[-13.667633,65.405707],[-13.670969,65.377631],[-13.704742,65.367336],[-13.795806,65.373114],[-13.83552,65.364],[-13.733062,65.343492],[-13.729848,65.327094],[-13.784535,65.309801],[-13.83434,65.309638],[-14.006744,65.28205],[-13.991119,65.272691],[-13.832509,65.297593],[-13.687652,65.306383],[-13.607818,65.288642],[-13.567983,65.260972],[-13.654205,65.219957],[-13.780873,65.206366],[-14.034088,65.200141],[-14.003326,65.189765],[-13.886952,65.200141],[-13.733062,65.192694],[-13.626617,65.200141],[-13.616607,65.196763],[-13.63683,65.178412],[-13.643666,65.159166],[-13.746693,65.144924],[-13.746693,65.137437],[-13.669301,65.144355],[-13.651194,65.131293],[-13.685292,65.117011],[-13.654205,65.117011],[-13.630849,65.105943],[-13.616607,65.107001],[-13.561106,65.15176],[-13.520172,65.172187],[-13.517812,65.136298],[-13.526967,65.096503],[-13.508372,65.090766],[-13.502919,65.081285],[-13.526967,65.055487],[-13.609609,65.035061],[-13.585317,65.007717],[-13.647369,64.98664],[-13.719472,64.994086],[-13.781606,64.989325],[-13.801991,64.994086],[-13.830312,65.029608],[-13.947865,65.054511],[-14.034088,65.082831],[-14.017323,65.063788],[-13.993764,65.055487],[-14.029775,65.038398],[-14.233388,65.035061],[-14.233388,65.027574],[-13.91804,65.014594],[-13.867909,64.978217],[-13.821278,64.959947],[-13.71817,64.939602],[-13.698313,64.925198],[-13.739898,64.9112],[-13.876454,64.932603],[-13.976064,64.925198],[-14.037465,64.936469],[-14.054596,64.932603],[-13.995513,64.914496],[-13.852284,64.900295],[-13.787668,64.877387],[-13.766916,64.853827],[-13.832102,64.829576],[-13.936594,64.847073],[-13.96642,64.835842],[-13.858022,64.81684],[-13.839833,64.809312],[-13.839223,64.79857],[-14.013661,64.802314],[-14.048451,64.788642],[-14.048451,64.781195],[-13.986318,64.74022],[-14.048451,64.719713],[-14.270619,64.699286],[-14.339467,64.716295],[-14.368072,64.755316],[-14.420562,64.789618],[-14.513905,64.802314],[-14.4558,64.790229],[-14.466135,64.761298],[-14.383616,64.74022],[-14.385243,64.720852],[-14.371449,64.704983],[-14.339467,64.685614],[-14.270172,64.669501],[-14.281158,64.658271],[-14.274322,64.651435],[-14.441965,64.675727],[-14.493479,64.658271],[-14.417714,64.631008],[-14.40925,64.610256],[-14.438832,64.596869],[-14.572174,64.596869],[-14.584381,64.590318],[-14.531606,64.555609],[-14.490468,64.548407],[-14.486562,64.555854],[-14.445383,64.560696],[-14.383616,64.600735],[-14.352528,64.6105],[-14.346181,64.605618],[-14.466135,64.534735],[-14.476674,64.496894],[-14.509348,64.47191],[-14.509389,64.446112],[-14.544911,64.405097],[-14.648752,64.400092],[-14.746693,64.383979],[-14.703359,64.398871],[-14.568512,64.418118],[-14.594065,64.425605],[-14.713124,64.431708],[-14.712514,64.41413],[-14.757192,64.39765],[-14.782053,64.377753],[-14.848948,64.357123],[-14.904897,64.322455],[-14.891265,64.349799],[-14.949045,64.322455],[-14.949818,64.311957],[-14.931956,64.301418],[-14.891265,64.308824],[-14.877594,64.28148],[-14.899973,64.281643],[-14.929433,64.264838],[-15.015859,64.26675],[-15.106679,64.301418],[-15.143951,64.28148],[-15.17927,64.287909],[-15.192291,64.28148],[-15.179351,64.274115],[-15.190053,64.269192],[-15.226471,64.26789],[-15.206614,64.301418],[-15.254506,64.298041],[-15.265777,64.320543],[-15.290273,64.334377],[-15.302154,64.322455],[-15.281117,64.295233],[-15.32315,64.3039],[-15.336293,64.308824],[-15.326568,64.329006],[-15.366444,64.36933],[-15.408437,64.387641],[-15.4735,64.39765],[-15.401479,64.380805],[-15.363637,64.336819],[-15.380686,64.329779],[-15.397817,64.336819],[-15.397817,64.329332],[-15.377553,64.321275],[-15.374013,64.305894],[-15.397817,64.274115],[-15.422271,64.2685],[-15.478017,64.275133],[-15.500885,64.26789],[-15.43871,64.260443],[-15.672109,64.219428],[-15.685699,64.233791],[-15.713612,64.21662],[-15.802398,64.18537],[-15.719106,64.197699],[-15.699452,64.191555],[-15.733022,64.179267],[-15.992055,64.144477],[-16.02831,64.130072],[-15.981191,64.130072],[-15.981191,64.123928],[-16.075999,64.09394],[-16.151275,64.054999],[-16.161733,64.064643],[-16.181793,64.062323],[-16.19286,64.048163],[-16.17927,64.048163],[-16.17927,64.041938],[-16.261138,64.020819],[-16.254872,64.035102],[-16.308909,64.017076],[-16.350494,63.986721],[-16.311025,63.99726],[-16.336903,63.974066],[-16.422353,63.938137],[-16.470204,63.904771],[-16.501332,63.897366],[-16.476308,63.905219],[-16.460357,63.924628],[-16.611195,63.869371],[-16.745351,63.852118],[-16.782541,63.863186],[-16.747792,63.849555],[-16.782541,63.842719],[-16.779775,63.818305],[-16.796213,63.801703],[-16.802968,63.825385],[-16.861073,63.858791],[-16.887359,63.865668],[-16.898264,63.854071],[-16.895823,63.807766],[-16.901967,63.801703],[-16.915354,63.805162],[-16.912221,63.839301],[-16.930043,63.8664],[-16.939565,63.809149],[-16.926137,63.800035],[-16.930898,63.793199],[-16.966908,63.787502],[-16.955637,63.810126],[-16.960683,63.828437],[-16.941274,63.845526],[-16.940297,63.897773],[-16.968984,63.920315],[-16.97704,63.888821],[-16.966908,63.869371],[-17.018544,63.862006],[-17.02892,63.849555],[-17.00475,63.817084],[-16.987945,63.809149],[-17.006215,63.797838],[-17.114858,63.794908],[-17.166127,63.809149],[-17.20344,63.798285],[-17.207102,63.815375],[-17.330556,63.781236],[-17.560943,63.7508],[-17.543568,63.766791],[-17.549672,63.787502],[-17.569081,63.763577],[-17.598053,63.767564],[-17.590647,63.746527],[-17.721018,63.705512],[-17.711171,63.727362],[-17.685292,63.739691],[-17.624827,63.746527],[-17.624827,63.753974],[-17.714752,63.781236],[-17.719879,63.767727],[-17.714752,63.753974],[-17.740468,63.745998],[-17.817209,63.753974],[-17.796742,63.746527],[-17.796742,63.740302],[-17.878407,63.731024],[-17.91808,63.679023],[-17.935902,63.675767],[-17.954416,63.685045],[-17.967356,63.6765],[-17.966949,63.66059],[-17.950673,63.657701],[-17.902821,63.671373],[-17.796742,63.671373],[-17.839752,63.634101],[-17.865834,63.623847],[-17.926422,63.636664],[-17.924957,63.627346],[-17.968617,63.622992],[-17.946889,63.620795],[-17.946929,63.602484],[-17.858225,63.609931],[-17.883046,63.576117],[-17.919057,63.545152],[-17.964955,63.522528],[-18.067372,63.501532],[-18.132924,63.479315],[-18.195383,63.472805],[-18.228139,63.493232],[-18.187367,63.505194],[-18.150624,63.526313],[-18.118886,63.527411],[-18.118886,63.534247],[-18.228139,63.527411],[-18.316803,63.548529],[-18.310658,63.541002],[-18.32433,63.534247],[-18.276763,63.501166],[-18.265696,63.466539],[-18.183665,63.463853],[-18.397694,63.449205],[-18.521596,63.422512],[-18.732045,63.396715],[-18.974762,63.424384],[-19.055653,63.414374],[-19.084625,63.418158],[-19.064117,63.424384],[-19.132436,63.438666],[-19.152659,63.425727],[-19.287262,63.438666],[-19.352162,63.459133],[-19.434153,63.466539],[-19.550933,63.502021],[-19.711578,63.521552],[-19.743235,63.534247],[-19.722035,63.539252],[-19.735748,63.548529],[-19.777089,63.541002],[-19.872914,63.548529],[-19.769887,63.534247],[-20.033803,63.542385],[-20.051015,63.554755],[-20.064076,63.548529],[-20.078359,63.554755],[-20.071523,63.541002],[-20.185699,63.54442],[-20.352691,63.609931],[-20.322499,63.601752],[-20.290639,63.609931],[-20.339101,63.616767],[-20.334299,63.63227],[-20.367096,63.619818],[-20.407338,63.630439],[-20.407338,63.636664],[-20.373158,63.630439],[-20.386545,63.645697],[-20.442128,63.671373],[-20.478668,63.706366],[-20.503529,63.705512],[-20.503529,63.699286],[-20.434641,63.64411],[-20.531606,63.68891],[-20.550689,63.712348],[-20.537099,63.719794],[-20.558217,63.740302],[-20.498525,63.763007],[-20.431264,63.767564],[-20.399648,63.761054],[-20.344146,63.734768],[-20.311147,63.732856],[-20.365793,63.767564],[-20.442128,63.787502],[-20.412017,63.812567],[-20.411122,63.836249],[-20.431142,63.836371],[-20.427846,63.822211],[-20.483022,63.787502],[-20.562408,63.756822],[-20.565053,63.72602],[-20.577504,63.714179],[-20.770416,63.7744],[-20.70523,63.7744],[-20.654368,63.760728],[-20.652333,63.766547],[-20.605946,63.767564],[-20.605946,63.7744],[-20.63386,63.7744],[-20.63386,63.781236],[-20.619618,63.787502],[-20.71581,63.781236],[-20.681793,63.807318],[-20.671783,63.837633],[-20.685618,63.86343],[-20.723256,63.869371],[-20.723256,63.863186],[-20.695139,63.857978],[-20.698313,63.844184],[-20.754506,63.80565],[-20.805287,63.794745],[-20.832509,63.801703],[-20.818227,63.781236],[-20.948842,63.827216],[-21.076731,63.848456],[-21.144276,63.867499],[-21.188791,63.891099],[-21.184478,63.908759],[-21.194936,63.932074],[-21.117014,63.929877],[-21.044789,63.945746],[-21.119944,63.945746],[-21.185048,63.959418],[-21.23644,63.953355],[-21.298695,63.924628],[-21.298695,63.918402],[-21.222035,63.898871],[-21.209299,63.883694],[-21.27538,63.891791],[-21.349762,63.884182],[-21.365834,63.873765],[-21.352651,63.856391],[-21.366933,63.849555],[-21.659901,63.831855],[-21.759999,63.868394],[-21.793202,63.870551],[-21.959462,63.843736],[-22.065785,63.835883],[-22.336415,63.863186],[-22.394399,63.835924],[-22.415883,63.842719],[-22.401601,63.849555],[-22.42516,63.849514],[-22.525136,63.822211],[-22.63268,63.826117],[-22.671254,63.810981],[-22.691233,63.812201],[-22.717519,63.828437],[-22.697418,63.851874],[-22.700185,63.874172],[-22.73058,63.891099],[-22.715077,63.901272],[-22.685902,63.945746],[-22.634999,63.949164],[-22.639231,63.95954],[-22.691721,63.954779],[-22.72997,63.974677],[-22.736806,63.993476],[-22.717519,64.020819],[-22.718739,64.070502],[-22.702138,64.085924],[-22.67516,64.087388],[-22.609975,64.061591],[-22.558461,64.019436],[-22.544911,63.993476],[-22.559234,63.993476],[-22.518463,63.979438],[-22.39684,63.979804],[-22.381174,63.986721],[-22.392323,63.994086],[-22.386383,64.002102],[-22.346059,64.017279],[-22.298573,64.020819],[-22.250885,64.035102],[-22.199208,64.020819],[-22.124176,64.043891],[-22.040679,64.051093],[-21.990102,64.076117],[-21.975168,64.069281],[-21.963368,64.076117],[-21.963368,64.082261],[-22.00475,64.097724],[-22.045318,64.096584],[-22.034901,64.112738],[-21.982493,64.121649],[-21.963368,64.117092],[-21.990102,64.109565],[-21.931996,64.105902],[-21.915028,64.109565],[-21.915028,64.117092],[-21.935455,64.117092],[-21.915028,64.123928],[-21.977162,64.149156],[-22.045318,64.158026],[-22.015126,64.16828],[-21.864858,64.156317],[-21.846669,64.144355],[-21.799672,64.137274],[-21.784657,64.144355],[-21.826243,64.15119],[-21.798248,64.164862],[-21.818756,64.171698],[-21.723785,64.171454],[-21.702748,64.191555],[-21.756093,64.181789],[-21.76415,64.188422],[-21.757232,64.200344],[-21.709584,64.213202],[-21.759999,64.220404],[-21.812652,64.213202],[-21.806467,64.230211],[-21.81786,64.237982],[-21.928619,64.233791],[-21.889556,64.253119],[-21.894521,64.26789],[-21.803212,64.301744],[-21.754506,64.345201],[-21.715688,64.352037],[-21.652577,64.349189],[-21.689076,64.356635],[-21.603098,64.377753],[-21.442006,64.364081],[-21.414133,64.383979],[-21.459096,64.37287],[-21.483022,64.377753],[-21.483022,64.383979],[-21.449452,64.390774],[-21.455719,64.39765],[-21.449452,64.39765],[-21.631174,64.402655],[-21.716542,64.393866],[-21.792104,64.364081],[-21.812652,64.342963],[-21.865834,64.334174],[-21.962636,64.297309],[-22.099965,64.315009],[-22.099965,64.322455],[-22.018056,64.349799],[-21.984771,64.370266],[-21.963368,64.376125],[-21.941721,64.370307],[-21.859731,64.390774],[-21.948883,64.394965],[-22.011342,64.382758],[-22.045318,64.405097],[-22.03189,64.414455],[-22.021474,64.456],[-21.999867,64.453925],[-21.975087,64.50373],[-21.83727,64.539008],[-21.777821,64.541571],[-21.792063,64.555487],[-21.818756,64.555854],[-21.818756,64.562079],[-21.762278,64.592108],[-21.702748,64.6105],[-21.64745,64.6105],[-21.651438,64.592515],[-21.60558,64.589342],[-21.579905,64.571845],[-21.496653,64.569525],[-21.565541,64.575751],[-21.620188,64.603013],[-21.579213,64.6105],[-21.579213,64.616645],[-21.68224,64.616645],[-21.68224,64.624172],[-21.606516,64.647691],[-21.510894,64.643988],[-21.510894,64.651435],[-21.613352,64.658271],[-21.677317,64.632514],[-21.702748,64.631008],[-21.702748,64.637844],[-21.676584,64.648586],[-21.661122,64.665717],[-21.721832,64.638821],[-21.728424,64.615709],[-21.792104,64.590033],[-21.859731,64.575751],[-21.853505,64.562079],[-21.911204,64.563218],[-22.009023,64.525092],[-22.035634,64.537665],[-22.018056,64.569525],[-22.038808,64.566596],[-22.048655,64.555406],[-22.051584,64.524563],[-22.079457,64.500637],[-22.085032,64.478664],[-22.164784,64.459662],[-22.199045,64.471869],[-22.2235,64.500637],[-22.257639,64.487006],[-22.231109,64.515286],[-22.22704,64.530341],[-22.237172,64.541571],[-22.2235,64.548407],[-22.257639,64.555854],[-22.243398,64.575751],[-22.289377,64.560858],[-22.339508,64.555854],[-22.357533,64.56802],[-22.364817,64.584418],[-22.346995,64.616645],[-22.364329,64.618109],[-22.442535,64.665717],[-22.365102,64.642646],[-22.339508,64.651435],[-22.360707,64.651435],[-22.354604,64.662787],[-22.319651,64.678778],[-22.333363,64.69245],[-22.217519,64.717434],[-22.18871,64.733385],[-22.18871,64.74022],[-22.250722,64.717108],[-22.34317,64.699205],[-22.402089,64.676337],[-22.422109,64.685614],[-22.349233,64.72309],[-22.339508,64.733385],[-22.346995,64.74022],[-22.319651,64.753852],[-22.372141,64.768744],[-22.436391,64.767524],[-22.422109,64.781195],[-22.442535,64.781195],[-22.408437,64.82274],[-22.427887,64.817572],[-22.442535,64.802314],[-22.457021,64.815334],[-22.476715,64.809149],[-22.476715,64.802314],[-22.547475,64.805813],[-22.593414,64.788642],[-22.593414,64.781195],[-22.56607,64.774359],[-22.658193,64.766669],[-22.682118,64.774359],[-22.638051,64.777777],[-22.672515,64.802314],[-22.778391,64.802314],[-22.710072,64.781195],[-22.710072,64.774359],[-22.736887,64.774807],[-22.783925,64.792711],[-22.812571,64.794867],[-22.805735,64.794867],[-23.1881,64.804145],[-23.246246,64.830471],[-23.398427,64.82274],[-23.423329,64.802314],[-23.457143,64.793647],[-23.573476,64.809149],[-23.538442,64.816799],[-23.555247,64.81981],[-23.593495,64.810981],[-23.623525,64.794257],[-23.628082,64.774359],[-23.646596,64.750881],[-23.67394,64.741116],[-23.747874,64.74022],[-23.833567,64.725898],[-23.946116,64.760891],[-23.955881,64.786689],[-24.016957,64.831732],[-24.060048,64.891059],[-24.053293,64.898505],[-24.033111,64.889635],[-24.014272,64.893378],[-23.958404,64.917304],[-23.849762,64.930569],[-23.748118,64.906928],[-23.63801,64.898505],[-23.600819,64.918362],[-23.559438,64.917385],[-23.512847,64.946357],[-23.47175,64.952379],[-23.381093,64.945624],[-23.395334,64.966783],[-23.339752,64.962633],[-23.346913,64.945624],[-23.33373,64.941392],[-23.30602,64.953111],[-23.297027,64.922268],[-23.278676,64.932603],[-23.263092,64.926256],[-23.245025,64.930121],[-23.224029,64.949408],[-23.24059,64.986884],[-23.23766,65.000922],[-23.210194,65.016913],[-23.168568,65.020087],[-23.086822,65.014594],[-23.106801,64.995429],[-23.135325,64.98664],[-23.127797,64.972968],[-23.147939,64.968085],[-23.162587,64.953111],[-23.107289,64.918362],[-23.114003,64.946112],[-23.109527,64.956855],[-23.099843,64.966783],[-23.066396,64.972968],[-23.04898,64.997504],[-23.021392,65.013007],[-22.992787,65.014228],[-22.94286,64.98664],[-22.906077,65.003485],[-22.844716,65.009914],[-22.785227,65.027574],[-22.873891,65.027574],[-22.873891,65.035061],[-22.831858,65.03913],[-22.757069,65.071926],[-22.717519,65.075995],[-22.73058,65.069159],[-22.695872,65.062323],[-22.695872,65.049302],[-22.751088,65.027574],[-22.689605,65.035061],[-22.674428,65.007554],[-22.579742,64.980414],[-22.579742,64.98664],[-22.628163,65.014594],[-22.601064,65.029975],[-22.56607,65.035061],[-22.564117,65.048326],[-22.5454,65.052191],[-22.461903,65.050482],[-22.379994,65.058783],[-22.24474,65.047268],[-22.155181,65.027574],[-22.120432,65.041897],[-22.045318,65.041897],[-21.982533,65.027533],[-21.963368,65.035061],[-21.937164,65.027533],[-21.826243,65.035061],[-21.799672,65.044623],[-21.798655,65.057034],[-21.816477,65.066962],[-21.846669,65.069159],[-21.836578,65.082424],[-21.792104,65.096503],[-21.779286,65.108059],[-21.737416,65.159166],[-21.73412,65.193793],[-21.766103,65.207953],[-21.809478,65.206122],[-21.840484,65.192694],[-21.833079,65.178412],[-21.983876,65.123765],[-22.033844,65.114936],[-22.318959,65.138414],[-22.401601,65.165351],[-22.511871,65.154202],[-22.557688,65.168931],[-22.490346,65.185858],[-22.456858,65.178412],[-22.456858,65.185858],[-22.478993,65.192776],[-22.55248,65.185858],[-22.524037,65.214993],[-22.490346,65.233629],[-22.426178,65.251451],[-22.428863,65.267768],[-22.378041,65.267768],[-22.339508,65.295722],[-22.312856,65.304348],[-22.201283,65.317694],[-21.975087,65.397406],[-21.935455,65.385077],[-21.949086,65.405585],[-21.695302,65.453355],[-21.791331,65.440131],[-21.897572,65.446519],[-21.97643,65.439765],[-21.935455,65.467027],[-21.971547,65.481879],[-21.990102,65.508002],[-22.045318,65.501166],[-22.039662,65.487128],[-22.062815,65.484036],[-22.114247,65.52851],[-22.111399,65.497463],[-22.134755,65.473863],[-22.17162,65.459621],[-22.199208,65.432318],[-22.253814,65.433661],[-22.28067,65.451321],[-22.381581,65.482856],[-22.387196,65.491685],[-22.345815,65.514716],[-22.235097,65.524807],[-22.164784,65.54149],[-22.153717,65.545885],[-22.148346,65.57689],[-22.106801,65.596747],[-22.136383,65.593329],[-22.209828,65.548977],[-22.243886,65.537095],[-22.346995,65.52851],[-22.346995,65.535346],[-22.291737,65.555162],[-22.291737,65.562649],[-22.312489,65.561998],[-22.373931,65.538153],[-22.415883,65.548977],[-22.403717,65.53384],[-22.408844,65.524848],[-22.478627,65.508002],[-22.493398,65.511176],[-22.504018,65.52851],[-22.501454,65.569648],[-22.545888,65.634019],[-22.55838,65.624742],[-22.556956,65.597886],[-22.541005,65.576606],[-22.546539,65.560736],[-22.57665,65.536282],[-22.589182,65.53559],[-22.631459,65.565823],[-22.637766,65.539781],[-22.656158,65.528062],[-22.676829,65.532782],[-22.707631,65.572211],[-22.711985,65.588528],[-22.704742,65.605292],[-22.682118,65.624091],[-22.759389,65.629828],[-22.763417,65.618354],[-22.717519,65.508002],[-22.731516,65.501776],[-22.785227,65.508002],[-22.77953,65.522528],[-22.795725,65.533677],[-22.842275,65.530829],[-22.853261,65.53205],[-22.854115,65.54149],[-22.887603,65.54149],[-22.887603,65.548977],[-22.818715,65.58454],[-22.791982,65.589993],[-22.801991,65.600979],[-22.854115,65.617906],[-22.859609,65.595608],[-22.879954,65.576483],[-22.905263,65.566881],[-22.925771,65.573188],[-22.942738,65.60635],[-22.95344,65.610419],[-22.963979,65.562649],[-22.985219,65.551215],[-23.073476,65.538398],[-23.158111,65.562201],[-23.155141,65.583157],[-23.183013,65.576361],[-23.200022,65.556586],[-23.201324,65.534735],[-23.182444,65.521674],[-23.182444,65.514228],[-23.231435,65.487494],[-23.357493,65.49494],[-23.408274,65.513739],[-23.423329,65.508002],[-23.409006,65.501166],[-23.490346,65.477932],[-23.625396,65.466457],[-23.656077,65.473863],[-23.661285,65.457994],[-23.714101,65.426093],[-23.897532,65.404608],[-23.943837,65.406928],[-23.984364,65.418647],[-23.982981,65.441311],[-24.004872,65.453355],[-23.970693,65.446519],[-23.967763,65.464911],[-23.986195,65.474189],[-24.009023,65.472846],[-24.019154,65.459621],[-24.04308,65.474555],[-24.196685,65.501166],[-24.48176,65.488471],[-24.5183,65.49136],[-24.539906,65.508002],[-24.496002,65.518988],[-24.451568,65.545233],[-24.375396,65.569403],[-24.365793,65.617906],[-24.303375,65.638373],[-24.135406,65.606147],[-24.080556,65.57689],[-23.971303,65.558661],[-23.922963,65.52851],[-23.892812,65.522162],[-23.806793,65.535346],[-23.895009,65.54149],[-23.940785,65.572496],[-24.009999,65.599433],[-24.086781,65.651353],[-23.935943,65.638373],[-23.806793,65.610419],[-23.852651,65.638983],[-24.022857,65.676174],[-24.080556,65.706],[-24.121571,65.74079],[-24.124827,65.77733],[-24.135162,65.78913],[-24.092844,65.804755],[-24.049875,65.803534],[-23.628082,65.706],[-23.56664,65.672512],[-23.556386,65.65469],[-23.579701,65.617906],[-23.561757,65.613674],[-23.497792,65.645209],[-23.477895,65.631537],[-23.46703,65.640937],[-23.388539,65.638373],[-23.409006,65.65884],[-23.285471,65.679348],[-23.404124,65.675198],[-23.458241,65.68244],[-23.511627,65.699693],[-23.539174,65.722724],[-23.466908,65.739691],[-23.437815,65.731635],[-23.356191,65.736233],[-23.309682,65.748236],[-23.244537,65.740383],[-23.224029,65.748236],[-23.251332,65.755072],[-23.251332,65.761217],[-23.189849,65.782375],[-23.276275,65.773139],[-23.319244,65.757025],[-23.588775,65.759752],[-23.676503,65.782375],[-23.729156,65.774359],[-23.8131,65.815863],[-23.845204,65.842963],[-23.866607,65.875556],[-23.863149,65.905829],[-23.820546,65.925727],[-23.800852,65.926215],[-23.669667,65.905219],[-23.600819,65.877916],[-23.51887,65.884752],[-23.395334,65.864325],[-23.35436,65.864325],[-23.244537,65.836127],[-23.209788,65.843207],[-23.29247,65.854234],[-23.318837,65.867865],[-23.401519,65.87108],[-23.474273,65.894843],[-23.57787,65.905015],[-23.6551,65.942572],[-23.763295,65.979926],[-23.8131,66.011379],[-23.807485,66.058417],[-23.792592,66.07038],[-23.751373,66.076565],[-23.699574,66.071723],[-23.5183,66.026679],[-23.465199,66.020982],[-23.429433,66.029446],[-23.412506,66.000312],[-23.374867,65.987779],[-23.422515,66.035875],[-23.547027,66.059516],[-23.669667,66.117499],[-23.637318,66.128485],[-23.48412,66.12759],[-23.395334,66.097642],[-23.481028,66.138617],[-23.577056,66.137681],[-23.600819,66.144843],[-23.590972,66.159857],[-23.55956,66.176459],[-23.501291,66.180487],[-23.485585,66.186225],[-23.48412,66.199449],[-23.461415,66.204169],[-23.304351,66.185777],[-23.152699,66.145819],[-23.110219,66.112535],[-23.114166,66.097642],[-23.107289,66.075914],[-23.057973,66.107611],[-23.027699,66.10871],[-22.986073,66.079535],[-22.976877,66.033677],[-23.058949,65.966702],[-22.976552,66.00845],[-22.929189,66.049262],[-22.909657,66.038642],[-22.89509,66.015082],[-22.89977,66.010647],[-22.85554,66.02851],[-22.840443,66.021918],[-22.880971,65.975287],[-22.909779,65.956366],[-22.94286,65.946845],[-22.884429,65.951809],[-22.82311,66.004584],[-22.809153,65.977607],[-22.824696,65.926256],[-22.819325,65.912095],[-22.785227,65.960517],[-22.782948,66.008612],[-22.764027,66.049262],[-22.750478,66.058417],[-22.682729,66.055854],[-22.667226,66.030911],[-22.620269,66.009223],[-22.578277,65.977607],[-22.586171,65.940375],[-22.600209,65.925727],[-22.593414,65.919582],[-22.644887,65.860582],[-22.655426,65.84219],[-22.648183,65.833686],[-22.635162,65.835273],[-22.611684,65.873847],[-22.545318,65.946967],[-22.538726,65.974189],[-22.517323,65.975775],[-22.476715,65.939399],[-22.457509,65.941067],[-22.449371,65.932563],[-22.456166,65.90998],[-22.442535,65.905219],[-22.429433,65.927965],[-22.422109,65.925727],[-22.428863,65.884752],[-22.469879,65.836982],[-22.43163,65.845893],[-22.392649,65.901679],[-22.360707,65.912095],[-22.360707,65.919582],[-22.381256,65.928778],[-22.408437,65.987779],[-22.423004,66.002021],[-22.484202,66.029446],[-22.463735,66.065863],[-22.449371,66.075914],[-22.392812,66.084052],[-22.381174,66.097642],[-22.488393,66.076728],[-22.572174,66.093695],[-22.628163,66.117499],[-22.865956,66.159491],[-22.935862,66.189765],[-22.97761,66.234198],[-22.930898,66.246405],[-22.751088,66.262152],[-22.606557,66.246772],[-22.593414,66.234198],[-22.552358,66.221381],[-22.538726,66.227362],[-22.559234,66.248481],[-22.484486,66.251166],[-22.440541,66.265448],[-22.367502,66.275214],[-22.503407,66.266425],[-22.564565,66.283637],[-22.502919,66.306098],[-22.469879,66.309312],[-22.469879,66.316799],[-22.492096,66.321967],[-22.595693,66.291734],[-22.710072,66.29564],[-22.711415,66.306464],[-22.682118,66.323635],[-22.669097,66.357123],[-22.607655,66.371405],[-22.683949,66.358303],[-22.763051,66.323676],[-22.82311,66.316799],[-22.835357,66.322659],[-22.799469,66.364569],[-22.83373,66.358832],[-22.939687,66.301459],[-23.098053,66.318305],[-23.139312,66.327786],[-23.189687,66.355292],[-23.176259,66.364569],[-23.046742,66.360663],[-23.02481,66.391832],[-23.084625,66.403266],[-23.135325,66.432807],[-23.104726,66.442816],[-23.011708,66.419176],[-23.032297,66.440253],[-22.922719,66.447659],[-22.89509,66.426011],[-22.873525,66.423774],[-22.864491,66.431383],[-22.868153,66.441392],[-22.950307,66.466986],[-22.832631,66.463813],[-22.695872,66.419176],[-22.670237,66.420966],[-22.607655,66.446479],[-22.613881,66.46015],[-22.574534,66.465888],[-22.510732,66.440416],[-22.426625,66.427924],[-22.422109,66.440253],[-22.429351,66.450141],[-22.455556,66.457465],[-22.463124,66.466986],[-22.43102,66.464748],[-22.376698,66.432563],[-22.367502,66.408922],[-22.350006,66.394192],[-22.268625,66.375922],[-22.243398,66.357123],[-22.257639,66.347154],[-22.202301,66.337226],[-22.202301,66.33039],[-22.228261,66.328559],[-22.229644,66.309312],[-22.214101,66.2897],[-22.229644,66.28262],[-22.229644,66.275214],[-22.216664,66.268378],[-22.155181,66.28262],[-22.128285,66.268297],[-22.105621,66.287828],[-22.089589,66.289862],[-22.080393,66.282864],[-22.086293,66.268378],[-21.996938,66.268378],[-21.979319,66.27497],[-21.921783,66.241034],[-21.990102,66.213772],[-21.920725,66.219672],[-21.853505,66.193305],[-21.812652,66.199449],[-21.749867,66.185777],[-21.757314,66.172756],[-21.740061,66.168199],[-21.730092,66.156236],[-21.730336,66.14411],[-21.743642,66.138617],[-21.731801,66.122504],[-21.723012,66.082221],[-21.702748,66.07038],[-21.653961,66.077582],[-21.641225,66.07038],[-21.639272,66.056545],[-21.667958,66.021918],[-21.620188,66.039008],[-21.620717,66.063463],[-21.641225,66.083441],[-21.593251,66.096381],[-21.548818,66.097642],[-21.527659,66.075914],[-21.509185,66.072333],[-21.551869,66.056098],[-21.558461,66.046536],[-21.534779,66.025702],[-21.509389,66.017076],[-21.401031,66.029446],[-21.348704,66.020697],[-21.330637,66.009019],[-21.318512,65.987779],[-21.459299,65.982327],[-21.486073,65.973212],[-21.606516,65.960517],[-21.588124,65.946357],[-21.410024,65.967475],[-21.380605,65.960517],[-21.43578,65.939399],[-21.43578,65.932563],[-21.328114,65.945258],[-21.301747,65.935981],[-21.284047,65.898627],[-21.295888,65.885565],[-21.325917,65.877916],[-21.278188,65.864325],[-21.278188,65.856879],[-21.327789,65.809027],[-21.375315,65.784898],[-21.476796,65.768704],[-21.476796,65.761217],[-21.401031,65.761217],[-21.332143,65.74079],[-21.443512,65.690497],[-21.579213,65.69302],[-21.629221,65.719387],[-21.661122,65.755072],[-21.685943,65.769436],[-21.716705,65.776435],[-21.777821,65.768704],[-21.695302,65.748236],[-21.665395,65.715644],[-21.689076,65.69302],[-21.627675,65.648261],[-21.609934,65.641547],[-21.442983,65.643378],[-21.414296,65.637152],[-21.401031,65.624091],[-21.483022,65.569403],[-21.483022,65.562649],[-21.373362,65.59691],[-21.320912,65.601874],[-21.298695,65.558905],[-21.319814,65.522366],[-21.369862,65.487128],[-21.428822,65.461493],[-21.476796,65.453355],[-21.476796,65.446519],[-21.315419,65.480699],[-21.278432,65.473293],[-21.212148,65.438178],[-21.201894,65.428412],[-21.209299,65.411811],[-21.193023,65.40058],[-21.19286,65.310126],[-21.14037,65.247301],[-21.145375,65.244859],[-21.107655,65.215522],[-21.097076,65.19599],[-21.106191,65.172187],[-21.089915,65.166164],[-21.073313,65.172065],[-21.065419,65.185777],[-21.085683,65.233629],[-21.119944,65.267768],[-21.099436,65.28205],[-21.103017,65.290717],[-21.078969,65.308783],[-21.073557,65.324164],[-21.098866,65.445461],[-21.086049,65.459621],[-21.055247,65.452338],[-20.962961,65.353339],[-20.91511,65.343492],[-20.907623,65.35102],[-20.933705,65.37401],[-20.975006,65.437567],[-20.987294,65.506781],[-20.983306,65.521674],[-20.962229,65.54149],[-20.948598,65.57689],[-20.91808,65.601386],[-20.805247,65.638373],[-20.743723,65.672512],[-20.691965,65.683173],[-20.688547,65.69302],[-20.675364,65.693915],[-20.646962,65.679348],[-20.629791,65.680243],[-20.623443,65.670722],[-20.631256,65.667385],[-20.640859,65.624986],[-20.63386,65.589993],[-20.645863,65.573065],[-20.646474,65.55565],[-20.635732,65.545152],[-20.613393,65.548977],[-20.623647,65.567288],[-20.621897,65.583441],[-20.608957,65.590969],[-20.58552,65.583157],[-20.576772,65.576646],[-20.572418,65.555162],[-20.578684,65.535346],[-20.550689,65.52851],[-20.523997,65.501166],[-20.475657,65.49494],[-20.45344,65.501451],[-20.427846,65.548977],[-20.454661,65.566596],[-20.530873,65.57689],[-20.410715,65.596747],[-20.39802,65.587348],[-20.402008,65.542873],[-20.387522,65.52851],[-20.391184,65.544623],[-20.375559,65.568101],[-20.387522,65.583157],[-20.376129,65.596422],[-20.328521,65.627834],[-20.318593,65.65884],[-20.270131,65.665025],[-20.292348,65.666938],[-20.30602,65.679267],[-20.307851,65.693183],[-20.271596,65.714016],[-20.263295,65.744534],[-20.27123,65.770168],[-20.290679,65.793647],[-20.339101,65.822699],[-20.339101,65.830146],[-20.312489,65.840399],[-20.322581,65.869452],[-20.393422,65.946519],[-20.406158,65.997504],[-20.448883,66.029446],[-20.419504,66.054389],[-20.414866,66.070624],[-20.427846,66.083441],[-20.407704,66.090766],[-20.342152,66.090237],[-20.304351,66.103909],[-20.25593,66.103909],[-20.184804,66.131171],[-20.113433,66.12287],[-20.09203,66.131171],[-20.086903,66.109809],[-20.073638,66.097357],[-20.030588,66.083441],[-20.037424,66.075914],[-19.954823,66.001451],[-19.940053,65.97842],[-19.928131,65.974189],[-19.937734,65.963568],[-19.921783,65.94717],[-19.877594,65.92357],[-19.879791,65.905219],[-19.708404,65.87108],[-19.694814,65.843207],[-19.66686,65.815863],[-19.65038,65.76496],[-19.628774,65.752753],[-19.577748,65.746405],[-19.557607,65.733954],[-19.544301,65.762844],[-19.513539,65.761217],[-19.488678,65.748236],[-19.449086,65.747504],[-19.468251,65.737372],[-19.456166,65.728949],[-19.427235,65.739936],[-19.41804,65.753852],[-19.39981,65.81151],[-19.399241,65.836615],[-19.405832,65.860175],[-19.451527,65.925727],[-19.510406,65.95303],[-19.510854,65.96015],[-19.497914,65.977525],[-19.447499,65.987779],[-19.413645,66.007636],[-19.434316,66.02143],[-19.451772,66.052558],[-19.437856,66.066636],[-19.362701,66.088365],[-19.229319,66.097642],[-19.157582,66.081122],[-19.159739,66.097642],[-19.135243,66.104926],[-19.1256,66.103909],[-19.132436,66.090237],[-19.057932,66.07038],[-19.086252,66.088284],[-19.091461,66.097642],[-19.084625,66.103909],[-19.105133,66.111314],[-19.068674,66.164618],[-19.034047,66.177191],[-18.944692,66.19066],[-18.912913,66.184394],[-18.920155,66.152289],[-18.887685,66.164252],[-18.864898,66.185777],[-18.869374,66.195624],[-18.854115,66.20539],[-18.827016,66.203437],[-18.776845,66.193305],[-18.804677,66.14175],[-18.721547,66.172756],[-18.69225,66.169989],[-18.619618,66.131496],[-18.659535,66.090237],[-18.597157,66.10456],[-18.544545,66.08275],[-18.516103,66.029446],[-18.54247,65.98192],[-18.540028,65.974189],[-18.348012,65.950181],[-18.310455,65.922675],[-18.287343,65.915107],[-18.260325,65.872382],[-18.21817,65.867743],[-18.205474,65.847073],[-18.203684,65.807929],[-18.179677,65.782375],[-18.176584,65.733954],[-18.091542,65.69302],[-18.096913,65.679633],[-18.091949,65.661811],[-18.079905,65.64761],[-18.063588,65.645209],[-18.051015,65.65766],[-18.060374,65.694078],[-18.070424,65.706],[-18.105133,65.720282],[-18.109486,65.731594],[-18.097768,65.748236],[-18.097768,65.782375],[-18.070424,65.796047],[-18.067616,65.830552],[-18.097768,65.877916],[-18.097768,65.894965],[-18.118886,65.898383],[-18.151519,65.924791],[-18.169911,65.914008],[-18.187001,65.915839],[-18.217926,65.932074],[-18.228139,65.939399],[-18.218739,65.953559],[-18.222524,65.966986],[-18.264068,65.984849],[-18.296986,66.015082],[-18.28954,66.029446],[-18.316721,66.057359],[-18.329213,66.103949],[-18.323842,66.150784],[-18.296986,66.179633],[-18.193959,66.179633],[-18.142445,66.165961],[-18.084137,66.165961],[-18.091542,66.158515],[-18.054067,66.149563],[-17.955434,66.160142],[-17.91275,66.152289],[-17.885487,66.117499],[-17.816477,66.113267],[-17.713124,66.060289],[-17.672963,66.007066],[-17.623769,65.987209],[-17.549672,65.912095],[-17.545644,65.931138],[-17.577626,65.974189],[-17.495107,65.987779],[-17.586903,65.985785],[-17.611155,65.994045],[-17.452016,65.995185],[-17.413197,65.960517],[-17.406646,65.975002],[-17.419342,65.994045],[-17.395131,66.00609],[-17.391998,66.029446],[-17.364654,66.049262],[-17.364654,66.083441],[-17.352162,66.097113],[-17.261464,66.129706],[-17.254791,66.153144],[-17.269887,66.161526],[-17.264963,66.168647],[-17.217356,66.194241],[-17.156117,66.203681],[-17.145619,66.221177],[-17.119252,66.211127],[-16.992421,66.19953],[-16.933339,66.138617],[-16.933339,66.124335],[-16.947011,66.124335],[-16.947011,66.117499],[-16.92276,66.111029],[-16.898549,66.117499],[-16.919749,66.124335],[-16.884104,66.135321],[-16.758127,66.149604],[-16.721059,66.144843],[-16.753041,66.14289],[-16.782541,66.131171],[-16.75182,66.113186],[-16.700551,66.144843],[-16.672353,66.133694],[-16.629547,66.100816],[-16.596913,66.097642],[-16.596913,66.103909],[-16.655629,66.127753],[-16.667714,66.158515],[-16.686269,66.165961],[-16.531361,66.199164],[-16.508168,66.199449],[-16.624257,66.165961],[-16.515696,66.179633],[-16.452463,66.14643],[-16.426259,66.144843],[-16.426259,66.152289],[-16.461537,66.167182],[-16.48705,66.189521],[-16.472768,66.217678],[-16.439931,66.234198],[-16.421986,66.262397],[-16.421946,66.287095],[-16.454213,66.31745],[-16.476186,66.327338],[-16.480824,66.350287],[-16.51537,66.367336],[-16.508168,66.385077],[-16.52184,66.385077],[-16.51183,66.395982],[-16.529286,66.419176],[-16.508168,66.419176],[-16.508168,66.426011],[-16.525502,66.435736],[-16.544667,66.467597],[-16.572987,66.481024],[-16.543324,66.506985],[-16.52184,66.508531],[-16.512603,66.488837],[-16.501332,66.487494],[-16.48705,66.511054],[-16.429677,66.519843],[-16.43102,66.491604],[-16.411977,66.481269],[-16.419423,66.501125],[-16.364735,66.515367],[-16.30956,66.49494],[-16.330068,66.487494],[-16.312856,66.481269],[-16.268625,66.487494],[-16.268625,66.49494],[-16.235585,66.51789],[-16.226796,66.503892],[-16.215199,66.502183],[-16.204457,66.507961],[-16.196278,66.526842],[-16.165517,66.535875],[-16.0808,66.525946],[-16.022939,66.536607],[-15.93871,66.502672],[-15.891225,66.49494],[-15.933339,66.475491],[-15.939605,66.46015],[-15.925933,66.453925],[-15.946401,66.446479],[-15.925933,66.432807],[-15.937652,66.423814],[-15.830393,66.426011],[-15.836537,66.405504],[-15.741038,66.405504],[-15.706695,66.395901],[-15.679555,66.344062],[-15.721303,66.312405],[-15.775136,66.289455],[-15.761464,66.275214],[-15.749501,66.280666],[-15.690541,66.265774],[-15.687001,66.258694],[-15.699452,66.234198],[-15.610666,66.227362],[-15.575429,66.233954],[-15.548573,66.221177],[-15.528717,66.227362],[-15.510121,66.201646],[-15.419667,66.172309],[-15.38036,66.14997],[-15.35676,66.158515],[-15.371083,66.165961],[-15.353505,66.17121],[-15.332346,66.197943],[-15.33788,66.251776],[-15.331288,66.261461],[-15.108754,66.278388],[-15.09675,66.303127],[-15.02595,66.321845],[-14.991119,66.361314],[-14.925445,66.385321],[-14.839752,66.391832],[-14.75414,66.371405],[-14.563629,66.384508]]],[[[-17.751291,63.717841],[-17.743153,63.703192],[-17.764963,63.681952],[-17.771108,63.680732],[-17.759023,63.690172],[-17.768951,63.69892],[-17.823313,63.691392],[-17.820709,63.699652],[-17.790151,63.713202],[-17.751291,63.717841]]],[[[-18.008941,66.564154],[-17.976308,66.548285],[-17.980458,66.539049],[-17.999827,66.533393],[-18.017201,66.544989],[-18.019521,66.561347],[-18.008941,66.564154]]],[[[-20.261871,63.444648],[-20.252553,63.429511],[-20.269643,63.409125],[-20.286773,63.40648],[-20.305572,63.43476],[-20.302602,63.44595],[-20.25886,63.451361],[-20.261871,63.444648]]],[[[-18.380238,66.012112],[-18.35676,65.993232],[-18.35676,65.981635],[-18.390492,65.983466],[-18.414418,66.023668],[-18.408559,66.027411],[-18.380238,66.012112]]]]}}