{"type":"Feature","properties":{"iso3":"ISR","name":"Israel","continent":"Asia"},"geometry":{"type":"Polygon","coordinates":[[[34.248351,31.211449],[34.350905,31.289254],[34.345841,31.357725],[34.367339,31.392814],[34.556032,31.539825],[34.481204,31.583141],[34.60963,31.76553],[34.711925,31.951606],[34.743337,32.039862],[34.742686,32.055609],[34.757009,32.066596],[34.837657,32.280707],[34.942068,32.724514],[34.94752,32.814154],[34.955577,32.834377],[34.97047,32.841376],[35.003429,32.827541],[35.02768,32.826606],[35.062755,32.858344],[35.0796,32.905829],[35.07781,32.917873],[35.06544,32.923082],[35.078461,32.998847],[35.096202,33.05036],[35.092133,33.067694],[35.106456,33.080756],[35.09962,33.087592],[35.185273,33.083977],[35.207184,33.094803],[35.234469,33.090927],[35.283665,33.101185],[35.305783,33.089377],[35.331931,33.057156],[35.34516,33.05558],[35.480139,33.087387],[35.512282,33.147409],[35.520033,33.222185],[35.549489,33.281019],[35.561167,33.28213],[35.603852,33.240091],[35.620065,33.269536],[35.652143,33.27666],[35.698523,33.32267],[35.769423,33.342643],[35.8211,33.406722],[35.809938,33.360032],[35.763842,33.334401],[35.802083,33.31249],[35.768597,33.272699],[35.803633,33.248463],[35.807664,33.201721],[35.830195,33.189991],[35.833399,33.161129],[35.811488,33.126765],[35.811488,33.111908],[35.848902,33.098678],[35.85903,32.99021],[35.888073,32.944941],[35.849729,32.895823],[35.834226,32.827946],[35.75759,32.744347],[35.685191,32.711234],[35.640226,32.680999],[35.612334,32.681535],[35.562718,32.64421],[35.579978,32.560391],[35.575844,32.554965],[35.572536,32.560391],[35.565612,32.546102],[35.55941,32.55295],[35.565612,32.525587],[35.551969,32.525587],[35.551969,32.518817],[35.568505,32.510265],[35.579978,32.49148],[35.561271,32.477089],[35.572536,32.456728],[35.55941,32.450527],[35.565612,32.443706],[35.551969,32.436212],[35.55817,32.417997],[35.545148,32.409573],[35.560961,32.384717],[35.406862,32.414793],[35.392909,32.494478],[35.363143,32.51011],[35.270436,32.510471],[35.210359,32.541868],[35.190751,32.54171],[35.151683,32.507914],[35.06435,32.463136],[35.044713,32.43412],[35.021562,32.34459],[35.004509,32.338053],[34.996551,32.323041],[34.989936,32.27847],[35.009366,32.267644],[35.007609,32.24439],[34.961411,32.201576],[34.958223,32.186454],[34.986943,32.123991],[34.984217,32.089584],[35.007245,32.020772],[34.996775,32.011102],[34.997837,31.978779],[34.986695,31.967228],[35.007734,31.944922],[35.005424,31.933769],[35.029902,31.92443],[35.039006,31.908637],[35.034323,31.861114],[34.99854,31.853835],[34.97874,31.837333],[34.98031,31.831317],[35.027492,31.832731],[35.056018,31.853317],[35.07632,31.854158],[35.112472,31.823963],[35.186167,31.80874],[35.183587,31.825116],[35.213271,31.818763],[35.216132,31.823745],[35.205255,31.877254],[35.222023,31.879178],[35.233353,31.842611],[35.24998,31.844368],[35.257231,31.838593],[35.251566,31.831277],[35.264935,31.826272],[35.255871,31.812216],[35.25995,31.792573],[35.252699,31.76965],[35.262811,31.748625],[35.242417,31.71085],[35.205255,31.723187],[35.179423,31.720103],[35.148952,31.737349],[35.125742,31.733103],[35.059226,31.676797],[34.973606,31.63037],[34.93733,31.582001],[34.926788,31.494409],[34.867153,31.396431],[34.878832,31.362841],[34.900949,31.348475],[34.927408,31.34491],[35.040166,31.363203],[35.164913,31.362273],[35.223307,31.381031],[35.332344,31.458804],[35.390118,31.487071],[35.458125,31.491929],[35.457128,31.433524],[35.452854,31.400823],[35.416473,31.331835],[35.423915,31.324601],[35.422261,31.303],[35.3957,31.25768],[35.410686,31.204608],[35.436214,31.159546],[35.443242,31.132209],[35.438488,31.103736],[35.391565,31.023947],[35.385261,30.963279],[35.334928,30.912585],[35.322216,30.88995],[35.316635,30.822823],[35.279531,30.780241],[35.263882,30.719967],[35.205324,30.617099],[35.140005,30.430185],[35.140005,30.406155],[35.162122,30.361404],[35.141762,30.313965],[35.125225,30.244667],[35.124812,30.21609],[35.145276,30.154905],[35.145276,30.123382],[35.129049,30.089741],[35.086261,30.034034],[35.054118,29.923394],[35.048951,29.842314],[35.002545,29.733096],[34.989833,29.651964],[34.966992,29.608116],[34.951345,29.54564],[34.910818,29.489936],[34.886729,29.490058],[34.855267,29.545717],[34.848239,29.569643],[34.8501,29.63876],[34.824365,29.7417],[34.741373,29.940241],[34.733208,30.012588],[34.599469,30.344506],[34.526915,30.409618],[34.536217,30.482172],[34.504384,30.530334],[34.502214,30.571675],[34.480407,30.651205],[34.329511,30.994492],[34.248351,31.211449]]]}}