{"type":"Feature","properties":{"iso3":"ITA","name":"Italy","continent":"Europe"},"geometry":{"type":"MultiPolygon","coordinates":[[[[7.022083,45.92526],[7.153547,45.876529],[7.393843,45.9157],[7.524377,45.978073],[7.831232,45.91446],[7.883782,45.973869],[7.998354,46.010629],[8.018197,46.080858],[8.110595,46.126953],[8.129509,46.196044],[8.076592,46.249736],[8.087341,46.271802],[8.291462,46.378359],[8.316267,46.433653],[8.427888,46.44869],[8.427165,46.251442],[8.601831,46.122819],[8.834375,46.066388],[8.773397,45.990579],[8.898144,45.90955],[8.900004,45.826403],[9.002427,45.820718],[9.059271,45.881955],[8.982686,45.961847],[9.015553,45.993111],[8.997776,46.027941],[9.067126,46.071142],[9.090587,46.138167],[9.215747,46.221056],[9.275175,46.331385],[9.245823,46.461041],[9.282306,46.49737],[9.350829,46.497861],[9.377081,46.468689],[9.426794,46.497111],[9.444364,46.375284],[9.536451,46.298622],[9.674324,46.291801],[9.730858,46.350712],[9.93901,46.367455],[10.042673,46.220487],[10.075746,46.220022],[10.158945,46.262449],[10.091766,46.328956],[10.140755,46.402905],[10.026344,46.446262],[10.031408,46.525792],[10.083498,46.597002],[10.192122,46.626819],[10.295371,46.551087],[10.451833,46.546702],[10.459082,46.623564],[10.369165,46.672398],[10.428696,46.755648],[10.453811,46.864427],[10.662481,46.860965],[10.795082,46.776888],[10.99693,46.76911],[11.156611,46.956515],[11.31381,46.987262],[11.411169,46.970493],[11.461812,47.005504],[11.746445,46.972457],[12.180631,47.085215],[12.203575,47.053331],[12.111178,46.992998],[12.126887,46.908869],[12.250807,46.875615],[12.266724,46.795336],[12.40501,46.690123],[13.231109,46.552173],[13.478019,46.563567],[13.700951,46.519746],[13.658783,46.445125],[13.600182,46.442644],[13.365261,46.290302],[13.401641,46.216663],[13.637389,46.180386],[13.616409,46.125041],[13.461793,46.006392],[13.509439,45.967428],[13.622817,45.966394],[13.565973,45.83033],[13.778724,45.743411],[13.884144,45.635148],[13.847764,45.584661],[13.711762,45.593207],[13.808116,45.614325],[13.739268,45.649115],[13.739106,45.691596],[13.647309,45.76203],[13.574229,45.789618],[13.524181,45.760077],[13.554942,45.737209],[13.401703,45.675442],[13.37672,45.683173],[13.431407,45.706855],[13.351817,45.740302],[13.221853,45.776068],[13.11085,45.767646],[13.122895,45.744615],[13.075043,45.696845],[13.149669,45.703762],[13.084972,45.641913],[12.943858,45.628567],[12.423676,45.438056],[12.430919,45.484036],[12.573578,45.540025],[12.506602,45.57331],[12.451427,45.511908],[12.396739,45.539252],[12.424001,45.504462],[12.272716,45.463609],[12.208751,45.309068],[12.162934,45.31623],[12.168793,45.262152],[12.221446,45.283271],[12.230479,45.20425],[12.296072,45.22663],[12.328461,45.10102],[12.307302,45.128363],[12.297374,45.10635],[12.376231,45.038967],[12.355154,45.024644],[12.401378,45.049872],[12.53297,44.960842],[12.444591,44.820502],[12.438324,44.901109],[12.415538,44.899848],[12.39796,44.793769],[12.302989,44.842922],[12.266368,44.826646],[12.246593,44.711615],[12.283458,44.613756],[12.283702,44.487616],[12.368826,44.250678],[12.69158,43.990627],[12.928884,43.915839],[13.253266,43.703192],[13.473399,43.612006],[13.510265,43.633734],[13.624522,43.547187],[13.834809,43.127265],[13.944672,42.798285],[14.075369,42.598822],[14.560232,42.225653],[14.693696,42.18537],[14.757498,42.078843],[15.165375,41.927802],[15.446056,41.906928],[16.02711,41.944078],[16.140473,41.919908],[16.192882,41.79092],[15.900076,41.614651],[15.896332,41.536444],[15.961111,41.459459],[16.593923,41.206977],[17.05714,41.081855],[17.276378,40.980211],[17.476085,40.830146],[18.011078,40.644192],[18.037446,40.556952],[18.303233,40.399888],[18.437266,40.26789],[18.516124,40.139228],[18.411388,39.978827],[18.373709,39.799791],[18.071544,39.911526],[17.995372,40.002672],[18.015798,40.0362],[17.978363,40.051663],[18.010997,40.096015],[17.863129,40.285631],[17.512055,40.303697],[17.212901,40.406195],[17.243012,40.441392],[17.22755,40.474433],[17.295746,40.473212],[17.304047,40.499457],[17.189952,40.481879],[17.049571,40.51911],[16.976085,40.492621],[16.604747,40.084459],[16.631602,39.966213],[16.542247,39.885403],[16.489757,39.775214],[16.545909,39.660875],[16.782481,39.61164],[16.846202,39.55268],[17.158702,39.406195],[17.114919,39.282782],[17.1421,39.222317],[17.124522,39.090888],[17.192556,39.031073],[17.17156,38.96601],[17.104015,38.899075],[16.957286,38.94009],[16.838552,38.918199],[16.585623,38.797838],[16.534841,38.699897],[16.569591,38.429511],[16.306326,38.277086],[16.169444,38.143215],[16.090017,37.949205],[15.761485,37.925238],[15.684418,37.953518],[15.635102,38.009101],[15.658458,38.042548],[15.627452,38.107367],[15.632823,38.220282],[15.812836,38.300605],[15.917817,38.516791],[15.836599,38.648993],[16.002615,38.725409],[16.152599,38.730902],[16.200938,38.776435],[16.22169,38.856594],[16.214692,38.919013],[16.139659,38.973782],[16.083018,39.075263],[15.995396,39.438768],[15.876231,39.551459],[15.815684,39.6789],[15.774425,39.891099],[15.624278,40.077786],[15.534923,40.077786],[15.4101,39.99397],[15.272227,40.028754],[15.263438,40.073717],[15.127208,40.169623],[15.034923,40.17536],[14.92213,40.238023],[14.932384,40.333726],[14.99449,40.358434],[14.998267,40.397559],[14.888845,40.573065],[14.781993,40.669867],[14.329845,40.584459],[14.337738,40.624416],[14.47637,40.695102],[14.474132,40.729682],[14.2942,40.838772],[14.223643,40.831366],[14.203461,40.801215],[14.08253,40.831285],[14.08253,40.783515],[14.047697,40.789589],[14.021344,40.921829],[13.851725,41.147316],[13.721853,41.252387],[13.594412,41.253119],[13.56365,41.237982],[13.57545,41.208075],[13.543956,41.20661],[13.285818,41.295722],[13.044607,41.227525],[12.893565,41.399319],[12.653982,41.465644],[12.635265,41.447496],[12.448009,41.630764],[12.223481,41.750678],[12.170177,41.879584],[12.020356,41.993069],[11.822113,42.04678],[11.658214,42.279364],[11.376638,42.406887],[11.227387,42.422187],[11.164724,42.36933],[11.106619,42.391262],[11.099132,42.442857],[11.179692,42.456498],[11.166026,42.54621],[10.943614,42.742987],[10.731293,42.804429],[10.766368,42.854193],[10.76352,42.91828],[10.632498,42.958482],[10.499522,42.940497],[10.47755,42.990058],[10.539073,43.079413],[10.528168,43.246772],[10.437022,43.388577],[10.326345,43.476874],[10.251638,43.846625],[10.105805,44.01675],[9.844737,44.108629],[9.833263,44.052069],[9.230642,44.353705],[9.210704,44.305325],[9.102061,44.373969],[8.76238,44.432115],[8.466075,44.304267],[8.394542,44.182359],[8.256521,44.128363],[8.15268,43.983222],[8.167979,43.962633],[8.055675,43.892076],[7.736583,43.798245],[7.502289,43.792222],[7.477869,43.865515],[7.689949,44.067337],[7.64189,44.14356],[7.655636,44.176064],[7.340616,44.123664],[6.973403,44.249445],[6.873978,44.358379],[6.877182,44.414396],[6.9178,44.436307],[6.835737,44.534027],[6.897336,44.57542],[6.959864,44.683165],[7.037275,44.684612],[7.005856,44.816335],[6.982808,44.846979],[6.86602,44.855661],[6.745407,44.907803],[6.723496,45.013378],[6.662208,45.029242],[6.602728,45.10345],[6.72887,45.154609],[6.844109,45.130115],[7.108382,45.259202],[7.092569,45.323953],[7.160679,45.410924],[6.982808,45.511125],[6.963378,45.640729],[6.8161,45.69685],[6.784681,45.759585],[6.800804,45.826455],[6.949012,45.857822],[7.022083,45.92526]],[[12.42945,43.892056],[12.478287,43.917038],[12.489188,43.97311],[12.395654,43.948409],[12.385629,43.924534],[12.42945,43.892056]],[[12.453137,41.902752],[12.453983,41.903862],[12.453031,41.903915],[12.453137,41.902752]]],[[[11.999522,36.835924],[12.051524,36.790351],[12.03061,36.74136],[11.924978,36.811957],[11.999522,36.835924]]],[[[12.273204,37.939521],[12.354666,37.926988],[12.299653,37.919257],[12.273204,37.939521]]],[[[15.528656,38.302639],[15.651622,38.275295],[15.583751,38.240424],[15.500336,38.084947],[15.213064,37.761461],[15.163829,37.567694],[15.09669,37.494452],[15.103526,37.329779],[15.251964,37.257717],[15.261241,37.233832],[15.205414,37.244696],[15.183442,37.207465],[15.216482,37.155219],[15.247569,37.158677],[15.246593,37.118232],[15.307872,37.086656],[15.281993,37.060858],[15.329438,37.027737],[15.158376,36.924221],[15.094005,36.799547],[15.134939,36.68769],[15.093923,36.654934],[15.021007,36.699368],[14.882172,36.730658],[14.780772,36.699368],[14.487315,36.793362],[14.394542,36.945014],[14.278819,37.044013],[14.126313,37.11225],[13.894379,37.100816],[13.715831,37.171373],[13.569184,37.273505],[13.452647,37.298814],[13.289236,37.389146],[13.179373,37.483832],[13.026378,37.493232],[12.942638,37.568508],[12.659353,37.565131],[12.57781,37.652004],[12.489024,37.682685],[12.427419,37.809272],[12.46046,37.819037],[12.504161,38.011217],[12.576345,38.071723],[12.725352,38.125922],[12.731781,38.192776],[12.81837,38.077948],[12.901134,38.028062],[13.061371,38.083482],[13.056814,38.132717],[13.100922,38.19009],[13.207205,38.176093],[13.318126,38.220649],[13.391368,38.103176],[13.51352,38.110541],[13.557465,38.04914],[13.651134,38.000963],[13.790782,37.973619],[14.007172,38.038275],[14.273204,38.015123],[14.511729,38.044379],[14.634613,38.081488],[14.733735,38.15762],[14.897472,38.18594],[15.087901,38.128241],[15.177419,38.156317],[15.240733,38.261664],[15.257579,38.210191],[15.321056,38.210883],[15.528656,38.302639]]],[[[14.966319,38.432929],[14.998546,38.371039],[14.948253,38.39643],[14.966319,38.432929]]],[[[14.907725,38.473944],[14.924815,38.522366],[14.97934,38.487535],[14.948741,38.450914],[14.907725,38.473944]]],[[[14.863292,38.549018],[14.793793,38.571601],[14.85141,38.584906],[14.863292,38.549018]]],[[[8.455903,39.073554],[8.47641,39.06977],[8.437022,38.96719],[8.409841,38.961819],[8.349294,39.062161],[8.360362,39.11815],[8.444591,39.102729],[8.455903,39.073554]]],[[[8.305837,39.193305],[8.312022,39.120307],[8.269379,39.100165],[8.229991,39.172797],[8.305837,39.193305]]],[[[13.944672,40.701606],[13.890147,40.694159],[13.85613,40.734849],[13.9463,40.745185],[13.944672,40.701606]]],[[[8.27475,41.057278],[8.24643,40.993638],[8.209646,40.995795],[8.277843,41.105658],[8.326182,41.126125],[8.332367,41.064643],[8.27475,41.057278]]],[[[9.792247,40.556952],[9.820567,40.536363],[9.808767,40.470771],[9.62615,40.263088],[9.654633,40.144599],[9.73227,40.08393],[9.687266,39.961168],[9.715668,39.940131],[9.684337,39.894232],[9.644867,39.483954],[9.602061,39.355658],[9.634613,39.303168],[9.567556,39.238105],[9.557791,39.139716],[9.518565,39.10456],[9.450369,39.124416],[9.292166,39.221259],[9.216319,39.228013],[9.166026,39.187079],[9.024425,39.264838],[9.037852,39.227118],[9.074962,39.229885],[9.018321,39.146145],[9.044932,39.051256],[9.018321,38.995307],[8.853282,38.877997],[8.716563,38.932603],[8.634776,38.871161],[8.559581,39.056708],[8.482758,39.08039],[8.372813,39.222073],[8.426443,39.283271],[8.374034,39.378852],[8.40504,39.427191],[8.389496,39.462348],[8.46339,39.57685],[8.444021,39.757025],[8.565766,39.701077],[8.506847,39.738471],[8.555186,39.852688],[8.523448,39.898871],[8.463064,39.91413],[8.435395,39.858059],[8.393565,39.920478],[8.394542,40.0362],[8.459727,40.057318],[8.490001,40.104478],[8.459646,40.21601],[8.476085,40.292141],[8.385997,40.351793],[8.379893,40.468695],[8.291515,40.595364],[8.216319,40.570624],[8.19337,40.617499],[8.161794,40.563788],[8.147309,40.593207],[8.188487,40.680487],[8.1338,40.728909],[8.216319,40.899604],[8.193044,40.963772],[8.229015,40.962551],[8.233165,40.910102],[8.310232,40.850653],[8.500987,40.824449],[8.709158,40.92064],[8.764415,40.913804],[9.005544,41.121894],[9.157563,41.168891],[9.189952,41.251125],[9.257823,41.249661],[9.267426,41.201972],[9.278331,41.221747],[9.412283,41.180732],[9.442882,41.091986],[9.469086,41.146186],[9.559581,41.126125],[9.521251,41.031684],[9.662608,41.002631],[9.604259,41.002631],[9.566417,40.948635],[9.511892,40.934312],[9.573253,40.906399],[9.6421,40.92064],[9.623871,40.900702],[9.663259,40.858222],[9.723969,40.844916],[9.661794,40.809027],[9.792247,40.556952]]],[[[10.895844,42.386705],[10.923331,42.318728],[10.871702,42.354052],[10.895844,42.386705]]],[[[10.44337,42.845445],[10.388845,42.763495],[10.425141,42.74079],[10.415538,42.708889],[10.337901,42.764838],[10.235199,42.735907],[10.106781,42.757392],[10.132986,42.811916],[10.354666,42.808173],[10.412364,42.873358],[10.44337,42.845445]]],[[[9.840099,43.065172],[9.842127,43.024956],[9.801498,43.007805],[9.806944,43.066408],[9.840099,43.065172]]],[[[12.352061,45.405463],[12.430919,45.415676],[12.376231,45.422553],[12.321462,45.348009],[12.352061,45.405463]]],[[[12.859874,35.872219],[12.87672,35.855862],[12.856944,35.852281],[12.859874,35.872219]]],[[[14.346446,38.535142],[14.357188,38.551215],[14.36085,38.539049],[14.346446,38.535142]]],[[[14.57602,38.576646],[14.58546,38.55744],[14.551606,38.561591],[14.542491,38.586859],[14.57602,38.576646]]],[[[13.169281,38.717271],[13.195974,38.711493],[13.153494,38.69477],[13.169281,38.717271]]],[[[15.227794,38.810289],[15.217459,38.773017],[15.187022,38.789008],[15.227794,38.810289]]],[[[13.418956,40.7956],[13.431977,40.801459],[13.414724,40.785875],[13.418956,40.7956]]],[[[12.621755,35.509752],[12.611095,35.489244],[12.536143,35.5126],[12.621755,35.509752]]],[[[12.072276,37.967922],[12.079275,37.950263],[12.030447,37.984361],[12.072276,37.967922]]],[[[9.474783,41.23607],[9.464366,41.172675],[9.447765,41.205064],[9.474783,41.23607]]],[[[9.430919,41.224799],[9.373057,41.22191],[9.40797,41.258124],[9.430919,41.224799]]],[[[10.297048,42.344875],[10.315929,42.340766],[10.313243,42.32392],[10.294444,42.32803],[10.297048,42.344875]]],[[[10.091645,42.595771],[10.095388,42.576972],[10.050304,42.581936],[10.091645,42.595771]]],[[[12.329845,45.458808],[12.36378,45.449652],[12.33725,45.427395],[12.329845,45.458808]]]]}}