{"type":"Feature","properties":{"iso3":"JAM","name":"Jamaica","continent":"Americas"},"geometry":{"type":"Polygon","coordinates":[[[-76.263743,18.012356],[-76.234039,17.953925],[-76.187978,17.915473],[-76.307362,17.870103],[-76.325185,17.874498],[-76.311513,17.894965],[-76.329579,17.888658],[-76.345611,17.865871],[-76.363026,17.860826],[-76.414906,17.877509],[-76.444936,17.866767],[-76.523549,17.860256],[-76.602773,17.867621],[-76.613149,17.874498],[-76.622711,17.905015],[-76.654775,17.929145],[-76.707672,17.94595],[-76.7801,17.934801],[-76.832265,17.936591],[-76.832265,17.943427],[-76.722401,17.949612],[-76.747467,17.963446],[-76.798164,17.96342],[-76.849967,17.992276],[-76.874005,17.950349],[-76.887156,17.951856],[-76.912828,17.861287],[-76.942128,17.833564],[-76.983062,17.846584],[-77.038319,17.846584],[-77.038319,17.85399],[-77.017201,17.860826],[-77.064198,17.899482],[-77.093007,17.902493],[-77.141652,17.881134],[-77.161977,17.840766],[-77.154408,17.813056],[-77.181711,17.799994],[-77.174916,17.778266],[-77.19636,17.783393],[-77.216461,17.772121],[-77.180328,17.75788],[-77.140736,17.765286],[-77.130605,17.727688],[-77.133656,17.710435],[-77.178944,17.704169],[-77.216054,17.716702],[-77.320872,17.812445],[-77.417714,17.861721],[-77.441029,17.864651],[-77.480621,17.843736],[-77.50182,17.841946],[-77.588368,17.860989],[-77.730702,17.854804],[-77.795562,17.891547],[-77.816151,17.939195],[-77.83967,17.949612],[-77.84557,18.017035],[-77.871002,18.025946],[-77.956288,18.032172],[-77.987864,18.095364],[-78.020579,18.113105],[-78.050282,18.185126],[-78.075185,18.198432],[-78.148793,18.196682],[-78.193756,18.203925],[-78.234039,18.193183],[-78.340728,18.221869],[-78.370269,18.248114],[-78.374664,18.26557],[-78.34732,18.292222],[-78.345815,18.335517],[-78.335439,18.36343],[-78.30663,18.374661],[-78.288401,18.394355],[-78.271637,18.389065],[-78.261301,18.417385],[-78.230621,18.444241],[-78.194976,18.455471],[-78.16926,18.436835],[-78.154408,18.453518],[-78.097239,18.443061],[-78.032541,18.450629],[-77.96996,18.443061],[-77.930287,18.502021],[-77.902333,18.518785],[-77.81607,18.523424],[-77.66454,18.491929],[-77.56725,18.49018],[-77.454986,18.475328],[-77.408274,18.457343],[-77.376536,18.465155],[-77.272613,18.459377],[-77.236318,18.450507],[-77.223297,18.429389],[-77.209625,18.436835],[-77.164947,18.429389],[-77.137359,18.408922],[-77.051991,18.416327],[-77.007314,18.402086],[-76.894919,18.409251],[-76.887827,18.400552],[-76.890948,18.376441],[-76.812754,18.32801],[-76.798329,18.29206],[-76.782826,18.277818],[-76.695709,18.26557],[-76.647328,18.23078],[-76.597158,18.227748],[-76.554799,18.204088],[-76.479726,18.204088],[-76.463002,18.182359],[-76.351145,18.155992],[-76.346262,18.135199],[-76.295806,18.079169],[-76.263743,18.012356]]]}}