{"type":"Feature","properties":{"iso3":"JOR","name":"Jordan","continent":"Asia"},"geometry":{"type":"Polygon","coordinates":[[[35.611758,32.6819],[35.635995,32.679143],[35.740175,32.740535],[35.769734,32.748054],[35.788234,32.734411],[35.895721,32.713276],[35.922489,32.693768],[35.940369,32.692502],[35.945743,32.684104],[35.941196,32.673536],[35.955355,32.657439],[36.003621,32.655088],[36.005998,32.607907],[36.06987,32.516595],[36.15586,32.5152],[36.177357,32.527318],[36.387887,32.379317],[36.463955,32.369395],[36.480181,32.360791],[36.653504,32.342859],[36.689574,32.319656],[36.728641,32.327795],[36.806569,32.313042],[38.056726,32.994344],[38.774511,33.371685],[39.057181,32.496596],[38.979977,32.476055],[39.028759,32.328338],[39.046329,32.308494],[39.235775,32.352858],[39.256342,32.342678],[39.291999,32.244519],[39.266471,32.212867],[39.146168,32.125844],[39.146375,32.118144],[39.116816,32.102899],[38.998064,32.006936],[38.96344,31.994482],[36.959532,31.490999],[37.480017,31.007256],[37.981071,30.499483],[37.647552,30.330863],[37.491696,30.011193],[37.470198,29.994553],[36.756237,29.865517],[36.728745,29.853528],[36.70487,29.831152],[36.477081,29.494609],[36.069457,29.200028],[36.016437,29.189951],[34.949385,29.351686],[34.962413,29.359768],[34.969005,29.450832],[34.997813,29.517971],[34.996837,29.533881],[34.955577,29.558987],[34.95986,29.586206],[34.989833,29.651964],[35.002545,29.733096],[35.048951,29.842314],[35.054118,29.923394],[35.086261,30.034034],[35.129049,30.089741],[35.145276,30.123382],[35.145276,30.154905],[35.124812,30.21609],[35.125225,30.244667],[35.141762,30.313965],[35.162122,30.361404],[35.140005,30.406155],[35.140005,30.430185],[35.205324,30.617099],[35.263821,30.71978],[35.279531,30.780241],[35.316635,30.822823],[35.322216,30.88995],[35.334928,30.912585],[35.385261,30.963279],[35.391565,31.023947],[35.438488,31.103736],[35.443242,31.132209],[35.436214,31.159546],[35.410686,31.204608],[35.3957,31.25768],[35.422261,31.303],[35.423915,31.324601],[35.416473,31.331835],[35.452854,31.400823],[35.464222,31.568565],[35.480139,31.641119],[35.527578,31.735067],[35.55941,31.765349],[35.538326,31.819299],[35.549075,31.839195],[35.524684,31.919241],[35.545871,31.944563],[35.524684,32.011691],[35.522824,32.057838],[35.528301,32.075098],[35.545148,32.086828],[35.535226,32.110806],[35.551969,32.135197],[35.546698,32.147031],[35.55941,32.155093],[35.555173,32.174394],[35.572536,32.237594],[35.55941,32.237594],[35.572536,32.251908],[35.560857,32.28263],[35.565612,32.313352],[35.556517,32.328209],[35.551969,32.374821],[35.565612,32.367948],[35.545148,32.409573],[35.5591,32.413966],[35.551969,32.429443],[35.55941,32.429443],[35.556207,32.434791],[35.565612,32.443706],[35.55941,32.450527],[35.572536,32.456728],[35.561271,32.477089],[35.579978,32.49148],[35.561374,32.519179],[35.551969,32.518817],[35.551969,32.525587],[35.565612,32.525587],[35.55941,32.55295],[35.565612,32.546102],[35.579978,32.560391],[35.565612,32.607546],[35.572536,32.62124],[35.564061,32.625477],[35.560547,32.640903],[35.611758,32.6819]]]}}