{"type":"Feature","properties":{"iso3":"JPN","name":"Japan","continent":"Asia"},"geometry":{"type":"MultiPolygon","coordinates":[[[[129.783214,31.799628],[129.798595,31.763658],[129.72934,31.644232],[129.695977,31.621447],[129.659374,31.641935],[129.783214,31.799628]]],[[[131.65979,32.47682],[131.689132,32.421737],[131.641368,32.399237],[131.59254,32.303656],[131.447276,31.876899],[131.455903,31.821974],[131.496349,31.795966],[131.455333,31.620917],[131.390798,31.548814],[131.338227,31.372626],[131.249848,31.388129],[131.200342,31.457373],[131.071788,31.449612],[131.013611,31.36307],[131.104015,31.328843],[131.092591,31.276051],[131.124747,31.288346],[131.06025,31.225315],[131.008159,31.221082],[130.956228,31.131171],[130.657722,31.003191],[130.663339,31.069506],[130.728689,31.111558],[130.764784,31.186509],[130.796646,31.325346],[130.747325,31.435492],[130.703417,31.459305],[130.705333,31.528754],[130.590889,31.585988],[130.687836,31.619452],[130.758637,31.563788],[130.810313,31.650946],[130.776378,31.710273],[130.644786,31.714748],[130.529145,31.513251],[130.520518,31.43244],[130.562673,31.334377],[130.66033,31.27143],[130.639822,31.186469],[130.586436,31.155422],[130.516856,31.175442],[130.451144,31.249388],[130.222205,31.2463],[130.207774,31.336615],[130.118988,31.408637],[130.244884,31.404853],[130.293268,31.444704],[130.334483,31.562405],[130.32545,31.642076],[130.171431,31.790137],[130.181,31.826972],[130.22283,31.824449],[130.220438,31.929595],[130.174106,31.998756],[130.204048,32.048285],[130.179861,32.093451],[130.248302,32.133734],[130.278656,32.100531],[130.319591,32.118232],[130.469574,32.347113],[130.503184,32.327216],[130.5713,32.45189],[130.550466,32.491685],[130.598806,32.505357],[130.570079,32.554592],[130.668305,32.648749],[130.448009,32.621405],[130.616466,32.703762],[130.605642,32.796454],[130.441254,32.923651],[130.41505,33.09162],[130.258149,33.178656],[130.127565,33.120937],[130.22231,32.975205],[130.188536,32.915321],[130.115408,32.880276],[130.153635,32.842457],[130.243588,32.875284],[130.33942,32.856579],[130.372244,32.793402],[130.360827,32.687963],[130.18148,32.592327],[130.128133,32.683871],[130.207585,32.752162],[130.190233,32.783482],[130.093789,32.79486],[129.97038,32.744563],[129.958508,32.764782],[129.894929,32.662689],[129.740351,32.568442],[129.85906,32.724514],[129.823795,32.721985],[129.63843,32.926546],[129.681612,33.094092],[129.755266,33.055216],[129.741664,32.991035],[129.766328,33.017954],[129.812308,32.994804],[129.789935,32.912245],[129.831586,32.850508],[129.883206,32.875693],[129.987878,32.841714],[129.985691,32.863087],[129.931224,32.928894],[129.945623,33.015758],[129.881444,33.062763],[129.83407,33.043135],[129.797515,33.077309],[129.74648,33.06559],[129.722856,33.158404],[129.680747,33.114879],[129.656098,33.184882],[129.564138,33.211127],[129.580413,33.371007],[129.644379,33.362372],[129.673185,33.398539],[129.701008,33.353007],[129.807465,33.348131],[129.837901,33.285386],[129.861863,33.390046],[129.797172,33.467582],[129.81844,33.484212],[129.871349,33.442939],[129.836835,33.513254],[129.854579,33.532854],[129.942149,33.531684],[129.975389,33.454143],[130.016856,33.445787],[130.044626,33.485741],[130.167979,33.534084],[130.098481,33.581692],[130.208011,33.665076],[130.285411,33.576972],[130.390866,33.604874],[130.398692,33.669135],[130.336168,33.647678],[130.294281,33.689239],[130.345498,33.662472],[130.444591,33.718207],[130.488943,33.855373],[130.756049,33.943681],[130.913585,33.891181],[131.007148,33.966055],[130.965994,33.813056],[131.006945,33.813088],[131.009776,33.746161],[131.102976,33.624253],[131.36762,33.574802],[131.417703,33.581682],[131.521045,33.676371],[131.667366,33.667192],[131.729538,33.580236],[131.737295,33.484608],[131.706243,33.409583],[131.64031,33.416571],[131.596234,33.3494],[131.506029,33.363074],[131.51038,33.273404],[131.822174,33.244032],[131.884449,33.268306],[131.809574,33.127649],[131.900401,33.129136],[131.880511,33.07504],[131.929217,33.068271],[131.934469,33.092018],[131.967133,33.061672],[131.996113,33.091711],[132.013438,33.06387],[131.94535,33.047499],[131.903168,32.983059],[131.959239,32.944525],[132.081189,32.94323],[131.994802,32.903551],[131.955577,32.827541],[131.997813,32.829657],[131.980724,32.799262],[131.882498,32.783433],[131.855925,32.686084],[131.80064,32.680833],[131.749034,32.594062],[131.708793,32.585903],[131.68214,32.535061],[131.736501,32.491685],[131.65979,32.47682]]],[[[134.689789,33.82807],[134.751231,33.834906],[134.579377,33.76417],[134.32626,33.580128],[134.244634,33.46075],[134.190255,33.248329],[134.106224,33.294332],[134.025536,33.4154],[133.925205,33.493693],[133.739397,33.537507],[133.607733,33.515825],[133.465909,33.454324],[133.439708,33.401679],[133.292247,33.364691],[133.254568,33.326239],[133.269379,33.252346],[133.217947,33.165839],[133.165033,33.1372],[133.098867,33.032648],[133.018259,33.024023],[133.001702,32.986957],[133.002452,32.86933],[132.961059,32.864101],[132.955477,32.814619],[133.027599,32.739651],[133.002208,32.711656],[132.91505,32.777981],[132.791515,32.740668],[132.711401,32.789525],[132.627661,32.752093],[132.623377,32.799496],[132.709158,32.90941],[132.524181,32.930243],[132.537852,32.895819],[132.504161,32.891669],[132.472272,32.933672],[132.501475,32.993232],[132.481408,33.023528],[132.419704,33.051922],[132.3967,33.016594],[132.407922,33.069329],[132.483165,33.067694],[132.449067,33.10871],[132.490082,33.132758],[132.450206,33.136664],[132.458607,33.173706],[132.394676,33.203895],[132.485702,33.169153],[132.541394,33.262558],[132.484735,33.290841],[132.52561,33.314664],[132.390274,33.316188],[132.421153,33.375556],[132.402354,33.362616],[132.381114,33.466051],[132.025487,33.344904],[132.09432,33.408487],[132.412364,33.53498],[132.500612,33.624998],[132.676606,33.715644],[132.71237,33.904549],[132.754937,33.91032],[132.769862,33.99627],[132.91911,34.068406],[132.906206,34.113165],[132.942384,34.141262],[133.127011,33.933291],[133.322608,33.990553],[133.510997,33.965237],[133.633962,34.060777],[133.648123,34.124661],[133.632986,34.19831],[133.55836,34.259467],[133.701427,34.231269],[133.937022,34.375067],[134.081309,34.347724],[134.143565,34.391791],[134.182628,34.32095],[134.212169,34.347235],[134.260427,34.334418],[134.257823,34.294176],[134.439767,34.208349],[134.607145,34.250845],[134.634302,34.165932],[134.599783,34.009467],[134.695963,33.951893],[134.690714,33.895734],[134.646251,33.853095],[134.717052,33.847968],[134.689789,33.82807]]],[[[133.121349,36.109768],[133.12322,36.062934],[133.079112,36.020941],[133.081309,36.080146],[133.121349,36.109768]]],[[[133.090587,36.117865],[133.113617,36.113511],[133.093272,36.109768],[133.090587,36.117865]]],[[[133.074229,36.127916],[133.044932,36.055121],[133.01002,36.081529],[132.981456,36.039862],[132.949392,36.061957],[133.074229,36.127916]]],[[[133.422211,34.445014],[133.295421,34.324897],[133.269786,34.322414],[133.304698,34.37759],[133.258474,34.38231],[133.276622,34.40176],[133.247325,34.4265],[133.185557,34.280504],[133.076427,34.259589],[133.072276,34.317532],[133.168468,34.355048],[133.093272,34.389797],[133.059093,34.332343],[132.853038,34.28734],[132.836192,34.311103],[132.756602,34.232327],[132.656261,34.199286],[132.544688,34.20425],[132.496837,34.362494],[132.346039,34.348822],[132.222504,34.238959],[132.243663,34.166938],[132.199067,34.064765],[132.213227,33.989651],[132.13559,33.938422],[132.150076,33.830146],[132.055919,33.777167],[132.113292,33.844875],[132.099457,33.87226],[131.852061,33.998358],[131.791352,33.964057],[131.777517,33.985745],[131.823904,34.020168],[131.741466,34.05622],[131.585134,34.026679],[131.578868,33.985745],[131.493012,34.028144],[131.402517,33.981391],[131.389903,34.03974],[131.272227,33.926825],[131.187022,33.932766],[131.103165,34.030217],[131.035595,34.047975],[130.926291,33.922691],[130.879405,33.937934],[130.912577,34.053342],[130.861583,34.112738],[130.920909,34.17064],[130.876231,34.270006],[130.889659,34.331204],[131.033607,34.381789],[130.9463,34.392401],[130.947765,34.418931],[130.976396,34.438967],[131.022634,34.409369],[131.133923,34.411562],[131.172699,34.367743],[131.192719,34.42475],[131.281214,34.407958],[131.229503,34.417711],[131.208995,34.36933],[131.414317,34.423977],[131.454763,34.51911],[131.536469,34.565619],[131.615242,34.664881],[131.858409,34.714504],[131.873758,34.759223],[132.236495,35.034818],[132.31685,35.062346],[132.467678,35.213148],[132.638679,35.294645],[132.674023,35.385425],[132.635359,35.440955],[132.969737,35.516995],[133.091345,35.587539],[133.308772,35.577189],[133.260509,35.509955],[133.38069,35.456415],[133.580182,35.533603],[133.731145,35.502907],[134.173662,35.536271],[134.536987,35.672203],[134.915704,35.644367],[135.210134,35.763373],[135.25066,35.757815],[135.304047,35.68891],[135.188175,35.565045],[135.196041,35.539895],[135.235246,35.584548],[135.238739,35.542026],[135.324436,35.524446],[135.319021,35.446967],[135.352518,35.486984],[135.394867,35.476467],[135.402354,35.507025],[135.337796,35.537478],[135.463222,35.603327],[135.45239,35.571781],[135.529552,35.492743],[135.648945,35.542834],[135.66977,35.534369],[135.634613,35.493557],[135.724431,35.490732],[135.748351,35.513719],[135.706093,35.562095],[135.738446,35.570531],[135.834321,35.534369],[135.801502,35.568003],[135.854747,35.579047],[135.816018,35.630856],[135.971053,35.625981],[135.956005,35.728325],[136.019705,35.765347],[136.046847,35.703722],[136.027006,35.680947],[136.069114,35.66188],[136.099864,35.759833],[135.993454,35.885142],[135.963217,35.999923],[136.134845,36.224552],[136.119422,36.246444],[136.196738,36.264362],[136.382293,36.391071],[136.689685,36.730827],[136.760555,36.870599],[136.767613,36.980999],[136.718413,37.076261],[136.726736,37.126614],[136.676444,37.137401],[136.674473,37.175472],[136.726145,37.26964],[136.721531,37.32533],[136.783767,37.373892],[136.934766,37.399457],[137.255491,37.524594],[137.340966,37.517094],[137.351205,37.445676],[137.245983,37.413556],[137.255821,37.31526],[137.108721,37.28345],[137.014171,37.184882],[136.930431,37.221625],[136.868671,37.110912],[136.874685,37.069648],[136.914236,37.082424],[136.963227,37.051744],[137.04713,37.098822],[137.054446,36.96675],[136.987742,36.871022],[137.005544,36.835924],[137.156993,36.76081],[137.298673,36.757009],[137.383606,36.800145],[137.447602,36.933539],[137.896739,37.057522],[138.097502,37.171059],[138.244895,37.183789],[138.550629,37.377916],[138.746593,37.596869],[138.857677,37.827826],[139.059881,37.945942],[139.215943,37.989934],[139.425141,38.151272],[139.492686,38.454169],[139.599215,38.648254],[139.773844,38.817117],[139.916843,39.262499],[139.99531,39.327329],[140.048577,39.50467],[140.059296,39.727492],[140.027599,39.82453],[139.966482,39.880072],[139.921397,39.898505],[139.760102,39.858059],[139.697731,39.988566],[139.822113,39.961086],[139.904193,40.017695],[139.978038,40.125474],[140.024263,40.355016],[139.946056,40.41885],[139.928503,40.57097],[139.856781,40.590155],[139.998156,40.742104],[140.045977,40.76777],[140.122359,40.744766],[140.270763,40.812405],[140.321922,41.027445],[140.382335,40.988267],[140.396511,41.027013],[140.326905,41.041187],[140.300162,41.111277],[140.248095,41.123361],[140.320433,41.14978],[140.338221,41.258896],[140.462248,41.183887],[140.548598,41.226243],[140.632702,41.194258],[140.641287,41.04149],[140.703122,40.853292],[140.799223,40.839081],[140.852068,40.883849],[140.870726,40.915135],[140.847246,40.947608],[140.902885,41.008996],[140.981402,40.959769],[140.975066,40.937755],[141.111346,40.872633],[141.185249,40.911215],[141.277882,41.15533],[141.205911,41.26472],[141.161232,41.278467],[141.113372,41.214363],[141.034135,41.185861],[140.977562,41.196478],[140.814525,41.128462],[140.765796,41.145019],[140.803148,41.329544],[140.913572,41.546857],[141.276096,41.353196],[141.463442,41.403817],[141.390817,41.161011],[141.390262,40.933933],[141.437387,40.670141],[141.482412,40.574069],[141.519696,40.537986],[141.57555,40.542279],[141.681,40.450995],[141.830414,40.251166],[141.810232,40.192776],[141.877208,40.139309],[141.842459,40.07038],[141.955333,39.974921],[141.945079,39.931301],[142.0088,39.752753],[141.966319,39.598456],[142.036143,39.638983],[142.027354,39.594713],[142.069347,39.540473],[141.966319,39.47134],[141.970876,39.443264],[142.050629,39.476996],[142.038097,39.424018],[141.950206,39.391547],[141.964122,39.375556],[141.905284,39.330471],[141.983653,39.327135],[141.914887,39.294867],[141.932628,39.275214],[141.899099,39.248521],[141.949229,39.228013],[141.878673,39.207587],[141.915782,39.169989],[141.843761,39.15233],[141.908865,39.109768],[141.817149,39.090888],[141.859711,39.07331],[141.848155,39.035102],[141.727712,39.036282],[141.74822,38.98786],[141.717133,38.946845],[141.673106,38.981024],[141.693614,38.995307],[141.651052,38.996812],[141.673595,38.851955],[141.6421,38.888495],[141.588552,38.882229],[141.589366,38.826077],[141.530528,38.780829],[141.566417,38.703559],[141.463064,38.661363],[141.532237,38.638414],[141.467052,38.569525],[141.542247,38.533433],[141.542817,38.481391],[141.514822,38.508043],[141.477224,38.418443],[141.549083,38.385159],[141.501231,38.371527],[141.542817,38.302639],[141.525401,38.267808],[141.425548,38.343573],[141.439708,38.371527],[141.304454,38.407904],[141.202403,38.38581],[141.174978,38.324368],[141.131847,38.371527],[141.079438,38.360907],[141.048676,38.309475],[141.080577,38.294908],[140.966807,38.170478],[140.91977,37.965155],[141.021983,37.706732],[141.04184,37.377143],[141.007823,37.133857],[140.960297,36.966213],[140.835216,36.908433],[140.75172,36.785061],[140.623546,36.50609],[140.616873,36.337795],[140.564107,36.283096],[140.57838,36.160956],[140.646034,36.01332],[140.868762,35.696754],[140.661056,35.688635],[140.483467,35.565991],[140.385919,35.380999],[140.413097,35.301215],[140.37763,35.176357],[140.348935,35.180516],[140.321214,35.130394],[140.134603,35.122645],[139.990968,35.020502],[139.926396,34.907357],[139.8431,34.899982],[139.756994,34.956284],[139.867686,35.013332],[139.835785,35.027248],[139.818974,35.157663],[139.866327,35.246205],[139.849334,35.293554],[139.782153,35.314177],[139.892743,35.364184],[139.900121,35.423104],[140.097822,35.555322],[139.983614,35.668645],[139.920532,35.662067],[139.939579,35.636891],[139.912071,35.624087],[139.774855,35.617637],[139.775625,35.641104],[139.788097,35.513251],[139.642302,35.454261],[139.68686,35.400702],[139.642142,35.388481],[139.657505,35.286647],[139.734228,35.265203],[139.728025,35.207084],[139.666456,35.193893],[139.685069,35.140448],[139.616285,35.134002],[139.601793,35.201835],[139.623959,35.211617],[139.544178,35.307893],[139.414856,35.318815],[139.183538,35.263267],[139.145957,35.235227],[139.158051,35.136461],[139.120771,35.150257],[139.076732,35.075094],[139.105968,35.049384],[139.100603,34.974755],[139.142589,34.942288],[139.14088,34.870551],[138.998759,34.733284],[138.982432,34.644477],[138.940826,34.661107],[138.835297,34.595893],[138.745942,34.709174],[138.774262,34.751288],[138.748127,34.813209],[138.762996,34.893987],[138.789806,34.906806],[138.761894,34.979903],[138.78609,35.026439],[138.893809,35.020006],[138.803332,35.121909],[138.696186,35.138976],[138.554082,35.096069],[138.497883,35.03257],[138.514293,34.980178],[138.367108,34.917309],[138.328298,34.855292],[138.340831,34.826483],[138.215989,34.712283],[138.193614,34.641506],[138.240328,34.602561],[138.190176,34.601228],[137.967585,34.66654],[137.792166,34.63939],[137.546998,34.677289],[137.016095,34.578785],[137.07283,34.664599],[137.101085,34.639146],[137.167654,34.656684],[137.282255,34.731179],[137.299671,34.706847],[137.33259,34.720338],[137.320815,34.755252],[137.297928,34.797191],[137.222827,34.816263],[137.170839,34.763865],[137.140533,34.787813],[137.028817,34.780157],[136.962404,34.857996],[136.978852,34.924221],[136.915564,34.77596],[136.971857,34.713404],[136.945392,34.698471],[136.855968,34.739814],[136.864734,34.821545],[136.827726,34.871941],[136.823465,34.954855],[136.882796,35.071048],[136.871821,35.093395],[136.848865,35.039469],[136.830118,35.078831],[136.839327,35.03252],[136.725597,35.027248],[136.65919,34.983954],[136.639316,34.889049],[136.53494,34.765695],[136.519542,34.680854],[136.568126,34.596381],[136.852306,34.485541],[136.924327,34.423977],[136.916759,34.376166],[136.875255,34.36933],[136.895681,34.266913],[136.7942,34.253119],[136.787934,34.277411],[136.8296,34.266547],[136.856212,34.294176],[136.702647,34.295152],[136.723399,34.331285],[136.67628,34.326402],[136.622895,34.274604],[136.532888,34.271674],[136.514822,34.229804],[136.336681,34.184027],[136.299001,34.154283],[136.308442,34.090033],[136.230235,34.082099],[136.275401,33.979967],[136.204845,33.971422],[136.228526,33.938381],[136.104744,33.891411],[135.937067,33.617473],[135.959871,33.593088],[135.809184,33.505037],[135.772024,33.444919],[135.770752,33.468229],[135.444835,33.550849],[135.327695,33.671193],[135.402354,33.701117],[135.232583,33.781998],[135.152758,33.875854],[135.065454,33.885572],[135.091998,33.992036],[135.162771,34.03974],[135.111095,34.065741],[135.114919,34.101793],[135.187022,34.135932],[135.135427,34.227688],[135.061044,34.267275],[135.105031,34.318117],[135.208985,34.342278],[135.372562,34.484513],[135.408324,34.540975],[135.412934,34.692084],[135.286863,34.705443],[135.253605,34.676998],[135.25489,34.70091],[135.220067,34.690774],[135.242349,34.650752],[135.204403,34.677261],[135.045769,34.624967],[134.744395,34.766547],[134.524913,34.760647],[134.491222,34.787055],[134.431407,34.730455],[134.368419,34.735989],[134.326671,34.704332],[134.220714,34.728461],[134.278819,34.698228],[134.170665,34.645982],[134.189464,34.636868],[134.14796,34.596991],[134.083669,34.581529],[133.994395,34.60871],[133.925141,34.577867],[133.942556,34.555121],[133.98406,34.589057],[134.046153,34.581529],[133.93629,34.451239],[133.794444,34.442939],[133.699962,34.525946],[133.470063,34.423977],[133.522472,34.483059],[133.430349,34.472968],[133.422211,34.445014]]],[[[143.896495,44.158149],[143.957205,44.152004],[143.813731,44.168402],[143.896495,44.158149]]],[[[145.767426,43.387274],[145.813243,43.378607],[145.621349,43.303412],[145.5171,43.174994],[145.302501,43.173489],[145.154063,43.13227],[145.122732,43.088202],[145.152192,43.084621],[145.099294,43.044623],[145.003103,43.044623],[145.023692,42.996283],[145.000173,42.986151],[144.868826,42.988471],[144.798676,43.046698],[144.735606,42.979478],[144.783458,42.93476],[144.741954,42.924221],[144.464854,42.937079],[144.323009,43.002631],[144.042003,42.926581],[143.886404,42.844184],[143.575206,42.603339],[143.348969,42.319159],[143.331065,42.10692],[143.226085,41.932278],[142.959727,42.105373],[142.459972,42.271308],[142.167752,42.459859],[142.06258,42.470728],[141.817149,42.599595],[141.636485,42.61579],[141.427745,42.564399],[140.964692,42.300482],[140.931651,42.328762],[140.97462,42.346625],[140.733653,42.564154],[140.500662,42.579169],[140.417003,42.538153],[140.32545,42.432807],[140.288585,42.350165],[140.291759,42.259589],[140.530284,42.111762],[140.713552,42.13349],[140.974294,41.913764],[141.106944,41.871772],[141.199962,41.799465],[141.006358,41.712144],[140.823985,41.770697],[140.708018,41.745551],[140.733409,41.793647],[140.660411,41.827135],[140.604259,41.736274],[140.470063,41.687201],[140.433279,41.64468],[140.432384,41.530829],[140.274669,41.482367],[140.185069,41.403795],[140.038259,41.442572],[139.979828,41.581732],[140.083018,41.800767],[140.12672,41.814032],[140.138438,41.967515],[140.061046,42.080024],[139.79835,42.235907],[139.767589,42.310981],[139.836762,42.423896],[139.832774,42.588813],[139.876964,42.663398],[140.037852,42.686021],[140.200369,42.814276],[140.281505,42.75727],[140.377126,42.893785],[140.521169,42.996283],[140.43922,43.134019],[140.338064,43.210517],[140.360118,43.325181],[140.43393,43.328437],[140.487153,43.372382],[140.809906,43.19245],[141.011241,43.22899],[141.021983,43.174994],[141.187266,43.141506],[141.303966,43.197252],[141.42335,43.317857],[141.439708,43.407782],[141.359874,43.523586],[141.391368,43.579088],[141.337413,43.712836],[141.38502,43.791327],[141.528168,43.841213],[141.640636,43.937934],[141.670177,44.066636],[141.655447,44.276923],[141.747244,44.424221],[141.796072,44.64175],[141.753591,44.885443],[141.586436,45.164374],[141.583751,45.251166],[141.649181,45.34101],[141.639415,45.421129],[141.665701,45.450426],[141.704438,45.402086],[141.823253,45.422553],[141.919444,45.515855],[142.221202,45.299628],[142.539317,45.018459],[142.630707,44.883734],[142.981456,44.586493],[143.340099,44.386542],[143.396495,44.322943],[143.776622,44.189276],[143.695323,44.189846],[143.728282,44.113471],[143.929698,44.098944],[143.999197,44.133979],[144.119314,44.129055],[144.171723,44.106024],[144.105479,44.031562],[144.138357,44.020697],[144.242931,44.119208],[144.268321,44.049384],[144.379405,43.956488],[144.740489,43.914618],[144.831228,43.942206],[145.201671,44.205797],[145.341482,44.345526],[145.371837,44.248765],[145.144298,43.952948],[145.072276,43.761542],[145.218516,43.589667],[145.311697,43.366767],[145.393565,43.305365],[145.27003,43.346381],[145.258311,43.327094],[145.321625,43.276272],[145.5171,43.22899],[145.496593,43.270575],[145.582286,43.335761],[145.661632,43.379828],[145.767426,43.387274]]],[[[123.814708,24.39175],[123.934418,24.367499],[123.873057,24.258246],[123.683442,24.285305],[123.683767,24.323472],[123.748057,24.329576],[123.776866,24.419745],[123.814708,24.39175]]],[[[123.002615,24.474311],[122.998383,24.439521],[122.94752,24.439521],[122.944591,24.466254],[123.002615,24.474311]]],[[[124.329112,24.583564],[124.241873,24.363715],[124.14031,24.341986],[124.143077,24.384914],[124.077891,24.428453],[124.112315,24.463365],[124.211925,24.446967],[124.329112,24.583564]]],[[[141.357758,24.789618],[141.302582,24.734361],[141.29949,24.785875],[141.357758,24.789618]]],[[[125.387218,24.782172],[125.444835,24.756741],[125.3838,24.726955],[125.2588,24.733385],[125.260265,24.885199],[125.387218,24.782172]]],[[[131.255138,25.874986],[131.27711,25.858385],[131.259288,25.837226],[131.212087,25.829047],[131.255138,25.874986]]],[[[126.810069,26.351874],[126.78891,26.303453],[126.697765,26.369045],[126.752126,26.390692],[126.810069,26.351874]]],[[[142.193207,26.646064],[142.175059,26.630072],[142.139008,26.662502],[142.111339,26.721177],[142.193207,26.646064]]],[[[128.337657,26.796942],[128.308116,26.700873],[128.243337,26.633287],[128.151622,26.612454],[128.145193,26.564114],[128.036388,26.52733],[127.947276,26.451158],[127.838878,26.425238],[127.910167,26.323065],[127.840831,26.32392],[127.777517,26.233344],[127.768403,26.197659],[127.823578,26.186754],[127.796886,26.139716],[127.725352,26.089586],[127.651703,26.084377],[127.638194,26.214748],[127.739106,26.309231],[127.722504,26.429918],[127.805186,26.447577],[127.960216,26.564114],[127.955903,26.594794],[127.894298,26.60928],[127.87794,26.686591],[127.987315,26.692939],[128.004405,26.634752],[128.057384,26.644761],[128.225922,26.800971],[128.255056,26.886298],[128.337657,26.796942]]],[[[142.193207,27.091742],[142.241059,27.084296],[142.23463,27.050035],[142.198578,27.051093],[142.193207,27.091742]]],[[[128.700694,27.45482],[128.604747,27.361802],[128.526866,27.371894],[128.538422,27.417629],[128.700694,27.45482]]],[[[128.98878,27.811103],[129.029633,27.773261],[128.989513,27.707465],[128.929454,27.686713],[128.894542,27.728217],[128.894542,27.891303],[128.947032,27.91413],[128.98878,27.811103]]],[[[129.296641,28.119574],[129.350434,28.086493],[129.230642,28.096666],[129.195811,28.195461],[129.269298,28.174872],[129.264171,28.134711],[129.296641,28.119574]]],[[[130.030284,28.373481],[129.978201,28.283759],[129.913585,28.297105],[130.030284,28.373481]]],[[[129.70753,28.462144],[129.708507,28.428778],[129.619314,28.400784],[129.498871,28.287502],[129.461192,28.291693],[129.430431,28.254096],[129.456879,28.225735],[129.401541,28.163316],[129.351817,28.160549],[129.375987,28.119574],[129.286632,28.177924],[129.269298,28.229438],[129.145763,28.249945],[129.270844,28.255357],[129.290375,28.284084],[129.227712,28.304592],[129.252452,28.321519],[129.413341,28.393297],[129.516368,28.393297],[129.626231,28.482733],[129.632498,28.434882],[129.667247,28.502997],[129.70753,28.462144]]],[[[129.714854,29.654527],[129.745942,29.661038],[129.721039,29.606147],[129.714854,29.654527]]],[[[129.893565,29.874742],[129.927257,29.825873],[129.863402,29.824607],[129.832772,29.873078],[129.893565,29.874742]]],[[[130.674571,30.374579],[130.603751,30.252469],[130.485977,30.225777],[130.437713,30.23897],[130.376247,30.394436],[130.488345,30.457026],[130.674571,30.374579]]],[[[131.052013,30.840237],[131.087934,30.782606],[131.057615,30.611269],[130.966961,30.4794],[130.963282,30.386144],[130.870381,30.343904],[130.849382,30.461264],[130.930221,30.54086],[130.952797,30.685496],[131.052013,30.840237]]],[[[130.153087,32.203762],[130.194102,32.176418],[130.149262,32.1105],[130.111095,32.193305],[130.153087,32.203762]]],[[[130.410004,32.511623],[130.468516,32.511623],[130.362315,32.374986],[130.358653,32.412909],[130.241954,32.395494],[130.22169,32.421861],[130.213634,32.450426],[130.290294,32.497952],[130.363048,32.527086],[130.410004,32.511623]]],[[[130.160492,32.546332],[130.198985,32.48017],[130.205577,32.346625],[130.011974,32.190619],[130.009125,32.252143],[129.958344,32.237535],[129.965343,32.258205],[130.064301,32.306789],[129.979747,32.332994],[130.030284,32.482408],[130.00294,32.533352],[130.160492,32.546332]]],[[[128.878427,32.673925],[128.893712,32.657618],[128.857899,32.643409],[128.793224,32.652493],[128.77311,32.571666],[128.603819,32.630598],[128.65268,32.667914],[128.660818,32.782782],[128.699653,32.743771],[128.80849,32.799908],[128.878427,32.673925]]],[[[139.791026,33.135321],[139.877452,33.087592],[139.845225,33.04678],[139.787608,33.058417],[139.743419,33.118598],[139.750824,33.14525],[139.791026,33.135321]]],[[[129.097992,32.988267],[129.169628,33.005817],[129.182807,32.984686],[129.100352,32.919013],[129.064952,32.817816],[129.033051,32.933336],[128.98878,32.944159],[129.054454,32.979315],[129.048622,33.039603],[129.067645,33.019116],[129.084321,33.043199],[129.10818,33.166688],[129.097992,32.988267]]],[[[129.555684,33.410805],[129.562163,33.366394],[129.493095,33.245163],[129.412591,33.178318],[129.342501,33.17962],[129.349869,33.213468],[129.406505,33.194037],[129.382005,33.22892],[129.416769,33.23693],[129.442663,33.348066],[129.522916,33.368377],[129.555684,33.410805]]],[[[132.243663,33.79328],[132.274099,33.772203],[132.204438,33.782131],[132.243663,33.79328]]],[[[129.776378,33.773424],[129.799571,33.764838],[129.783865,33.738186],[129.735064,33.736739],[129.71046,33.700832],[129.657127,33.742555],[129.688648,33.871146],[129.767263,33.84455],[129.796886,33.786444],[129.776378,33.773424]]],[[[132.236176,33.869045],[132.216319,33.855373],[132.19337,33.89765],[132.201915,33.94477],[132.27947,33.94123],[132.326182,33.896308],[132.453949,33.937567],[132.394542,33.899319],[132.374034,33.841702],[132.318614,33.883287],[132.236176,33.869045]]],[[[139.487071,34.060777],[139.523448,34.112372],[139.575043,34.090033],[139.534516,34.037543],[139.487071,34.060777]]],[[[132.555186,34.071357],[132.455333,34.088121],[132.519298,34.174384],[132.543305,34.176703],[132.551524,34.108588],[132.577647,34.118883],[132.555186,34.071357]]],[[[132.999475,34.208377],[132.963878,34.191881],[132.98878,34.273017],[133.03004,34.295315],[133.051768,34.222317],[132.999475,34.208377]]],[[[129.312528,34.279756],[129.342583,34.293052],[129.283519,34.146005],[129.2318,34.094814],[129.171634,34.106807],[129.198535,34.316228],[129.225245,34.327403],[129.224053,34.293443],[129.302462,34.307787],[129.312528,34.279756]]],[[[139.270356,34.395982],[139.291515,34.414537],[139.267833,34.322699],[139.270356,34.395982]]],[[[135.002682,34.608423],[135.018413,34.566048],[134.902973,34.419006],[134.937984,34.262755],[134.728677,34.190939],[134.657169,34.288204],[134.68326,34.328226],[135.002682,34.608423]]],[[[129.452647,34.619452],[129.478201,34.597113],[129.464241,34.554274],[129.361831,34.405486],[129.393181,34.4108],[129.407969,34.35158],[129.343833,34.300314],[129.305464,34.324875],[129.345064,34.327244],[129.347003,34.355852],[129.316204,34.342496],[129.309322,34.384402],[129.286359,34.344008],[129.235384,34.368132],[129.310867,34.460511],[129.280734,34.450647],[129.326119,34.535439],[129.289107,34.569867],[129.3233,34.648072],[129.45062,34.701002],[129.487751,34.676397],[129.488278,34.635678],[129.452647,34.619452]]],[[[139.418224,34.780829],[139.456716,34.737128],[139.442719,34.676703],[139.359353,34.702299],[139.356465,34.797229],[139.418224,34.780829]]],[[[133.012462,36.014797],[133.066661,36.006537],[133.027843,35.993638],[133.012462,36.014797]]],[[[133.367035,36.274237],[133.379242,36.208238],[133.32602,36.191636],[133.32602,36.158149],[133.256358,36.164984],[133.187755,36.216132],[133.209483,36.297187],[133.292003,36.342475],[133.367035,36.274237]]],[[[138.459239,38.069892],[138.575206,38.074286],[138.500499,37.906684],[138.370372,37.828762],[138.222667,37.802232],[138.330821,37.95189],[138.314789,37.997463],[138.247895,37.978502],[138.242198,38.071479],[138.310069,38.168118],[138.514171,38.323065],[138.437511,38.063788],[138.459239,38.069892]]],[[[139.548513,42.243354],[139.508962,42.100816],[139.455333,42.051581],[139.414317,42.172512],[139.437022,42.207221],[139.548513,42.243354]]],[[[145.311534,43.593329],[145.362804,43.554877],[145.273204,43.522366],[145.318696,43.557766],[145.202403,43.613837],[145.311534,43.593329]]],[[[144.448253,43.942206],[144.455089,43.942206],[144.448985,43.942043],[144.448253,43.942206]]],[[[141.327159,45.172349],[141.310069,45.124579],[141.235362,45.102484],[141.150076,45.147121],[141.131847,45.210273],[141.202647,45.249091],[141.327159,45.172349]]],[[[141.052745,45.450426],[141.073578,45.424709],[141.035655,45.264879],[140.966807,45.463446],[141.052745,45.450426]]],[[[140.869965,27.218248],[140.867931,27.233954],[140.878184,27.232611],[140.869965,27.218248]]],[[[127.809825,26.735419],[127.811209,26.706977],[127.758556,26.712877],[127.809825,26.735419]]],[[[127.995372,27.091742],[127.975759,27.03974],[127.925792,27.009752],[127.995372,27.091742]]],[[[130.220063,30.471584],[130.262144,30.447032],[130.212468,30.420691],[130.141766,30.489301],[130.220063,30.471584]]],[[[134.367361,34.554267],[134.346934,34.430813],[134.320649,34.46894],[134.244395,34.417711],[134.223399,34.472357],[134.161388,34.479193],[134.175059,34.520087],[134.367361,34.554267]]],[[[141.452973,24.222398],[141.469981,24.226264],[141.467947,24.213772],[141.452973,24.222398]]],[[[153.972992,24.2897],[153.981212,24.295356],[153.983653,24.282945],[153.972992,24.2897]]],[[[141.287446,25.417711],[141.270518,25.440375],[141.288259,25.452541],[141.287446,25.417711]]],[[[131.289724,25.951361],[131.3213,25.947699],[131.322276,25.927069],[131.289724,25.951361]]],[[[127.222179,26.598944],[127.242361,26.596747],[127.227061,26.579535],[127.222179,26.598944]]],[[[128.454356,27.047512],[128.448578,27.020697],[128.396251,27.049018],[128.454356,27.047512]]],[[[142.18922,27.145494],[142.190929,27.185207],[142.204112,27.173896],[142.18922,27.145494]]],[[[142.195323,27.599107],[142.179454,27.612494],[142.192882,27.616197],[142.195323,27.599107]]],[[[142.080577,27.716946],[142.078624,27.72724],[142.085134,27.72606],[142.080577,27.716946]]],[[[128.236583,27.866523],[128.241547,27.845364],[128.23227,27.852851],[128.236583,27.866523]]],[[[129.591563,29.4501],[129.598155,29.472357],[129.615408,29.455227],[129.591563,29.4501]]],[[[129.52768,29.90233],[129.550141,29.903876],[129.539887,29.889879],[129.52768,29.90233]]],[[[129.943696,29.965277],[129.903087,29.970852],[129.912364,29.991889],[129.943696,29.965277]]],[[[140.307628,30.491156],[140.325938,30.485175],[140.306488,30.473619],[140.307628,30.491156]]],[[[129.428233,30.846422],[129.433849,30.84455],[129.429454,30.840888],[129.428233,30.846422]]],[[[129.9463,30.844713],[129.939464,30.813422],[129.911957,30.81977],[129.9463,30.844713]]],[[[140.043468,31.443101],[140.044444,31.445054],[140.045665,31.443305],[140.043468,31.443101]]],[[[140.04127,31.444159],[140.041352,31.446479],[140.043142,31.444566],[140.04127,31.444159]]],[[[139.756358,32.452297],[139.757091,32.470364],[139.773774,32.440985],[139.756358,32.452297]]],[[[139.299083,33.650092],[139.296153,33.651068],[139.299083,33.650702],[139.299083,33.650092]]],[[[139.622813,33.885565],[139.610199,33.852851],[139.581309,33.862535],[139.592459,33.895819],[139.622813,33.885565]]],[[[139.372895,41.522162],[139.345551,41.493354],[139.336436,41.5185],[139.372895,41.522162]]],[[[153.966238,24.308661],[153.953461,24.292507],[153.940684,24.311469],[153.966238,24.308661]]],[[[125.202891,24.846259],[125.217052,24.816596],[125.140147,24.816392],[125.163585,24.854641],[125.202891,24.846259]]],[[[127.36964,26.214586],[127.361095,26.164008],[127.346202,26.206366],[127.36964,26.214586]]],[[[142.105154,27.727037],[142.111664,27.725857],[142.107188,27.716742],[142.105154,27.727037]]],[[[129.93336,31.867825],[129.922211,31.81981],[129.889903,31.810736],[129.82309,31.863023],[129.93336,31.867825]]],[[[130.243907,32.301825],[130.266449,32.287055],[130.210704,32.255357],[130.243907,32.301825]]],[[[130.446788,32.596829],[130.450938,32.563422],[130.40919,32.549262],[130.413585,32.613593],[130.446788,32.596829]]],[[[132.562022,32.742133],[132.549653,32.704291],[132.543793,32.745592],[132.562022,32.742133]]],[[[128.89975,32.818305],[128.882335,32.765286],[128.847911,32.774888],[128.835948,32.818996],[128.89975,32.818305]]],[[[128.953136,32.874213],[128.923025,32.818061],[128.895763,32.856431],[128.953136,32.874213]]],[[[129.027843,32.899807],[129.028168,32.855658],[128.964122,32.889553],[129.009613,32.924506],[129.027843,32.899807]]],[[[129.135509,33.299872],[129.134288,33.258612],[129.085785,33.260077],[129.135509,33.299872]]],[[[129.555919,33.493964],[129.576427,33.488349],[129.503184,33.4737],[129.555919,33.493964]]],[[[132.641368,34.014065],[132.634451,33.96483],[132.600434,33.949897],[132.586925,33.969672],[132.641368,34.014065]]],[[[133.093516,34.174302],[133.0171,34.118842],[133.026215,34.176174],[133.093516,34.174302]]],[[[132.738536,34.196967],[132.747406,34.162543],[132.697927,34.181342],[132.738536,34.196967]]],[[[132.921153,34.27733],[132.905772,34.21308],[132.849946,34.215155],[132.846446,34.24022],[132.921153,34.27733]]],[[[132.33839,34.304429],[132.325531,34.264716],[132.267914,34.244452],[132.33839,34.304429]]],[[[133.715668,34.396145],[133.706309,34.354641],[133.688487,34.366156],[133.715668,34.396145]]],[[[135.205179,34.430491],[135.240971,34.454647],[135.257054,34.435778],[135.205179,34.430491]]],[[[134.049001,34.474351],[134.095388,34.49197],[134.083995,34.459825],[134.049001,34.474351]]],[[[136.891968,34.496692],[136.908953,34.502362],[136.872599,34.491139],[136.891968,34.496692]]],[[[136.890179,34.531201],[136.910052,34.540109],[136.856216,34.510139],[136.890179,34.531201]]],[[[136.79806,34.876401],[136.823503,34.862037],[136.814701,34.846307],[136.79806,34.876401]]],[[[137.048106,37.152289],[136.963227,37.101549],[136.911469,37.150946],[137.048106,37.152289]]],[[[123.606293,25.739],[123.600434,25.739366],[123.602794,25.745469],[123.606293,25.739]]],[[[123.545339,25.761786],[123.511485,25.758083],[123.531423,25.773342],[123.545339,25.761786]]],[[[123.673025,25.928697],[123.672048,25.927476],[123.671723,25.929755],[123.673025,25.928697]]]]}}