{"type":"Feature","properties":{"iso3":"KAZ","name":"Kazakhstan","continent":"Asia"},"geometry":{"type":"MultiPolygon","coordinates":[[[[87.323796,49.085274],[86.838193,49.093852],[86.709415,48.954222],[86.789462,48.839139],[86.751893,48.729171],[86.57516,48.539829],[85.718674,48.358832],[85.528712,47.966608],[85.678987,47.274893],[85.505767,47.063898],[85.246145,47.044416],[84.767105,46.818074],[84.663545,46.983852],[83.905348,46.973956],[83.046899,47.214664],[82.291493,45.533191],[82.615711,45.435419],[82.539747,45.123655],[82.294594,45.228197],[81.950119,45.144481],[81.665227,45.347982],[80.853855,45.126497],[80.061707,45.018959],[79.858205,44.90372],[79.991737,44.793649],[80.218287,44.818092],[80.476152,44.73541],[80.355849,44.652883],[80.345101,44.103097],[80.712727,43.458873],[80.64286,43.32622],[80.788174,43.168245],[80.410213,43.048665],[80.355126,43.000581],[80.526692,42.868392],[80.227485,42.790981],[80.145423,42.607116],[80.268413,42.237966],[80.210328,42.189519],[79.917943,42.42444],[79.425673,42.469605],[79.148274,42.790981],[77.328127,42.897564],[76.976417,42.98221],[76.58502,42.894799],[75.807059,42.936771],[75.620428,42.805295],[75.204639,42.84519],[74.207697,43.24979],[73.58665,43.042283],[73.41002,42.58965],[73.505077,42.421557],[71.847738,42.834053],[71.262502,42.753567],[70.936114,42.431623],[70.879994,42.206934],[70.758141,42.19802],[70.610243,42.02741],[70.357907,42.06224],[69.912404,41.712856],[69.624566,41.66831],[69.390679,41.469718],[69.067546,41.387759],[69.035145,41.214488],[68.600133,40.930061],[68.549696,40.835028],[68.617393,40.615662],[68.471148,40.594474],[68.017326,40.80428],[68.121299,41.044369],[67.912009,41.187978],[66.710739,41.178625],[66.504137,41.993484],[66.017241,41.997619],[66.101267,42.990323],[65.812603,42.875756],[65.51691,43.297229],[64.956531,43.69736],[64.461574,43.554319],[63.208007,43.627467],[62.028321,43.480922],[61.161672,44.168106],[61.062143,44.361996],[58.531445,45.558719],[55.978422,44.996221],[55.978422,41.321717],[55.450289,41.278877],[54.950682,41.795564],[54.930838,41.909226],[54.122618,42.337598],[53.412274,42.258171],[52.978709,42.126629],[52.437671,41.748876],[52.484548,41.941636],[52.402029,42.092515],[52.676524,42.57453],[52.574474,42.749823],[52.690929,42.610989],[52.736339,42.701361],[52.145518,42.888495],[51.932791,42.834947],[51.679373,43.159735],[51.275727,43.154486],[51.27296,43.55858],[51.115001,43.660834],[50.86085,44.025377],[50.821625,44.215033],[50.27768,44.336493],[50.22462,44.567694],[50.299083,44.655341],[50.847911,44.632799],[51.114594,44.488471],[51.338634,44.554023],[51.537934,44.509345],[50.970714,44.847154],[50.949555,44.963813],[51.281749,45.037543],[51.263194,45.192572],[51.415701,45.38996],[51.543712,45.334906],[51.758311,45.457261],[51.940115,45.367336],[52.519298,45.408881],[53.083344,45.301663],[53.267345,45.350898],[52.73463,45.562812],[53.031261,45.927395],[53.156749,46.272284],[53.032563,46.470893],[53.081716,46.512437],[53.009613,46.531684],[53.207774,46.695014],[53.105805,46.73725],[53.051931,46.898424],[52.455903,47.001166],[52.112559,46.81273],[52.018891,46.936998],[51.909679,46.88109],[51.743907,46.926825],[51.655284,47.059882],[51.621104,47.007392],[51.187022,47.116889],[50.868337,47.03677],[50.569102,46.829047],[50.45338,46.89175],[49.882335,46.575873],[49.637706,46.577338],[49.578949,46.498847],[49.469086,46.594387],[49.486176,46.534654],[49.305349,46.587592],[49.366873,46.429877],[49.266287,46.464057],[49.291759,46.39643],[49.184906,46.413804],[49.222179,46.361274],[48.573241,46.55827],[48.493453,46.653484],[48.556705,46.761746],[48.739536,46.690562],[49.00629,46.76911],[48.5103,47.417443],[48.174351,47.712851],[47.435326,47.834394],[47.374245,47.685824],[47.123821,47.808039],[47.051164,47.974644],[47.192034,48.071796],[47.11948,48.08828],[47.112142,48.241553],[46.479312,48.410225],[46.753818,48.91407],[47.020881,49.096849],[47.028633,49.201494],[46.775108,49.332545],[46.899907,49.820319],[47.308719,50.044802],[47.294766,50.275434],[47.599296,50.452684],[48.074564,50.105263],[48.274035,49.863056],[48.417592,49.811689],[48.784598,49.933387],[48.874102,50.069813],[48.782841,50.111464],[48.678661,50.548544],[48.597426,50.608023],[48.830435,50.596034],[49.36942,50.82677],[49.423732,50.882063],[49.359137,50.992651],[49.460112,51.116158],[49.779059,51.102179],[50.325383,51.303459],[50.599836,51.634731],[50.764322,51.578662],[50.767009,51.7594],[51.352503,51.636229],[51.381132,51.587059],[51.241657,51.543702],[51.379478,51.467092],[51.559829,51.534582],[51.647369,51.451228],[51.744314,51.473448],[51.869164,51.673074],[52.091786,51.658708],[52.334872,51.763715],[52.52499,51.467531],[53.366902,51.493602],[53.610298,51.388415],[53.642544,51.255426],[53.974721,51.16649],[54.194035,50.958183],[54.464303,50.858034],[54.385341,50.639442],[54.455725,50.535521],[54.673593,50.634326],[54.638246,50.885732],[54.526005,50.916428],[54.525281,50.991101],[54.638246,51.027687],[55.694305,50.538777],[56.078881,50.72476],[56.174896,50.908677],[56.315456,50.88382],[56.47834,51.073034],[56.688353,50.969138],[56.716052,51.072465],[57.137938,51.095875],[57.418128,50.862375],[57.689222,50.896739],[57.796193,51.123263],[58.140564,51.056652],[58.308409,51.150031],[58.595007,51.023372],[58.55997,50.87519],[58.646683,50.801293],[58.886772,50.688948],[59.437643,50.631123],[59.551021,50.586009],[59.478157,50.552419],[59.522806,50.474646],[59.815708,50.56291],[60.021276,50.854055],[60.136205,50.844495],[60.300433,50.684659],[60.718495,50.652672],[61.372098,50.782483],[61.534156,51.206075],[61.663657,51.258397],[61.498396,51.400533],[61.048501,51.4789],[60.937396,51.611166],[60.37588,51.662532],[60.465797,51.769193],[60.060757,51.85867],[59.994611,51.936288],[61.008503,52.314999],[60.951452,52.461088],[60.699685,52.652756],[60.696171,52.734922],[61.058422,52.922171],[60.97543,52.970463],[61.424292,53.017359],[61.922556,52.938165],[62.094173,52.992477],[62.083218,53.113297],[61.162706,53.299151],[61.218206,53.492653],[61.381607,53.436119],[61.555343,53.505727],[61.528368,53.571667],[60.907321,53.613628],[61.199086,53.797131],[60.978014,53.926684],[61.192885,53.907098],[61.20477,53.992571],[61.417677,54.055978],[61.581801,53.947664],[61.777035,53.999909],[62.003636,53.932006],[62.003326,53.992313],[62.412707,54.026626],[62.408159,53.92472],[62.498903,53.877798],[62.629128,54.071171],[63.084655,54.08564],[63.156744,54.180053],[63.708648,54.250437],[63.908016,54.207493],[64.084336,54.3202],[64.910642,54.402727],[65.173779,54.310174],[65.19817,54.516157],[65.42751,54.552795],[65.444873,54.614187],[65.71297,54.597185],[65.932802,54.702554],[65.960656,54.627985],[66.097776,54.637158],[67.698482,54.867918],[67.846794,54.963933],[68.166051,54.95613],[68.304233,55.05261],[68.240878,55.191154],[68.6053,55.195598],[68.688913,55.34329],[68.970601,55.278642],[68.90244,55.419512],[69.673866,55.33404],[70.197038,55.133483],[70.441157,55.283345],[70.777571,55.307013],[70.960092,55.105578],[71.005981,54.774229],[71.252787,54.6824],[71.141218,54.563751],[71.190621,54.318184],[71.003397,54.333119],[70.977145,54.270125],[71.143698,54.113701],[71.349732,54.197675],[71.477115,54.10967],[71.680616,54.119075],[71.741388,54.242427],[71.958016,54.235967],[72.128858,54.126051],[72.190456,54.151993],[72.038424,54.346038],[72.151802,54.368259],[72.324401,54.253485],[72.298563,54.1784],[72.482945,54.135611],[72.368223,54.096337],[72.423414,53.903481],[72.673734,53.950506],[72.631773,54.053911],[72.509403,54.043576],[72.624228,54.134991],[72.942038,54.121762],[73.035262,54.02058],[73.360307,53.938414],[73.521538,53.968748],[73.601533,54.071223],[73.740646,54.057942],[73.661684,53.860848],[73.431827,53.865447],[73.244759,53.674813],[73.41095,53.430021],[73.651039,53.594766],[73.936706,53.639518],[74.409132,53.477564],[74.429699,53.653574],[74.616458,53.680704],[74.806214,53.837697],[75.157717,53.865085],[75.433979,53.986525],[75.360702,54.059544],[75.429225,54.090085],[76.183804,54.251573],[76.21481,54.342214],[76.433091,54.316582],[76.910478,54.45461],[76.752968,54.376682],[76.837718,54.296894],[76.664602,54.134061],[76.412627,54.165687],[76.495206,53.992313],[77.866802,53.272331],[80.054989,50.752872],[80.066978,50.846613],[80.439048,50.958131],[80.413417,51.168428],[80.645031,51.289248],[81.152028,51.186541],[81.05405,50.969862],[81.400798,50.959113],[81.460226,50.730341],[81.895032,50.774215],[82.475823,50.714012],[82.764539,50.906661],[82.975896,50.881908],[83.107568,50.992651],[83.433956,50.992651],[83.950565,50.780416],[84.195615,50.51144],[84.249978,50.259931],[84.975774,50.075187],[85.020112,50.033071],[84.950659,49.933284],[85.263095,49.581523],[85.580802,49.613355],[86.177251,49.463339],[86.642442,49.793861],[86.758921,49.778616],[86.618568,49.557958],[86.802432,49.52225],[86.905062,49.351924],[87.03663,49.242732],[87.271758,49.205111],[87.323796,49.085274]],[[63.383914,45.565824],[63.833964,45.715945],[63.964085,46.0205],[63.70994,46.320378],[63.26635,46.382441],[62.933864,46.240719],[62.803639,45.936164],[63.012929,45.660005],[63.383914,45.565824]]],[[[50.260265,45.009914],[50.329763,45.079901],[50.333181,44.994574],[50.260265,45.009914]]],[[[50.170258,44.830146],[49.986095,44.946763],[50.04184,45.057522],[50.113455,45.079901],[50.021007,44.975775],[50.170258,44.830146]]],[[[50.743663,44.886135],[50.697765,44.857856],[50.640798,44.933295],[50.743663,44.886135]]],[[[52.692882,45.459703],[52.702485,45.405219],[52.56129,45.456529],[52.635509,45.525621],[52.692882,45.459703]]],[[[49.822439,46.313951],[49.804698,46.210517],[49.720958,46.338121],[49.822439,46.313951]]]]}}