{"type":"Feature","properties":{"iso3":"KEN","name":"Kenya","continent":"Africa"},"geometry":{"type":"MultiPolygon","coordinates":[[[[35.705846,4.619447],[35.739402,4.681127],[35.778439,4.678338],[35.781222,4.619922],[35.920835,4.619332],[35.940472,4.508046],[36.041345,4.443683],[36.844087,4.432237],[37.015652,4.370587],[37.091617,4.290256],[37.976731,3.72644],[38.101891,3.612649],[38.445953,3.601668],[38.499386,3.64691],[38.561088,3.606008],[38.660306,3.594459],[38.661443,3.615336],[38.722008,3.560404],[38.895227,3.513585],[39.06793,3.526582],[39.219445,3.468704],[39.296338,3.49199],[39.311326,3.466094],[39.436176,3.462374],[39.504389,3.403333],[39.536325,3.405013],[39.574979,3.497901],[39.764218,3.685745],[39.848451,3.867284],[40.763744,4.284933],[41.162996,3.94268],[41.429543,3.948882],[41.699811,3.996915],[41.835927,3.94945],[41.885019,3.977226],[41.342727,3.201149],[40.965385,2.814145],[40.979751,-0.870798],[41.522871,-1.572771],[41.535085,-1.696303],[41.282725,-1.96852],[41.219005,-1.922459],[41.185802,-1.990167],[41.096853,-1.985284],[41.028656,-2.043227],[40.983653,-2.019301],[41.006114,-1.901788],[40.970714,-1.928969],[40.945323,-2.073175],[40.908214,-1.997735],[40.849132,-1.977634],[40.896821,-2.042413],[40.911957,-2.19199],[40.979259,-2.24212],[40.944835,-2.30934],[40.922618,-2.313735],[40.952159,-2.286065],[40.863048,-2.231378],[40.773936,-2.279229],[40.816905,-2.397882],[40.650564,-2.539321],[40.523611,-2.525079],[40.389822,-2.560317],[40.223318,-2.683038],[40.174978,-2.762628],[40.162608,-2.934259],[40.178559,-2.976495],[40.232107,-2.970636],[40.119151,-3.183526],[40.122895,-3.267348],[39.971446,-3.376072],[39.990082,-3.320896],[39.966075,-3.321222],[39.878673,-3.605076],[39.85727,-3.618259],[39.780935,-3.566583],[39.800141,-3.634698],[39.866466,-3.648533],[39.786388,-3.917169],[39.732107,-3.946384],[39.712087,-3.897393],[39.689952,-3.909601],[39.742442,-3.985935],[39.690766,-4.053155],[39.661957,-3.984633],[39.594737,-3.978692],[39.643077,-3.9992],[39.573253,-4.031834],[39.567393,-4.08115],[39.650076,-4.069594],[39.665863,-4.112074],[39.54005,-4.430434],[39.506033,-4.438084],[39.450694,-4.581964],[39.447439,-4.534275],[39.388682,-4.585138],[39.406261,-4.615167],[39.362478,-4.633966],[39.300466,-4.594985],[39.204845,-4.670099],[39.105757,-4.616306],[37.770955,-3.655435],[37.708323,-3.527174],[37.599079,-3.513428],[37.580476,-3.424131],[37.681865,-3.315714],[37.644865,-3.045963],[34.015422,-1.037507],[34.000022,-1.002573],[33.904214,-1.002573],[33.894809,-0.662749],[33.953514,-0.154356],[33.890468,0.090073],[34.076607,0.333779],[34.080121,0.431344],[34.149574,0.603634],[34.2521,0.655],[34.30667,0.768068],[34.388009,0.815817],[34.487021,1.082467],[34.560065,1.093149],[34.573631,1.134247],[34.683805,1.209075],[34.797907,1.231916],[34.778993,1.388547],[34.972676,1.654241],[35.002752,1.906138],[34.865603,2.347506],[34.867876,2.411482],[34.923584,2.477318],[34.875628,2.591212],[34.81868,2.597982],[34.730107,2.85285],[34.654143,2.856519],[34.58469,2.928711],[34.53384,3.118467],[34.434001,3.182029],[34.382118,3.466043],[34.434518,3.52622],[34.439686,3.667736],[34.35504,3.727371],[34.295095,3.707346],[34.241558,3.778737],[34.152468,3.775636],[34.17903,3.7961],[34.150814,3.81721],[34.204971,3.874545],[34.084772,3.877336],[34.109576,3.943352],[34.061517,4.017921],[34.069269,4.08802],[34.028548,4.188014],[33.977078,4.219692],[34.381188,4.620158],[34.666277,4.76498],[35.245726,4.98172],[35.263419,4.948545],[35.411598,5.030376],[35.433715,5.003836],[35.396117,4.926429],[35.570836,4.904313],[35.52218,4.780461],[35.610201,4.620812],[35.700365,4.589111],[35.705846,4.619447]]],[[[41.053966,-2.049574],[41.143321,-2.059503],[41.155284,-2.112074],[41.123383,-2.093683],[41.107758,-2.131524],[40.988943,-2.152276],[41.009939,-2.187188],[40.957286,-2.174005],[40.982921,-2.097345],[41.053966,-2.049574]]]]}}