{"type":"Feature","properties":{"iso3":"KGZ","name":"Kyrgyzstan","continent":"Asia"},"geometry":{"type":"Polygon","coordinates":[[[80.210328,42.189519],[80.224591,42.125569],[80.256527,42.084357],[80.257561,42.065263],[80.231206,42.033689],[80.181906,42.020976],[79.930862,42.023276],[79.842909,42.00183],[79.812833,41.97762],[79.783274,41.905092],[79.747514,41.879745],[79.610985,41.867626],[79.554658,41.837602],[79.489856,41.819257],[79.390844,41.772697],[79.30413,41.787554],[79.282323,41.783497],[79.19592,41.729521],[79.088743,41.702546],[78.976192,41.6418],[78.915834,41.63317],[78.807313,41.578445],[78.658278,41.532453],[78.645049,41.52372],[78.619211,41.478089],[78.51038,41.454422],[78.41757,41.400471],[78.359899,41.377527],[78.343466,41.362024],[78.339332,41.344041],[78.359692,41.287455],[78.34946,41.270402],[78.275356,41.228854],[78.190503,41.11775],[78.074955,41.039512],[78.036508,41.036101],[77.997647,41.049795],[77.831042,41.062973],[77.650278,40.997137],[77.580721,40.997705],[77.503517,40.981066],[77.474888,40.982047],[77.388795,41.011658],[77.332985,41.02065],[77.243171,41.005664],[77.118838,41.011658],[77.007733,41.044214],[76.860972,41.013208],[76.820871,40.97781],[76.766818,40.944685],[76.757413,40.925772],[76.770848,40.867119],[76.762477,40.847017],[76.674214,40.795444],[76.647859,40.764851],[76.630805,40.728885],[76.62078,40.611321],[76.609411,40.59711],[76.556391,40.56569],[76.531173,40.534995],[76.498927,40.464611],[76.476499,40.436138],[76.330152,40.348081],[76.313512,40.343327],[76.299353,40.355677],[76.273411,40.434122],[76.244162,40.441202],[76.185044,40.384203],[76.151351,40.368131],[76.07611,40.391954],[76.051616,40.390197],[75.962422,40.357331],[75.921495,40.309117],[75.901858,40.298885],[75.858553,40.296353],[75.772046,40.31015],[75.681819,40.291702],[75.656291,40.32307],[75.638308,40.386115],[75.669314,40.432365],[75.666936,40.450245],[75.617947,40.493964],[75.605648,40.569411],[75.587665,40.611941],[75.559863,40.63287],[75.523793,40.63318],[75.481832,40.614111],[75.26324,40.480166],[75.229237,40.470347],[75.212494,40.444716],[75.19389,40.441254],[75.13808,40.463888],[75.064389,40.443837],[75.002378,40.4473],[74.879181,40.505074],[74.835359,40.511637],[74.820063,40.493964],[74.787404,40.420738],[74.794638,40.405545],[74.853859,40.35883],[74.862128,40.32617],[74.830915,40.319917],[74.746683,40.336505],[74.705755,40.331286],[74.654388,40.291547],[74.565402,40.24695],[74.476622,40.172433],[74.369858,40.105822],[74.333788,40.09373],[74.272293,40.093833],[74.20315,40.109853],[74.167596,40.10639],[74.069515,40.067788],[74.003989,40.060812],[73.966368,40.033268],[73.952106,40.008257],[73.944044,39.970068],[73.893195,39.918133],[73.880689,39.86501],[73.844102,39.838086],[73.823018,39.805685],[73.819814,39.766721],[73.829529,39.746981],[73.879345,39.727912],[73.893505,39.710394],[73.904253,39.64647],[73.926784,39.592882],[73.921617,39.582133],[73.870457,39.546786],[73.848029,39.489735],[73.838314,39.475679],[73.820744,39.468186],[73.632642,39.448343],[73.604323,39.459608],[73.476889,39.464776],[73.367645,39.443795],[73.343151,39.430669],[73.326408,39.390878],[73.167864,39.355377],[73.136032,39.353465],[73.071126,39.370725],[73.009321,39.348607],[72.893669,39.363903],[72.835275,39.356204],[72.633737,39.394496],[72.616373,39.390413],[72.575756,39.359304],[72.519015,39.375686],[72.476744,39.346127],[72.393234,39.350829],[72.31634,39.328815],[72.240272,39.189909],[72.228903,39.189237],[72.209163,39.217297],[72.203272,39.24081],[72.158623,39.262617],[72.094751,39.275072],[72.078112,39.336618],[72.06695,39.358477],[72.049793,39.368864],[71.959152,39.345868],[71.807017,39.272849],[71.751207,39.274245],[71.71834,39.301065],[71.710899,39.32096],[71.712966,39.341527],[71.748106,39.379561],[71.749243,39.425502],[71.740251,39.448343],[71.724438,39.459401],[71.704594,39.458988],[71.602792,39.442348],[71.554319,39.444157],[71.512875,39.458833],[71.492101,39.493663],[71.531375,39.553091],[71.510911,39.584148],[71.459545,39.612105],[71.368543,39.591486],[71.291958,39.548957],[71.249273,39.514385],[71.179975,39.523015],[71.095898,39.51237],[71.062928,39.495627],[71.009288,39.407622],[70.977145,39.394909],[70.903351,39.420851],[70.864181,39.400594],[70.840099,39.40142],[70.770129,39.382093],[70.713285,39.398423],[70.698092,39.41899],[70.705431,39.458523],[70.699746,39.472165],[70.655976,39.493714],[70.622128,39.563529],[70.59784,39.577792],[70.526113,39.575622],[70.477227,39.601201],[70.40147,39.584768],[70.384313,39.570867],[70.33026,39.573089],[70.241066,39.522395],[70.223289,39.519088],[70.20603,39.5241],[70.214814,39.591125],[70.200655,39.619495],[70.185204,39.610348],[70.148979,39.554279],[70.132442,39.550042],[70.08273,39.569782],[70.040355,39.573606],[70.019684,39.568594],[69.978757,39.534436],[69.907753,39.548492],[69.830445,39.536244],[69.710349,39.574071],[69.669421,39.577792],[69.582295,39.573555],[69.514392,39.537588],[69.412176,39.52503],[69.391454,39.530508],[69.361637,39.552884],[69.352025,39.549628],[69.339726,39.528079],[69.300348,39.515625],[69.286189,39.539707],[69.287533,39.677786],[69.280091,39.694271],[69.233324,39.732666],[69.226296,39.751011],[69.240714,39.82894],[69.310322,39.984796],[69.32784,39.984744],[69.357296,39.959474],[69.405355,39.896119],[69.501576,39.922474],[69.500439,39.935703],[69.477288,39.968156],[69.463129,40.025413],[69.46964,40.050993],[69.506331,40.096933],[69.518009,40.125097],[69.543021,40.103083],[69.575474,40.1036],[69.969558,40.211603],[70.004595,40.208761],[70.14717,40.136983],[70.241531,40.132745],[70.263494,40.12427],[70.306282,40.08479],[70.324265,40.077503],[70.477227,40.052027],[70.525493,40.033682],[70.535622,40.015957],[70.520946,39.993736],[70.473197,39.97012],[70.450872,39.937408],[70.44803,39.919993],[70.455627,39.906816],[70.477227,39.900925],[70.500895,39.940561],[70.576601,39.952239],[70.613963,39.975752],[70.627399,39.993891],[70.635977,40.028514],[70.63944,40.084945],[70.66595,40.104168],[70.729822,40.120705],[70.797725,40.161942],[70.806716,40.156155],[70.845164,40.171813],[70.898545,40.162614],[70.929293,40.170624],[70.962883,40.189693],[70.979522,40.214084],[70.958955,40.238372],[70.995129,40.266587],[71.053213,40.274235],[71.201008,40.263848],[71.239558,40.321106],[71.253821,40.324413],[71.283225,40.29842],[71.365132,40.294131],[71.396551,40.271548],[71.441355,40.260903],[71.477115,40.220802],[71.521246,40.203749],[71.592973,40.198426],[71.61013,40.246382],[71.62832,40.258887],[71.660153,40.224471],[71.673072,40.147886],[71.707178,40.144269],[71.775908,40.179926],[71.805467,40.225298],[71.836473,40.249172],[72.01889,40.240026],[72.025402,40.250878],[72.019821,40.258732],[71.958222,40.286534],[71.951091,40.30152],[71.956672,40.31568],[72.043178,40.349321],[72.069637,40.369423],[72.099299,40.426371],[72.165858,40.454431],[72.254225,40.458307],[72.263415,40.452651],[72.259599,40.44239],[72.216501,40.434949],[72.211768,40.425836],[72.269624,40.424045],[72.370497,40.38565],[72.394061,40.389422],[72.414422,40.410713],[72.426204,40.45934],[72.415662,40.479287],[72.363469,40.512309],[72.370083,40.557732],[72.348483,40.585379],[72.351893,40.601967],[72.381556,40.612148],[72.447908,40.560471],[72.515294,40.54564],[72.585781,40.508743],[72.625468,40.5105],[72.65048,40.532152],[72.664226,40.577783],[72.719209,40.564864],[72.748355,40.575096],[72.760034,40.641758],[72.783908,40.669663],[72.890982,40.695088],[72.976765,40.736068],[73.070609,40.762474],[73.118048,40.782938],[73.148641,40.813686],[73.14337,40.833839],[73.053556,40.83632],[73.00343,40.870168],[72.870311,40.818181],[72.868658,40.864122],[72.830107,40.87208],[72.701226,40.863243],[72.658231,40.867171],[72.619474,40.88009],[72.545577,40.956519],[72.483358,40.970575],[72.484702,41.004682],[72.476744,41.011813],[72.395198,41.022045],[72.374321,41.031967],[72.33236,41.072843],[72.314066,41.061681],[72.289778,41.023544],[72.165135,40.999359],[72.185599,41.041062],[72.185599,41.060647],[72.169889,41.168651],[72.158417,41.187875],[72.132889,41.199295],[72.108497,41.196401],[72.033773,41.15661],[71.977033,41.195213],[71.897658,41.184929],[71.871613,41.194489],[71.868822,41.279239],[71.863034,41.312208],[71.847015,41.341819],[71.745212,41.45282],[71.730433,41.451166],[71.729709,41.430082],[71.721648,41.424759],[71.696119,41.447445],[71.681443,41.422847],[71.671935,41.425483],[71.689505,41.493799],[71.68413,41.534055],[71.671418,41.547388],[71.62739,41.543202],[71.595454,41.493747],[71.633694,41.449616],[71.637415,41.431271],[71.618811,41.377786],[71.585532,41.323525],[71.557937,41.301718],[71.52383,41.296654],[71.480629,41.310761],[71.418772,41.3474],[71.412571,41.334687],[71.421459,41.162088],[71.416085,41.127362],[71.393657,41.112737],[71.325238,41.157334],[71.289478,41.113874],[71.276145,41.113151],[71.253821,41.13749],[71.241522,41.175162],[71.230153,41.187255],[71.206382,41.188753],[71.185711,41.180227],[71.189949,41.127465],[71.18013,41.108138],[71.123079,41.158212],[71.085769,41.162036],[71.024688,41.189787],[70.977145,41.19635],[70.914203,41.193042],[70.865731,41.233195],[70.828524,41.249111],[70.770439,41.238518],[70.758037,41.25216],[70.75628,41.269627],[70.77106,41.331018],[70.769199,41.352102],[70.70357,41.445482],[70.66781,41.471372],[70.633807,41.467496],[70.511334,41.414476],[70.453198,41.405484],[70.398989,41.464964],[70.344936,41.493489],[70.203446,41.505633],[70.166549,41.520206],[70.148255,41.552452],[70.169288,41.578342],[70.453663,41.71208],[70.506476,41.78559],[70.550091,41.824063],[70.648948,41.887393],[70.679696,41.901113],[70.779328,41.909665],[70.814003,41.919535],[70.825113,41.93633],[70.828059,41.993743],[70.845474,42.030356],[70.977145,42.044231],[71.118429,42.122908],[71.201008,42.140788],[71.238215,42.160244],[71.253201,42.197555],[71.217854,42.206365],[71.077604,42.281167],[71.045772,42.29096],[71.014042,42.287704],[70.947793,42.248146],[70.897822,42.261608],[70.858134,42.291063],[70.852657,42.306075],[70.932703,42.3762],[70.939835,42.387827],[70.929913,42.412296],[70.961952,42.468107],[70.977145,42.478752],[71.041017,42.4548],[71.064168,42.470329],[71.066287,42.482137],[71.057864,42.493402],[71.012699,42.526036],[71.00319,42.563527],[71.040656,42.580529],[71.127007,42.590606],[71.142768,42.602543],[71.148091,42.6174],[71.149021,42.677939],[71.157548,42.687938],[71.211446,42.705224],[71.245449,42.747133],[71.262502,42.753567],[71.329785,42.737031],[71.347562,42.742844],[71.404613,42.794883],[71.477115,42.78354],[71.504193,42.789612],[71.566308,42.757236],[71.693536,42.811807],[71.847738,42.834053],[71.956982,42.804598],[72.10488,42.750337],[72.164101,42.765091],[72.292362,42.76106],[72.358405,42.741397],[72.476744,42.682564],[72.583817,42.678275],[72.725824,42.652876],[72.780601,42.620449],[72.815224,42.573036],[72.874549,42.543993],[72.942348,42.536035],[73.115051,42.550841],[73.189052,42.520765],[73.301396,42.507071],[73.316589,42.493712],[73.314419,42.441571],[73.326201,42.428677],[73.417461,42.41705],[73.476889,42.399067],[73.505105,42.402943],[73.505518,42.420926],[73.417565,42.556163],[73.41002,42.58965],[73.412707,42.627322],[73.423869,42.662772],[73.503554,42.794082],[73.504278,42.827594],[73.489498,42.877823],[73.493012,42.894954],[73.57094,43.031922],[73.634089,43.062463],[73.805551,43.114734],[73.864256,43.116103],[73.90167,43.13096],[73.935053,43.199716],[73.965335,43.216924],[74.039852,43.181861],[74.213899,43.202635],[74.216586,43.216924],[74.178759,43.261702],[74.25865,43.215761],[74.348774,43.191034],[74.400554,43.159537],[74.462772,43.148634],[74.558167,43.115044],[74.61129,43.058174],[74.71392,42.999883],[74.862851,42.975828],[74.948531,42.944848],[74.976849,42.926477],[75.066146,42.902602],[75.178594,42.84966],[75.496611,42.823925],[75.555936,42.825217],[75.620428,42.805295],[75.646163,42.806096],[75.703833,42.830488],[75.73825,42.861571],[75.770599,42.92565],[75.797161,42.936192],[75.858966,42.939809],[75.999113,42.91764],[76.064535,42.93397],[76.163754,42.921154],[76.254498,42.921154],[76.340487,42.901672],[76.382965,42.910069],[76.414074,42.885497],[76.48053,42.916968],[76.58502,42.894799],[76.644345,42.911129],[76.707907,42.913661],[76.74625,42.928879],[76.753899,42.940765],[76.792966,42.943065],[76.83348,42.971745],[76.897662,42.974536],[76.956884,42.988514],[77.124005,42.958904],[77.178679,42.913196],[77.328127,42.897564],[77.418561,42.922239],[77.501553,42.914539],[77.557777,42.888133],[77.647797,42.909501],[77.71384,42.907589],[77.781226,42.895626],[77.809958,42.871286],[77.883855,42.893223],[77.929331,42.885006],[77.986175,42.860202],[78.030616,42.854672],[78.229777,42.865007],[78.31122,42.850512],[78.38553,42.878237],[78.429559,42.880665],[78.496118,42.875601],[78.594303,42.850228],[78.687114,42.804598],[78.807933,42.79558],[78.888135,42.771215],[78.954281,42.768424],[78.992935,42.757133],[79.030866,42.756151],[79.108794,42.785348],[79.148274,42.790981],[79.173389,42.785632],[79.180831,42.77553],[79.176076,42.713931],[79.206359,42.656467],[79.242119,42.629776],[79.321287,42.602181],[79.353016,42.577299],[79.398388,42.496942],[79.425673,42.469605],[79.47642,42.453973],[79.571918,42.449529],[79.696458,42.459838],[79.917943,42.42444],[79.960111,42.403511],[80.012098,42.349509],[80.077003,42.305765],[80.16661,42.208717],[80.210328,42.189519]],[[71.78552,39.989705],[71.706868,39.956115],[71.681753,39.955082],[71.665527,39.940199],[71.696843,39.913844],[71.741801,39.90077],[71.757304,39.903095],[71.789757,39.979318],[71.78552,39.989705]],[[71.176926,40.042001],[71.078844,40.07864],[71.031199,40.146905],[71.008564,40.157757],[70.977145,40.144579],[70.954046,40.095797],[70.958438,40.063085],[70.98314,40.021383],[70.994509,40.008877],[71.045823,39.99203],[71.050371,39.962885],[71.007634,39.911157],[71.009288,39.885732],[71.021897,39.880823],[71.060964,39.904129],[71.079981,39.903405],[71.098895,39.8755],[71.208449,39.888781],[71.219094,39.900925],[71.221058,39.931724],[71.17703,39.968156],[71.174704,39.993994],[71.237284,40.031098],[71.244002,40.046756],[71.223745,40.057866],[71.176926,40.042001]],[[70.498725,39.881908],[70.483739,39.882218],[70.490147,39.850179],[70.537379,39.817312],[70.581614,39.766566],[70.63298,39.79845],[70.70481,39.822067],[70.698919,39.858447],[70.619906,39.850695],[70.498725,39.881908]]]}}