{"type":"Feature","properties":{"iso3":"KHM","name":"Cambodia","continent":"Asia"},"geometry":{"type":"MultiPolygon","coordinates":[[[[107.520393,14.704582],[107.532433,14.677942],[107.504011,14.602107],[107.505252,14.541026],[107.485718,14.509529],[107.464737,14.449042],[107.443136,14.423669],[107.423809,14.418966],[107.40779,14.433048],[107.386912,14.421912],[107.351773,14.341968],[107.349912,14.321556],[107.363761,14.283238],[107.358594,14.238615],[107.31994,14.119837],[107.344745,14.081312],[107.343143,14.020618],[107.354563,14.002402],[107.371565,13.996279],[107.40903,13.999922],[107.430734,13.984471],[107.431044,13.955997],[107.448046,13.909307],[107.435385,13.869697],[107.446237,13.839389],[107.438537,13.808952],[107.44324,13.783475],[107.514295,13.69255],[107.596925,13.535066],[107.604315,13.498531],[107.606951,13.369754],[107.460396,13.021609],[107.46298,13.007321],[107.481067,12.988769],[107.466081,12.952182],[107.487371,12.870559],[107.535947,12.799633],[107.540081,12.716693],[107.565093,12.606415],[107.563439,12.543628],[107.549642,12.509212],[107.55667,12.472676],[107.522253,12.366585],[107.499567,12.325812],[107.449648,12.299044],[107.415851,12.254085],[107.39301,12.252845],[107.343814,12.315115],[107.320198,12.329223],[107.27617,12.325399],[107.211884,12.30571],[107.152508,12.27703],[107.116231,12.232123],[106.953399,12.081072],[106.879295,12.062727],[106.771963,12.065828],[106.749225,12.05234],[106.70158,11.970795],[106.680496,11.965059],[106.630628,11.976169],[106.638586,11.961131],[106.504537,11.973379],[106.473738,11.952088],[106.460509,11.952915],[106.442061,11.974877],[106.394002,11.969813],[106.438753,11.863721],[106.42139,11.837573],[106.418289,11.803415],[106.397774,11.762126],[106.398859,11.746313],[106.434587,11.678428],[106.425834,11.66208],[106.412812,11.66177],[106.354314,11.69014],[106.274112,11.676808],[106.24321,11.714583],[106.223624,11.72497],[106.154636,11.746313],[106.113192,11.747088],[106.01542,11.770497],[105.992114,11.746313],[105.983071,11.706677],[105.934081,11.642856],[105.905504,11.644303],[105.85791,11.661563],[105.840857,11.658153],[105.80489,11.624925],[105.790421,11.587408],[105.80334,11.56622],[105.853208,11.546867],[105.85667,11.496276],[105.872173,11.443463],[105.844423,11.28988],[105.886746,11.267944],[105.899871,11.218593],[105.920439,11.203322],[105.973975,11.190378],[105.988755,11.176967],[106.013146,11.13927],[106.076502,11.077025],[106.08663,11.056329],[106.098102,11.077904],[106.113502,11.086921],[106.130865,11.084234],[106.160321,11.053512],[106.187864,10.976308],[106.180836,10.970262],[106.131434,10.96928],[106.122494,10.955508],[106.123424,10.927448],[106.151587,10.862981],[106.177322,10.766863],[106.15505,10.784847],[106.072212,10.796861],[106.0179,10.819806],[105.931342,10.896364],[105.908656,10.838383],[105.899355,10.828384],[105.878684,10.828074],[105.847523,10.855411],[105.821427,10.919671],[105.752904,11.015608],[105.726135,11.018372],[105.632188,10.973957],[105.473851,10.94091],[105.410496,10.963001],[105.357269,10.907966],[105.317891,10.838849],[105.253296,10.883523],[105.097543,10.914348],[105.077906,10.946904],[105.029072,10.914089],[105.011399,10.883833],[105.014809,10.84921],[105.066227,10.746425],[105.066744,10.713947],[105.042456,10.690821],[104.931352,10.630696],[104.854406,10.531322],[104.8188,10.517189],[104.773842,10.515328],[104.625531,10.533363],[104.566826,10.528067],[104.494273,10.427737],[104.469571,10.415774],[104.451345,10.419664],[104.422048,10.452297],[104.407563,10.446112],[104.363129,10.487738],[104.297699,10.480862],[104.286306,10.540473],[104.249848,10.570258],[104.230317,10.563137],[104.222667,10.570258],[104.207042,10.549994],[104.130138,10.562812],[104.089041,10.554633],[103.945567,10.588121],[103.917979,10.611233],[103.894298,10.658393],[103.876964,10.658393],[103.866384,10.699368],[103.858897,10.679592],[103.862804,10.603827],[103.820567,10.544013],[103.7671,10.535468],[103.754161,10.537746],[103.736095,10.555976],[103.701915,10.562812],[103.701915,10.555976],[103.741954,10.526272],[103.747081,10.508979],[103.655772,10.495185],[103.623871,10.500922],[103.606293,10.555976],[103.585785,10.54914],[103.570079,10.55508],[103.543793,10.596177],[103.523692,10.611233],[103.507091,10.604234],[103.501964,10.617133],[103.506847,10.635443],[103.528087,10.652167],[103.567393,10.726508],[103.605968,10.737535],[103.684174,10.74079],[103.688731,10.747748],[103.672211,10.75788],[103.678071,10.801215],[103.722423,10.84455],[103.722423,10.894843],[103.659516,11.029771],[103.674571,11.063666],[103.645844,11.082261],[103.604015,11.090644],[103.583507,11.134101],[103.56186,11.152248],[103.53297,11.162746],[103.502696,11.166083],[103.49643,11.138821],[103.468516,11.151801],[103.474457,11.133694],[103.448009,11.090399],[103.468272,11.099311],[103.470225,11.089057],[103.430837,11.006496],[103.414561,10.946357],[103.421235,10.909125],[103.40211,10.884345],[103.372895,10.884955],[103.352306,10.871894],[103.344086,10.895453],[103.277354,10.932685],[103.219005,10.892483],[103.222667,10.878119],[103.196788,10.876532],[103.181163,10.864447],[103.12672,10.881293],[103.140147,10.898586],[103.095551,10.933987],[103.112804,10.970893],[103.098481,11.080471],[103.115977,11.113837],[103.117686,11.149115],[103.088634,11.217678],[103.062266,11.219713],[103.059581,11.231838],[103.079275,11.245185],[103.0713,11.261664],[103.105642,11.299058],[103.134044,11.316148],[103.153168,11.30268],[103.15211,11.318101],[103.140147,11.357896],[103.112804,11.343655],[103.100271,11.356024],[103.092296,11.398871],[103.064464,11.447252],[103.084972,11.43301],[103.101573,11.452582],[103.129893,11.460354],[103.143321,11.45482],[103.15919,11.431098],[103.174327,11.426174],[103.133311,11.494452],[103.133311,11.508734],[103.128673,11.477484],[103.112804,11.46776],[103.091075,11.490546],[103.064464,11.503607],[103.057628,11.570217],[103.050792,11.563381],[103.057628,11.591254],[103.043305,11.594306],[103.03712,11.604926],[103.030284,11.542873],[102.998546,11.543158],[102.975108,11.529242],[102.9546,11.557115],[102.975108,11.570217],[103.00294,11.549709],[102.982432,11.583808],[102.982432,11.624823],[102.993826,11.635728],[103.024425,11.623481],[103.043305,11.624823],[103.043305,11.63227],[103.01352,11.63939],[103.009125,11.652737],[103.016775,11.652737],[103.016775,11.659573],[102.995453,11.652737],[102.989268,11.673245],[102.982432,11.673245],[102.982432,11.652737],[102.975108,11.659573],[102.975108,11.638495],[102.968761,11.638495],[102.975841,11.687323],[102.986339,11.702867],[103.021658,11.720526],[103.052582,11.705512],[103.066661,11.708197],[103.084972,11.727851],[103.069835,11.715155],[103.056,11.716132],[103.023448,11.734687],[102.982432,11.714179],[102.956065,11.766913],[102.932628,11.77912],[102.893077,11.830268],[102.907888,11.797553],[102.956798,11.746812],[102.968761,11.714179],[102.954845,11.667873],[102.965017,11.609931],[102.9546,11.570217],[102.940929,11.61518],[102.913585,11.645901],[102.928787,11.668695],[102.925118,11.725797],[102.9138,11.765536],[102.843004,11.866047],[102.797115,11.952967],[102.787142,12.002628],[102.77107,12.037354],[102.699963,12.138743],[102.692212,12.178483],[102.715053,12.342194],[102.730659,12.380072],[102.765127,12.416349],[102.762078,12.43609],[102.718412,12.465907],[102.704821,12.480325],[102.696759,12.513087],[102.664823,12.534223],[102.588549,12.609826],[102.558628,12.63122],[102.501784,12.649772],[102.479253,12.677108],[102.477961,12.719638],[102.495196,12.74603],[102.506642,12.787515],[102.483336,12.843791],[102.464836,12.927532],[102.4776,12.949934],[102.468815,12.973395],[102.490097,12.995188],[102.473156,13.006132],[102.38205,13.136615],[102.329187,13.272629],[102.330115,13.496361],[102.313424,13.541009],[102.332234,13.5646],[102.513205,13.567157],[102.597747,13.60545],[102.541058,13.6486],[102.54235,13.669709],[102.57439,13.693894],[102.674952,13.741901],[102.69862,13.761797],[102.706475,13.801949],[102.729109,13.832154],[102.772827,13.936076],[102.869772,14.020618],[102.876232,14.071313],[102.911268,14.13211],[102.918606,14.185492],[102.934058,14.200969],[103.004854,14.228771],[103.085005,14.295821],[103.118026,14.313236],[103.273675,14.351063],[103.362869,14.353466],[103.422503,14.384834],[103.449685,14.371579],[103.533401,14.419069],[103.550247,14.42186],[103.596136,14.404342],[103.616807,14.414548],[103.637064,14.44328],[103.657166,14.441161],[103.67148,14.42956],[103.674891,14.386487],[103.775247,14.366979],[103.824029,14.368039],[103.885162,14.340418],[103.902784,14.342433],[103.919837,14.364577],[103.973994,14.36729],[104.001383,14.345069],[104.110213,14.380441],[104.128352,14.366359],[104.140909,14.365998],[104.174809,14.401344],[104.185661,14.40398],[104.18349,14.391422],[104.201267,14.377987],[104.247466,14.401086],[104.325394,14.377625],[104.452621,14.356928],[104.492619,14.374007],[104.542848,14.360391],[104.562795,14.368478],[104.594628,14.41],[104.610441,14.418966],[104.66837,14.409638],[104.692865,14.433978],[104.712864,14.406848],[104.771672,14.439869],[104.78826,14.438215],[104.83141,14.411757],[104.86655,14.413772],[104.898175,14.39628],[104.97383,14.380648],[104.975949,14.301118],[105.00773,14.243835],[105.047314,14.214069],[105.101419,14.230528],[105.155007,14.33047],[105.184308,14.34574],[105.187977,14.291015],[105.197434,14.270293],[105.256913,14.182443],[105.303939,14.152393],[105.337787,14.109993],[105.36409,14.10405],[105.422175,14.107874],[105.490491,14.136916],[105.533175,14.16433],[105.561391,14.138156],[105.576532,14.144022],[105.594567,14.136348],[105.617253,14.10299],[105.643143,14.113455],[105.669343,14.100407],[105.716007,14.101543],[105.744015,14.086945],[105.787113,14.010154],[105.895581,13.924799],[105.924573,13.91711],[105.997437,13.928298],[106.069163,13.916542],[106.08384,13.934008],[106.081979,13.980957],[106.142079,14.03501],[106.149469,14.053562],[106.144559,14.072398],[106.10172,14.11516],[106.076191,14.174511],[106.012474,14.225774],[106.004051,14.245927],[106.004516,14.289982],[105.96917,14.33202],[105.973975,14.365843],[106.038158,14.347652],[106.055418,14.348428],[106.063531,14.372922],[106.17324,14.369667],[106.203936,14.399897],[106.230084,14.49046],[106.306462,14.445476],[106.393795,14.456173],[106.41922,14.466457],[106.445161,14.499478],[106.433586,14.505705],[106.434309,14.519606],[106.445781,14.529088],[106.484849,14.523817],[106.47317,14.537486],[106.47224,14.564073],[106.512496,14.590351],[106.530996,14.56596],[106.54376,14.512113],[106.585669,14.495964],[106.605358,14.466637],[106.6344,14.450902],[106.707161,14.429301],[106.766692,14.348324],[106.806896,14.312926],[106.835835,14.307061],[106.895676,14.33631],[106.933607,14.320161],[106.946113,14.32352],[106.961099,14.360391],[106.973656,14.363026],[107.027245,14.43527],[107.078559,14.400776],[107.131424,14.427544],[107.158709,14.451522],[107.180568,14.496171],[107.219739,14.497979],[107.233899,14.544927],[107.28728,14.598516],[107.305677,14.597224],[107.351566,14.561619],[107.414921,14.543429],[107.42784,14.553712],[107.430321,14.586243],[107.451766,14.632183],[107.473781,14.646265],[107.520393,14.704582]]],[[[103.784434,10.515041],[103.798595,10.505439],[103.805919,10.48432],[103.804861,10.463202],[103.794688,10.453559],[103.763845,10.456529],[103.743419,10.480862],[103.763927,10.494534],[103.760427,10.513821],[103.784434,10.515041]]],[[[103.29713,10.731024],[103.317556,10.721096],[103.318207,10.706773],[103.293224,10.696601],[103.277354,10.672675],[103.26002,10.706773],[103.213634,10.733344],[103.198497,10.762356],[103.208344,10.775702],[103.228526,10.78266],[103.245128,10.777981],[103.274669,10.74433],[103.294932,10.73843],[103.29713,10.731024]]],[[[103.03712,11.357896],[103.048676,11.330878],[103.043305,11.273424],[103.03712,11.261664],[103.007579,11.255072],[102.998057,11.260199],[103.00294,11.26911],[102.991954,11.280015],[102.988536,11.30093],[102.981456,11.40469],[102.989268,11.426174],[102.993663,11.41706],[103.016368,11.423082],[103.024181,11.417182],[103.036632,11.391995],[103.03712,11.357896]]],[[[103.030284,11.501899],[103.050792,11.46776],[103.030284,11.426174],[103.020356,11.426947],[103.023448,11.460354],[102.99586,11.513739],[103.009125,11.529242],[103.030284,11.51557],[103.030284,11.501899]]],[[[103.334158,10.58393],[103.338878,10.572414],[103.323497,10.545152],[103.292166,10.583157],[103.285167,10.599066],[103.289073,10.612738],[103.319509,10.617336],[103.312511,10.579088],[103.324718,10.573879],[103.334158,10.58393]]]]}}