{"type":"Feature","properties":{"iso3":"KIR","name":"Kiribati","continent":"Oceania"},"geometry":{"type":"MultiPolygon","coordinates":[[[[173.038259,1.341051],[173.011241,1.337348],[173.084727,1.366685],[173.160655,1.374945],[173.143321,1.380316],[173.153168,1.386542],[173.171723,1.374172],[173.162934,1.356513],[173.078624,1.360012],[173.038259,1.341051]]],[[[-151.807729,-11.385919],[-151.784495,-11.429376],[-151.780955,-11.454685],[-151.800893,-11.461114],[-151.819529,-11.420994],[-151.818918,-11.399672],[-151.807729,-11.385919]]],[[[-155.899322,-5.616795],[-155.879628,-5.60947],[-155.859812,-5.625095],[-155.906443,-5.635349],[-155.922475,-5.629978],[-155.933461,-5.609145],[-155.899322,-5.616795]]],[[[-155.011708,-4.047052],[-154.940297,-4.031996],[-154.958567,-4.071222],[-154.953359,-4.094822],[-154.964792,-4.094985],[-154.977528,-4.078709],[-155.010813,-4.060642],[-155.018422,-4.051202],[-155.011708,-4.047052]]],[[[-171.677805,-2.833185],[-171.712717,-2.822198],[-171.664011,-2.835382],[-171.633249,-2.862074],[-171.62975,-2.857599],[-171.666697,-2.793145],[-171.714589,-2.772882],[-171.721913,-2.78631],[-171.72761,-2.771905],[-171.715077,-2.759047],[-171.649851,-2.797296],[-171.629628,-2.827244],[-171.625722,-2.86891],[-171.677805,-2.833185]]],[[[176.786143,-2.608168],[176.813162,-2.614435],[176.850922,-2.654067],[176.840668,-2.662774],[176.827322,-2.656183],[176.772309,-2.608168],[176.786143,-2.608168]]],[[[175.9817,-2.505955],[175.973155,-2.489679],[175.993175,-2.510349],[175.9817,-2.505955]]],[[[175.591482,-1.8742],[175.599946,-1.895115],[175.586274,-1.922459],[175.586274,-1.870782],[175.552257,-1.819268],[175.591482,-1.8742]]],[[[175.058767,-1.436293],[175.068614,-1.497003],[175.060557,-1.531671],[175.038259,-1.552423],[175.012543,-1.549249],[175.008474,-1.526788],[175.020844,-1.499933],[175.045095,-1.484145],[175.018565,-1.519627],[175.018321,-1.531915],[175.028005,-1.541192],[175.058279,-1.506768],[175.051768,-1.452732],[175.038259,-1.436293],[175.045095,-1.428888],[175.058767,-1.436293]]],[[[176.409353,-1.332696],[176.444835,-1.373793],[176.464041,-1.436293],[176.44988,-1.425388],[176.429861,-1.374282],[176.395681,-1.319594],[176.409353,-1.332696]]],[[[176.009288,-1.334242],[176.023448,-1.362888],[176.018321,-1.387872],[175.983572,-1.367446],[175.983572,-1.36061],[176.018321,-1.374282],[176.006358,-1.342706],[175.955903,-1.286554],[175.943126,-1.284845],[175.949392,-1.298517],[175.937022,-1.293064],[175.942149,-1.284845],[175.977306,-1.284845],[176.009288,-1.334242]]],[[[174.765147,-1.202895],[174.778819,-1.264418],[174.75587,-1.257501],[174.746755,-1.185968],[174.716645,-1.134698],[174.743988,-1.14837],[174.765147,-1.202895]]],[[[174.476573,-0.709568],[174.498383,-0.789158],[174.497325,-0.805108],[174.483409,-0.819431],[174.472341,-0.801853],[174.483409,-0.798923],[174.483409,-0.812595],[174.497569,-0.796889],[174.476573,-0.74033],[174.462901,-0.648126],[174.476573,-0.669122],[174.476573,-0.709568]]],[[[174.438731,-0.627618],[174.463634,-0.644789],[174.437185,-0.640802],[174.38087,-0.592869],[174.393891,-0.592869],[174.438731,-0.627618]]],[[[173.620616,0.133368],[173.609874,0.143052],[173.634125,0.174018],[173.638357,0.195217],[173.606212,0.215969],[173.628673,0.219143],[173.641124,0.208441],[173.640798,0.192125],[173.620616,0.133368]]],[[[173.832286,0.448676],[173.917247,0.399482],[173.921641,0.379788],[173.832042,0.436347],[173.804942,0.434394],[173.82545,0.455512],[173.832286,0.448676]]],[[[172.987153,0.832343],[172.989757,0.82803],[172.983409,0.831285],[172.987153,0.832343]]],[[[172.977794,0.83633],[172.982432,0.831163],[172.969412,0.839667],[172.977794,0.83633]]],[[[173.075938,0.965888],[173.079275,0.945217],[173.061209,0.914211],[172.990977,0.834418],[173.022716,0.882717],[173.046641,0.901516],[173.071788,0.962592],[173.025564,0.998033],[173.009776,1.003607],[173.009776,0.989936],[173.003673,0.989936],[172.990001,1.024075],[173.003673,1.024075],[173.075938,0.965888]]],[[[172.983165,1.531195],[172.969412,1.537991],[172.959158,1.609687],[172.948985,1.627346],[172.962901,1.620592],[172.983165,1.531195]]],[[[173.036143,1.777167],[173.038341,1.742377],[173.029307,1.716295],[172.996349,1.710679],[172.990001,1.715522],[173.023774,1.721096],[173.035492,1.743557],[173.027354,1.810452],[173.036143,1.777167]]],[[[172.980317,1.882025],[173.023448,1.821438],[172.938487,1.923163],[172.934744,1.942694],[172.941742,1.926947],[172.969412,1.90705],[172.980317,1.882025]]],[[[-157.190989,1.763902],[-157.179392,1.753892],[-157.178782,1.718492],[-157.194081,1.722968],[-157.22411,1.709703],[-157.246409,1.713324],[-157.286855,1.75023],[-157.410593,1.781928],[-157.448964,1.800238],[-157.528269,1.862494],[-157.546824,1.856431],[-157.566029,1.863756],[-157.581166,1.880316],[-157.578236,1.907945],[-157.543528,1.929023],[-157.52123,1.92768],[-157.517568,1.923651],[-157.545359,1.90233],[-157.549509,1.884467],[-157.537302,1.86636],[-157.500925,1.865871],[-157.490671,1.850165],[-157.428538,1.838568],[-157.475209,1.880601],[-157.45165,1.87641],[-157.447336,1.901109],[-157.436594,1.893866],[-157.423695,1.863227],[-157.411977,1.858466],[-157.410024,1.879381],[-157.426381,1.912055],[-157.419993,1.929023],[-157.408315,1.921454],[-157.406321,1.942694],[-157.394724,1.935736],[-157.395863,1.916978],[-157.382069,1.902167],[-157.358469,1.923896],[-157.355051,1.947659],[-157.408884,1.969306],[-157.477528,2.018134],[-157.487904,2.000556],[-157.498891,2.002183],[-157.508412,2.010688],[-157.509389,2.024604],[-157.496287,2.03441],[-157.423818,2.020453],[-157.385854,1.990465],[-157.310129,1.97309],[-157.315053,1.952786],[-157.340443,1.930243],[-157.347727,1.860785],[-157.325429,1.835842],[-157.222971,1.773586],[-157.190989,1.763902]]],[[[172.750336,3.031968],[172.771495,3.023871],[172.788259,3.029039],[172.829112,3.064276],[172.886974,3.072943],[172.880138,3.052476],[172.844412,3.059801],[172.770274,3.011461],[172.750336,3.031968]]],[[[172.962087,3.141832],[172.969412,3.12816],[172.886974,3.100246],[172.962087,3.141832]]],[[[-159.284535,3.874823],[-159.249989,3.81977],[-159.263417,3.79914],[-159.308705,3.784654],[-159.333445,3.786444],[-159.352854,3.79914],[-159.360789,3.819403],[-159.294789,3.805976],[-159.285227,3.811428],[-159.28718,3.837836],[-159.299672,3.854641],[-159.335439,3.871487],[-159.352854,3.909003],[-159.378245,3.907172],[-159.393788,3.888577],[-159.367136,3.840155],[-159.410024,3.862047],[-159.406321,3.902574],[-159.37682,3.933295],[-159.342275,3.925767],[-159.319895,3.879096],[-159.284535,3.874823]]],[[[-172.222768,-4.50628],[-172.202016,-4.520685],[-172.174387,-4.513116],[-172.20344,-4.532159],[-172.227162,-4.518731],[-172.229604,-4.497328],[-172.20047,-4.493422],[-172.201039,-4.500095],[-172.222768,-4.50628]]],[[[-174.506418,-4.689142],[-174.500681,-4.694268],[-174.521555,-4.683852],[-174.506418,-4.689142]]],[[[-174.529286,-4.682712],[-174.527659,-4.683852],[-174.541737,-4.672784],[-174.529286,-4.682712]]],[[[-174.500844,-4.691095],[-174.543406,-4.660252],[-174.524403,-4.664483],[-174.500844,-4.691095]]],[[[-171.259958,-4.444106],[-171.244985,-4.441339],[-171.230051,-4.460545],[-171.236521,-4.46852],[-171.259633,-4.465265],[-171.259958,-4.444106]]],[[[-171.093577,-3.131443],[-171.085439,-3.111261],[-171.083119,-3.129978],[-171.092478,-3.14544],[-171.093577,-3.131443]]],[[[169.53891,-0.874607],[169.527599,-0.872491],[169.522634,-0.860528],[169.545177,-0.847914],[169.554454,-0.856052],[169.554454,-0.869317],[169.53891,-0.874607]]],[[[173.289724,2.03384],[173.270518,2.045559],[173.262706,1.997463],[173.260265,2.007229],[173.262055,2.049872],[173.268565,2.059312],[173.282888,2.056342],[173.318044,1.974026],[173.304454,1.961575],[173.260265,1.971137],[173.25587,1.985663],[173.258474,1.992825],[173.271658,1.97484],[173.307872,1.973293],[173.297374,1.989895],[173.289724,2.03384]]],[[[-160.41039,4.709174],[-160.416615,4.717108],[-160.401194,4.72309],[-160.378896,4.713284],[-160.395375,4.704779],[-160.41039,4.709174]]]]}}