{"type":"Feature","properties":{"iso3":"KOR","name":"South Korea","continent":"Asia"},"geometry":{"type":"MultiPolygon","coordinates":[[[[128.364919,38.624335],[128.441417,38.505805],[128.474457,38.426093],[128.562755,38.288967],[128.631602,38.144965],[128.678722,38.094306],[128.692475,38.064927],[128.923839,37.802314],[129.06422,37.67886],[129.073334,37.613023],[129.108735,37.597398],[129.148204,37.505113],[129.189952,37.469387],[129.235444,37.398261],[129.262787,37.370917],[129.282807,37.324449],[129.331065,37.282172],[129.346446,37.247504],[129.360118,37.17178],[129.378917,37.130113],[129.430186,37.073065],[129.434093,37.061103],[129.41269,37.018052],[129.428722,36.897406],[129.471202,36.771877],[129.473888,36.730618],[129.463471,36.69245],[129.422618,36.616645],[129.447113,36.493313],[129.440929,36.407945],[129.434825,36.389594],[129.391856,36.342475],[129.386567,36.322699],[129.382335,36.20185],[129.385753,36.185452],[129.403901,36.167629],[129.417084,36.107571],[129.430512,36.097398],[129.418712,36.072984],[129.381783,36.055175],[129.380859,36.041487],[129.433051,35.996108],[129.453331,35.993287],[129.554795,36.082478],[129.5713,36.071845],[129.58725,36.016913],[129.53559,35.939036],[129.522134,35.844552],[129.496216,35.785074],[129.497651,35.74787],[129.443053,35.63609],[129.467275,35.599668],[129.4546,35.513251],[129.427989,35.478746],[129.412852,35.472073],[129.400401,35.512641],[129.387462,35.529853],[129.373546,35.532782],[129.365245,35.513251],[129.387055,35.502265],[129.391856,35.475735],[129.387462,35.462307],[129.357758,35.451809],[129.364581,35.40687],[129.346787,35.382273],[129.361814,35.367172],[129.360444,35.353583],[129.320513,35.338545],[129.29272,35.316049],[129.269206,35.316767],[129.2624,35.283989],[129.249735,35.266228],[129.255707,35.246975],[129.194347,35.155504],[129.120257,35.149617],[129.128601,35.114148],[129.12347,35.100845],[129.101078,35.092276],[129.06384,35.120847],[129.037627,35.097834],[129.021862,35.059983],[129.013754,35.055307],[128.997026,35.075728],[129.000402,35.04595],[128.989405,35.052694],[128.965125,35.043649],[128.958447,35.050387],[128.95036,35.072913],[128.961341,35.118955],[128.95801,35.136897],[128.91842,35.081882],[128.904593,35.081099],[128.904586,35.12051],[128.897926,35.121305],[128.882186,35.081485],[128.791555,35.082953],[128.781077,35.111062],[128.771988,35.083313],[128.761971,35.079392],[128.738689,35.087988],[128.727794,35.104722],[128.70045,35.096137],[128.6963,35.1435],[128.680512,35.131415],[128.679942,35.115953],[128.638031,35.149848],[128.617931,35.143256],[128.617931,35.184882],[128.602061,35.213935],[128.578136,35.189358],[128.577891,35.178656],[128.601817,35.121243],[128.627045,35.090766],[128.624766,35.068183],[128.65211,35.061347],[128.603608,35.056627],[128.596772,35.075019],[128.580333,35.087877],[128.526378,35.103461],[128.478119,35.099066],[128.469737,35.088365],[128.481293,35.075019],[128.389171,35.049018],[128.382091,35.02261],[128.37143,35.013577],[128.37143,35.006781],[128.471202,35.050238],[128.488129,35.051174],[128.499604,35.009223],[128.491547,34.995917],[128.459239,34.987372],[128.426768,34.992499],[128.420014,34.982733],[128.441417,34.959947],[128.432953,34.890692],[128.450938,34.885891],[128.460948,34.903713],[128.474457,34.890692],[128.435313,34.843166],[128.382883,34.83929],[128.383397,34.854587],[128.410899,34.856024],[128.415863,34.862738],[128.340831,34.872707],[128.324474,34.897284],[128.357758,34.909898],[128.335053,34.947333],[128.302257,34.908026],[128.279063,34.906806],[128.257904,34.930162],[128.224132,34.937893],[128.208588,34.920844],[128.207042,34.890692],[128.139415,34.891913],[128.121104,34.900295],[128.113048,34.925198],[128.055675,34.931627],[128.054047,35.035834],[128.069347,35.082465],[128.024994,35.035793],[128.000987,35.034084],[128.019298,34.998684],[128.006847,34.991767],[127.979747,34.992255],[127.953868,34.978827],[127.937022,35.012641],[127.925792,35.019761],[127.91212,34.962063],[127.891205,34.946682],[127.84433,34.950181],[127.830333,34.944729],[127.798432,34.958645],[127.744395,34.960191],[127.719249,34.990058],[127.72047,34.965155],[127.709239,34.940416],[127.66212,34.906806],[127.641124,34.899115],[127.626069,34.909735],[127.607188,34.941311],[127.591563,34.946438],[127.575287,34.913642],[127.576427,34.896918],[127.601166,34.85635],[127.656505,34.811916],[127.699962,34.842271],[127.756847,34.840806],[127.775645,34.849066],[127.741547,34.725572],[127.706391,34.715888],[127.656261,34.731269],[127.63795,34.698228],[127.624278,34.698228],[127.63795,34.670966],[127.640717,34.617987],[127.614024,34.636868],[127.572276,34.647406],[127.560802,34.662177],[127.555919,34.684556],[127.584483,34.746243],[127.555919,34.800727],[127.535411,34.808092],[127.521821,34.859036],[127.528087,34.879828],[127.521251,34.889838],[127.487315,34.841498],[127.444672,34.829169],[127.365326,34.824042],[127.425548,34.800727],[127.425548,34.79442],[127.361583,34.773342],[127.357921,34.759711],[127.366466,34.753974],[127.395274,34.756659],[127.402354,34.747138],[127.394867,34.742499],[127.406016,34.700019],[127.466156,34.662177],[127.487559,34.636868],[127.45224,34.636868],[127.495209,34.623236],[127.50359,34.591325],[127.484141,34.576565],[127.45224,34.574774],[127.3921,34.602037],[127.349376,34.585842],[127.343598,34.578192],[127.357921,34.554267],[127.380408,34.547105],[127.418419,34.55528],[127.43922,34.540676],[127.374941,34.485037],[127.356618,34.491965],[127.327802,34.473929],[127.330821,34.456488],[127.343598,34.445014],[127.315926,34.444901],[127.260997,34.513332],[127.223481,34.54682],[127.172374,34.527574],[127.176362,34.51732],[127.1338,34.526313],[127.124522,34.540676],[127.129649,34.56391],[127.159028,34.580024],[127.191661,34.623603],[127.21339,34.636868],[127.192882,34.574774],[127.246674,34.583726],[127.261322,34.600409],[127.260997,34.62995],[127.241466,34.655829],[127.240571,34.670966],[127.27475,34.705146],[127.292003,34.694525],[127.294444,34.66413],[127.314464,34.651923],[127.329926,34.656684],[127.357921,34.698228],[127.331554,34.741156],[127.290782,34.721381],[127.248057,34.766547],[127.199718,34.691474],[127.136241,34.688056],[127.099132,34.654486],[127.010265,34.612494],[127.007172,34.581529],[126.986664,34.553697],[126.994151,34.540676],[126.938975,34.495917],[126.940766,34.454576],[126.931407,34.447699],[126.904796,34.458686],[126.896007,34.449937],[126.89796,34.417711],[126.809825,34.451239],[126.802013,34.470404],[126.806651,34.568549],[126.800059,34.582017],[126.777843,34.586493],[126.755219,34.557685],[126.765961,34.523383],[126.735118,34.514879],[126.761485,34.479193],[126.708751,34.449897],[126.723643,34.445014],[126.726899,34.43301],[126.690196,34.43594],[126.682221,34.414008],[126.633637,34.395697],[126.603282,34.300442],[126.578868,34.304755],[126.521251,34.294176],[126.527436,34.341376],[126.505707,34.349921],[126.479584,34.348822],[126.488536,34.380561],[126.49643,34.379869],[126.517589,34.413764],[126.5088,34.427232],[126.475841,34.433254],[126.483735,34.47016],[126.481944,34.476752],[126.465912,34.472357],[126.470307,34.496487],[126.490245,34.508612],[126.541759,34.513332],[126.513764,34.53384],[126.539317,34.553616],[126.539643,34.562974],[126.527436,34.568549],[126.507579,34.554267],[126.479584,34.561103],[126.465912,34.540676],[126.39088,34.53384],[126.389008,34.549709],[126.3567,34.568549],[126.346039,34.584621],[126.333018,34.57099],[126.318614,34.571682],[126.29184,34.599107],[126.301524,34.608873],[126.322765,34.608873],[126.318614,34.619127],[126.271088,34.642483],[126.269379,34.671291],[126.290294,34.75023],[126.319591,34.747748],[126.3567,34.698228],[126.344249,34.677883],[126.369884,34.608873],[126.46461,34.584662],[126.472748,34.602037],[126.434997,34.606786],[126.412567,34.629766],[126.416108,34.652737],[126.386134,34.635835],[126.378613,34.711182],[126.447881,34.705879],[126.452891,34.670966],[126.535711,34.623178],[126.54005,34.62759],[126.519111,34.65037],[126.531556,34.652597],[126.602701,34.625532],[126.623627,34.62995],[126.60255,34.63288],[126.555431,34.66352],[126.562755,34.670966],[126.508393,34.718492],[126.465343,34.729682],[126.435767,34.728105],[126.415375,34.739],[126.390179,34.733397],[126.36706,34.739664],[126.364017,34.74916],[126.392328,34.768607],[126.422128,34.764784],[126.460149,34.778755],[126.50587,34.751044],[126.521251,34.753485],[126.534923,34.746039],[126.532481,34.782864],[126.544444,34.795722],[126.56894,34.800727],[126.638194,34.788031],[126.631114,34.800727],[126.665294,34.808092],[126.650401,34.82217],[126.575776,34.821763],[126.575776,34.855292],[126.589447,34.883246],[126.581391,34.898017],[126.567638,34.901435],[126.541759,34.883246],[126.548595,34.849066],[126.513276,34.782294],[126.493419,34.780829],[126.487153,34.787055],[126.500743,34.808092],[126.487153,34.813788],[126.456065,34.800727],[126.429454,34.805609],[126.419318,34.791988],[126.373546,34.790717],[126.370128,34.801337],[126.405121,34.837226],[126.408702,34.873969],[126.425059,34.890692],[126.401703,34.915473],[126.397716,34.951483],[126.436371,34.981391],[126.399994,34.984565],[126.370616,34.968492],[126.377289,34.937893],[126.363292,34.927436],[126.315196,34.937893],[126.324718,34.943264],[126.301524,34.972602],[126.349213,34.972602],[126.346202,34.994086],[126.374115,35.016832],[126.36671,35.037787],[126.320649,35.083319],[126.301524,35.08869],[126.309418,35.06623],[126.302501,35.053371],[126.288341,35.052965],[126.274181,35.068183],[126.283539,35.078843],[126.257823,35.106838],[126.254242,35.12344],[126.268647,35.137152],[126.289073,35.13939],[126.307221,35.131781],[126.315196,35.115953],[126.327891,35.122626],[126.343028,35.156968],[126.35141,35.135972],[126.344981,35.096422],[126.353608,35.097846],[126.361664,35.077297],[126.377289,35.068183],[126.411388,35.061347],[126.407237,35.038967],[126.425059,35.019761],[126.450287,35.066596],[126.452403,35.100287],[126.414154,35.119696],[126.403901,35.142157],[126.371104,35.173529],[126.363536,35.187974],[126.377289,35.211615],[126.361583,35.225653],[126.363536,35.239488],[126.30893,35.233303],[126.320079,35.244574],[126.377289,35.25259],[126.3567,35.259996],[126.380382,35.284166],[126.380707,35.327094],[126.411388,35.369859],[126.431895,35.349351],[126.458507,35.345445],[126.418224,35.394029],[126.469814,35.498526],[126.492663,35.525333],[126.594233,35.542488],[126.622977,35.568612],[126.642889,35.572775],[126.679047,35.538031],[126.692475,35.534369],[126.670177,35.58869],[126.65504,35.595771],[126.513158,35.576897],[126.463736,35.601973],[126.467559,35.639638],[126.490977,35.649115],[126.530335,35.683164],[126.597168,35.71389],[126.625132,35.745626],[126.629389,35.775481],[126.662154,35.792998],[126.733127,35.792415],[126.771332,35.775214],[126.781993,35.76024],[126.791026,35.791449],[126.700694,35.83983],[126.70338,35.848456],[126.729096,35.864976],[126.79713,35.86286],[126.819347,35.888129],[126.837494,35.893297],[126.809825,35.911689],[126.733165,35.885565],[126.612289,35.890224],[126.608809,35.931127],[126.56974,35.945952],[126.525736,35.940359],[126.521417,35.97052],[126.711192,35.985785],[126.727306,35.993638],[126.744477,35.989569],[126.802338,36.020941],[126.849132,36.036038],[126.868907,36.047512],[126.870697,36.061957],[126.791515,36.042182],[126.754405,36.017727],[126.692475,35.999905],[126.677257,36.005927],[126.665294,36.034613],[126.631114,36.075588],[126.64503,36.084703],[126.612328,36.098992],[126.589447,36.130805],[126.571869,36.136979],[126.552282,36.130809],[126.551768,36.141823],[126.529172,36.153514],[126.509648,36.151025],[126.500255,36.125718],[126.493419,36.130805],[126.497401,36.160019],[126.531357,36.17394],[126.561341,36.181588],[126.603282,36.17182],[126.580089,36.199368],[126.548595,36.205959],[126.534923,36.219631],[126.567963,36.286811],[126.582612,36.294664],[126.571544,36.305609],[126.513764,36.322659],[126.528819,36.333889],[126.573334,36.342597],[126.582612,36.353013],[126.576182,36.366278],[126.5206,36.373603],[126.500743,36.390937],[126.500743,36.397691],[126.513764,36.397691],[126.498779,36.420106],[126.537537,36.433221],[126.556778,36.45583],[126.617442,36.473456],[126.559093,36.473456],[126.523448,36.441107],[126.507579,36.438666],[126.497651,36.448391],[126.483409,36.497016],[126.513927,36.528795],[126.510753,36.534247],[126.49158,36.52867],[126.465685,36.549387],[126.469218,36.566934],[126.458095,36.591407],[126.512312,36.603209],[126.519867,36.626166],[126.483799,36.649603],[126.50803,36.670413],[126.49851,36.684273],[126.474535,36.687885],[126.469687,36.704587],[126.477349,36.716888],[126.500743,36.719875],[126.479584,36.747138],[126.437999,36.716457],[126.445636,36.700722],[126.439513,36.664265],[126.443907,36.638081],[126.424238,36.606581],[126.36715,36.629065],[126.377909,36.702582],[126.366422,36.706972],[126.369884,36.732327],[126.359141,36.742662],[126.343028,36.740383],[126.324311,36.699652],[126.301524,36.699368],[126.329112,36.66059],[126.335704,36.64411],[126.324718,36.636623],[126.326182,36.628363],[126.343028,36.610012],[126.314789,36.60163],[126.295258,36.582709],[126.288585,36.610012],[126.302338,36.634426],[126.27296,36.673163],[126.281749,36.692572],[126.274181,36.719875],[126.229259,36.684719],[126.177745,36.673245],[126.165619,36.6789],[126.156993,36.702053],[126.203136,36.705878],[126.213634,36.711615],[126.21339,36.726711],[126.202647,36.742418],[126.158214,36.76081],[126.150157,36.723944],[126.132823,36.703843],[126.128184,36.761298],[126.165619,36.816067],[126.185395,36.781317],[126.21339,36.781317],[126.192231,36.80858],[126.220714,36.801744],[126.232432,36.804185],[126.240001,36.816067],[126.198741,36.823228],[126.196869,36.835679],[126.21339,36.857001],[126.190766,36.872016],[126.192231,36.885932],[126.233897,36.904202],[126.229991,36.873033],[126.275238,36.874742],[126.281749,36.883734],[126.285655,36.961127],[126.30893,36.966864],[126.306651,36.931464],[126.323497,36.883246],[126.301524,36.857001],[126.308116,36.833075],[126.285492,36.814927],[126.282725,36.803697],[126.29127,36.789252],[126.327891,36.804633],[126.3567,36.788764],[126.328705,36.846991],[126.339366,36.857001],[126.365326,36.835354],[126.374115,36.849555],[126.404552,36.857001],[126.404552,36.863227],[126.377289,36.870673],[126.377289,36.876899],[126.401378,36.881415],[126.415538,36.899848],[126.4192,36.922309],[126.411388,36.93891],[126.376475,36.941596],[126.353852,36.955227],[126.350678,36.964504],[126.369884,36.959418],[126.376475,36.974921],[126.369395,36.984117],[126.335704,36.986762],[126.353038,36.999986],[126.391449,36.989814],[126.39088,37.00788],[126.445404,37.003404],[126.452891,36.99018],[126.432384,36.961982],[126.438731,36.945787],[126.468598,36.957587],[126.478526,36.935858],[126.465912,36.911607],[126.465912,36.866929],[126.483897,36.841498],[126.519135,36.947903],[126.548595,36.92593],[126.56837,36.898505],[126.582612,36.898017],[126.559093,36.942369],[126.493419,36.997016],[126.496837,37.007799],[126.505382,37.006578],[126.54005,36.976874],[126.572113,36.977484],[126.566173,36.99079],[126.53297,37.000922],[126.512254,37.01643],[126.500743,37.054999],[126.535004,37.049262],[126.626095,36.996104],[126.636095,36.982453],[126.621674,36.959784],[126.633556,36.937405],[126.631114,36.911607],[126.646495,36.925116],[126.649449,36.966056],[126.665043,36.988525],[126.681544,36.994704],[126.757767,36.98222],[126.796235,36.955756],[126.797699,36.934394],[126.781993,36.891181],[126.812755,36.916938],[126.823009,36.918443],[126.83017,36.910224],[126.836518,36.866929],[126.829845,36.839342],[126.849132,36.788031],[126.846283,36.77912],[126.829845,36.775092],[126.836762,36.760932],[126.850841,36.753974],[126.871593,36.804023],[126.863292,36.829088],[126.904796,36.822252],[126.860199,36.869574],[126.942475,36.893378],[126.989513,36.918606],[127.000336,36.928371],[127.007172,36.952623],[126.995942,36.964789],[126.999522,36.970893],[127.039399,36.982001],[127.042003,36.993598],[126.982188,36.98017],[126.973155,36.969957],[126.976329,36.939032],[126.969086,36.932034],[126.945811,36.92593],[126.91269,36.929633],[126.873383,36.947984],[126.837901,36.975898],[126.82441,37.002616],[126.884288,37.00788],[126.870697,37.02147],[126.910981,37.014106],[126.883149,37.069566],[126.890473,37.095933],[126.879161,37.100002],[126.870453,37.090766],[126.858653,37.041327],[126.849132,37.037299],[126.839692,37.044867],[126.80128,37.037746],[126.755219,37.048814],[126.752859,37.100688],[126.764451,37.117658],[126.794182,37.13892],[126.863536,37.150295],[126.870697,37.175482],[126.864513,37.179104],[126.829845,37.158677],[126.807384,37.165269],[126.802338,37.18537],[126.759288,37.1647],[126.714447,37.127997],[126.685639,37.130113],[126.706879,37.164862],[126.668468,37.161811],[126.665294,37.175482],[126.670665,37.185614],[126.706879,37.199652],[126.719005,37.212877],[126.680186,37.217678],[126.658458,37.254299],[126.67213,37.261705],[126.709972,37.261705],[126.752208,37.248277],[126.767589,37.254299],[126.767589,37.232327],[126.781993,37.22016],[126.792491,37.223456],[126.802338,37.254299],[126.819184,37.2744],[126.848643,37.265326],[126.870697,37.26789],[126.852143,37.2862],[126.73331,37.30617],[126.689793,37.332486],[126.687488,37.344028],[126.720045,37.377053],[126.717162,37.383839],[126.66475,37.389168],[126.64034,37.36439],[126.615087,37.379745],[126.638629,37.413791],[126.630308,37.425013],[126.595985,37.439657],[126.595018,37.472273],[126.604761,37.485697],[126.642022,37.496062],[126.644163,37.504385],[126.630675,37.507301],[126.627025,37.498595],[126.606451,37.496812],[126.601106,37.506802],[126.603792,37.549297],[126.560515,37.607353],[126.531016,37.754706],[126.534923,37.768215],[126.603282,37.754543],[126.648529,37.765041],[126.661876,37.757961],[126.668793,37.727729],[126.661469,37.672431],[126.692149,37.652045],[126.755219,37.637885],[126.678803,37.686265],[126.700531,37.742987],[126.684906,37.793606],[126.699962,37.829657],[126.692475,37.837104],[126.667459,37.82781],[126.660516,37.913811],[126.665787,37.937634],[126.722115,37.953938],[126.761906,37.979001],[126.847327,38.082018],[126.919829,38.134598],[126.953728,38.200667],[126.971919,38.218909],[127.090464,38.285855],[127.157489,38.307224],[127.377113,38.318515],[127.47194,38.295906],[127.560823,38.312081],[127.753731,38.325362],[127.787011,38.296682],[127.800757,38.293917],[127.866851,38.304846],[128.039864,38.304278],[128.10849,38.323502],[128.172362,38.355954],[128.225589,38.399776],[128.268067,38.45352],[128.281089,38.48437],[128.28543,38.519846],[128.274785,38.571497],[128.281089,38.584416],[128.364919,38.624335]]],[[[126.405414,36.458836],[126.43214,36.407945],[126.36378,36.411363],[126.361053,36.426321],[126.377615,36.446194],[126.35377,36.434068],[126.342621,36.438381],[126.345714,36.453315],[126.36378,36.473456],[126.356944,36.479641],[126.343272,36.46662],[126.33864,36.475611],[126.328143,36.471089],[126.329763,36.531724],[126.314818,36.581787],[126.341181,36.604134],[126.360244,36.60936],[126.373546,36.592231],[126.364266,36.56697],[126.381114,36.536282],[126.379405,36.518378],[126.404796,36.493313],[126.3838,36.493313],[126.3838,36.487128],[126.404796,36.479641],[126.405414,36.458836]]],[[[126.295258,37.802476],[126.333263,37.800442],[126.34254,37.792141],[126.335948,37.7744],[126.318207,37.762274],[126.254568,37.768215],[126.224457,37.760443],[126.22047,37.771308],[126.234141,37.802314],[126.24643,37.811754],[126.260509,37.814765],[126.295258,37.802476]]],[[[126.946056,33.478013],[126.953624,33.465033],[126.932384,33.451321],[126.93922,33.430854],[126.907507,33.395725],[126.87353,33.373046],[126.840587,33.310207],[126.780141,33.30555],[126.741793,33.280208],[126.640723,33.264666],[126.606919,33.24061],[126.470562,33.228714],[126.428458,33.239309],[126.333427,33.238169],[126.30379,33.226559],[126.286143,33.200385],[126.27003,33.197577],[126.253917,33.204047],[126.231151,33.234923],[126.200824,33.243552],[126.171397,33.269355],[126.161143,33.300767],[126.195811,33.366685],[126.240977,33.392768],[126.270661,33.435874],[126.297949,33.441715],[126.310567,33.464476],[126.45938,33.502381],[126.484935,33.520758],[126.582434,33.529284],[126.648798,33.553426],[126.79236,33.563797],[126.823366,33.55944],[126.849946,33.53498],[126.898204,33.518988],[126.912852,33.506578],[126.932384,33.464911],[126.946056,33.478013]]],[[[127.173025,34.48371],[127.234223,34.480292],[127.245128,34.464057],[127.241873,34.445461],[127.228689,34.430243],[127.168956,34.417711],[127.117361,34.437567],[127.122813,34.450588],[127.110525,34.464911],[127.173025,34.48371]]],[[[126.380056,34.49844],[126.373546,34.454413],[126.345876,34.409003],[126.335948,34.403469],[126.309255,34.423977],[126.305186,34.401679],[126.209972,34.358791],[126.144786,34.355048],[126.142589,34.363756],[126.158458,34.38231],[126.153087,34.388495],[126.124278,34.403469],[126.124278,34.38231],[126.103282,34.402777],[126.115733,34.436184],[126.144216,34.463202],[126.17213,34.464911],[126.187022,34.494208],[126.223806,34.513414],[126.226573,34.527574],[126.238292,34.515692],[126.268321,34.52204],[126.274425,34.537258],[126.241059,34.566474],[126.247732,34.574774],[126.280447,34.568305],[126.305431,34.554267],[126.322276,34.53384],[126.349457,34.54682],[126.380056,34.49844]]],[[[127.782074,34.684556],[127.801606,34.670478],[127.817231,34.630764],[127.815115,34.601955],[127.797862,34.579739],[127.775401,34.58397],[127.740001,34.613674],[127.73585,34.62523],[127.741873,34.643622],[127.768321,34.666083],[127.77589,34.691474],[127.760753,34.704739],[127.762543,34.712836],[127.796641,34.714179],[127.7942,34.693793],[127.782074,34.684556]]],[[[125.989024,34.713324],[126.005382,34.692613],[125.976899,34.656399],[125.959727,34.656684],[125.916026,34.687649],[125.952403,34.705146],[125.976736,34.728258],[125.989024,34.713324]]],[[[126.007172,34.780951],[126.007579,34.759711],[125.986501,34.766547],[125.977875,34.757148],[125.946137,34.756659],[125.930024,34.722602],[125.906423,34.719306],[125.892589,34.73664],[125.893891,34.762274],[125.912852,34.776923],[125.995942,34.790758],[126.007172,34.780951]]],[[[126.056,34.913642],[126.060313,34.926907],[126.070079,34.9289],[126.089122,34.911322],[126.091482,34.896918],[126.08074,34.870998],[126.054698,34.859198],[126.031423,34.868964],[125.986501,34.862738],[126.028005,34.909898],[126.052257,34.907538],[126.056,34.913642]]],[[[128.069591,34.815009],[128.074718,34.803656],[128.063324,34.769965],[128.065278,34.737535],[128.051606,34.728705],[128.060069,34.708401],[128.055919,34.698228],[128.040538,34.695868],[128.010102,34.708808],[127.975271,34.699937],[127.954112,34.759711],[127.937673,34.767035],[127.924571,34.759589],[127.906261,34.71308],[127.8921,34.712714],[127.861827,34.730862],[127.830333,34.833564],[127.829356,34.868964],[127.840831,34.886949],[127.862315,34.896064],[127.872895,34.924465],[127.90211,34.940009],[127.917247,34.936184],[127.938243,34.913967],[127.928071,34.888251],[127.90561,34.868964],[127.919932,34.835435],[127.94988,34.824652],[127.961925,34.806952],[128.029063,34.821763],[128.069591,34.815009]]],[[[128.748546,34.868964],[128.742931,34.84455],[128.734141,34.837551],[128.720551,34.842271],[128.74171,34.790717],[128.716563,34.793199],[128.686371,34.808092],[128.680186,34.786566],[128.657237,34.756985],[128.693858,34.736151],[128.678233,34.72484],[128.583995,34.705146],[128.618175,34.725572],[128.598643,34.739976],[128.604503,34.766547],[128.573497,34.753485],[128.564301,34.758734],[128.560395,34.781806],[128.591563,34.791205],[128.604503,34.835435],[128.590831,34.842271],[128.528819,34.808092],[128.491547,34.849921],[128.488455,34.868964],[128.523285,34.899156],[128.573741,34.910061],[128.645518,34.890692],[128.616384,34.921861],[128.610606,34.954901],[128.62379,34.953559],[128.693858,34.986274],[128.681895,35.004625],[128.687511,35.022854],[128.702891,35.032945],[128.724946,35.018948],[128.719249,34.966295],[128.734386,34.935452],[128.714366,34.87641],[128.744314,34.887763],[128.748546,34.868964]]],[[[126.110606,35.051174],[126.056,35.061347],[126.069102,35.102362],[126.098888,35.113267],[126.111339,35.133287],[126.129405,35.14289],[126.165212,35.1435],[126.127778,35.120551],[126.131358,35.100246],[126.144786,35.082465],[126.122813,35.06981],[126.110606,35.051174]]],[[[126.563303,37.514443],[126.583066,37.490384],[126.506572,37.465568],[126.443413,37.420625],[126.424434,37.421569],[126.416278,37.434555],[126.401427,37.43447],[126.399492,37.444921],[126.3832,37.437455],[126.364973,37.442291],[126.371327,37.447311],[126.355511,37.466223],[126.359342,37.47363],[126.373568,37.471643],[126.418885,37.496861],[126.47338,37.499257],[126.493709,37.507781],[126.500661,37.530185],[126.51483,37.534347],[126.563303,37.514443]]],[[[130.903575,37.545844],[130.920665,37.53559],[130.919444,37.510199],[130.896739,37.463121],[130.877696,37.455512],[130.852224,37.459459],[130.811046,37.487006],[130.805837,37.507392],[130.814301,37.52261],[130.903575,37.545844]]],[[[126.3567,37.695136],[126.378754,37.678697],[126.380707,37.669176],[126.370128,37.658352],[126.349864,37.657375],[126.281993,37.699286],[126.303722,37.737209],[126.319998,37.747219],[126.336681,37.709906],[126.3567,37.695136]]],[[[126.507823,37.596869],[126.476085,37.61107],[126.410167,37.602037],[126.390636,37.60928],[126.370128,37.631049],[126.40089,37.637437],[126.416677,37.651842],[126.366954,37.72724],[126.37379,37.796129],[126.407074,37.820705],[126.425304,37.824449],[126.516368,37.767239],[126.521495,37.751166],[126.514008,37.723538],[126.52768,37.695868],[126.52768,37.651516],[126.542003,37.631049],[126.507823,37.596869]]],[[[124.732677,37.980455],[124.743663,37.969672],[124.742035,37.955024],[124.728201,37.947008],[124.708751,37.956285],[124.677989,37.952541],[124.678396,37.942043],[124.705333,37.932685],[124.684906,37.919989],[124.644054,37.924506],[124.613617,37.945054],[124.624034,37.980455],[124.649425,37.973293],[124.704926,37.988674],[124.732677,37.980455]]],[[[127.309093,34.020087],[127.323497,34.005764],[127.295665,34.014106],[127.278331,34.044623],[127.283214,34.058295],[127.295665,34.061469],[127.296397,34.037584],[127.309093,34.020087]]],[[[127.531912,34.450588],[127.536388,34.43476],[127.49464,34.414252],[127.452159,34.45303],[127.458263,34.472886],[127.49171,34.462226],[127.509939,34.470038],[127.531912,34.450588]]],[[[127.78297,34.506985],[127.793956,34.498236],[127.791759,34.492011],[127.771169,34.488186],[127.732188,34.50849],[127.70753,34.533881],[127.712901,34.542426],[127.748057,34.551093],[127.761078,34.543118],[127.78297,34.506985]]],[[[126.100108,34.596747],[126.099376,34.558661],[126.057628,34.532538],[126.035167,34.533922],[126.031586,34.539049],[126.054454,34.548896],[126.031261,34.556383],[126.064952,34.563788],[126.081309,34.580756],[126.060069,34.620795],[126.067638,34.625474],[126.099376,34.605455],[126.100108,34.596747]]],[[[126.038097,34.569485],[126.020518,34.571438],[126.016612,34.606147],[126.028575,34.634223],[126.060395,34.584296],[126.057628,34.572577],[126.038097,34.569485]]],[[[125.445811,34.688463],[125.457286,34.690904],[125.412608,34.63231],[125.398774,34.631985],[125.393403,34.659654],[125.412852,34.691962],[125.429454,34.698432],[125.445811,34.688463]]],[[[126.174083,34.732815],[126.177908,34.713365],[126.17213,34.703803],[126.159434,34.702786],[126.138438,34.723456],[126.111339,34.717719],[126.069591,34.76968],[126.117849,34.769965],[126.163585,34.75495],[126.174083,34.732815]]],[[[126.168712,34.792304],[126.164236,34.769761],[126.146251,34.761868],[126.09254,34.787584],[126.149425,34.808092],[126.168712,34.792304]]],[[[126.079438,34.822659],[126.064138,34.842597],[126.067149,34.850531],[126.093761,34.857611],[126.112559,34.85342],[126.113292,34.871161],[126.122813,34.878811],[126.142263,34.879136],[126.152029,34.871161],[126.139659,34.857896],[126.1421,34.832913],[126.118907,34.823798],[126.115896,34.803127],[126.096202,34.798774],[126.079438,34.822659]]],[[[128.072765,34.84512],[128.082367,34.835598],[128.026541,34.843207],[127.987315,34.83808],[127.963634,34.859768],[128.001964,34.913031],[128.017833,34.916571],[128.02296,34.905504],[128.013438,34.869127],[128.018728,34.866156],[128.036306,34.892279],[128.045909,34.893622],[128.072765,34.84512]]],[[[126.24643,34.916246],[126.225352,34.913398],[126.222423,34.931952],[126.253184,34.933498],[126.24643,34.916246]]],[[[126.178396,35.048489],[126.181651,35.02912],[126.172374,35.023627],[126.133556,35.03974],[126.139415,35.046454],[126.129649,35.05268],[126.143809,35.057685],[126.178396,35.048489]]],[[[128.842784,35.021877],[128.83839,35.001207],[128.826671,34.992377],[128.809093,35.025865],[128.804373,35.056342],[128.836436,35.059801],[128.842784,35.021877]]],[[[126.258067,35.570624],[126.250499,35.580959],[126.26295,35.591783],[126.256521,35.596015],[126.276134,35.61286],[126.307302,35.616645],[126.305675,35.603217],[126.258067,35.570624]]],[[[126.099864,37.228013],[126.088715,37.22956],[126.104747,37.267524],[126.15919,37.23192],[126.142345,37.215399],[126.121593,37.210924],[126.099864,37.228013]]],[[[126.48406,37.278998],[126.498302,37.26142],[126.483165,37.25434],[126.469493,37.233466],[126.43572,37.23843],[126.435313,37.263983],[126.443533,37.273098],[126.48406,37.278998]]],[[[126.613943,37.255194],[126.618826,37.242011],[126.613536,37.232815],[126.562511,37.200385],[126.539317,37.198065],[126.560802,37.251288],[126.540782,37.282945],[126.559418,37.278632],[126.573497,37.288479],[126.577891,37.271145],[126.613943,37.255194]]],[[[125.688243,37.679267],[125.706228,37.672309],[125.687836,37.65176],[125.67921,37.669664],[125.680431,37.67829],[125.688243,37.679267]]],[[[124.716482,37.84691],[124.725841,37.837388],[124.714203,37.809556],[124.687266,37.800767],[124.673513,37.817043],[124.676524,37.824897],[124.716482,37.84691]]],[[[125.127696,34.04857],[125.092133,34.071763],[125.089692,34.079535],[125.102224,34.095933],[125.122081,34.083808],[125.136404,34.059272],[125.134288,34.046861],[125.127696,34.04857]]],[[[126.598969,34.168647],[126.613536,34.152533],[126.581798,34.157416],[126.536876,34.126451],[126.517751,34.127143],[126.507091,34.138861],[126.515147,34.16885],[126.532888,34.179104],[126.598969,34.168647]]],[[[126.672048,34.153266],[126.679454,34.146552],[126.671886,34.142971],[126.665375,34.119086],[126.655528,34.116848],[126.638682,34.128119],[126.64503,34.177476],[126.638438,34.182563],[126.644786,34.193752],[126.670746,34.189887],[126.673106,34.180121],[126.661876,34.165717],[126.672048,34.153266]]],[[[126.909353,34.197699],[126.924978,34.184882],[126.913585,34.15766],[126.886974,34.151353],[126.866954,34.162828],[126.856944,34.157172],[126.849132,34.174384],[126.867931,34.207465],[126.899262,34.209662],[126.909353,34.197699]]],[[[126.612153,34.218166],[126.617035,34.204535],[126.606619,34.1883],[126.583995,34.186265],[126.583832,34.175605],[126.548839,34.194566],[126.561534,34.225165],[126.556407,34.232123],[126.612153,34.218166]]],[[[126.088715,34.307929],[126.089366,34.289618],[126.069347,34.278998],[126.060802,34.286078],[126.049327,34.280219],[126.028656,34.28734],[126.021658,34.29564],[126.033214,34.314887],[126.088715,34.307929]]],[[[126.853852,34.308539],[126.840587,34.303371],[126.820567,34.325629],[126.788748,34.32095],[126.758962,34.33275],[126.785899,34.343248],[126.802908,34.33869],[126.837657,34.353746],[126.893321,34.341254],[126.876801,34.312242],[126.853852,34.308539]]],[[[127.091563,34.344916],[127.096934,34.337795],[127.065278,34.339789],[127.073985,34.334174],[127.038829,34.312893],[127.045584,34.335435],[127.023692,34.339179],[127.017589,34.351549],[126.994314,34.354682],[127.026215,34.37873],[127.045909,34.357652],[127.077403,34.35932],[127.091563,34.344916]]],[[[126.763927,34.309231],[126.771495,34.291897],[126.763194,34.289781],[126.74171,34.298245],[126.7317,34.289374],[126.688975,34.301093],[126.695649,34.320787],[126.663585,34.323432],[126.644867,34.337104],[126.645763,34.385565],[126.670177,34.40058],[126.709972,34.39289],[126.721853,34.381293],[126.745616,34.324205],[126.763927,34.309231]]],[[[126.762462,34.382961],[126.753184,34.386949],[126.782481,34.426744],[126.823009,34.439846],[126.83546,34.438056],[126.840994,34.425482],[126.835785,34.421047],[126.861095,34.392768],[126.824718,34.395209],[126.793305,34.378892],[126.775727,34.354722],[126.762462,34.382961]]],[[[128.294607,34.639553],[128.286062,34.622219],[128.236257,34.61046],[128.237804,34.625759],[128.225271,34.632839],[128.22877,34.647854],[128.239513,34.652411],[128.271169,34.638495],[128.271251,34.63231],[128.294607,34.639553]]],[[[128.38583,34.820125],[128.428226,34.827448],[128.437997,34.819572],[128.438976,34.793903],[128.420886,34.78672],[128.437332,34.779809],[128.423083,34.763253],[128.406534,34.763098],[128.395363,34.77854],[128.38699,34.778804],[128.386206,34.791917],[128.368702,34.796537],[128.380089,34.810404],[128.352395,34.821804],[128.334192,34.819132],[128.332049,34.825702],[128.351831,34.835422],[128.38583,34.820125]]],[[[128.239919,34.836168],[128.260509,34.814643],[128.240733,34.807074],[128.241466,34.799994],[128.223155,34.8015],[128.205821,34.815619],[128.227306,34.838568],[128.239919,34.836168]]],[[[126.340668,34.864081],[126.35963,34.858588],[126.361664,34.837388],[126.342052,34.822496],[126.331309,34.825832],[126.340831,34.83747],[126.310313,34.854071],[126.248709,34.844713],[126.230724,34.85456],[126.292654,34.880683],[126.297618,34.894232],[126.286469,34.912909],[126.297374,34.917548],[126.345225,34.896226],[126.318126,34.876451],[126.326508,34.864203],[126.340668,34.864081]]],[[[126.234223,35.047065],[126.236095,35.051947],[126.174815,35.068264],[126.158702,35.094224],[126.177501,35.10578],[126.198578,35.097113],[126.216645,35.103664],[126.236013,35.098375],[126.238536,35.091864],[126.218516,35.076606],[126.255138,35.056383],[126.264985,35.034247],[126.261078,35.024563],[126.242931,35.027289],[126.234223,35.047065]]],[[[131.861042,37.244006],[131.862522,37.243104],[131.860148,37.242399],[131.861042,37.244006]]]]}}