{"type":"Feature","properties":{"iso3":"KWT","name":"Kuwait","continent":"Asia"},"geometry":{"type":"MultiPolygon","coordinates":[[[[47.948009,29.994045],[47.975271,29.942572],[47.982677,29.860663],[47.995616,29.827704],[48.021739,29.779731],[48.052419,29.742987],[48.078868,29.743964],[48.119151,29.654527],[48.161306,29.60163],[48.180917,29.562217],[48.176758,29.541916],[48.154518,29.53909],[48.113536,29.554633],[48.085948,29.575019],[48.023859,29.584809],[47.965531,29.576298],[47.91062,29.531789],[47.849258,29.501979],[47.807043,29.467622],[47.763865,29.412933],[47.718387,29.394195],[47.704717,29.363633],[47.791744,29.372481],[47.837304,29.387505],[47.851152,29.380198],[47.822612,29.363431],[47.816434,29.337556],[47.840926,29.322931],[47.857903,29.323029],[47.899185,29.335249],[47.905387,29.359263],[47.920202,29.364872],[47.939326,29.359433],[47.98574,29.393761],[48.025238,29.354885],[48.063274,29.343368],[48.100266,29.349954],[48.095376,29.257746],[48.106131,29.213525],[48.133804,29.153617],[48.158458,29.017279],[48.225922,28.91828],[48.240977,28.905666],[48.27947,28.894436],[48.276866,28.839586],[48.328787,28.759955],[48.393565,28.743394],[48.379649,28.710354],[48.386729,28.675116],[48.366222,28.688707],[48.365977,28.675727],[48.379893,28.66767],[48.367686,28.656724],[48.352712,28.661444],[48.351817,28.64053],[48.361013,28.635565],[48.386729,28.653998],[48.397146,28.583319],[48.432465,28.540717],[47.668129,28.533505],[47.659809,28.560041],[47.596815,28.608823],[47.581674,28.631483],[47.55842,28.69148],[47.549945,28.770596],[47.494496,28.904025],[47.434086,28.994588],[46.532436,29.095745],[46.711856,29.271393],[46.774488,29.363532],[46.85345,29.44456],[46.883112,29.512515],[46.957836,29.620441],[46.97737,29.657984],[46.988842,29.712658],[47.025429,29.772137],[47.110488,29.960911],[47.144698,30.003338],[47.197098,30.03424],[47.358225,30.092118],[47.674175,30.098216],[47.731432,30.088552],[47.948009,29.994045]]],[[[48.338227,29.462795],[48.37322,29.443061],[48.389008,29.424872],[48.397356,29.387497],[48.316867,29.427013],[48.269242,29.429685],[48.27003,29.455878],[48.281098,29.471096],[48.338227,29.462795]]],[[[48.352712,29.709784],[48.303071,29.645209],[48.266287,29.615953],[48.229015,29.599921],[48.185802,29.603949],[48.161632,29.629706],[48.085134,29.767808],[48.046072,29.800482],[48.113292,29.839097],[48.119151,29.873603],[48.085297,29.87991],[48.095063,29.894721],[48.133556,29.879869],[48.158702,29.879218],[48.166515,29.885932],[48.160818,29.901557],[48.193696,29.916449],[48.197439,29.92536],[48.181407,29.935085],[48.147227,29.935126],[48.140391,29.969794],[48.122732,29.969672],[48.11671,29.974066],[48.12086,29.981391],[48.16212,29.995673],[48.188731,29.983547],[48.344493,29.790595],[48.359548,29.754462],[48.352712,29.709784]]],[[[48.078868,30.004055],[48.05836,29.983547],[48.031098,29.971015],[48.010753,29.980455],[48.009288,29.986884],[48.054698,30.024482],[48.109223,30.027981],[48.10613,30.017646],[48.078868,30.004055]]]]}}