{"type":"Feature","properties":{"iso3":"LAO","name":"Laos","continent":"Asia"},"geometry":{"type":"Polygon","coordinates":[[[102.118655,22.397549],[102.20697,22.245413],[102.467626,22.034005],[102.478065,21.957576],[102.59103,21.901352],[102.650664,21.657801],[102.752157,21.6809],[102.806727,21.836084],[102.84719,21.704464],[102.95602,21.723946],[102.974107,21.586694],[102.84967,21.425412],[102.904189,21.452697],[102.878816,21.322162],[102.801301,21.254828],[102.878144,21.23762],[102.946822,21.075872],[103.014518,21.040526],[103.136371,20.85046],[103.347676,20.789068],[103.426586,20.820694],[103.489373,20.752481],[103.577946,20.732896],[103.676338,20.656518],[103.713752,20.679824],[103.70724,20.721837],[103.754576,20.742921],[103.775557,20.834905],[104.092282,20.961202],[104.278937,20.891542],[104.38167,20.778371],[104.452621,20.763592],[104.492309,20.702097],[104.615195,20.646493],[104.542642,20.535699],[104.495823,20.511927],[104.444973,20.534613],[104.366425,20.458494],[104.432364,20.411055],[104.575508,20.414052],[104.666407,20.351782],[104.689299,20.310002],[104.653023,20.225795],[104.69085,20.196546],[104.819162,20.220989],[104.907994,20.175333],[104.904893,20.134638],[104.95688,20.091798],[104.953211,20.009271],[104.780663,19.908088],[104.760716,19.86145],[104.81663,19.848092],[104.805003,19.790886],[104.675967,19.724689],[104.604963,19.606479],[104.522798,19.599373],[104.380068,19.685285],[104.295267,19.654874],[104.200203,19.698586],[104.088716,19.651902],[104.000969,19.680738],[104.089956,19.48367],[104.038796,19.41339],[103.952807,19.390962],[103.84842,19.299908],[103.972754,19.225288],[104.14773,19.182887],[104.210621,19.100747],[104.259603,19.10413],[104.400738,18.992279],[104.497683,18.967991],[104.721959,18.792007],[104.872906,18.777976],[104.937243,18.731158],[105.112684,18.698343],[105.169477,18.61486],[105.113615,18.580831],[105.079973,18.454353],[105.162862,18.366012],[105.156661,18.319839],[105.229266,18.255321],[105.283113,18.250179],[105.340112,18.162639],[105.410031,18.201888],[105.472817,18.171993],[105.603431,17.969184],[105.605212,17.85426],[105.735282,17.664039],[105.846025,17.597997],[106.019296,17.394495],[106.185435,17.257397],[106.284551,17.284786],[106.306358,17.176524],[106.394932,17.068003],[106.411365,16.995811],[106.496838,16.963927],[106.524536,16.989248],[106.540659,16.659139],[106.640188,16.586637],[106.670677,16.444424],[106.742404,16.421531],[106.846687,16.530052],[106.862603,16.430574],[106.954071,16.313837],[107.108273,16.267484],[107.142018,16.176998],[107.298959,16.064189],[107.435643,16.068839],[107.44355,16.01892],[107.375544,15.919081],[107.186253,15.859395],[107.148787,15.773457],[107.215295,15.727517],[107.24873,15.631088],[107.303558,15.599747],[107.369342,15.496058],[107.473781,15.488255],[107.512641,15.409422],[107.57636,15.403054],[107.664363,15.253153],[107.578012,15.047248],[107.445565,15.025389],[107.453937,14.967873],[107.549642,14.895268],[107.494296,14.788763],[107.522253,14.718689],[107.414921,14.543429],[107.305677,14.597224],[107.272191,14.585364],[107.219739,14.497979],[107.10078,14.407623],[107.042954,14.430722],[106.933607,14.320161],[106.835835,14.307061],[106.719253,14.417881],[106.552441,14.506945],[106.518438,14.585002],[106.393795,14.456173],[106.296746,14.447879],[106.235975,14.484362],[106.189156,14.378891],[106.038158,14.347652],[105.973975,14.365843],[106.012474,14.225774],[106.149469,14.053562],[106.069163,13.916542],[105.899665,13.922614],[105.787113,14.010154],[105.744015,14.086945],[105.541237,14.159189],[105.36409,14.10405],[105.256913,14.182443],[105.184308,14.34574],[105.40569,14.423048],[105.507544,14.564048],[105.489147,14.786334],[105.550642,14.902296],[105.534157,14.934025],[105.58356,14.977588],[105.443775,15.133806],[105.560254,15.270929],[105.561494,15.320901],[105.477468,15.352811],[105.604282,15.439214],[105.640921,15.68199],[105.568522,15.749376],[105.412046,15.79976],[105.362488,15.95479],[105.423932,16.002125],[105.058114,16.121188],[105.015481,16.276734],[104.76516,16.511345],[104.748417,16.571909],[104.778338,16.715828],[104.740356,17.002581],[104.809912,17.171666],[104.816423,17.372791],[104.714517,17.515263],[104.452001,17.665951],[104.352627,17.819327],[104.270307,17.874001],[104.210879,18.008618],[104.122357,18.095279],[103.975441,18.330665],[103.873949,18.283226],[103.801395,18.338262],[103.5488,18.415415],[103.306851,18.425672],[103.233988,18.35578],[103.286336,18.280332],[103.1573,18.237027],[103.138593,18.166722],[103.07131,18.125561],[103.073067,18.035515],[103.037927,17.990686],[102.938605,18.008928],[102.852719,17.972031],[102.686734,17.873535],[102.660793,17.812867],[102.609426,17.837],[102.599608,17.955184],[102.412229,17.9942],[102.306706,18.051457],[102.153537,18.210104],[102.078503,18.213799],[101.904301,18.037117],[101.773922,18.058563],[101.729067,17.912189],[101.577551,17.868109],[101.53404,17.80956],[101.556261,17.792145],[101.470426,17.722589],[101.381904,17.720728],[101.404022,17.715561],[101.383765,17.684916],[101.247029,17.592157],[101.128897,17.461158],[100.901934,17.561927],[100.885656,17.595878],[100.953817,17.699799],[101.000842,17.884801],[101.157525,18.04045],[101.159282,18.204058],[101.127966,18.280952],[101.152409,18.316377],[101.05102,18.39247],[101.035621,18.447841],[101.23473,18.658449],[101.209202,18.746325],[101.223309,18.855491],[101.326404,19.020546],[101.229149,19.143587],[101.207755,19.334687],[101.172356,19.376389],[101.192872,19.452793],[101.251731,19.494444],[101.254884,19.547154],[101.225015,19.585214],[101.095824,19.567282],[101.002548,19.610613],[100.885656,19.612447],[100.745509,19.485013],[100.633268,19.542167],[100.549294,19.494548],[100.474259,19.524985],[100.383516,19.763859],[100.483975,19.8807],[100.548674,20.158021],[100.468782,20.18572],[100.344345,20.389971],[100.240372,20.372814],[100.152522,20.239153],[100.102964,20.263596],[100.097073,20.348371],[100.180169,20.638173],[100.27453,20.76199],[100.383671,20.831701],[100.536685,20.807672],[100.65213,20.876608],[100.515704,20.886478],[100.543454,21.0274],[100.625516,21.054117],[100.689388,21.15933],[100.721996,21.303662],[100.851342,21.314772],[101.174527,21.551657],[101.171426,21.403398],[101.226462,21.370893],[101.208995,21.245526],[101.259741,21.179484],[101.517607,21.242632],[101.5729,21.228163],[101.596517,21.173386],[101.635946,21.189457],[101.688294,21.145842],[101.75599,21.143258],[101.820224,21.247283],[101.715114,21.321129],[101.734751,21.554396],[101.803842,21.625916],[101.752321,21.659144],[101.727981,21.73268],[101.751546,21.80637],[101.680594,21.922642],[101.616309,21.953648],[101.555434,22.090332],[101.561532,22.176115],[101.518227,22.228205],[101.55099,22.276678],[101.601219,22.276988],[101.654549,22.446125],[101.71315,22.491548],[101.784877,22.472221],[101.8426,22.383338],[101.867921,22.378842],[101.891641,22.429691],[101.994994,22.447416],[102.118655,22.397549]]]}}