{"type":"Feature","properties":{"iso3":"LBN","name":"Lebanon","continent":"Asia"},"geometry":{"type":"Polygon","coordinates":[[[35.105235,33.089016],[35.09962,33.101264],[35.105805,33.112454],[35.125499,33.132514],[35.147634,33.140326],[35.167817,33.170152],[35.161794,33.176947],[35.174653,33.170152],[35.204763,33.224799],[35.209158,33.254625],[35.188324,33.280015],[35.224783,33.311998],[35.243663,33.355699],[35.250499,33.409735],[35.275076,33.444973],[35.271007,33.457506],[35.349132,33.513861],[35.400645,33.643134],[35.394379,33.64997],[35.409923,33.661282],[35.421641,33.702338],[35.438487,33.711371],[35.481293,33.823676],[35.483246,33.872463],[35.47047,33.902086],[35.486583,33.912991],[35.517345,33.902533],[35.572032,33.90998],[35.59311,33.94477],[35.585704,33.950914],[35.613536,33.99315],[35.64088,33.999416],[35.630382,34.016099],[35.626964,34.044257],[35.647716,34.119127],[35.630382,34.152818],[35.627208,34.201117],[35.647716,34.222154],[35.653005,34.284857],[35.665212,34.311347],[35.688731,34.328315],[35.705821,34.316596],[35.750743,34.389797],[35.806163,34.414984],[35.823578,34.434516],[35.805431,34.464911],[35.823985,34.460842],[35.903331,34.477973],[35.983165,34.538642],[35.989594,34.599677],[35.980642,34.638495],[35.9699,34.649849],[36.037934,34.62843],[36.15586,34.626931],[36.178287,34.635303],[36.201232,34.624451],[36.26159,34.627242],[36.28071,34.639127],[36.288151,34.675559],[36.308925,34.687548],[36.367526,34.629205],[36.391194,34.622487],[36.440184,34.62936],[36.436256,34.597838],[36.429125,34.593187],[36.4037,34.603832],[36.388921,34.596236],[36.383546,34.553809],[36.319881,34.514122],[36.332697,34.494175],[36.392331,34.500143],[36.433466,34.49433],[36.449795,34.464538],[36.52514,34.422939],[36.52979,34.403095],[36.516768,34.369867],[36.518628,34.353641],[36.555835,34.311085],[36.576816,34.307674],[36.581984,34.299897],[36.56276,34.262949],[36.574026,34.229746],[36.603554,34.200101],[36.552735,34.140992],[36.488449,34.088644],[36.47522,34.053504],[36.445144,34.04614],[36.412175,34.053633],[36.391091,34.044719],[36.288565,33.946508],[36.267171,33.910386],[36.275336,33.897209],[36.311096,33.87199],[36.36763,33.857547],[36.369594,33.837006],[36.357501,33.823776],[36.338278,33.821193],[36.231824,33.852534],[36.186556,33.83021],[36.165678,33.829797],[36.13829,33.850622],[36.05044,33.816438],[36.027082,33.784296],[35.994009,33.760705],[35.948431,33.70921],[35.94719,33.673088],[35.925383,33.661667],[35.921559,33.640299],[36.029666,33.59764],[36.038451,33.586349],[36.035247,33.567797],[35.99928,33.541261],[35.933238,33.527825],[35.921869,33.51457],[35.935408,33.494262],[35.919492,33.462351],[35.8211,33.406722],[35.769423,33.342643],[35.698523,33.32267],[35.652143,33.27666],[35.620065,33.269536],[35.61806,33.256125],[35.604576,33.244354],[35.585042,33.252209],[35.561167,33.28213],[35.549489,33.281019],[35.520033,33.222185],[35.512282,33.147409],[35.480139,33.087387],[35.34516,33.05558],[35.331931,33.057156],[35.305783,33.089377],[35.283665,33.101185],[35.234469,33.090927],[35.207184,33.094803],[35.189614,33.085527],[35.105235,33.089016]]]}}