{"type":"Feature","properties":{"iso3":"LBR","name":"Liberia","continent":"Africa"},"geometry":{"type":"Polygon","coordinates":[[[-11.476186,6.91942],[-11.436739,6.938544],[-11.434672,6.980815],[-11.407283,6.99637],[-11.397723,7.012803],[-11.389714,7.073523],[-11.355142,7.084065],[-11.356434,7.105356],[-11.373229,7.138842],[-11.317211,7.213566],[-11.217889,7.25408],[-11.126319,7.368027],[-10.977904,7.484919],[-10.874603,7.530859],[-10.730581,7.705474],[-10.692598,7.737565],[-10.645418,7.763041],[-10.615187,7.769036],[-10.617668,8.010778],[-10.612138,8.031862],[-10.56718,8.063204],[-10.529249,8.124286],[-10.485738,8.138858],[-10.384555,8.142114],[-10.34554,8.159348],[-10.320942,8.183119],[-10.331277,8.272287],[-10.313655,8.310347],[-10.282908,8.432949],[-10.282236,8.484625],[-10.240275,8.493746],[-10.23242,8.477055],[-10.181829,8.519584],[-10.164879,8.524649],[-10.091085,8.510102],[-10.076099,8.501498],[-10.069277,8.486873],[-10.079354,8.439951],[-10.075013,8.426644],[-10.061681,8.422174],[-10.04039,8.425663],[-9.944169,8.488346],[-9.872804,8.500361],[-9.858644,8.487054],[-9.806813,8.506252],[-9.808854,8.528473],[-9.790018,8.553071],[-9.790586,8.565396],[-9.773585,8.563018],[-9.757307,8.53271],[-9.7463,8.468063],[-9.722115,8.435636],[-9.7155,8.473334],[-9.703253,8.487261],[-9.683513,8.487054],[-9.650543,8.464807],[-9.645117,8.443413],[-9.675916,8.409643],[-9.67726,8.39153],[-9.619537,8.392719],[-9.600159,8.410883],[-9.579178,8.387293],[-9.529052,8.366312],[-9.499131,8.343471],[-9.539387,8.314584],[-9.510758,8.270065],[-9.525435,8.24079],[-9.530137,8.185496],[-9.481406,8.164697],[-9.459805,8.068785],[-9.474223,8.028813],[-9.451537,8.051758],[-9.440944,8.050569],[-9.424149,8.026178],[-9.424562,8.005817],[-9.446008,7.950058],[-9.448437,7.907839],[-9.43867,7.866239],[-9.355471,7.741906],[-9.376245,7.680566],[-9.374694,7.646925],[-9.353507,7.62243],[-9.372989,7.601346],[-9.38366,7.55954],[-9.408697,7.527449],[-9.404925,7.513599],[-9.4134,7.492257],[-9.436086,7.458564],[-9.466213,7.433449],[-9.4735,7.39557],[-9.490708,7.376037],[-9.478357,7.376915],[-9.438101,7.421564],[-9.407354,7.378052],[-9.375159,7.41929],[-9.349218,7.421564],[-9.319401,7.411952],[-9.299505,7.376605],[-9.234341,7.381308],[-9.219872,7.360999],[-9.206281,7.298367],[-9.181476,7.275681],[-9.15308,7.275474],[-9.146905,7.25408],[-9.11962,7.237957],[-9.116054,7.224676],[-9.125407,7.190208],[-9.113935,7.200388],[-9.073111,7.211344],[-9.032855,7.240283],[-8.985467,7.25005],[-8.977716,7.266224],[-8.962575,7.262969],[-8.9572,7.286481],[-8.925419,7.248603],[-8.91219,7.250153],[-8.857827,7.273046],[-8.851367,7.292889],[-8.863304,7.32989],[-8.860617,7.35764],[-8.83341,7.393865],[-8.799226,7.41221],[-8.790389,7.450812],[-8.756489,7.472413],[-8.729617,7.50869],[-8.726827,7.55184],[-8.739178,7.565689],[-8.727576,7.622017],[-8.686571,7.694364],[-8.567405,7.688214],[-8.57278,7.650749],[-8.566527,7.623412],[-8.515625,7.577161],[-8.44364,7.537112],[-8.425605,7.50192],[-8.405141,7.431279],[-8.387675,7.314955],[-8.32897,7.204006],[-8.329745,7.178323],[-8.305354,7.146903],[-8.284115,7.017867],[-8.286647,6.993786],[-8.319978,6.95999],[-8.320909,6.910174],[-8.333673,6.882578],[-8.315715,6.86382],[-8.314966,6.850281],[-8.337497,6.777262],[-8.461313,6.633421],[-8.566113,6.550919],[-8.570609,6.535132],[-8.594122,6.523892],[-8.61872,6.492835],[-8.556501,6.487021],[-8.515625,6.437593],[-8.497229,6.431366],[-8.484775,6.441572],[-8.467515,6.487073],[-8.418267,6.451209],[-8.405089,6.436327],[-8.419042,6.407646],[-8.405968,6.372248],[-8.423693,6.351991],[-8.411807,6.340028],[-8.388811,6.355091],[-8.36597,6.350079],[-8.352948,6.36106],[-8.322356,6.336462],[-8.310005,6.344627],[-8.302718,6.340648],[-8.296569,6.317497],[-8.285975,6.310055],[-8.208486,6.292537],[-8.170582,6.274011],[-8.140609,6.277577],[-8.106606,6.294681],[-8.033019,6.301761],[-7.999378,6.286697],[-7.91437,6.271737],[-7.906567,6.251997],[-7.846622,6.197478],[-7.844142,6.183965],[-7.862022,6.124382],[-7.861815,6.08149],[-7.850911,6.067564],[-7.82838,6.080715],[-7.809674,6.071207],[-7.802439,6.039245],[-7.786471,6.025111],[-7.799958,6.010151],[-7.800682,5.981729],[-7.786626,5.958165],[-7.747145,5.937597],[-7.717173,5.900752],[-7.70322,5.907883],[-7.680483,5.94093],[-7.64834,5.911294],[-7.584158,5.883699],[-7.579093,5.877188],[-7.587207,5.866775],[-7.559146,5.839851],[-7.527779,5.858842],[-7.531086,5.842022],[-7.515583,5.839231],[-7.494396,5.806184],[-7.481683,5.830214],[-7.478583,5.859876],[-7.446543,5.845949],[-7.442047,5.811274],[-7.449489,5.732364],[-7.43104,5.653971],[-7.384118,5.568964],[-7.405099,5.5724],[-7.41192,5.560359],[-7.393627,5.523979],[-7.419982,5.523127],[-7.409852,5.513417],[-7.432384,5.479563],[-7.436208,5.431323],[-7.450212,5.438713],[-7.449954,5.422771],[-7.429697,5.374298],[-7.396934,5.366444],[-7.389751,5.317144],[-7.418793,5.260455],[-7.428508,5.25614],[-7.435175,5.279291],[-7.43011,5.284252],[-7.439929,5.290169],[-7.475689,5.264228],[-7.490468,5.222189],[-7.482252,5.17506],[-7.488918,5.140669],[-7.515841,5.091809],[-7.546847,5.0977],[-7.563229,5.090156],[-7.575786,5.072069],[-7.5716,4.975382],[-7.555322,4.948433],[-7.549534,4.913887],[-7.574959,4.921561],[-7.6055,4.897428],[-7.598834,4.857095],[-7.605997,4.817363],[-7.579558,4.784283],[-7.572479,4.723356],[-7.576871,4.509338],[-7.564314,4.425829],[-7.579197,4.387149],[-7.573771,4.375393],[-7.540666,4.352845],[-7.593251,4.347235],[-7.644439,4.361518],[-7.712717,4.361518],[-7.733225,4.382025],[-7.801015,4.406317],[-7.832875,4.452216],[-7.942006,4.504869],[-8.037506,4.528754],[-8.100331,4.55329],[-8.222035,4.568061],[-8.257314,4.579983],[-8.300201,4.627265],[-8.438547,4.676174],[-8.607533,4.786933],[-8.778147,4.854315],[-8.874338,4.930121],[-8.936106,4.95539],[-8.991322,4.967515],[-9.031972,4.991441],[-9.027821,4.995429],[-9.10497,5.031562],[-9.162262,5.080878],[-9.278717,5.145738],[-9.291982,5.163479],[-9.278961,5.163479],[-9.292144,5.181627],[-9.354075,5.211168],[-9.470815,5.320461],[-9.488515,5.371649],[-9.508046,5.399604],[-9.541819,5.419827],[-9.593658,5.430325],[-9.580719,5.464504],[-9.596995,5.488349],[-9.696767,5.546373],[-9.842112,5.685452],[-9.979644,5.798082],[-10.046213,5.861721],[-10.046213,5.89643],[-10.055531,5.91177],[-10.11498,5.943305],[-10.185699,5.999091],[-10.226552,6.043606],[-10.279897,6.076972],[-10.353668,6.102362],[-10.364125,6.115668],[-10.36148,6.129218],[-10.344472,6.122707],[-10.333567,6.136054],[-10.353627,6.140611],[-10.395619,6.176988],[-10.444692,6.203843],[-10.463938,6.204983],[-10.463938,6.197496],[-10.389394,6.152167],[-10.381947,6.129218],[-10.397125,6.147854],[-10.456695,6.177476],[-10.659413,6.227484],[-10.788319,6.292955],[-10.807851,6.310858],[-10.800364,6.327826],[-10.790354,6.31391],[-10.772369,6.307359],[-10.789052,6.334947],[-10.792348,6.359036],[-10.782338,6.381415],[-10.759389,6.404202],[-10.784088,6.401272],[-10.800364,6.389879],[-10.82433,6.43773],[-10.85733,6.472846],[-10.895904,6.49901],[-11.053619,6.584174],[-11.233062,6.648098],[-11.353179,6.701158],[-11.374867,6.726874],[-11.368276,6.811347],[-11.381947,6.836819],[-11.44107,6.873277],[-11.476186,6.91942]]]}}