{"type":"Feature","properties":{"iso3":"LBY","name":"Libya","continent":"Africa"},"geometry":{"type":"Polygon","coordinates":[[[11.505112,33.181225],[11.635753,33.10871],[11.793468,33.080756],[11.691091,33.135972],[11.847016,33.082831],[12.122406,32.921332],[12.348318,32.832668],[12.824392,32.804348],[13.187755,32.916246],[13.351736,32.904242],[13.571462,32.802802],[13.830333,32.794094],[14.175548,32.717678],[14.469493,32.519029],[14.726817,32.450751],[15.181977,32.395494],[15.269705,32.328843],[15.364513,32.174709],[15.361095,31.965318],[15.490408,31.664862],[15.622813,31.49726],[15.761485,31.388129],[16.044607,31.275539],[16.941905,31.183295],[17.365896,31.086615],[17.466807,31.029975],[17.848643,30.923651],[17.926768,30.85517],[18.208344,30.769232],[18.653168,30.422309],[18.925955,30.293362],[19.056814,30.266181],[19.338552,30.298814],[19.616384,30.421373],[19.748871,30.510932],[19.914317,30.682929],[20.099864,30.935004],[20.146658,31.045559],[20.146658,31.216783],[20.022227,31.396796],[19.917247,31.759223],[19.944591,31.967515],[20.071544,32.176418],[20.32545,32.409817],[20.562673,32.557847],[21.050955,32.772284],[21.414806,32.793402],[21.608653,32.930732],[21.716319,32.950385],[21.877452,32.903225],[22.161388,32.944159],[22.206798,32.888129],[22.33961,32.882148],[22.496755,32.797309],[23.10613,32.639838],[23.103852,32.516343],[23.148936,32.478095],[23.080577,32.334052],[23.178966,32.299954],[23.302501,32.170722],[23.299083,32.224189],[23.840343,32.149115],[23.998709,32.093899],[23.975271,32.074205],[24.090668,32.005764],[24.546072,31.991441],[24.733735,32.033149],[25.017914,31.949042],[25.022227,31.854682],[25.156261,31.663072],[25.060413,31.579366],[25.023723,31.494409],[24.848953,31.34863],[24.882646,31.039088],[24.994887,30.785099],[24.907658,30.498656],[24.772369,30.331018],[24.688343,30.144156],[24.811643,29.89089],[24.798207,29.796425],[24.870657,29.638347],[24.863836,29.502903],[24.981245,29.181372],[24.980521,20.002062],[23.981306,19.995421],[23.981306,19.496124],[15.985101,23.44472],[14.201644,22.62322],[13.599562,23.119029],[13.482257,23.179672],[11.968861,23.517351],[11.567128,24.26684],[11.50863,24.313814],[10.720668,24.552301],[10.410506,24.473288],[10.260335,24.576641],[10.193362,24.749937],[10.032028,24.856339],[10.007947,25.331426],[9.377804,26.168946],[9.481364,26.332606],[9.854571,26.524377],[9.910588,26.843117],[9.825529,26.92058],[9.721349,27.291875],[9.756283,27.42303],[9.821602,27.505687],[9.793903,27.569739],[9.863356,27.619246],[9.93591,27.866724],[9.776953,28.267578],[9.851264,28.785996],[9.826149,29.128533],[9.667709,29.608323],[9.54968,29.802316],[9.286544,30.117129],[9.743467,30.331328],[9.871314,30.355151],[10.192225,30.731252],[10.270153,30.915633],[10.246175,31.059552],[10.108096,31.411831],[10.116881,31.494409],[10.263952,31.680496],[10.315422,31.715843],[10.482543,31.733103],[10.584552,31.84028],[10.605946,31.953606],[10.703098,31.962185],[10.772861,32.004508],[10.873217,32.136696],[11.546354,32.434275],[11.560617,32.507578],[11.449926,32.637957],[11.456541,32.902101],[11.505112,33.181225]]]}}