{"type":"Feature","properties":{"iso3":"LCA","name":"Saint Lucia","continent":"Americas"},"geometry":{"type":"Polygon","coordinates":[[[-60.88679,14.010077],[-60.883046,13.954413],[-60.89509,13.877346],[-60.892201,13.833197],[-60.907297,13.77733],[-60.927113,13.769924],[-60.940785,13.722113],[-60.955068,13.714667],[-60.973378,13.739],[-61.048166,13.76732],[-61.074208,13.798733],[-61.070058,13.832099],[-61.078521,13.879788],[-61.059478,13.93122],[-61.026601,13.987372],[-61.002268,14.023139],[-60.98233,14.03734],[-60.976064,14.061184],[-60.947621,14.102281],[-60.933461,14.111884],[-60.914133,14.105699],[-60.918609,14.088446],[-60.892974,14.064683],[-60.88679,14.010077]]]}}