{"type":"Feature","properties":{"iso3":"LIE","name":"Liechtenstein","continent":"Europe"},"geometry":{"type":"Polygon","coordinates":[[[9.521155,47.262801],[9.547096,47.243035],[9.540378,47.229108],[9.562909,47.19774],[9.552057,47.16689],[9.581823,47.154901],[9.605594,47.132266],[9.615723,47.106764],[9.608798,47.080771],[9.581203,47.05687],[9.560636,47.0524],[9.477023,47.063898],[9.475886,47.073226],[9.51237,47.10803],[9.511853,47.129372],[9.484981,47.176346],[9.487358,47.210014],[9.521155,47.262801]]]}}