{"type":"Feature","properties":{"iso3":"LKA","name":"Sri Lanka","continent":"Asia"},"geometry":{"type":"MultiPolygon","coordinates":[[[[81.875987,7.091946],[81.89031,7.019924],[81.884613,6.98017],[81.838552,6.821438],[81.831554,6.765367],[81.808279,6.707953],[81.779796,6.663601],[81.786632,6.639268],[81.775645,6.610419],[81.681488,6.462144],[81.650076,6.430854],[81.592052,6.389879],[81.547699,6.370673],[81.362071,6.225409],[81.324962,6.20539],[81.204438,6.162746],[81.202729,6.177191],[81.187673,6.181586],[81.176443,6.150377],[81.112559,6.120307],[80.90268,6.070787],[80.877452,6.061103],[80.862315,6.039862],[80.835216,6.045152],[80.809093,6.035102],[80.714366,5.957913],[80.656261,5.957913],[80.590831,5.923733],[80.539561,5.944281],[80.46518,5.94066],[80.444021,5.970893],[80.411957,5.959947],[80.378591,5.964748],[80.358409,5.97842],[80.340994,5.970933],[80.331228,5.982815],[80.247569,6.009182],[80.211355,6.033555],[80.203868,6.02619],[80.097097,6.132351],[80.031993,6.266343],[80.012055,6.361314],[79.993663,6.39411],[79.977875,6.458197],[79.964203,6.471869],[79.975352,6.478583],[79.970225,6.531155],[79.863048,6.807196],[79.848155,6.890204],[79.848155,6.962144],[79.861583,7.011664],[79.813731,7.180732],[79.820323,7.205512],[79.819998,7.190253],[79.848155,7.122952],[79.861176,7.137193],[79.861583,7.167222],[79.85434,7.19184],[79.826345,7.210395],[79.833832,7.232815],[79.778575,7.602729],[79.792979,7.602729],[79.802013,7.659329],[79.788829,7.688178],[79.785981,7.743354],[79.760265,7.868394],[79.721934,7.985541],[79.696788,8.098293],[79.696788,8.130316],[79.701427,8.127916],[79.707205,8.142076],[79.696788,8.219062],[79.72877,8.249701],[79.749034,8.30386],[79.778575,8.350043],[79.744477,8.281155],[79.757091,8.263739],[79.778575,8.259996],[79.7588,8.212877],[79.746104,8.206122],[79.744477,8.164496],[79.72755,8.110907],[79.729503,8.081122],[79.751964,8.054633],[79.731944,8.013129],[79.763845,7.990139],[79.810232,7.986518],[79.833832,8.003079],[79.818858,8.040188],[79.793468,8.072821],[79.827159,8.136542],[79.813487,8.171291],[79.806651,8.24018],[79.827159,8.277737],[79.848155,8.438178],[79.865896,8.461412],[79.87379,8.538072],[79.916515,8.575995],[79.941661,8.642483],[79.950531,8.739814],[79.926443,8.801907],[79.930186,8.88349],[79.915538,8.938544],[79.947113,8.948676],[80.005138,9.000556],[80.048025,9.026272],[80.105642,9.192857],[80.115977,9.233832],[80.118175,9.300442],[80.066173,9.332587],[80.052989,9.391547],[80.087087,9.414984],[80.14088,9.430325],[80.162852,9.459215],[80.197032,9.473456],[80.161306,9.520575],[80.067882,9.57803],[80.052989,9.596381],[80.085216,9.595364],[80.175955,9.54857],[80.233409,9.534247],[80.272227,9.504136],[80.278087,9.493313],[80.26588,9.487128],[80.272146,9.473456],[80.26588,9.466702],[80.286876,9.452704],[80.426606,9.50019],[80.504242,9.483303],[80.567149,9.455227],[80.614594,9.446194],[80.546723,9.492418],[80.496349,9.510484],[80.471446,9.528062],[80.444021,9.528062],[80.432872,9.519761],[80.368663,9.530219],[80.297537,9.591254],[80.186046,9.648505],[80.173595,9.648668],[80.175955,9.624335],[80.199962,9.599189],[80.186046,9.584133],[80.115489,9.635728],[80.094005,9.644843],[80.13559,9.603827],[80.087413,9.618354],[80.000987,9.674709],[79.959239,9.692816],[79.958018,9.685736],[79.947032,9.693183],[79.937022,9.727362],[79.909679,9.768297],[79.970714,9.815131],[79.988455,9.822943],[80.122325,9.818915],[80.130138,9.77733],[80.170909,9.767279],[80.180431,9.755805],[80.219005,9.756374],[80.338552,9.629218],[80.441742,9.57689],[80.444021,9.583319],[80.407725,9.601508],[80.319835,9.672756],[80.247813,9.755072],[80.138682,9.798733],[80.136729,9.81391],[80.157725,9.822943],[80.246755,9.825873],[80.26059,9.81623],[80.278982,9.769843],[80.409923,9.617499],[80.468272,9.581366],[80.744395,9.359687],[80.798839,9.294867],[80.786713,9.28856],[80.762543,9.308336],[80.736501,9.308987],[80.79363,9.250556],[80.813894,9.239529],[80.803559,9.271633],[80.823904,9.270494],[80.882172,9.145168],[80.840099,9.155992],[80.834483,9.14175],[80.873057,9.126451],[80.875336,9.103583],[80.896495,9.116604],[80.916352,9.062161],[80.958263,9.010891],[80.944347,9.000556],[80.930675,9.020982],[80.875336,9.04149],[80.922862,8.992255],[80.923188,8.973212],[80.935069,8.964911],[80.914887,8.943915],[80.930675,8.931627],[80.947602,8.932929],[80.978363,8.980048],[81.046723,8.882148],[81.092784,8.85163],[81.114268,8.799994],[81.150157,8.777167],[81.176524,8.698879],[81.179047,8.708482],[81.19752,8.705715],[81.194591,8.696112],[81.2317,8.651068],[81.231619,8.633043],[81.204356,8.610093],[81.224864,8.616929],[81.246593,8.570136],[81.249766,8.545803],[81.224946,8.541815],[81.229991,8.557929],[81.223318,8.570868],[81.21225,8.572699],[81.204356,8.555487],[81.218028,8.522528],[81.210623,8.507066],[81.159028,8.534573],[81.142345,8.527574],[81.129405,8.510321],[81.133962,8.501288],[81.149425,8.503648],[81.170258,8.520697],[81.213145,8.472398],[81.281098,8.467027],[81.296641,8.476793],[81.286388,8.50023],[81.334158,8.514553],[81.365733,8.482164],[81.389415,8.363715],[81.351817,8.40469],[81.356212,8.364976],[81.362071,8.350043],[81.399262,8.33926],[81.448497,8.127997],[81.430349,8.103135],[81.403575,8.191799],[81.396251,8.191799],[81.396251,8.136542],[81.435557,8.093166],[81.452403,8.09455],[81.458263,8.116034],[81.464366,8.116034],[81.480642,8.065375],[81.519705,7.999335],[81.533946,8.013617],[81.540212,7.986314],[81.56072,7.999335],[81.565929,7.986802],[81.56072,7.958401],[81.59547,7.917426],[81.583588,7.91234],[81.575857,7.88939],[81.587576,7.855292],[81.608246,7.831692],[81.636404,7.835517],[81.651215,7.801744],[81.710704,7.731147],[81.713145,7.711819],[81.69101,7.705186],[81.64324,7.754136],[81.626638,7.760199],[81.60255,7.74844],[81.59547,7.726264],[81.618988,7.719224],[81.636404,7.7331],[81.659028,7.723334],[81.663748,7.705146],[81.711599,7.650539],[81.705089,7.638861],[81.711599,7.622545],[81.717784,7.630072],[81.714041,7.643663],[81.749034,7.622545],[81.77296,7.567979],[81.766124,7.540676],[81.771821,7.527818],[81.757579,7.505439],[81.779796,7.472357],[81.769054,7.464626],[81.771007,7.456977],[81.793305,7.465562],[81.800792,7.410346],[81.807791,7.410346],[81.821462,7.458726],[81.818696,7.473375],[81.82602,7.474189],[81.855724,7.412177],[81.880707,7.327094],[81.875987,7.091946]]],[[[81.73878,7.660468],[81.725108,7.69892],[81.725108,7.739814],[81.806326,7.598578],[81.823253,7.511379],[81.822602,7.49136],[81.807791,7.479193],[81.786713,7.501776],[81.787364,7.593451],[81.73878,7.660468]]],[[[79.714122,9.075629],[79.698009,9.089586],[79.701182,9.099189],[79.714122,9.103583],[79.7588,9.103583],[79.841645,9.077216],[79.882335,9.053778],[79.916515,9.020982],[79.85434,9.04149],[79.909679,8.973212],[79.885753,8.976223],[79.799815,9.048977],[79.758962,9.067043],[79.714122,9.075629]]],[[[79.730805,9.50019],[79.714692,9.485053],[79.666026,9.491278],[79.655772,9.503892],[79.658702,9.555365],[79.67628,9.53498],[79.719249,9.524359],[79.730805,9.50019]]],[[[79.895844,9.617499],[79.864919,9.651516],[79.840668,9.699408],[79.860525,9.756252],[79.882335,9.760891],[79.893891,9.757432],[79.888438,9.723619],[79.894705,9.688178],[79.902843,9.678941],[79.926443,9.678941],[79.933604,9.654731],[79.973399,9.633775],[79.977875,9.624335],[79.957774,9.617174],[79.926524,9.629462],[79.895844,9.617499]]]]}}