{"type":"Feature","properties":{"iso3":"LSO","name":"Lesotho","continent":"Africa"},"geometry":{"type":"Polygon","coordinates":[[[28.980846,-28.909035],[29.040532,-28.922988],[29.049679,-28.933013],[29.055776,-28.965363],[29.125953,-28.992441],[29.208429,-29.068922],[29.311781,-29.089799],[29.316846,-29.147367],[29.357463,-29.183334],[29.375964,-29.235527],[29.413997,-29.290304],[29.415031,-29.318933],[29.435908,-29.342394],[29.413739,-29.380118],[29.41255,-29.410297],[29.399528,-29.430347],[29.303823,-29.466831],[29.282739,-29.485641],[29.275199,-29.528295],[29.282016,-29.556128],[29.296279,-29.571631],[29.279949,-29.581449],[29.278605,-29.613592],[29.26734,-29.626098],[29.190342,-29.646871],[29.1613,-29.666922],[29.113757,-29.750121],[29.105799,-29.825569],[29.132981,-29.852027],[29.150654,-29.911145],[29.144246,-29.919723],[29.09412,-29.936259],[28.860026,-30.066381],[28.795637,-30.089428],[28.729491,-30.101831],[28.639678,-30.131493],[28.605881,-30.131286],[28.540562,-30.113303],[28.456226,-30.146996],[28.383879,-30.144205],[28.294376,-30.242494],[28.237015,-30.256343],[28.200635,-30.282492],[28.198464,-30.301095],[28.235775,-30.329414],[28.238462,-30.352255],[28.218205,-30.387395],[28.125394,-30.457261],[28.141207,-30.500773],[28.120846,-30.553379],[28.081572,-30.586866],[28.078782,-30.658799],[28.054701,-30.649704],[27.936568,-30.640816],[27.858227,-30.603712],[27.8204,-30.614564],[27.743608,-30.600302],[27.598604,-30.490334],[27.586822,-30.454987],[27.536593,-30.403208],[27.529668,-30.382227],[27.477475,-30.356286],[27.452102,-30.310087],[27.407815,-30.318562],[27.366164,-30.311017],[27.367817,-30.295411],[27.345545,-30.241564],[27.343685,-30.212935],[27.381357,-30.142655],[27.356655,-30.132216],[27.312782,-30.131596],[27.265911,-30.033308],[27.198835,-29.978531],[27.080135,-29.735135],[27.050989,-29.696791],[27.002155,-29.666508],[27.022412,-29.616176],[27.032954,-29.616176],[27.042359,-29.628061],[27.062203,-29.600156],[27.072022,-29.599949],[27.085871,-29.614419],[27.128142,-29.578555],[27.263121,-29.541141],[27.300307,-29.52012],[27.316038,-29.487191],[27.350247,-29.480267],[27.365544,-29.446677],[27.417634,-29.396551],[27.41908,-29.383838],[27.406265,-29.363995],[27.445849,-29.331955],[27.45329,-29.291648],[27.528893,-29.260952],[27.521503,-29.21651],[27.555713,-29.195426],[27.61297,-29.133828],[27.635605,-29.096621],[27.630747,-29.07254],[27.637517,-29.065718],[27.64439,-29.07254],[27.664957,-29.065718],[27.63917,-29.035333],[27.667489,-29.026651],[27.699063,-28.990581],[27.713326,-28.98686],[27.720147,-28.945932],[27.754771,-28.925468],[27.747432,-28.908622],[27.861327,-28.915443],[27.887992,-28.904901],[27.91166,-28.86077],[27.926233,-28.853431],[27.945043,-28.855499],[27.977496,-28.880717],[28.013566,-28.878443],[28.018734,-28.856842],[28.154953,-28.70233],[28.23071,-28.699539],[28.250864,-28.707394],[28.297063,-28.706877],[28.33644,-28.684656],[28.382949,-28.626469],[28.403413,-28.618924],[28.562473,-28.606522],[28.619421,-28.572415],[28.634303,-28.570761],[28.66655,-28.59722],[28.688977,-28.674424],[28.699519,-28.68848],[28.743857,-28.689514],[28.758637,-28.700469],[28.787679,-28.748735],[28.843696,-28.764755],[28.872842,-28.783565],[28.925862,-28.859529],[28.980846,-28.909035]]]}}