{"type":"Feature","properties":{"iso3":"LTU","name":"Lithuania","continent":"Europe"},"geometry":{"type":"MultiPolygon","coordinates":[[[[26.594531,55.666991],[26.607657,55.616451],[26.605177,55.590096],[26.595565,55.56803],[26.532106,55.516251],[26.527662,55.492169],[26.546472,55.471241],[26.543268,55.459613],[26.49924,55.428091],[26.486011,55.390832],[26.445496,55.337502],[26.450044,55.327063],[26.525388,55.308098],[26.602696,55.316883],[26.768629,55.300243],[26.791574,55.290166],[26.80072,55.27332],[26.789661,55.257197],[26.76558,55.246706],[26.701088,55.236836],[26.656956,55.215339],[26.633909,55.192188],[26.616339,55.135395],[26.600939,55.120823],[26.578925,55.118549],[26.473402,55.145679],[26.428753,55.128212],[26.309484,55.144645],[26.264422,55.140098],[26.233003,55.111624],[26.224631,55.054884],[26.187838,55.008736],[26.138642,54.968946],[26.102572,54.957008],[25.981132,54.942694],[25.907855,54.948068],[25.870234,54.938818],[25.858452,54.932979],[25.84667,54.90621],[25.782695,54.869675],[25.772256,54.850865],[25.782281,54.821978],[25.778457,54.805286],[25.734946,54.78906],[25.7212,54.766736],[25.72461,54.715679],[25.708384,54.663021],[25.739906,54.607727],[25.745591,54.5884],[25.740423,54.568505],[25.70735,54.54153],[25.630869,54.508354],[25.619914,54.488096],[25.612576,54.421796],[25.529997,54.346141],[25.528653,54.320975],[25.542296,54.308056],[25.564,54.303146],[25.607408,54.304852],[25.682339,54.325626],[25.695981,54.320975],[25.719236,54.281546],[25.748898,54.276326],[25.789206,54.236225],[25.771946,54.21788],[25.771016,54.172147],[25.763057,54.156437],[25.74001,54.146257],[25.690607,54.148221],[25.653503,54.128739],[25.516044,54.144758],[25.493307,54.157522],[25.485762,54.175402],[25.528963,54.195659],[25.499301,54.211834],[25.501678,54.221756],[25.553975,54.231265],[25.478682,54.293328],[25.459355,54.298909],[25.434137,54.291829],[25.394036,54.257154],[25.369748,54.247904],[25.287583,54.245217],[25.206244,54.256793],[25.156531,54.175712],[25.115603,54.148789],[25.071989,54.132201],[25.027133,54.12786],[24.902283,54.149771],[24.855981,54.146722],[24.821565,54.134526],[24.818671,54.113959],[24.784254,54.096234],[24.787148,54.077631],[24.821358,54.019908],[24.819394,53.992571],[24.806372,53.975311],[24.788698,53.969678],[24.705603,53.964201],[24.670566,53.994276],[24.528663,53.958361],[24.414044,53.897693],[24.377871,53.886841],[24.257051,53.894024],[24.229146,53.932368],[24.201137,53.95247],[24.169615,53.95893],[24.045385,53.930869],[23.981306,53.930404],[23.919811,53.947768],[23.828344,53.920069],[23.787209,53.927924],[23.627116,53.89821],[23.485625,53.939293],[23.487486,53.955622],[23.45865,53.981616],[23.45927,53.992313],[23.496477,54.021975],[23.496167,54.044558],[23.473947,54.112564],[23.449039,54.154938],[23.432502,54.169305],[23.391471,54.180105],[23.354471,54.217054],[23.316023,54.236277],[23.197271,54.267851],[23.117069,54.303457],[23.050096,54.294827],[23.032113,54.309554],[23.041622,54.340974],[22.989738,54.353376],[22.96266,54.381695],[22.918838,54.381126],[22.837603,54.400918],[22.812695,54.394097],[22.78603,54.36521],[22.76722,54.35627],[22.706965,54.418747],[22.680403,54.453215],[22.674616,54.492282],[22.681747,54.5699],[22.708102,54.635633],[22.700867,54.679558],[22.727015,54.705344],[22.724845,54.723379],[22.764843,54.737125],[22.832849,54.778673],[22.848352,54.813813],[22.821273,54.885488],[22.749236,54.909879],[22.740968,54.917631],[22.75213,54.931118],[22.715543,54.951376],[22.633481,54.957939],[22.608366,54.992407],[22.580668,55.057622],[22.565475,55.067803],[22.541084,55.075761],[22.436284,55.057777],[22.251282,55.070852],[22.142658,55.054625],[22.09987,55.029924],[22.076823,55.02858],[22.02773,55.044393],[22.015431,55.088422],[22.003442,55.093486],[21.942774,55.078293],[21.873217,55.094933],[21.819887,55.119324],[21.750641,55.127954],[21.645841,55.181026],[21.60512,55.192498],[21.503938,55.19441],[21.467661,55.211153],[21.405546,55.27239],[21.37485,55.28996],[21.349839,55.287789],[21.267589,55.248684],[21.264415,55.284003],[21.28533,55.287055],[21.291189,55.297065],[21.274181,55.327338],[21.259451,55.336249],[21.257091,55.369371],[21.246593,55.370185],[21.188813,55.338609],[21.18336,55.346177],[21.224294,55.399319],[21.248302,55.417873],[21.248383,55.442328],[21.222911,55.520209],[21.199392,55.537665],[21.195079,55.58511],[21.157563,55.64175],[21.147227,55.678168],[21.099376,55.729071],[21.074392,55.74494],[21.060557,55.789252],[21.044688,55.873725],[21.044688,55.917711],[21.05836,55.95185],[21.053396,56.072618],[21.190365,56.084459],[21.229639,56.163188],[21.254857,56.185202],[21.327618,56.224373],[21.419292,56.237395],[21.596025,56.307882],[21.684495,56.310104],[22.094082,56.41741],[22.139144,56.415705],[22.214902,56.390383],[22.511731,56.395964],[22.604749,56.379092],[22.666347,56.349094],[22.924523,56.412113],[22.956976,56.401985],[23.016714,56.32385],[23.062292,56.304161],[23.112728,56.310879],[23.162854,56.341007],[23.154173,56.351394],[23.17257,56.357956],[23.288428,56.373046],[23.481595,56.330103],[23.517561,56.328656],[23.609856,56.353822],[23.706697,56.354442],[23.723544,56.345812],[23.723647,56.332118],[23.7561,56.325969],[23.858109,56.334392],[23.981306,56.312404],[24.07515,56.271192],[24.138919,56.257446],[24.318546,56.29858],[24.414354,56.265507],[24.44722,56.260521],[24.481327,56.26884],[24.538998,56.287625],[24.639147,56.359972],[24.678628,56.377283],[24.805545,56.408548],[24.845852,56.40493],[24.857118,56.435368],[24.870967,56.442602],[24.892258,56.438727],[24.910138,56.421958],[24.973183,56.300751],[25.026203,56.260185],[25.04398,56.22799],[25.073125,56.197811],[25.109196,56.183083],[25.454808,56.149649],[25.522762,56.156573],[25.572888,56.143034],[25.661875,56.140812],[25.696602,56.087895],[25.766261,56.058647],[25.871268,55.992139],[26.017616,55.937362],[26.178639,55.84959],[26.279718,55.743239],[26.34235,55.716342],[26.48105,55.678308],[26.594531,55.666991]]],[[[20.989431,55.273116],[20.924569,55.282658],[20.999522,55.357001],[21.041515,55.416083],[21.082367,55.497626],[21.099376,55.5987],[21.090668,55.633124],[21.093516,55.695543],[21.085216,55.722846],[21.117442,55.699774],[21.131521,55.655585],[21.133556,55.568305],[21.119884,55.527045],[21.119884,55.489447],[21.087169,55.441067],[21.106212,55.42121],[21.073497,55.391791],[21.037852,55.328599],[20.988943,55.291327],[20.989431,55.273116]]]]}}