{"type":"Feature","properties":{"iso3":"LUX","name":"Luxembourg","continent":"Europe"},"geometry":{"type":"Polygon","coordinates":[[[6.117487,50.120456],[6.0994,50.064129],[6.107151,50.063767],[6.096403,50.048626],[6.113766,50.036378],[6.117177,50.004391],[6.15397,49.951216],[6.161928,49.942482],[6.172677,49.956228],[6.2227,49.887137],[6.286779,49.86104],[6.310653,49.834479],[6.334424,49.840215],[6.397056,49.808589],[6.502579,49.79567],[6.496378,49.752106],[6.485526,49.733761],[6.499686,49.712212],[6.491004,49.714434],[6.482942,49.708078],[6.489764,49.702962],[6.418243,49.669889],[6.402741,49.655782],[6.417933,49.639142],[6.350754,49.566588],[6.345307,49.455349],[6.298768,49.466232],[6.251117,49.48946],[6.193554,49.499409],[6.13609,49.495275],[6.142601,49.486076],[6.107255,49.48251],[6.099813,49.46463],[6.078006,49.452021],[5.9607,49.441324],[5.946954,49.469953],[5.928144,49.482304],[5.839571,49.499874],[5.790685,49.537753],[5.8374,49.56111],[5.846909,49.576717],[5.829959,49.582763],[5.885459,49.643534],[5.879878,49.657745],[5.845772,49.666582],[5.842258,49.67392],[5.857347,49.70043],[5.850216,49.714021],[5.805361,49.721876],[5.803604,49.738154],[5.778489,49.773035],[5.738285,49.788848],[5.727743,49.800217],[5.720198,49.824712],[5.736528,49.83944],[5.726916,49.845227],[5.731877,49.859955],[5.758129,49.858198],[5.714927,49.881866],[5.718958,49.891374],[5.76371,49.946823],[5.80164,49.963825],[5.812596,49.977571],[5.801537,49.988681],[5.802674,50.002479],[5.836367,50.01855],[5.83771,50.047437],[5.864375,50.067488],[5.872437,50.096892],[5.941063,50.128311],[5.96163,50.165621],[5.998321,50.174975],[6.014134,50.153581],[6.038628,50.148413],[6.084207,50.159317],[6.097126,50.151307],[6.102604,50.124745],[6.117487,50.120456]]]}}