{"type":"Feature","properties":{"iso3":"LVA","name":"Latvia","continent":"Europe"},"geometry":{"type":"Polygon","coordinates":[[[27.352935,57.527601],[27.528169,57.528479],[27.525637,57.46838],[27.511323,57.430397],[27.536283,57.415695],[27.640824,57.389005],[27.707952,57.348129],[27.827738,57.304953],[27.840295,57.290639],[27.846134,57.267307],[27.841174,57.211212],[27.824327,57.15907],[27.794045,57.143387],[27.700975,57.118789],[27.682217,57.103699],[27.696066,57.085457],[27.745469,57.067991],[27.75074,57.042359],[27.723351,56.998796],[27.715135,56.957403],[27.648731,56.879268],[27.62837,56.844154],[27.661185,56.839271],[27.786397,56.871258],[27.830838,56.864282],[27.913521,56.82015],[27.918895,56.805888],[27.865461,56.742687],[27.882618,56.725479],[27.98101,56.687006],[27.991345,56.669979],[27.997443,56.603833],[28.010982,56.587555],[28.126117,56.547764],[28.132215,56.535982],[28.093251,56.501591],[28.104517,56.483065],[28.164255,56.437952],[28.167148,56.369868],[28.217275,56.270727],[28.215311,56.255999],[28.193142,56.231039],[28.169112,56.161741],[28.148907,56.142414],[28.110976,56.156806],[27.98101,56.118023],[27.92706,56.109367],[27.880654,56.063866],[27.781229,56.016375],[27.776991,55.992397],[27.744435,55.959738],[27.64501,55.922841],[27.617156,55.878554],[27.610128,55.83096],[27.592713,55.794244],[27.438821,55.79874],[27.374587,55.814837],[27.349627,55.831219],[27.263018,55.787216],[27.151448,55.832459],[27.110779,55.836283],[26.981071,55.826878],[26.900146,55.778715],[26.822838,55.70611],[26.743049,55.682856],[26.64011,55.695568],[26.615615,55.687971],[26.594531,55.666991],[26.48105,55.678308],[26.34235,55.716342],[26.279718,55.743239],[26.178639,55.84959],[26.017616,55.937362],[25.871268,55.992139],[25.766261,56.058647],[25.696602,56.087895],[25.661875,56.140812],[25.572888,56.143034],[25.522762,56.156573],[25.454808,56.149649],[25.109196,56.183083],[25.073125,56.197811],[25.04398,56.22799],[25.026203,56.260185],[24.973183,56.300751],[24.910138,56.421958],[24.892258,56.438727],[24.870967,56.442602],[24.857118,56.435368],[24.845852,56.40493],[24.805545,56.408548],[24.678628,56.377283],[24.639147,56.359972],[24.538998,56.287625],[24.481327,56.26884],[24.44722,56.260521],[24.414354,56.265507],[24.318546,56.29858],[24.140422,56.2576],[24.07515,56.271192],[23.981306,56.312404],[23.858109,56.334392],[23.724991,56.328811],[23.723544,56.345812],[23.706697,56.354442],[23.609856,56.353822],[23.517561,56.328656],[23.481595,56.330103],[23.288428,56.373046],[23.17257,56.357956],[23.154173,56.351394],[23.162854,56.341007],[23.112728,56.310879],[23.062292,56.304161],[23.016714,56.32385],[22.956976,56.401985],[22.924523,56.412113],[22.666347,56.349094],[22.604749,56.379092],[22.511731,56.395964],[22.214902,56.390383],[22.139144,56.415705],[22.094082,56.41741],[21.684495,56.310104],[21.596025,56.307882],[21.419292,56.237395],[21.327618,56.224373],[21.254857,56.185202],[21.229639,56.163188],[21.190365,56.084459],[21.053396,56.072618],[21.028819,56.147406],[20.973399,56.232001],[20.969086,56.253485],[20.982677,56.301459],[20.970551,56.388983],[21.003184,56.434801],[21.01059,56.475735],[21.000499,56.510647],[21.006358,56.519965],[21.024262,56.510484],[21.044688,56.462104],[21.030528,56.448432],[21.044688,56.442206],[21.044688,56.421129],[21.030528,56.408108],[21.061778,56.38703],[21.079763,56.403062],[21.068614,56.424058],[21.072113,56.46955],[21.05836,56.503648],[21.030528,56.524156],[21.003103,56.530015],[20.992198,56.548896],[21.05836,56.688666],[21.065196,56.774319],[21.052745,56.828925],[21.065196,56.84634],[21.222911,56.907701],[21.277599,56.949123],[21.360118,56.989691],[21.382498,57.008938],[21.413585,57.073188],[21.414806,57.113837],[21.401052,57.151313],[21.414806,57.184882],[21.414806,57.270901],[21.433604,57.306464],[21.480235,57.333645],[21.517751,57.3876],[21.589122,57.438788],[21.699229,57.555325],[21.729666,57.573798],[21.771658,57.586127],[21.999278,57.600328],[22.483735,57.742499],[22.585785,57.759711],[22.610362,57.754625],[22.600271,57.743842],[22.590831,57.706122],[22.590994,57.644761],[22.656098,57.585761],[22.878917,57.481269],[22.950369,57.432807],[23.031423,57.394477],[23.130219,57.370795],[23.138031,57.343166],[23.174571,57.297349],[23.198741,57.224189],[23.222423,57.207017],[23.260916,57.098944],[23.292654,57.088935],[23.340099,57.05858],[23.508556,57.031236],[23.585134,56.979071],[23.69516,56.967271],[23.866059,56.99018],[23.952891,57.013251],[23.991222,57.031236],[24.035655,57.068996],[24.074555,57.074937],[24.210785,57.123725],[24.219249,57.138007],[24.278575,57.161038],[24.278819,57.17178],[24.288748,57.1789],[24.379161,57.230211],[24.400645,57.258124],[24.408865,57.298163],[24.405528,57.344468],[24.375173,57.528551],[24.358572,57.55036],[24.374766,57.613471],[24.357677,57.685492],[24.299571,57.743842],[24.285981,57.832587],[24.306159,57.868186],[24.378181,57.859441],[24.401539,57.866469],[24.441639,57.908094],[24.53383,57.945069],[24.684829,57.947575],[24.700435,57.95419],[24.733508,57.992198],[24.81681,57.976669],[24.872518,58.00044],[24.949309,58.006435],[25.048838,58.056199],[25.094209,58.067309],[25.141028,58.068007],[25.16697,58.058731],[25.20211,57.991965],[25.216786,57.985376],[25.264535,57.994187],[25.284379,58.00814],[25.249549,58.051186],[25.250686,58.068498],[25.281692,58.073407],[25.299572,58.065604],[25.324583,58.034753],[25.356519,58.034753],[25.39662,58.023178],[25.457185,57.984059],[25.541676,57.96282],[25.558315,57.934243],[25.601517,57.912203],[25.730295,57.923132],[25.767502,57.868924],[25.792616,57.855979],[26.014515,57.842827],[26.025264,57.828409],[26.013068,57.8073],[26.024747,57.774356],[26.168511,57.70405],[26.297185,57.599147],[26.430678,57.561764],[26.49955,57.515819],[26.542235,57.528169],[26.590087,57.520366],[26.604763,57.540313],[26.666982,57.56486],[26.795759,57.571319],[26.816327,57.581189],[26.854154,57.622556],[26.872654,57.627181],[26.896115,57.614986],[26.981071,57.608991],[27.061531,57.555661],[27.085354,57.549434],[27.165659,57.546695],[27.319965,57.516129],[27.352935,57.527601]]]}}