{"type":"Feature","properties":{"iso3":"MAC","name":"Macao S.A.R","continent":"Asia"},"geometry":{"type":"MultiPolygon","coordinates":[[[[113.558604,22.163031],[113.574067,22.156114],[113.560232,22.141547],[113.577973,22.139635],[113.57488,22.135037],[113.587494,22.124864],[113.566742,22.123358],[113.566335,22.107693],[113.546804,22.105373],[113.534434,22.1612],[113.558604,22.163031]]],[[[113.536469,22.217068],[113.555593,22.207546],[113.549164,22.199734],[113.55714,22.20246],[113.551524,22.189561],[113.524832,22.173814],[113.519867,22.183743],[113.535248,22.207546],[113.524343,22.212551],[113.536469,22.217068]]]]}}