{"type":"Feature","properties":{"iso3":"MAR","name":"Morocco","continent":"Africa"},"geometry":{"type":"Polygon","coordinates":[[[-8.817035,27.661464],[-8.773387,27.46003],[-8.795841,27.307688],[-8.752872,27.190486],[-8.752872,27.150463],[-8.793903,27.12018],[-9.412056,27.08796],[-9.734362,26.860429],[-9.816864,26.84968],[-9.899365,26.84968],[-10.031709,26.910219],[-10.250455,26.860429],[-10.550282,26.990292],[-10.756781,27.019592],[-10.921835,27.009825],[-11.391574,26.882908],[-11.315868,26.744208],[-11.3369,26.632897],[-11.510688,26.469807],[-11.683546,26.212975],[-11.717239,26.103576],[-12.029752,26.03035],[-12.055823,25.99583],[-12.310019,25.110432],[-12.430141,24.830165],[-12.990184,24.4698],[-13.060025,24.400476],[-13.31001,23.980553],[-13.769982,23.790125],[-13.890129,23.690493],[-14.019992,23.410252],[-14.100065,23.099676],[-14.220187,22.309647],[-14.629852,21.860424],[-14.609827,21.750069],[-14.669875,21.599665],[-14.749974,21.500084],[-14.839813,21.450268],[-14.970167,21.440501],[-16.040024,21.500084],[-16.729956,21.469802],[-17.013743,21.419971],[-16.92101,21.931301],[-16.717885,22.260972],[-16.52184,22.314887],[-16.466624,22.377387],[-16.419545,22.521796],[-16.369781,22.568264],[-16.291737,22.893459],[-16.163238,22.993232],[-16.159535,23.082465],[-16.220204,23.075873],[-15.772613,23.787828],[-15.781972,23.898261],[-15.795318,23.856635],[-15.877553,23.823188],[-15.994862,23.645006],[-15.939605,23.774807],[-15.840932,23.902655],[-15.620107,24.026272],[-15.203969,24.467475],[-15.014801,24.562445],[-14.999989,24.614488],[-14.895619,24.705715],[-14.83967,24.905341],[-14.849721,25.214179],[-14.819244,25.330227],[-14.620961,25.783596],[-14.519521,25.923774],[-14.471791,26.183051],[-14.410146,26.260077],[-14.29894,26.302232],[-14.180247,26.424384],[-13.923736,26.500881],[-13.561106,26.749091],[-13.177561,27.667141],[-13.045155,27.759833],[-12.952382,27.928616],[-12.838938,27.970404],[-12.513539,27.995429],[-12.061431,28.089016],[-11.485585,28.325629],[-11.0631,28.752387],[-10.573801,28.990424],[-10.248402,29.299384],[-10.086985,29.509955],[-10.063629,29.584947],[-9.820221,29.838935],[-9.655141,30.126899],[-9.611643,30.404364],[-9.700063,30.542711],[-9.888539,30.648261],[-9.81371,30.814683],[-9.847524,31.121283],[-9.80663,31.343451],[-9.834788,31.388821],[-9.694203,31.625718],[-9.675201,31.715399],[-9.366119,32.026313],[-9.27774,32.196601],[-9.26476,32.330634],[-9.289662,32.372463],[-9.24885,32.452541],[-9.278961,32.546332],[-9.259918,32.57689],[-8.867787,32.881903],[-8.529164,33.268704],[-8.415028,33.280015],[-8.284657,33.389838],[-7.891428,33.503363],[-7.667551,33.612698],[-7.529124,33.632636],[-7.406361,33.726996],[-7.35261,33.724677],[-7.031809,33.874254],[-6.822092,34.039618],[-6.557932,34.417711],[-6.292104,34.880805],[-5.90803,35.797349],[-5.781402,35.79092],[-5.711741,35.830634],[-5.615956,35.831529],[-5.408,35.924748],[-5.340728,35.847357],[-5.322621,35.713772],[-5.28189,35.68651],[-5.24942,35.584621],[-5.066274,35.417467],[-4.770497,35.241034],[-4.376047,35.151842],[-3.919342,35.266832],[-3.903901,35.214173],[-3.787465,35.209215],[-3.699574,35.290839],[-3.590972,35.233303],[-3.319244,35.201809],[-3.077056,35.287909],[-2.968577,35.446438],[-2.963768,35.286219],[-2.899037,35.259996],[-2.90982,35.186713],[-2.856068,35.131293],[-2.748118,35.115953],[-2.883168,35.238511],[-2.666737,35.108222],[-2.517486,35.099351],[-2.416737,35.149156],[-2.275258,35.109565],[-2.222564,35.089301],[-2.193789,35.003601],[-2.01628,34.926241],[-1.993491,34.878854],[-1.769526,34.741343],[-1.862957,34.613599],[-1.714232,34.485054],[-1.809626,34.372451],[-1.746064,34.290311],[-1.669635,34.079213],[-1.718728,33.898087],[-1.702501,33.772823],[-1.746788,33.702388],[-1.673252,33.6565],[-1.617338,33.554439],[-1.683226,33.36923],[-1.674234,33.237972],[-1.499516,33.060205],[-1.502978,32.974629],[-1.558789,32.93365],[-1.423345,32.742395],[-1.031999,32.4944],[-1.244131,32.356915],[-1.305161,32.151165],[-1.211833,32.158348],[-1.190594,32.125224],[-1.210335,32.08967],[-2.516147,32.1322],[-2.881189,32.076286],[-2.938731,32.048639],[-2.827836,31.794586],[-3.659507,31.647821],[-3.673484,31.389234],[-3.802502,31.350646],[-3.842836,31.170192],[-3.827462,31.143837],[-3.731421,31.176341],[-3.635872,31.095674],[-3.554674,30.955927],[-3.659507,30.837116],[-3.645529,30.711317],[-3.834228,30.627452],[-4.155714,30.585519],[-4.372368,30.508641],[-4.623966,30.284999],[-4.875564,30.180166],[-5.176083,29.97749],[-5.539503,29.523216],[-5.637346,29.495261],[-5.721212,29.523216],[-5.756156,29.614071],[-6.27333,29.579127],[-6.699649,29.516227],[-6.783515,29.446339],[-6.958236,29.509238],[-7.146934,29.509238],[-7.258755,29.467305],[-7.34961,29.383439],[-7.653611,29.376193],[-8.036326,29.099853],[-8.250474,28.994769],[-8.417802,28.852349],[-8.667606,28.711685],[-8.682385,27.661439],[-8.817035,27.661464]]]}}