{"type":"Feature","properties":{"iso3":"MDA","name":"Moldova","continent":"Europe"},"geometry":{"type":"Polygon","coordinates":[[[26.617889,48.258968],[26.625124,48.282894],[26.6691,48.30881],[26.679797,48.330178],[26.699434,48.325113],[26.735918,48.291834],[26.754573,48.286149],[26.785734,48.294108],[26.789351,48.32594],[26.777518,48.36617],[26.78806,48.375963],[26.816947,48.371726],[26.831933,48.391363],[26.875961,48.383999],[26.943244,48.351262],[26.990579,48.362372],[27.033057,48.360202],[27.025409,48.389864],[27.02634,48.397099],[27.037398,48.399683],[27.175788,48.361804],[27.208551,48.360615],[27.246481,48.373741],[27.306012,48.42366],[27.342186,48.436114],[27.403474,48.411491],[27.480885,48.451411],[27.50383,48.472365],[27.604806,48.484122],[27.606873,48.457819],[27.627026,48.451256],[27.751773,48.451979],[27.78526,48.441566],[27.864841,48.398907],[27.92644,48.339428],[28.076405,48.314933],[28.092838,48.302066],[28.098315,48.284108],[28.078678,48.244912],[28.093251,48.237444],[28.131078,48.239589],[28.178517,48.258864],[28.189369,48.223052],[28.216965,48.208144],[28.294479,48.236488],[28.357731,48.238607],[28.36817,48.230623],[28.363364,48.191013],[28.322178,48.163211],[28.317424,48.135358],[28.328586,48.127012],[28.349566,48.129725],[28.388634,48.168586],[28.411578,48.170704],[28.436899,48.149853],[28.435659,48.134686],[28.419019,48.122232],[28.447441,48.082751],[28.479584,48.064923],[28.490023,48.065491],[28.49979,48.108914],[28.519323,48.149129],[28.573635,48.154969],[28.665619,48.129337],[28.771246,48.124454],[28.799255,48.111793],[28.827573,48.057016],[28.832534,48.024822],[28.882557,47.976763],[28.950356,47.934801],[28.980846,47.926378],[29.017226,47.931081],[29.061047,47.96976],[29.092725,47.980173],[29.123989,47.975987],[29.147967,47.955369],[29.172565,47.891006],[29.236024,47.870723],[29.232768,47.85708],[29.186724,47.818219],[29.177836,47.78972],[29.221968,47.774811],[29.238608,47.756001],[29.196956,47.717502],[29.182074,47.613219],[29.130501,47.55963],[29.117426,47.533327],[29.155615,47.449999],[29.182074,47.429871],[29.201866,47.446588],[29.21835,47.451601],[29.232613,47.44633],[29.2507,47.425375],[29.281396,47.411474],[29.300826,47.378194],[29.345836,47.365844],[29.35891,47.352718],[29.367592,47.308225],[29.380821,47.29298],[29.409553,47.279751],[29.441696,47.282128],[29.459163,47.293497],[29.480867,47.338274],[29.520968,47.33892],[29.556573,47.324038],[29.579259,47.283601],[29.580189,47.26045],[29.568717,47.243138],[29.544015,47.23425],[29.540398,47.212546],[29.55063,47.160172],[29.544842,47.135574],[29.530373,47.123688],[29.480867,47.117487],[29.47787,47.111544],[29.520141,47.059919],[29.551353,47.090202],[29.570164,47.091442],[29.6021,47.061005],[29.595433,47.032143],[29.572489,47.011757],[29.558691,46.94574],[29.567476,46.934656],[29.598482,46.935379],[29.631865,46.914398],[29.696151,46.904683],[29.754132,46.85802],[29.843635,46.854144],[29.872212,46.837711],[29.889627,46.80717],[29.928178,46.809754],[29.931795,46.772443],[29.951122,46.743117],[29.944404,46.662476],[29.931279,46.619171],[29.949675,46.578863],[29.9381,46.55734],[29.898826,46.553129],[29.901926,46.53083],[29.916086,46.518815],[29.960217,46.505948],[29.967039,46.493856],[30.00285,46.494217],[30.021712,46.470653],[30.014064,46.462023],[30.077006,46.422826],[30.102017,46.430733],[30.131576,46.422826],[30.107185,46.391898],[30.08114,46.374199],[30.037267,46.368928],[29.918669,46.373656],[29.884666,46.3642],[29.847769,46.341462],[29.828132,46.339395],[29.808185,46.354691],[29.80033,46.398358],[29.714134,46.47117],[29.713824,46.443058],[29.702869,46.42833],[29.654396,46.422697],[29.647988,46.416393],[29.652949,46.391898],[29.645508,46.375594],[29.615639,46.361822],[29.582979,46.369651],[29.541432,46.413034],[29.480867,46.425152],[29.473322,46.439802],[29.486448,46.475872],[29.457612,46.484709],[29.418235,46.462488],[29.374723,46.416186],[29.362114,46.415928],[29.320773,46.468741],[29.306717,46.471997],[29.289147,46.451636],[29.290077,46.410243],[29.283256,46.397427],[29.259175,46.394353],[29.200677,46.35712],[29.183727,46.367171],[29.183417,46.37761],[29.205638,46.406109],[29.206775,46.502511],[29.200212,46.523983],[29.184244,46.538039],[29.162747,46.538091],[29.020326,46.489515],[28.945809,46.454788],[28.925448,46.432774],[28.919247,46.404662],[28.944879,46.32074],[28.93351,46.258986],[29.009836,46.204364],[29.015365,46.182609],[29.00348,46.158941],[28.946429,46.105094],[28.938781,46.089281],[28.958935,46.021016],[28.956868,46.001379],[28.74024,45.953217],[28.729181,45.938644],[28.728406,45.921953],[28.746441,45.870586],[28.738276,45.837565],[28.669753,45.812037],[28.669753,45.77731],[28.643605,45.76651],[28.576684,45.761911],[28.560613,45.743204],[28.567641,45.7246],[28.56144,45.71659],[28.515241,45.702018],[28.474003,45.657938],[28.511314,45.635045],[28.523096,45.593239],[28.536893,45.579803],[28.498239,45.558719],[28.506456,45.520582],[28.502012,45.508748],[28.480928,45.501978],[28.416849,45.503787],[28.270501,45.521512],[28.217275,45.493348],[28.199498,45.461774],[28.165908,45.494589],[28.165391,45.528282],[28.140949,45.560218],[28.062142,45.593601],[28.107721,45.6244],[28.167975,45.632461],[28.154953,45.761807],[28.113302,45.825369],[28.110511,45.854308],[28.131078,45.871361],[28.117436,45.895236],[28.124981,45.918387],[28.082709,46.014712],[28.096869,46.05967],[28.090151,46.073365],[28.127358,46.135325],[28.144721,46.183229],[28.108961,46.23413],[28.132112,46.239918],[28.135212,46.269322],[28.177794,46.287047],[28.191333,46.307769],[28.190351,46.351074],[28.207146,46.358153],[28.212934,46.388694],[28.233294,46.401768],[28.22606,46.415359],[28.246058,46.427865],[28.2458,46.475511],[28.2381,46.475588],[28.219032,46.503726],[28.221099,46.541191],[28.234121,46.553129],[28.225439,46.569562],[28.247144,46.607156],[28.24735,46.620825],[28.234121,46.662424],[28.178104,46.739836],[28.178156,46.758646],[28.121518,46.8343],[28.124257,46.861637],[28.113095,46.87143],[28.11356,46.894761],[28.096869,46.902616],[28.105447,46.91768],[28.102295,46.935121],[28.082709,46.971527],[28.028036,47.03297],[28.008295,47.026304],[27.938739,47.046638],[27.938429,47.061056],[27.843757,47.114386],[27.849855,47.12852],[27.80655,47.144617],[27.794665,47.155831],[27.805879,47.158234],[27.804793,47.168492],[27.788309,47.204277],[27.752393,47.238926],[27.753634,47.251432],[27.733273,47.275617],[27.636948,47.306674],[27.599948,47.360728],[27.572353,47.375197],[27.580311,47.405996],[27.562534,47.416538],[27.569356,47.438553],[27.582998,47.450671],[27.575867,47.460412],[27.548168,47.474261],[27.50724,47.477982],[27.473134,47.491779],[27.459491,47.533224],[27.440061,47.541027],[27.429404,47.57813],[27.369161,47.60831],[27.304049,47.666549],[27.272009,47.71497],[27.295057,47.718174],[27.288114,47.75068],[27.264671,47.764553],[27.219196,47.813775],[27.253406,47.828089],[27.212375,47.847933],[27.211548,47.885011],[27.194185,47.904054],[27.160698,47.921727],[27.178268,47.937928],[27.178268,47.944129],[27.150983,47.957797],[27.169793,47.973791],[27.16876,47.983067],[27.157184,47.991955],[27.143748,47.986839],[27.121476,48.013194],[27.095793,48.005598],[27.088971,48.019809],[27.109332,48.026088],[27.109332,48.033503],[27.059206,48.05805],[27.041739,48.077273],[27.034298,48.101768],[27.047424,48.116496],[27.042773,48.127296],[27.025099,48.135048],[27.012697,48.128123],[26.966602,48.143367],[26.966602,48.149594],[26.997607,48.15794],[26.997607,48.16657],[26.963088,48.175381],[26.938128,48.204811],[26.908001,48.184528],[26.897665,48.208971],[26.855497,48.237832],[26.844749,48.23331],[26.804906,48.25827],[26.76372,48.252741],[26.744031,48.255583],[26.733127,48.27075],[26.722379,48.259769],[26.688531,48.274832],[26.617889,48.258968]]]}}