{"type":"Feature","properties":{"iso3":"MDG","name":"Madagascar","continent":"Africa"},"geometry":{"type":"MultiPolygon","coordinates":[[[[44.254731,-20.376072],[44.334239,-20.16961],[44.473888,-19.986261],[44.471853,-19.87949],[44.38502,-19.808689],[44.374766,-19.760512],[44.409679,-19.70143],[44.404959,-19.610121],[44.483735,-19.523207],[44.479747,-19.483982],[44.444672,-19.385837],[44.234386,-19.0888],[44.257335,-18.803888],[44.185883,-18.610772],[44.041759,-18.396905],[44.000987,-17.937921],[44.035655,-17.769464],[43.92921,-17.601658],[43.924001,-17.546482],[43.943126,-17.455743],[44.138194,-17.170505],[44.151703,-17.094415],[44.179698,-17.095147],[44.430675,-16.700372],[44.411794,-16.573012],[44.455577,-16.540948],[44.462901,-16.485447],[44.398204,-16.340427],[44.45281,-16.1867],[44.782074,-16.190851],[44.854259,-16.225356],[45.040212,-16.118097],[45.138682,-15.990899],[45.266368,-15.923923],[45.31365,-16.115004],[45.412934,-16.039239],[45.379405,-15.97381],[45.570079,-15.943048],[45.604747,-16.051853],[45.646251,-15.891209],[45.62143,-15.850763],[45.660899,-15.803806],[45.693858,-15.783136],[45.802013,-15.816583],[45.948578,-15.774184],[45.958751,-15.839939],[46.066091,-15.861912],[46.070811,-15.796075],[46.023448,-15.808201],[46.030284,-15.769464],[46.144216,-15.703709],[46.235606,-15.729181],[46.207367,-15.819513],[46.331065,-15.977227],[46.345958,-15.938653],[46.384939,-15.959161],[46.411957,-15.899672],[46.468761,-15.95672],[46.444347,-15.881036],[46.299001,-15.815688],[46.355642,-15.732517],[46.308604,-15.717706],[46.332693,-15.630141],[46.482432,-15.491143],[46.488617,-15.511651],[46.604747,-15.424249],[46.680431,-15.41546],[46.643321,-15.378025],[46.949474,-15.198419],[46.989431,-15.272068],[47.074718,-15.323989],[46.958263,-15.549574],[47.015473,-15.488946],[47.216319,-15.44378],[47.235362,-15.41546],[47.195811,-15.395685],[47.165212,-15.302016],[47.111827,-15.306248],[47.119884,-15.257908],[47.055919,-15.193617],[47.20574,-15.046645],[47.241384,-14.969659],[47.358897,-14.901544],[47.368337,-14.846612],[47.324067,-14.874282],[47.283702,-14.846938],[47.444835,-14.671563],[47.496104,-14.711602],[47.5171,-14.819594],[47.420665,-14.96559],[47.427745,-15.107599],[47.500499,-15.052992],[47.687185,-14.700128],[47.79713,-14.566339],[47.918468,-14.697198],[47.942149,-14.619236],[47.968598,-14.622166],[47.994802,-14.743341],[48.016856,-14.737074],[48.013031,-14.63006],[47.926036,-14.566502],[47.85377,-14.594496],[47.81072,-14.550877],[47.75294,-14.600518],[47.70338,-14.449395],[47.709483,-14.369561],[47.790863,-14.22324],[47.861013,-14.248793],[47.943533,-14.232517],[47.951671,-14.162367],[47.906993,-14.099705],[47.94158,-14.091892],[48.014985,-14.153578],[47.976573,-14.312921],[47.996267,-14.325616],[48.033946,-14.253839],[48.010509,-14.209568],[48.048188,-14.08408],[47.941091,-14.004083],[48.0171,-13.965427],[47.928722,-13.906345],[47.875824,-13.784275],[47.8838,-13.728448],[47.927501,-13.709242],[47.89324,-13.653985],[47.904307,-13.603204],[47.984874,-13.506768],[48.007335,-13.574802],[48.06837,-13.517348],[48.094249,-13.581801],[48.150076,-13.615899],[48.192393,-13.76686],[48.298676,-13.798272],[48.341156,-13.755548],[48.352712,-13.537856],[48.393565,-13.585707],[48.427582,-13.524184],[48.489757,-13.497003],[48.53419,-13.520766],[48.48227,-13.360447],[48.595714,-13.443455],[48.710948,-13.432306],[48.780121,-13.383884],[48.839203,-13.260431],[48.818696,-13.176365],[48.843516,-13.080824],[48.930837,-12.933364],[48.955333,-12.8117],[48.865896,-12.647231],[48.884532,-12.567478],[48.839203,-12.56463],[48.782074,-12.448826],[48.729991,-12.434991],[48.759613,-12.398126],[48.818533,-12.406996],[48.873871,-12.431736],[48.904063,-12.488946],[48.955333,-12.469171],[48.975759,-12.346124],[49.162608,-12.23447],[49.161388,-12.181736],[49.199067,-12.152032],[49.148774,-12.103448],[49.093028,-12.098565],[49.161388,-12.050714],[49.209158,-12.106052],[49.216807,-12.065037],[49.181895,-12.043878],[49.242524,-11.953709],[49.288341,-11.954848],[49.37086,-12.183282],[49.245291,-12.15309],[49.229666,-12.222101],[49.291759,-12.239435],[49.276378,-12.281345],[49.299001,-12.259373],[49.329438,-12.297784],[49.35906,-12.296808],[49.381358,-12.222833],[49.456228,-12.373468],[49.496593,-12.346124],[49.539399,-12.378188],[49.545746,-12.402032],[49.500987,-12.397393],[49.52768,-12.442641],[49.558604,-12.420668],[49.592784,-12.503188],[49.574718,-12.529718],[49.572113,-12.489516],[49.56544,-12.639825],[49.653331,-12.694757],[49.659841,-12.791925],[49.730479,-12.738051],[49.800548,-12.798272],[49.814708,-12.865818],[49.864268,-12.880466],[49.867035,-12.942071],[49.93686,-13.024102],[49.972667,-13.331313],[50.032888,-13.360528],[50.040538,-13.497003],[50.142914,-13.783136],[50.164236,-14.223077],[50.212901,-14.287205],[50.190929,-14.456638],[50.240896,-14.705987],[50.209727,-14.750665],[50.26531,-14.797784],[50.355235,-15.033136],[50.490001,-15.219496],[50.482677,-15.437188],[50.429861,-15.600274],[50.214041,-15.97503],[50.03891,-15.85947],[50.026703,-15.778497],[49.965017,-15.702244],[49.966075,-15.611423],[49.90561,-15.561619],[49.901134,-15.422296],[49.717784,-15.44671],[49.638438,-15.54461],[49.650564,-15.683038],[49.73113,-15.89422],[49.683604,-16.020278],[49.689789,-16.086847],[49.72877,-16.139418],[49.822765,-16.179864],[49.849864,-16.240818],[49.826915,-16.373305],[49.863129,-16.444513],[49.854015,-16.539646],[49.723155,-16.708103],[49.724946,-16.754002],[49.768321,-16.815606],[49.840343,-16.827569],[49.595714,-16.912042],[49.431326,-17.283868],[49.421397,-17.355157],[49.509613,-17.727716],[49.41391,-18.067071],[49.438487,-18.142836],[49.384125,-18.225518],[49.359223,-18.424005],[49.076915,-19.065606],[48.85963,-19.684666],[48.791352,-19.993097],[48.750499,-19.965753],[48.781749,-20.037205],[48.562266,-20.577081],[48.438487,-20.964044],[48.455577,-21.014093],[48.3567,-21.353692],[48.201834,-21.796157],[47.900645,-22.481134],[47.833832,-22.900974],[47.738048,-23.255466],[47.619477,-23.59059],[47.602224,-23.565362],[47.574962,-23.598728],[47.620128,-23.640395],[47.568696,-23.852634],[47.496755,-24.016371],[47.455089,-24.039972],[47.370779,-24.270115],[47.3296,-24.263604],[47.312266,-24.485935],[47.201182,-24.762465],[47.128917,-24.844903],[47.12615,-24.93434],[47.105642,-24.879164],[47.08725,-24.968357],[46.964692,-25.065688],[46.941173,-25.044203],[46.78004,-25.145766],[46.653656,-25.183852],[46.386567,-25.164809],[46.237641,-25.198175],[45.774181,-25.408136],[45.561209,-25.559991],[45.145518,-25.595392],[45.087657,-25.508233],[44.980968,-25.471856],[44.834727,-25.344008],[44.369477,-25.256768],[44.296397,-25.153497],[44.384044,-25.22088],[44.404959,-25.188165],[44.028819,-24.998956],[44.000987,-24.865411],[43.918305,-24.741957],[43.918305,-24.619073],[43.844249,-24.51393],[43.706716,-24.406183],[43.672862,-24.334893],[43.664073,-23.86712],[43.624766,-23.761895],[43.641612,-23.63893],[43.748302,-23.570082],[43.732921,-23.527765],[43.760753,-23.472101],[43.639008,-23.351495],[43.583181,-23.07586],[43.361176,-22.843194],[43.222911,-22.254815],[43.246837,-22.218357],[43.295177,-22.23447],[43.295177,-22.166111],[43.260916,-22.165623],[43.247244,-22.125584],[43.246837,-22.035089],[43.302094,-21.864435],[43.308849,-21.932061],[43.329275,-21.905043],[43.336192,-21.768813],[43.431488,-21.662286],[43.472667,-21.672052],[43.472667,-21.405206],[43.507498,-21.309503],[43.523285,-21.326755],[43.582774,-21.277765],[43.759532,-21.272719],[43.812755,-21.224298],[43.901541,-20.882908],[43.96461,-20.767348],[44.036388,-20.725518],[44.125824,-20.498305],[44.254731,-20.376072]]],[[[49.955821,-16.779718],[49.973155,-16.721124],[50.024099,-16.690362],[49.826182,-17.094415],[49.865571,-16.906345],[49.955821,-16.779718]]],[[[48.332042,-13.360447],[48.34962,-13.412367],[48.215994,-13.394627],[48.188731,-13.264255],[48.269216,-13.268324],[48.264659,-13.212579],[48.301036,-13.195408],[48.354177,-13.31227],[48.332042,-13.360447]]]]}}