{"type":"Feature","properties":{"iso3":"MDV","name":"Maldives","continent":"Asia"},"geometry":{"type":"MultiPolygon","coordinates":[[[[73.163097,-0.681817],[73.172537,-0.688572],[73.165863,-0.688409],[73.163097,-0.681817]]],[[[73.204112,-0.671157],[73.191417,-0.682794],[73.19516,-0.674493],[73.204112,-0.671157]]],[[[73.124278,-0.656183],[73.126964,-0.666274],[73.123871,-0.664727],[73.124278,-0.656183]]],[[[73.240001,-0.625584],[73.227306,-0.642836],[73.229991,-0.623305],[73.240001,-0.625584]]],[[[73.246755,-0.588637],[73.24464,-0.607192],[73.236339,-0.59238],[73.247325,-0.577895],[73.246755,-0.588637]]],[[[73.435069,-0.283624],[73.444509,-0.304295],[73.435232,-0.293634],[73.435069,-0.283624]]],[[[73.09547,0.228013],[73.10255,0.222805],[73.102957,0.213528],[73.09547,0.228013]]],[[[73.208995,0.239976],[73.217459,0.237738],[73.212657,0.232082],[73.208995,0.239976]]],[[[73.036794,0.269924],[73.040375,0.259467],[73.036143,0.260932],[73.036794,0.269924]]],[[[73.379161,0.285224],[73.36964,0.280015],[73.371104,0.285956],[73.379161,0.285224]]],[[[72.983653,0.305243],[72.987071,0.302802],[72.981212,0.302069],[72.983653,0.305243]]],[[[73.513438,0.387763],[73.508637,0.380683],[73.50587,0.386176],[73.513438,0.387763]]],[[[72.958344,0.403306],[72.961111,0.394273],[72.957774,0.396796],[72.958344,0.403306]]],[[[72.940929,0.496283],[72.940603,0.487291],[72.937022,0.491441],[72.940929,0.496283]]],[[[73.491954,0.508002],[73.49464,0.498969],[73.490408,0.500678],[73.491954,0.508002]]],[[[73.387869,0.64175],[73.387218,0.636786],[73.383556,0.638902],[73.387869,0.64175]]],[[[73.373057,0.763088],[73.372406,0.758124],[73.368826,0.760443],[73.373057,0.763088]]],[[[73.353852,0.847724],[73.351166,0.840684],[73.349783,0.844062],[73.353852,0.847724]]],[[[72.831391,3.510565],[72.834727,3.506781],[72.831065,3.503567],[72.831391,3.510565]]],[[[72.793712,3.516913],[72.797618,3.513129],[72.791189,3.510891],[72.793712,3.516913]]],[[[72.928396,3.551907],[72.911794,3.541734],[72.919932,3.552151],[72.928396,3.551907]]],[[[72.941905,3.618842],[72.945567,3.613715],[72.938487,3.613715],[72.941905,3.618842]]],[[[72.692556,3.726955],[72.694591,3.714993],[72.689708,3.717963],[72.692556,3.726955]]],[[[73.477306,3.942125],[73.46754,3.933661],[73.469249,3.936957],[73.477306,3.942125]]],[[[72.703136,4.003323],[72.706228,3.99844],[72.699474,3.998114],[72.703136,4.003323]]],[[[73.508149,4.103583],[73.508311,4.093411],[73.502452,4.098538],[73.508149,4.103583]]],[[[72.97047,4.265937],[72.975597,4.262356],[72.972504,4.260403],[72.97047,4.265937]]],[[[73.70281,4.434719],[73.700857,4.432278],[73.697602,4.431464],[73.70281,4.434719]]],[[[73.70281,4.45303],[73.69988,4.449164],[73.699962,4.451646],[73.70281,4.45303]]],[[[73.37672,4.474433],[73.377289,4.465277],[73.373871,4.466986],[73.37672,4.474433]]],[[[73.404959,4.634996],[73.405284,4.628404],[73.401215,4.629828],[73.404959,4.634996]]],[[[73.490489,4.723375],[73.490733,4.716742],[73.487966,4.716539],[73.490489,4.723375]]],[[[72.97934,4.895453],[72.969656,4.880723],[72.970063,4.890367],[72.97934,4.895453]]],[[[72.917491,4.898586],[72.922862,4.899075],[72.920909,4.897854],[72.917491,4.898586]]],[[[73.447276,4.97134],[73.436534,4.969875],[73.438975,4.974555],[73.447276,4.97134]]],[[[72.912852,5.034084],[72.909434,5.030788],[72.910167,5.032701],[72.912852,5.034084]]],[[[72.927745,5.036526],[72.927175,5.034247],[72.924408,5.033067],[72.927745,5.036526]]],[[[73.04477,5.121812],[73.043468,5.118842],[73.04127,5.118394],[73.04477,5.121812]]],[[[73.049083,5.133287],[73.051443,5.128079],[73.045258,5.128892],[73.049083,5.133287]]],[[[73.091319,5.161363],[73.090994,5.158515],[73.087901,5.157986],[73.091319,5.161363]]],[[[73.103852,5.173041],[73.110525,5.170315],[73.107107,5.170966],[73.103852,5.173041]]],[[[72.860118,5.237942],[72.859223,5.2355],[72.856863,5.234565],[72.860118,5.237942]]],[[[73.131847,5.244574],[73.131847,5.242499],[73.128429,5.241156],[73.131847,5.244574]]],[[[73.499766,5.246894],[73.497325,5.245063],[73.493826,5.245998],[73.499766,5.246894]]],[[[73.593598,5.282701],[73.582856,5.27558],[73.57016,5.276679],[73.593598,5.282701]]],[[[73.112804,5.29857],[73.109223,5.295152],[73.109223,5.296698],[73.112804,5.29857]]],[[[73.470225,5.307766],[73.464366,5.306871],[73.467052,5.308336],[73.470225,5.307766]]],[[[73.629568,5.332831],[73.627208,5.331122],[73.623302,5.331855],[73.629568,5.332831]]],[[[73.646658,5.343248],[73.640066,5.34219],[73.643403,5.34394],[73.646658,5.343248]]],[[[72.953136,5.352769],[72.952403,5.350084],[72.949555,5.349311],[72.953136,5.352769]]],[[[73.397472,5.362209],[73.400645,5.357652],[73.396169,5.357123],[73.397472,5.362209]]],[[[73.323253,5.368232],[73.328217,5.367011],[73.319347,5.362942],[73.323253,5.368232]]],[[[73.350759,5.42768],[73.3449,5.426825],[73.347504,5.428778],[73.350759,5.42768]]],[[[73.537446,5.451402],[73.534923,5.449856],[73.531261,5.450426],[73.537446,5.451402]]],[[[73.362966,5.46308],[73.363129,5.459377],[73.360932,5.457953],[73.362966,5.46308]]],[[[72.943126,5.467597],[72.938243,5.461493],[72.937022,5.465522],[72.943126,5.467597]]],[[[73.01588,5.492865],[73.011078,5.486843],[73.009939,5.49022],[73.01588,5.492865]]],[[[73.462413,5.543606],[73.459321,5.541734],[73.456472,5.542629],[73.462413,5.543606]]],[[[73.005626,5.713324],[73.003184,5.708726],[72.99879,5.711982],[73.005626,5.713324]]],[[[72.949392,6.349799],[72.952973,6.346625],[72.948497,6.344428],[72.949392,6.349799]]],[[[72.892589,6.452094],[72.896169,6.448879],[72.891775,6.446723],[72.892589,6.452094]]],[[[73.097504,-0.599705],[73.118663,-0.64129],[73.111176,-0.64129],[73.0949,-0.604669],[73.091156,-0.586033],[73.104991,-0.579197],[73.097504,-0.599705]]],[[[73.365001,1.791083],[73.375824,1.78856],[73.370453,1.782538],[73.365001,1.791083]]],[[[73.400238,1.806342],[73.403087,1.798],[73.394379,1.794745],[73.400238,1.806342]]],[[[73.452647,1.826809],[73.463634,1.826321],[73.456716,1.82038],[73.452647,1.826809]]],[[[73.518077,1.842719],[73.499197,1.827786],[73.502289,1.834906],[73.518077,1.842719]]],[[[73.536469,1.870103],[73.53297,1.86164],[73.531505,1.863511],[73.536469,1.870103]]],[[[73.25172,1.892401],[73.243663,1.888739],[73.243988,1.89411],[73.25172,1.892401]]],[[[73.553071,1.93244],[73.548839,1.911363],[73.541189,1.89289],[73.553071,1.93244]]],[[[73.550059,1.976386],[73.549815,1.965684],[73.547699,1.968329],[73.550059,1.976386]]],[[[73.317231,1.9914],[73.322602,1.987982],[73.31837,1.9831],[73.317231,1.9914]]],[[[73.5442,2.026597],[73.542979,2.022162],[73.540375,2.022528],[73.5442,2.026597]]],[[[73.386974,2.033026],[73.386974,2.028632],[73.386241,2.030341],[73.386974,2.033026]]],[[[73.555675,2.082506],[73.551443,2.072577],[73.55128,2.07807],[73.555675,2.082506]]],[[[73.567638,2.109931],[73.585378,2.109605],[73.561778,2.094713],[73.567638,2.109931]]],[[[73.043712,2.166449],[73.041352,2.1647],[73.038259,2.164537],[73.043712,2.166449]]],[[[73.103852,2.186591],[73.102875,2.182115],[73.098888,2.184638],[73.103852,2.186591]]],[[[73.115489,2.199693],[73.12086,2.191799],[73.115001,2.191799],[73.115489,2.199693]]],[[[72.948416,2.274888],[72.946381,2.272406],[72.943126,2.273017],[72.948416,2.274888]]],[[[72.926117,2.32746],[72.927013,2.316067],[72.922537,2.319566],[72.926117,2.32746]]],[[[73.344005,2.348049],[73.343598,2.344184],[73.342296,2.342393],[73.344005,2.348049]]],[[[73.354259,2.437201],[73.365326,2.413886],[73.362641,2.385118],[73.354259,2.437201]]],[[[73.314789,2.505805],[73.315196,2.494127],[73.311778,2.496772],[73.314789,2.505805]]],[[[73.145518,2.55329],[73.143809,2.55036],[73.140961,2.55036],[73.145518,2.55329]]],[[[72.900076,2.682196],[72.905284,2.680813],[72.90447,2.675727],[72.900076,2.682196]]],[[[72.872569,2.694159],[72.873709,2.683661],[72.867361,2.686672],[72.872569,2.694159]]],[[[73.022309,2.741685],[73.032237,2.745103],[73.028005,2.738227],[73.022309,2.741685]]],[[[73.353526,2.778266],[73.353526,2.771918],[73.348481,2.775377],[73.353526,2.778266]]],[[[73.399262,2.785712],[73.390636,2.775377],[73.391856,2.78148],[73.399262,2.785712]]],[[[73.548595,2.892727],[73.551036,2.890611],[73.549083,2.888129],[73.548595,2.892727]]],[[[73.360362,2.903876],[73.362315,2.899726],[73.35727,2.899807],[73.360362,2.903876]]],[[[73.008474,2.953315],[73.014903,2.947414],[73.010427,2.945258],[73.008474,2.953315]]],[[[73.56422,2.954739],[73.562022,2.946112],[73.56129,2.948472],[73.56422,2.954739]]],[[[73.585948,2.961615],[73.577485,2.951158],[73.578461,2.957343],[73.585948,2.961615]]],[[[72.870128,2.969184],[72.865082,2.958157],[72.864919,2.960883],[72.870128,2.969184]]],[[[72.901622,3.083808],[72.906016,3.08039],[72.899913,3.07685],[72.901622,3.083808]]],[[[73.613048,3.106757],[73.612559,3.102973],[73.608409,3.100409],[73.613048,3.106757]]],[[[72.977875,3.110175],[72.981781,3.105048],[72.975108,3.104193],[72.977875,3.110175]]],[[[73.042247,3.205471],[73.046886,3.202053],[73.040701,3.198472],[73.042247,3.205471]]],[[[73.031749,3.252997],[73.035167,3.249335],[73.031993,3.245551],[73.031749,3.252997]]],[[[72.833263,3.312486],[72.837657,3.309068],[72.831554,3.305609],[72.833263,3.312486]]],[[[73.516368,3.361233],[73.518809,3.359117],[73.519135,3.356594],[73.516368,3.361233]]],[[[73.747569,3.451117],[73.753103,3.446438],[73.748546,3.448188],[73.747569,3.451117]]],[[[73.50587,3.501207],[73.508474,3.496568],[73.506196,3.497626],[73.50587,3.501207]]],[[[72.952403,3.733832],[72.955821,3.730129],[72.951996,3.726874],[72.952403,3.733832]]],[[[72.945811,3.772121],[72.949392,3.766995],[72.942393,3.766954],[72.945811,3.772121]]],[[[72.944591,3.836859],[72.94809,3.831692],[72.941173,3.831692],[72.944591,3.836859]]],[[[73.437266,3.846625],[73.433442,3.842719],[73.432465,3.846829],[73.437266,3.846625]]],[[[73.443533,3.920559],[73.443044,3.918769],[73.438487,3.916612],[73.443533,3.920559]]],[[[73.345063,3.944729],[73.341482,3.942043],[73.341482,3.943101],[73.345063,3.944729]]],[[[73.422618,4.118354],[73.421397,4.11636],[73.419119,4.115749],[73.422618,4.118354]]],[[[73.546197,4.243039],[73.551992,4.22833],[73.538174,4.183312],[73.510891,4.162087],[73.431201,4.184649],[73.432093,4.189998],[73.512015,4.186301],[73.546197,4.243039]]],[[[72.94516,4.266303],[72.958669,4.262519],[72.951182,4.262356],[72.94516,4.266303]]],[[[73.595876,4.342271],[73.592459,4.340155],[73.589366,4.340562],[73.595876,4.342271]]],[[[73.611501,4.363105],[73.611827,4.356513],[73.607677,4.3581],[73.611501,4.363105]]],[[[73.63795,4.370551],[73.637462,4.365627],[73.631684,4.368476],[73.63795,4.370551]]],[[[73.667979,4.3935],[73.668305,4.386868],[73.664317,4.388332],[73.667979,4.3935]]],[[[72.957042,4.4383],[72.956065,4.422105],[72.948904,4.422919],[72.94337,4.431586],[72.957042,4.4383]]],[[[73.553559,4.62051],[73.553884,4.613918],[73.550955,4.613837],[73.553559,4.62051]]],[[[73.629568,5.418524],[73.636729,5.402899],[73.632498,5.386257],[73.629568,5.418524]]],[[[73.005626,5.463202],[73.002615,5.457587],[72.999034,5.461005],[73.005626,5.463202]]],[[[72.883962,5.494086],[72.879161,5.48786],[72.877696,5.492092],[72.883962,5.494086]]],[[[73.019054,5.617825],[73.014008,5.611558],[73.012869,5.615709],[73.019054,5.617825]]],[[[73.014659,5.676988],[73.009776,5.670844],[73.008556,5.675035],[73.014659,5.676988]]],[[[73.392833,5.737698],[73.380707,5.714586],[73.382579,5.722113],[73.392833,5.737698]]],[[[72.986827,5.770738],[72.98585,5.76557],[72.982839,5.762559],[72.986827,5.770738]]],[[[73.382335,5.794989],[73.380707,5.784125],[73.376801,5.78734],[73.382335,5.794989]]],[[[72.976573,5.813625],[72.975108,5.804551],[72.970958,5.808417],[72.976573,5.813625]]],[[[73.44988,5.840766],[73.433767,5.830878],[73.443126,5.841254],[73.44988,5.840766]]],[[[72.963634,5.864325],[72.966482,5.850287],[72.961925,5.856676],[72.963634,5.864325]]],[[[73.429047,5.911363],[73.428477,5.904446],[73.423188,5.906887],[73.429047,5.911363]]],[[[72.931651,5.969062],[72.930186,5.956936],[72.925792,5.963284],[72.931651,5.969062]]],[[[73.389822,5.970282],[73.395333,5.957802],[73.386729,5.961982],[73.389822,5.970282]]],[[[72.915701,5.98135],[72.912852,5.976304],[72.909679,5.982123],[72.915701,5.98135]]],[[[73.250743,6.083401],[73.249034,6.079535],[73.245453,6.079779],[73.250743,6.083401]]],[[[73.252126,6.111233],[73.247244,6.107978],[73.248871,6.110175],[73.252126,6.111233]]],[[[73.22047,6.132066],[73.219005,6.129299],[73.21518,6.128567],[73.22047,6.132066]]],[[[73.270274,6.156928],[73.267263,6.150946],[73.265391,6.153551],[73.270274,6.156928]]],[[[73.219086,6.172349],[73.214041,6.168769],[73.215831,6.17121],[73.219086,6.172349]]],[[[73.270844,6.189439],[73.268077,6.178697],[73.265391,6.182766],[73.270844,6.189439]]],[[[73.03419,6.222357],[73.029145,6.21898],[73.030447,6.221015],[73.03419,6.222357]]],[[[73.24171,6.239691],[73.240245,6.228949],[73.236339,6.232123],[73.24171,6.239691]]],[[[73.128429,6.286851],[73.12615,6.284003],[73.123057,6.283352],[73.128429,6.286851]]],[[[73.21518,6.294827],[73.213064,6.289211],[73.209158,6.286689],[73.21518,6.294827]]],[[[73.083344,6.30858],[73.081391,6.305609],[73.078461,6.305121],[73.083344,6.30858]]],[[[73.197032,6.32746],[73.20102,6.318264],[73.195079,6.319648],[73.197032,6.32746]]],[[[73.124522,6.332506],[73.11964,6.329169],[73.120942,6.331041],[73.124522,6.332506]]],[[[73.187266,6.350775],[73.18214,6.34634],[73.181,6.34984],[73.187266,6.350775]]],[[[73.020518,6.368964],[73.024913,6.364814],[73.019298,6.363593],[73.020518,6.368964]]],[[[72.690929,6.411607],[72.687185,6.407416],[72.685883,6.411607],[72.690929,6.411607]]],[[[72.902843,6.440172],[72.906423,6.436916],[72.902029,6.43476],[72.902843,6.440172]]],[[[73.048813,6.441342],[73.046235,6.436265],[73.043305,6.433865],[73.048813,6.441342]]],[[[72.962087,6.559027],[72.958995,6.555487],[72.956798,6.560004],[72.962087,6.559027]]],[[[72.924001,6.565253],[72.927501,6.562079],[72.923106,6.559882],[72.924001,6.565253]]],[[[73.029959,6.582343],[73.030121,6.577541],[73.025564,6.57925],[73.029959,6.582343]]],[[[73.04477,6.621894],[73.041515,6.618354],[73.039399,6.62287],[73.04477,6.621894]]],[[[73.069509,6.667955],[73.061778,6.660956],[73.062266,6.666897],[73.069509,6.667955]]],[[[73.105968,6.709947],[73.095958,6.698472],[73.09669,6.706122],[73.105968,6.709947]]],[[[73.036632,6.759711],[73.036876,6.753485],[73.031993,6.756578],[73.036632,6.759711]]],[[[72.918468,6.763983],[72.915375,6.760443],[72.913259,6.764879],[72.918468,6.763983]]],[[[73.159516,6.786526],[73.166515,6.780341],[73.152843,6.749213],[73.131847,6.725165],[73.159516,6.786526]]],[[[73.181651,6.830512],[73.197276,6.828111],[73.183767,6.821112],[73.181651,6.830512]]],[[[72.995779,6.841498],[72.992442,6.837877],[72.990245,6.842434],[72.995779,6.841498]]],[[[73.144379,6.843411],[73.14031,6.83869],[73.139008,6.844428],[73.144379,6.843411]]],[[[72.976085,6.852851],[72.976248,6.848131],[72.971528,6.849758],[72.976085,6.852851]]],[[[73.098155,6.8522],[73.095063,6.8487],[73.092947,6.853095],[73.098155,6.8522]]],[[[72.964692,6.860663],[72.960623,6.856065],[72.959239,6.86164],[72.964692,6.860663]]],[[[73.106212,6.896674],[73.106293,6.891913],[73.101736,6.893541],[73.106212,6.896674]]],[[[73.214041,6.918606],[73.203949,6.884955],[73.201915,6.902248],[73.214041,6.918606]]],[[[72.925955,6.957424],[72.92628,6.953803],[72.924585,6.951704],[72.925955,6.957424]]],[[[73.198497,6.97134],[73.194672,6.951239],[73.191905,6.967597],[73.198497,6.97134]]],[[[72.891938,6.991034],[72.891938,6.987698],[72.890554,6.98546],[72.891938,6.991034]]],[[[72.979747,7.027737],[72.981456,7.013983],[72.977306,7.019029],[72.979747,7.027737]]],[[[72.949962,7.056545],[72.948497,7.050849],[72.947765,7.0539],[72.949962,7.056545]]],[[[72.912852,7.092719],[72.911876,7.083197],[72.906423,7.089016],[72.912852,7.092719]]],[[[72.8838,7.107245],[72.884532,7.103705],[72.882498,7.10163],[72.8838,7.107245]]]]}}