{"type":"Feature","properties":{"iso3":"MEX","name":"Mexico","continent":"Americas"},"geometry":{"type":"MultiPolygon","coordinates":[[[[-97.139272,25.965806],[-97.165151,25.723334],[-97.319447,25.38996],[-97.458974,25.179389],[-97.651438,24.515855],[-97.725209,23.80565],[-97.822092,23.788398],[-97.772857,23.780097],[-97.753814,23.74372],[-97.76061,23.651923],[-97.733306,23.774807],[-97.722239,23.739325],[-97.768544,23.260077],[-97.74234,22.972073],[-97.753814,22.849311],[-97.752675,22.90705],[-97.838246,22.739691],[-97.876698,22.739447],[-97.855051,22.698554],[-97.890981,22.596096],[-97.850006,22.602932],[-97.839955,22.670315],[-97.850006,22.534613],[-97.76061,22.095852],[-97.610463,21.835761],[-97.316233,21.56094],[-97.411204,21.273383],[-97.463775,21.424018],[-97.455637,21.455268],[-97.390736,21.472642],[-97.370229,21.537502],[-97.625071,21.79442],[-97.658844,21.907457],[-97.781117,22.095852],[-97.719716,21.951809],[-97.657582,21.636542],[-97.562001,21.485663],[-97.5006,21.493109],[-97.496816,21.400621],[-97.197174,20.810207],[-97.198313,20.738959],[-97.150543,20.64704],[-96.676015,20.157864],[-96.456125,19.868801],[-96.360015,19.536851],[-96.3155,19.482245],[-96.290354,19.332587],[-96.17162,19.234117],[-96.131947,19.235907],[-96.077382,19.096096],[-95.970326,19.046088],[-95.903554,18.881903],[-95.75121,18.792792],[-95.752756,18.765815],[-95.914784,18.862494],[-95.958852,18.856391],[-95.807362,18.752143],[-95.877309,18.752387],[-95.861887,18.723375],[-95.783437,18.744696],[-95.568349,18.683295],[-95.728383,18.757229],[-95.732818,18.799994],[-95.583608,18.721666],[-95.173004,18.696723],[-95.002553,18.555406],[-94.786936,18.511949],[-94.580881,18.189846],[-94.466949,18.144232],[-94.134877,18.207994],[-93.86148,18.306545],[-93.888783,18.262152],[-93.798207,18.267483],[-93.744008,18.336005],[-93.592844,18.344957],[-93.576405,18.411851],[-93.847808,18.299709],[-93.839589,18.318549],[-93.552358,18.429389],[-93.155751,18.443061],[-93.176422,18.377672],[-93.121653,18.389065],[-93.13386,18.354885],[-93.094797,18.378119],[-93.095937,18.408881],[-93.139394,18.420233],[-93.121938,18.437934],[-92.855731,18.466047],[-92.726308,18.587633],[-92.690256,18.552924],[-92.669097,18.429389],[-92.68102,18.62287],[-92.40514,18.671063],[-91.94806,18.691225],[-91.866567,18.598375],[-92.008209,18.612982],[-91.990712,18.601304],[-92.039133,18.601304],[-92.052805,18.546698],[-91.906728,18.509711],[-91.970286,18.593899],[-91.901967,18.580797],[-91.915028,18.56037],[-91.874013,18.52558],[-91.894521,18.52558],[-91.837229,18.503241],[-91.852284,18.420152],[-91.81428,18.388658],[-91.792348,18.401557],[-91.812611,18.450507],[-91.771596,18.436835],[-91.798329,18.491441],[-91.68224,18.450507],[-91.495839,18.439602],[-91.482493,18.484687],[-91.534047,18.465806],[-91.511627,18.505276],[-91.197011,18.646389],[-91.28482,18.636705],[-91.285634,18.765815],[-91.367014,18.771226],[-91.414703,18.813625],[-91.237213,18.957587],[-91.391265,18.871283],[-91.414703,18.826646],[-91.505279,18.816555],[-90.935536,19.163072],[-90.769358,19.309231],[-90.730092,19.375922],[-90.683705,19.752916],[-90.477823,19.922101],[-90.489898,20.534125],[-90.459381,20.715522],[-90.379058,20.82746],[-90.339101,20.972357],[-90.398061,20.820746],[-90.442128,20.787421],[-90.332387,21.032457],[-90.099477,21.16413],[-89.785959,21.284573],[-88.878774,21.413072],[-88.447825,21.5751],[-88.282704,21.556708],[-88.084788,21.589301],[-88.226959,21.574774],[-88.138905,21.614],[-87.709788,21.536851],[-87.865631,21.554592],[-87.778066,21.510647],[-87.61856,21.520453],[-87.47411,21.467108],[-87.256947,21.440619],[-87.142445,21.50137],[-87.153066,21.568264],[-87.399526,21.520453],[-87.382436,21.558295],[-87.272125,21.560777],[-87.11148,21.62344],[-86.997914,21.565904],[-86.924794,21.446112],[-86.838775,21.437934],[-86.812571,21.382799],[-86.815053,21.204779],[-86.790924,21.158352],[-86.741567,21.16413],[-86.875152,20.865302],[-87.056793,20.630439],[-87.234975,20.49258],[-87.430491,20.221015],[-87.471303,20.069037],[-87.433013,19.899848],[-87.474273,19.797065],[-87.443918,19.913479],[-87.488271,19.954413],[-87.474599,19.875637],[-87.454701,19.889309],[-87.496938,19.829657],[-87.600413,19.771389],[-87.658315,19.644843],[-87.680043,19.635972],[-87.660146,19.683783],[-87.724192,19.682034],[-87.744252,19.651801],[-87.731516,19.600531],[-87.660146,19.567776],[-87.654408,19.507473],[-87.578521,19.561469],[-87.441396,19.553656],[-87.440419,19.595038],[-87.443918,19.57392],[-87.529205,19.587592],[-87.447336,19.580797],[-87.441396,19.618883],[-87.41275,19.577623],[-87.458404,19.455024],[-87.65567,19.373236],[-87.687856,19.242133],[-87.638987,19.220933],[-87.567128,19.317206],[-87.495717,19.327582],[-87.516184,19.286566],[-87.460927,19.320705],[-87.533437,19.228095],[-87.662017,18.766832],[-87.73705,18.644965],[-87.762563,18.429389],[-87.84142,18.277655],[-87.844553,18.196682],[-87.858795,18.245063],[-87.890981,18.243557],[-87.865346,18.314154],[-87.880035,18.298651],[-87.93517,18.443101],[-88.08023,18.514228],[-88.002187,18.690131],[-88.036285,18.874986],[-88.13622,18.72427],[-88.134674,18.769517],[-88.241811,18.703843],[-88.255483,18.676459],[-88.187123,18.738511],[-88.194651,18.676459],[-88.160471,18.703762],[-88.283315,18.491441],[-88.520199,18.461562],[-88.616989,18.235426],[-88.696623,18.178065],[-88.736388,18.051923],[-88.865372,17.899012],[-89.049444,17.999213],[-89.153933,17.941077],[-89.160496,17.814314],[-90.98284,17.810542],[-90.991986,17.25192],[-91.442502,17.237967],[-91.364884,17.189753],[-91.290418,17.189081],[-91.066866,16.918193],[-90.998343,16.877162],[-90.955193,16.898763],[-90.968887,16.874372],[-90.919071,16.836338],[-90.810602,16.812928],[-90.749779,16.757686],[-90.667717,16.652576],[-90.627874,16.492896],[-90.553409,16.490261],[-90.400601,16.420549],[-90.379853,16.367271],[-90.40874,16.372335],[-90.398793,16.347582],[-90.444888,16.30836],[-90.42768,16.263608],[-90.457833,16.249138],[-90.434475,16.236323],[-90.461812,16.189142],[-90.432718,16.173226],[-90.447841,16.079687],[-91.723776,16.068788],[-91.751888,16.046308],[-92.204651,15.289507],[-92.21093,15.253359],[-92.073807,15.073706],[-92.157574,14.963041],[-92.190828,14.814239],[-92.164731,14.66815],[-92.226097,14.549346],[-92.840606,15.16116],[-92.840443,15.181952],[-92.780873,15.15884],[-92.753163,15.098415],[-92.768422,15.171454],[-92.863515,15.191107],[-92.983144,15.26557],[-93.1881,15.477566],[-93.470815,15.70071],[-93.943389,16.010565],[-93.854034,16.024848],[-93.898101,16.088935],[-94.073761,16.140937],[-94.127838,16.220852],[-94.266713,16.215277],[-94.399281,16.298611],[-94.436513,16.245551],[-94.345489,16.163153],[-94.292633,16.14114],[-94.265533,16.148383],[-94.341298,16.175686],[-94.230011,16.163275],[-94.082183,16.094753],[-93.963897,15.997504],[-94.392201,16.17768],[-94.722401,16.199652],[-94.587148,16.282416],[-94.580841,16.326483],[-94.677032,16.360663],[-94.804311,16.275214],[-94.783193,16.343207],[-94.814361,16.403103],[-94.878651,16.424628],[-95.065175,16.278266],[-94.964621,16.24772],[-94.841827,16.283718],[-94.930328,16.243964],[-94.805531,16.237128],[-94.761505,16.203925],[-95.149301,16.186952],[-95.337289,16.088838],[-95.434478,15.97538],[-95.959882,15.827914],[-96.236637,15.68333],[-96.431142,15.695868],[-96.504857,15.658054],[-96.845123,15.732571],[-97.266025,15.935912],[-97.772719,15.979454],[-98.172149,16.209174],[-98.082143,16.189276],[-98.09732,16.210883],[-98.552847,16.31475],[-98.791347,16.554121],[-98.85655,16.528179],[-99.37426,16.667911],[-99.663289,16.698164],[-99.843825,16.785958],[-99.866801,16.855672],[-99.920102,16.834096],[-99.991686,16.909737],[-101.065105,17.276008],[-101.055084,17.302639],[-101.182245,17.412536],[-101.455773,17.526338],[-101.440704,17.557156],[-101.496491,17.614406],[-101.55314,17.611376],[-101.644487,17.668294],[-101.67189,17.74027],[-101.811061,17.89026],[-101.989877,17.974751],[-102.100477,17.982327],[-102.175915,17.917047],[-102.475082,18.017777],[-102.742299,18.066962],[-103.4984,18.333483],[-103.575103,18.492255],[-103.71002,18.601176],[-103.700175,18.654327],[-103.979977,18.874938],[-104.315707,19.016496],[-104.304102,19.081682],[-104.354332,19.111913],[-104.439548,19.081607],[-104.750844,19.231513],[-104.799672,19.224555],[-104.815704,19.299628],[-104.8662,19.289984],[-104.993642,19.34219],[-105.070098,19.447781],[-105.08771,19.561073],[-105.250762,19.666083],[-105.525624,20.031928],[-105.553212,20.201483],[-105.698681,20.406911],[-105.575592,20.487738],[-105.328734,20.513738],[-105.243642,20.583564],[-105.234296,20.636127],[-105.341526,20.754639],[-105.410907,20.733999],[-105.535139,20.778437],[-105.486535,20.796223],[-105.318715,21.017401],[-105.234327,21.060966],[-105.216081,21.204379],[-105.243138,21.342064],[-105.186635,21.453396],[-105.217559,21.517239],[-105.263504,21.513401],[-105.448417,21.631032],[-105.632264,21.955737],[-105.655032,22.256298],[-105.723541,22.528388],[-105.80016,22.638454],[-106.001617,22.823188],[-105.98412,22.856757],[-106.031972,22.830105],[-106.220326,23.051947],[-106.370839,23.183987],[-106.419342,23.179877],[-106.522817,23.407538],[-106.793243,23.632351],[-106.902008,23.846625],[-107.035878,23.98078],[-107.543202,24.346584],[-107.775014,24.477444],[-107.796742,24.52265],[-107.514882,24.351996],[-107.549672,24.387885],[-107.498036,24.357611],[-107.478261,24.400092],[-107.519195,24.511379],[-107.579416,24.527574],[-107.601674,24.50845],[-107.560902,24.51496],[-107.584096,24.474921],[-107.624135,24.458482],[-107.676747,24.501614],[-107.718821,24.492377],[-107.820546,24.59516],[-107.936838,24.638821],[-107.819081,24.54442],[-107.995188,24.648383],[-108.060292,24.786444],[-107.994862,24.758043],[-107.971588,24.778754],[-108.013173,24.836819],[-107.985219,24.953437],[-108.036122,24.998481],[-108.041127,24.838365],[-108.124379,24.84455],[-108.23412,25.028388],[-108.32787,25.111151],[-108.266184,25.096869],[-108.186391,24.986558],[-108.144358,24.975775],[-108.13679,25.059963],[-108.013173,25.001899],[-108.001698,25.020982],[-108.106923,25.116929],[-108.172922,25.113593],[-108.21227,25.166938],[-108.351796,25.169501],[-108.317454,25.228502],[-108.352895,25.261664],[-108.399241,25.14525],[-108.419016,25.249172],[-108.614003,25.343329],[-108.731923,25.35814],[-108.594146,25.351304],[-108.657216,25.392239],[-108.765736,25.380927],[-108.779693,25.398505],[-108.738678,25.399075],[-108.783559,25.537543],[-108.87682,25.559638],[-108.89981,25.477973],[-109.001861,25.499945],[-109.034657,25.465237],[-109.116119,25.536322],[-109.057769,25.584662],[-108.971547,25.563625],[-108.828114,25.789537],[-108.900868,25.70067],[-109.062123,25.590277],[-109.144399,25.594713],[-109.180735,25.652981],[-109.250152,25.686184],[-109.156484,25.556789],[-109.227528,25.628648],[-109.410308,25.646145],[-109.300526,25.659166],[-109.286855,25.710679],[-109.378041,25.761786],[-109.395863,25.685858],[-109.43517,25.776313],[-109.437652,26.00552],[-109.262196,26.304104],[-109.290598,26.163153],[-109.268056,26.179877],[-109.225413,26.334459],[-109.176096,26.338202],[-109.156077,26.254828],[-109.109364,26.216457],[-109.088246,26.290432],[-109.184438,26.378567],[-109.170155,26.35871],[-109.240102,26.335517],[-109.255727,26.497992],[-109.387089,26.638021],[-109.475163,26.674928],[-109.428522,26.671851],[-109.483428,26.742641],[-109.549896,26.727956],[-109.503734,26.678537],[-109.694428,26.678155],[-109.784576,26.719428],[-109.856313,26.800971],[-109.945565,26.99709],[-109.88329,26.940904],[-109.952219,27.098578],[-110.016469,27.119045],[-110.052104,27.090321],[-110.287622,27.148394],[-110.447883,27.274262],[-110.522329,27.290354],[-110.438423,27.292655],[-110.473541,27.370266],[-110.540639,27.37226],[-110.587405,27.449365],[-110.627101,27.641099],[-110.578969,27.668362],[-110.594716,27.714504],[-110.553456,27.732489],[-110.601715,27.767076],[-110.609527,27.824774],[-110.521067,27.84455],[-110.513295,27.873196],[-110.84911,27.906684],[-110.808176,27.927802],[-110.838857,27.989407],[-110.890696,27.899848],[-110.867421,27.898424],[-110.87678,27.847113],[-110.999257,27.964057],[-111.087448,27.936205],[-111.1718,27.990087],[-111.250662,28.052013],[-111.451772,28.325629],[-111.442291,28.369289],[-111.697797,28.45752],[-111.76061,28.58397],[-111.940072,28.746447],[-111.903535,28.779704],[-111.861195,28.753241],[-111.868235,28.803127],[-111.925017,28.801719],[-112.030296,28.861431],[-112.098866,28.950873],[-112.170819,28.972993],[-112.166127,29.120429],[-112.239453,29.315337],[-112.411224,29.344728],[-112.377754,29.485729],[-112.58019,29.718004],[-112.658315,29.88345],[-112.751472,29.924264],[-112.730458,30.013373],[-112.758815,30.059181],[-112.764293,30.21152],[-112.854915,30.262756],[-112.870676,30.428534],[-113.079895,30.670441],[-113.128841,30.81244],[-113.097359,30.946008],[-113.130783,31.050547],[-113.08982,30.993122],[-113.055898,31.030707],[-113.048723,31.156692],[-113.091744,31.202152],[-113.197046,31.225188],[-113.2329,31.288031],[-113.261708,31.280585],[-113.229349,31.245096],[-113.622269,31.325584],[-113.659577,31.49754],[-113.884877,31.614691],[-113.939524,31.600409],[-113.962514,31.655219],[-113.979669,31.545206],[-114.028942,31.491539],[-114.208888,31.512283],[-114.584712,31.760755],[-114.677235,31.764065],[-114.793609,31.816555],[-115.029449,31.970933],[-115.016225,31.919094],[-114.835032,31.801907],[-114.780629,31.655829],[-114.85291,31.526606],[-114.884043,31.120715],[-114.813471,31.049986],[-114.821767,30.988959],[-114.716765,30.935449],[-114.698474,30.637212],[-114.630599,30.494874],[-114.665733,30.199568],[-114.533132,29.967951],[-114.427719,29.907295],[-114.39224,29.783012],[-114.322526,29.741101],[-114.271215,29.772068],[-114.20331,29.739734],[-113.648517,29.293961],[-113.631579,29.263961],[-113.656557,29.21844],[-113.539642,29.039615],[-113.561865,29.000146],[-113.533886,28.906565],[-113.481538,28.893398],[-113.487973,28.930303],[-113.434665,28.959874],[-113.413052,28.922322],[-113.387871,28.939804],[-113.370633,28.837206],[-113.332494,28.800621],[-113.268491,28.83218],[-113.214159,28.817312],[-113.10297,28.504583],[-113.001639,28.455579],[-112.902362,28.475342],[-112.846304,28.441077],[-112.872126,28.28374],[-112.786456,28.196077],[-112.811771,28.12054],[-112.799363,28.017424],[-112.756585,27.968386],[-112.758387,27.846107],[-112.678863,27.728583],[-112.566737,27.641441],[-112.354714,27.547323],[-112.297325,27.381062],[-112.207002,27.26113],[-112.212764,27.210463],[-111.946453,27.079295],[-112.003128,27.035743],[-112.017161,26.978502],[-111.870717,26.82807],[-111.861446,26.783795],[-111.900114,26.714559],[-111.784275,26.571796],[-111.73581,26.539684],[-111.676793,26.581859],[-111.807421,26.715525],[-111.845116,26.867876],[-111.826603,26.890511],[-111.560055,26.695653],[-111.56908,26.576234],[-111.442238,26.517526],[-111.468867,26.419504],[-111.393656,26.330011],[-111.397449,26.252215],[-111.322037,26.098183],[-111.36026,25.964097],[-111.331028,25.837358],[-111.291923,25.812266],[-111.315394,25.820034],[-111.309296,25.78926],[-111.225005,25.724353],[-111.191744,25.614829],[-111.128968,25.539309],[-111.014627,25.505916],[-111.02026,25.440739],[-110.947389,25.315448],[-110.910873,25.160155],[-110.861615,25.079189],[-110.757791,25.012239],[-110.690533,24.891886],[-110.660684,24.799662],[-110.723528,24.681178],[-110.734872,24.544501],[-110.628444,24.284666],[-110.539623,24.203989],[-110.325195,24.175709],[-110.352421,24.154973],[-110.432429,24.173617],[-110.392694,24.106243],[-110.350381,24.114456],[-110.306134,24.176716],[-110.33928,24.31586],[-110.276237,24.350801],[-110.228845,24.335734],[-110.1837,24.269627],[-110.006985,24.158826],[-109.97416,24.038576],[-109.828288,24.0628],[-109.803444,24.02206],[-109.837322,23.938087],[-109.711836,23.807786],[-109.696321,23.66552],[-109.476459,23.560205],[-109.414317,23.405945],[-109.453838,23.202271],[-109.531672,23.108207],[-109.713176,23.03105],[-109.851064,22.89997],[-109.934523,22.872302],[-109.999659,22.894442],[-110.078359,22.980658],[-110.16726,23.321086],[-110.307362,23.541032],[-110.647518,23.733901],[-111.039714,24.104185],[-111.444445,24.324391],[-111.359749,24.290322],[-111.595578,24.442235],[-111.667841,24.576507],[-111.695627,24.587144],[-111.698781,24.535562],[-111.788308,24.54216],[-111.761715,24.515249],[-111.812908,24.50588],[-111.848924,24.653686],[-111.929201,24.73047],[-111.912929,24.743776],[-111.995676,24.86579],[-111.972401,24.748765],[-112.025258,24.755561],[-112.035634,24.840399],[-112.047542,24.76513],[-112.088043,24.773383],[-112.124215,24.874046],[-112.082387,24.960273],[-112.104171,25.007873],[-112.155831,24.875438],[-112.165803,24.953935],[-112.123363,25.038267],[-112.140228,25.125871],[-112.084118,25.243584],[-112.086932,25.390585],[-112.048353,25.466415],[-112.075994,25.7134],[-112.0964,25.510727],[-112.108712,25.784145],[-112.178942,25.955175],[-112.238515,26.040839],[-112.308746,26.06977],[-112.343495,26.178127],[-112.402699,26.24022],[-112.442738,26.260728],[-112.481313,26.238105],[-112.556793,26.272366],[-112.559967,26.301093],[-112.676259,26.319281],[-113.060716,26.599118],[-113.057037,26.650214],[-113.143056,26.757717],[-113.119049,26.794094],[-113.21581,26.744452],[-113.238149,26.786607],[-113.131459,26.875922],[-113.145741,26.97012],[-113.192544,26.94506],[-113.204221,26.853463],[-113.257965,26.824652],[-113.270544,26.752474],[-113.470986,26.804554],[-113.542966,26.719196],[-113.637138,26.725531],[-113.725209,26.799994],[-113.816388,26.948969],[-113.909901,26.992336],[-113.993886,26.971829],[-114.181956,27.139635],[-114.274083,27.148898],[-114.293999,27.125462],[-114.395149,27.182914],[-114.421405,27.166457],[-114.429799,27.20893],[-114.487542,27.238098],[-114.506461,27.406184],[-114.715752,27.521904],[-114.805719,27.621043],[-114.844866,27.616064],[-114.861562,27.689887],[-114.899805,27.664122],[-115.022684,27.740291],[-115.083823,27.851054],[-114.499057,27.774071],[-114.325347,27.874701],[-114.294789,27.852444],[-114.282379,27.735826],[-114.15095,27.669664],[-114.102935,27.601874],[-114.056711,27.641547],[-114.063303,27.679633],[-113.942535,27.669664],[-113.929351,27.726752],[-114.025258,27.749905],[-114.066558,27.803656],[-114.050893,27.726752],[-114.131947,27.723456],[-114.172434,27.788764],[-114.131093,27.888821],[-114.153432,27.945014],[-114.276452,27.901148],[-114.134389,28.08393],[-114.113812,28.060407],[-114.149495,28.013474],[-114.106402,27.927952],[-114.107081,28.013484],[-114.039736,28.02773],[-114.101007,28.071105],[-114.113121,28.120413],[-114.057485,28.206285],[-114.124883,28.255725],[-114.042592,28.458441],[-114.096344,28.551907],[-114.147991,28.560773],[-114.165842,28.646959],[-114.271751,28.658801],[-114.346923,28.730755],[-114.419299,28.87848],[-114.476633,28.929145],[-114.542832,28.934394],[-114.556304,28.970282],[-114.591633,28.965404],[-114.631418,29.094468],[-114.704927,29.096113],[-114.752309,29.192816],[-114.785313,29.19416],[-114.972035,29.377753],[-115.187123,29.428616],[-115.285722,29.529885],[-115.451964,29.620106],[-115.498583,29.611401],[-115.697564,29.755826],[-115.699899,29.898014],[-115.744293,29.947496],[-115.807485,29.956204],[-115.783272,30.092638],[-115.837303,30.346467],[-115.975413,30.401272],[-115.933827,30.449652],[-115.972483,30.492825],[-115.961741,30.442206],[-116.014638,30.426011],[-115.979785,30.359356],[-116.004549,30.359165],[-116.049254,30.479593],[-116.036855,30.730211],[-116.068023,30.813178],[-116.175774,30.860147],[-116.249745,30.956773],[-116.335446,30.95634],[-116.309438,31.148505],[-116.341542,31.21955],[-116.5301,31.440334],[-116.675608,31.552639],[-116.677235,31.577786],[-116.644521,31.579535],[-116.648061,31.659166],[-116.741177,31.738534],[-116.643625,31.73428],[-116.611819,31.84288],[-116.754768,31.909641],[-116.757924,31.965033],[-116.865387,32.013007],[-116.922678,32.219387],[-117.009877,32.265082],[-117.124527,32.512924],[-114.724285,32.712836],[-114.802678,32.594497],[-114.809447,32.511324],[-114.780147,32.487243],[-111.006269,31.327185],[-108.214811,31.327443],[-108.215121,31.777751],[-106.428951,31.758476],[-106.35849,31.717548],[-106.218731,31.494616],[-105.961202,31.371006],[-105.376173,30.859565],[-105.17479,30.783962],[-104.898166,30.569401],[-104.844939,30.40104],[-104.681564,30.192939],[-104.682469,29.952126],[-104.570279,29.787511],[-104.530824,29.667906],[-104.349026,29.537578],[-104.267171,29.526571],[-104.057313,29.339037],[-103.794177,29.277594],[-103.702477,29.187858],[-103.558015,29.156206],[-103.38663,29.028798],[-103.122771,28.996474],[-103.104684,29.057866],[-102.988386,29.177135],[-102.869866,29.224781],[-102.899399,29.276095],[-102.883069,29.343766],[-102.837672,29.366322],[-102.839067,29.45195],[-102.693624,29.729401],[-102.523066,29.782318],[-102.406096,29.777279],[-102.330235,29.888926],[-102.109344,29.80211],[-101.972246,29.818181],[-101.632216,29.775651],[-101.546458,29.820145],[-101.521809,29.765936],[-101.470908,29.791516],[-101.414012,29.774411],[-101.364351,29.676665],[-101.30978,29.654548],[-101.30097,29.594138],[-101.233919,29.622663],[-101.212861,29.531584],[-101.037782,29.460063],[-100.998301,29.372472],[-100.796143,29.257673],[-100.770098,29.187289],[-100.668967,29.116208],[-100.618841,28.917926],[-100.529285,28.819947],[-100.38423,28.537174],[-100.322631,28.510406],[-100.348315,28.470253],[-100.275089,28.277242],[-100.056498,28.137922],[-100.000584,28.02041],[-99.878808,27.901838],[-99.891288,27.876026],[-99.83292,27.776755],[-99.710674,27.670116],[-99.590247,27.642061],[-99.515006,27.588601],[-99.510071,27.510518],[-99.472916,27.468299],[-99.5148,27.321796],[-99.434029,27.22697],[-99.461728,27.056954],[-99.248278,26.827097],[-99.164873,26.540448],[-99.115108,26.525617],[-99.085498,26.40764],[-98.801329,26.372138],[-98.664696,26.250647],[-98.581627,26.262274],[-98.472383,26.207652],[-98.428845,26.217729],[-98.185062,26.065232],[-97.80201,26.063733],[-97.659874,26.03066],[-97.404179,25.851395],[-97.345733,25.852222],[-97.328447,25.933302],[-97.139272,25.965806]]],[[[-114.775543,18.354926],[-114.724029,18.354926],[-114.727162,18.333808],[-114.78189,18.32453],[-114.775543,18.354926]]],[[[-110.945912,18.799994],[-110.924306,18.727362],[-110.979482,18.716783],[-111.06725,18.768744],[-111.000559,18.868232],[-110.945912,18.799994]]],[[[-110.81432,19.348049],[-110.787668,19.31391],[-110.828603,19.275702],[-110.81432,19.348049]]],[[[-106.224038,21.328736],[-106.24731,21.289699],[-106.270197,21.300997],[-106.260005,21.334097],[-106.224038,21.328736]]],[[[-106.404218,21.483886],[-106.362887,21.464307],[-106.387098,21.420636],[-106.492614,21.469005],[-106.404218,21.483886]]],[[[-106.512353,21.597034],[-106.541794,21.543459],[-106.631156,21.600861],[-106.660848,21.693064],[-106.548004,21.668546],[-106.512353,21.597034]]],[[[-106.663823,21.777246],[-106.678963,21.727036],[-106.688941,21.746832],[-106.663823,21.777246]]],[[[-109.83575,24.224654],[-109.814844,24.140431],[-109.862483,24.147087],[-109.900432,24.199241],[-109.934234,24.359386],[-109.83575,24.224654]]],[[[-111.561635,24.378079],[-111.467094,24.336732],[-111.664814,24.351856],[-111.657778,24.375217],[-111.561635,24.378079]]],[[[-111.753489,24.446967],[-111.699752,24.358924],[-111.708111,24.299854],[-112.001754,24.506313],[-111.988974,24.527654],[-111.881154,24.517607],[-111.753489,24.446967]]],[[[-110.324941,24.515855],[-110.295853,24.476887],[-110.34804,24.402451],[-110.39199,24.497768],[-110.376232,24.530767],[-110.415745,24.569601],[-110.397507,24.590805],[-110.324941,24.515855]]],[[[-110.710792,25.095047],[-110.574916,25.015727],[-110.533971,24.890803],[-110.553356,24.872682],[-110.642313,24.914498],[-110.675838,25.011198],[-110.716551,25.03989],[-110.710792,25.095047]]],[[[-112.103485,24.617166],[-112.059907,24.540603],[-112.176344,24.653562],[-112.135938,24.698046],[-112.16771,24.755373],[-112.237785,24.789228],[-112.257814,24.751578],[-112.304596,24.792182],[-112.125326,25.265833],[-112.179304,25.044986],[-112.176865,24.872388],[-112.213715,24.847527],[-112.115623,24.689301],[-112.143234,24.649882],[-112.103485,24.617166]]],[[[-108.831614,25.426418],[-108.803944,25.374579],[-109.013092,25.446926],[-108.831614,25.426418]]],[[[-110.765292,25.593939],[-110.805532,25.644418],[-110.773414,25.712795],[-110.765292,25.593939]]],[[[-111.081194,25.998658],[-111.065344,25.982723],[-111.119262,25.986287],[-111.172856,25.913328],[-111.204991,25.803754],[-111.233355,25.842899],[-111.169255,25.987594],[-111.176027,26.043342],[-111.056369,26.071817],[-111.081194,25.998658]]],[[[-110.044442,27.087],[-109.985245,27.069568],[-109.938034,27.021165],[-110.044442,27.087]]],[[[-110.604176,27.318024],[-110.597483,27.405748],[-110.594042,27.331832],[-110.530659,27.300392],[-110.604176,27.318024]]],[[[-115.19498,28.341358],[-115.15549,28.170704],[-115.179321,28.040345],[-115.228143,28.028323],[-115.280263,28.08747],[-115.358052,28.082579],[-115.239756,28.233606],[-115.248642,28.359315],[-115.214867,28.378279],[-115.19498,28.341358]]],[[[-112.893769,28.677696],[-112.804956,28.636537],[-112.762045,28.581964],[-112.893769,28.677696]]],[[[-112.61315,28.725763],[-112.547957,28.728549],[-112.553939,28.672288],[-112.594673,28.673083],[-112.61315,28.725763]]],[[[-112.274657,28.768388],[-112.359055,28.758236],[-112.572931,28.868502],[-112.485911,28.971625],[-112.500356,29.075629],[-112.464711,29.18183],[-112.264337,29.24689],[-112.268482,29.152726],[-112.195606,29.02133],[-112.276229,28.805451],[-112.253187,28.76905],[-112.274657,28.768388]]],[[[-113.138173,29.064887],[-113.114792,28.984478],[-113.503168,29.298123],[-113.589104,29.409599],[-113.571144,29.53995],[-113.476789,29.532104],[-113.39516,29.459318],[-113.349779,29.384066],[-113.370287,29.310009],[-113.285384,29.280461],[-113.18276,29.289693],[-113.174315,29.129248],[-113.138173,29.064887]]],[[[-114.786122,31.803046],[-114.652699,31.689765],[-114.762563,31.715644],[-114.798207,31.756659],[-114.786122,31.803046]]],[[[-87.331207,18.532416],[-87.318471,18.558417],[-87.373199,18.402493],[-87.331207,18.532416]]],[[[-87.269154,18.738511],[-87.248158,18.676215],[-87.262929,18.628648],[-87.269154,18.738511]]],[[[-91.600331,18.77204],[-91.555735,18.791693],[-91.524403,18.766588],[-91.606028,18.74372],[-91.688873,18.66942],[-91.723215,18.662787],[-91.702748,18.697496],[-91.842681,18.65119],[-91.600331,18.77204]]],[[[-86.749013,20.592231],[-86.889801,20.353664],[-87.002268,20.270087],[-87.019683,20.397447],[-86.936757,20.547187],[-86.82372,20.549994],[-86.749013,20.592231]]],[[[-86.700592,21.19892],[-86.739573,21.242825],[-86.741567,21.287665],[-86.700592,21.19892]]],[[[-97.651438,21.787909],[-97.610463,21.74018],[-97.663482,21.778469],[-97.684926,21.862454],[-97.651438,21.787909]]],[[[-97.815297,22.720201],[-97.798411,22.762519],[-97.796132,22.723782],[-97.84317,22.684882],[-97.815297,22.720201]]],[[[-118.251478,29.089444],[-118.225804,28.915052],[-118.28202,28.879102],[-118.365383,29.131653],[-118.273755,29.189563],[-118.286176,29.13644],[-118.251478,29.089444]]],[[[-113.24474,26.724595],[-113.180247,26.722968],[-113.138051,26.665107],[-113.246409,26.701483],[-113.24474,26.724595]]],[[[-89.664188,22.371069],[-89.697972,22.417544],[-89.655165,22.472001],[-89.714017,22.541046],[-89.761918,22.529096],[-89.745707,22.577249],[-89.658248,22.54067],[-89.610152,22.461081],[-89.634276,22.378891],[-89.664188,22.371069]]],[[[-110.586163,24.832117],[-110.569228,24.843842],[-110.564649,24.826362],[-110.586163,24.832117]]],[[[-115.752797,24.954779],[-115.752309,24.953274],[-115.753774,24.953518],[-115.752797,24.954779]]],[[[-110.714791,25.305926],[-110.690685,25.312738],[-110.713438,25.264268],[-110.733939,25.27778],[-110.714791,25.305926]]],[[[-112.106306,25.484113],[-112.117476,25.283858],[-112.138051,25.297347],[-112.106306,25.484113]]],[[[-111.059148,25.700978],[-111.037154,25.713811],[-111.022108,25.659441],[-111.059148,25.700978]]],[[[-111.258235,25.812789],[-111.24306,25.76678],[-111.258494,25.781399],[-111.258235,25.812789]]],[[[-111.286624,26.125846],[-111.268558,26.136262],[-111.286204,26.103132],[-111.286624,26.125846]]],[[[-112.097003,27.224523],[-112.09009,27.259978],[-112.045253,27.216644],[-112.066279,27.178965],[-112.097003,27.224523]]],[[[-111.892268,27.429019],[-111.901083,27.449228],[-111.856394,27.43787],[-111.892268,27.429019]]],[[[-115.204156,27.892496],[-115.162365,27.868343],[-115.172995,27.848571],[-115.204156,27.892496]]],[[[-111.388508,27.968802],[-111.38744,27.988079],[-111.365587,27.9534],[-111.388508,27.968802]]],[[[-115.593807,28.317167],[-115.567777,28.313724],[-115.592321,28.297501],[-115.593807,28.317167]]],[[[-113.51884,29.095563],[-113.496751,29.048354],[-113.514318,29.053284],[-113.51884,29.095563]]],[[[-114.418542,29.986776],[-114.400065,29.969304],[-114.422017,29.966236],[-114.418542,29.986776]]],[[[-116.114411,30.496223],[-116.104175,30.482589],[-116.122767,30.485167],[-116.114411,30.496223]]],[[[-117.253693,32.420802],[-117.245032,32.414627],[-117.239321,32.389118],[-117.253693,32.420802]]]]}}