{"type":"Feature","properties":{"iso3":"MKD","name":"North Macedonia","continent":"Europe"},"geometry":{"type":"Polygon","coordinates":[[[20.567147,41.873182],[20.602391,41.849876],[20.61872,41.850522],[20.643422,41.873647],[20.681456,41.84401],[20.702953,41.849591],[20.750495,41.906797],[20.754423,41.930904],[20.741814,41.970773],[20.743054,41.993484],[20.765378,42.064333],[20.784912,42.082032],[21.003916,42.141951],[21.098484,42.195953],[21.164423,42.16704],[21.199873,42.14115],[21.237804,42.097354],[21.28886,42.089706],[21.300796,42.098425],[21.294958,42.148979],[21.353766,42.215977],[21.384255,42.224943],[21.429834,42.215848],[21.419912,42.240058],[21.436345,42.24688],[21.467557,42.235123],[21.48151,42.247784],[21.499287,42.238663],[21.561815,42.247164],[21.676886,42.234945],[21.8172,42.305145],[21.88438,42.309512],[21.929028,42.335117],[22.027627,42.303956],[22.060906,42.301088],[22.233402,42.348889],[22.268852,42.370335],[22.276914,42.341241],[22.307609,42.31933],[22.345023,42.313439],[22.443622,42.214427],[22.481449,42.193317],[22.494678,42.164559],[22.531058,42.129109],[22.617771,42.082704],[22.705725,42.055935],[22.718437,42.044463],[22.780862,42.043171],[22.798949,42.021235],[22.821273,42.025369],[22.838223,42.019478],[22.85476,41.982632],[22.880804,41.872691],[22.901372,41.860418],[22.939716,41.776702],[22.956872,41.765669],[22.991185,41.760992],[23.008859,41.739934],[23.009582,41.71637],[22.967001,41.647046],[22.940852,41.63764],[22.932998,41.612345],[22.933721,41.584595],[22.948707,41.560978],[22.943023,41.538551],[22.946227,41.453233],[22.954598,41.432408],[22.937339,41.410755],[22.940852,41.349829],[22.916978,41.335773],[22.826027,41.340992],[22.780966,41.334894],[22.751303,41.315205],[22.727222,41.165809],[22.704898,41.139661],[22.64454,41.180227],[22.629347,41.177074],[22.624489,41.152631],[22.590176,41.125139],[22.451477,41.113667],[22.421814,41.114649],[22.380163,41.131702],[22.308746,41.124984],[22.305232,41.141624],[22.29345,41.147515],[22.205807,41.161416],[22.160332,41.151908],[22.103384,41.121522],[22.062767,41.13718],[22.048194,41.151856],[22.029074,41.138575],[21.965098,41.124364],[21.909081,41.097493],[21.897195,41.081266],[21.894301,41.053826],[21.831463,40.993726],[21.783714,40.964167],[21.778133,40.93373],[21.765524,40.923911],[21.736998,40.919157],[21.685115,40.927994],[21.6569,40.918227],[21.648838,40.895799],[21.623724,40.894404],[21.581556,40.866292],[21.55365,40.870426],[21.509519,40.900502],[21.404926,40.908615],[21.381258,40.900502],[21.344878,40.873062],[21.295372,40.860866],[21.183027,40.870168],[21.112127,40.853942],[20.965262,40.849394],[20.956684,40.894766],[20.939941,40.907065],[20.837415,40.924066],[20.766102,40.893732],[20.740883,40.89797],[20.717216,40.913214],[20.702746,40.936314],[20.65386,41.075272],[20.576966,41.093513],[20.565494,41.147412],[20.51268,41.210147],[20.500071,41.23552],[20.477747,41.319598],[20.481674,41.341199],[20.49604,41.337788],[20.523429,41.356805],[20.540172,41.400678],[20.522189,41.42569],[20.490873,41.436025],[20.483535,41.46548],[20.470822,41.483774],[20.452012,41.493592],[20.444157,41.549661],[20.507409,41.56227],[20.534694,41.585266],[20.508339,41.661748],[20.500381,41.734095],[20.511337,41.757943],[20.550921,41.793522],[20.541722,41.86158],[20.567147,41.873182]]]}}