{"type":"Feature","properties":{"iso3":"MLT","name":"Malta","continent":"Europe"},"geometry":{"type":"MultiPolygon","coordinates":[[[[14.548025,35.890041],[14.563162,35.870022],[14.567149,35.845608],[14.561778,35.82982],[14.548025,35.836005],[14.532481,35.821967],[14.527517,35.801215],[14.42449,35.823676],[14.381521,35.842963],[14.345714,35.875922],[14.338227,35.946967],[14.322032,35.973131],[14.347504,35.988715],[14.377289,35.993638],[14.377289,35.986233],[14.349376,35.973131],[14.445079,35.960354],[14.478689,35.936957],[14.507823,35.928534],[14.513927,35.900824],[14.548025,35.890041]]],[[[14.256602,36.075588],[14.314789,36.051093],[14.334239,36.034369],[14.26002,36.013495],[14.220876,36.019192],[14.184906,36.034613],[14.183604,36.064765],[14.256602,36.075588]]]]}}