{"type":"Feature","properties":{"iso3":"MMR","name":"Myanmar","continent":"Asia"},"geometry":{"type":"MultiPolygon","coordinates":[[[[92.575879,21.977574],[92.658354,22.032816],[92.683779,22.154308],[92.836121,22.046511],[92.867024,21.966516],[92.906194,22.017314],[92.974924,21.990907],[92.967172,22.062685],[93.02257,22.120976],[93.036419,22.206243],[93.141735,22.187277],[93.123132,22.218387],[93.173672,22.259418],[93.16592,22.386593],[93.099154,22.51196],[93.079517,22.77272],[93.175532,22.881705],[93.138221,23.005264],[93.152381,23.049938],[93.272787,23.00591],[93.3749,23.129726],[93.432364,23.647317],[93.374796,23.739017],[93.35919,23.890946],[93.302966,23.995281],[93.32219,24.080056],[93.368285,24.07848],[93.474842,23.957505],[93.571063,23.968021],[93.612404,24.009052],[93.711106,24.005461],[93.803711,23.936059],[93.912334,23.939005],[94.099713,23.842628],[94.128859,23.853905],[94.363676,24.46582],[94.474987,24.597389],[94.507957,24.689011],[94.581544,24.73012],[94.708565,25.02589],[94.689135,25.138518],[94.553329,25.204147],[94.608003,25.394627],[94.850778,25.562782],[94.999917,25.731557],[95.00064,25.922036],[95.151225,26.049936],[95.101719,26.093395],[95.094484,26.195043],[95.041775,26.287596],[95.064202,26.392602],[95.042601,26.459678],[95.132622,26.620805],[95.223262,26.670363],[95.260573,26.647625],[95.410641,26.701627],[95.489809,26.810716],[95.574765,26.816142],[95.639981,26.886422],[95.709227,26.907454],[95.777957,26.995149],[95.888855,27.027034],[96.013188,27.190796],[96.142586,27.25751],[96.510936,27.292495],[96.5869,27.353577],[96.636406,27.335542],[96.705239,27.36076],[96.853757,27.248725],[96.865332,27.171624],[97.038035,27.08703],[97.119167,27.087288],[97.101287,27.183303],[96.881352,27.444114],[96.87019,27.61909],[97.241227,27.907858],[97.333521,27.894164],[97.355122,28.023045],[97.292903,28.095082],[97.323496,28.217478],[97.384371,28.284838],[97.447829,28.297602],[97.445349,28.382971],[97.527721,28.529526],[97.613607,28.481984],[97.670451,28.511284],[97.765329,28.352431],[97.897518,28.355325],[97.978753,28.2806],[97.984851,28.224221],[98.126961,28.124279],[98.107117,27.973074],[98.177294,27.912923],[98.145771,27.860729],[98.196621,27.823187],[98.201788,27.736551],[98.294703,27.536615],[98.328602,27.522869],[98.383276,27.555787],[98.410251,27.684254],[98.522182,27.656298],[98.56435,27.603536],[98.647239,27.611727],[98.679279,27.577336],[98.674421,27.386598],[98.707701,27.337247],[98.672561,27.175603],[98.682689,27.110078],[98.737776,27.048686],[98.718139,26.842497],[98.750385,26.792009],[98.731989,26.713513],[98.755553,26.625043],[98.707391,26.371053],[98.642175,26.254523],[98.700259,26.165329],[98.644449,26.097891],[98.625742,26.144348],[98.54554,26.105643],[98.575409,25.995107],[98.616233,25.979397],[98.690234,25.865554],[98.600317,25.801734],[98.50947,25.838062],[98.332633,25.566968],[98.289432,25.55038],[98.150215,25.613063],[98.104637,25.506765],[98.108357,25.388891],[98.044899,25.311944],[97.90992,25.207558],[97.82362,25.261612],[97.800986,25.237634],[97.754064,25.113559],[97.703628,25.073923],[97.708278,24.927291],[97.765226,24.834661],[97.66394,24.829778],[97.532785,24.723324],[97.513252,24.438587],[97.6473,24.432334],[97.689572,24.346474],[97.64451,24.302394],[97.718407,24.277667],[97.720061,24.147442],[97.516456,23.942829],[97.624666,23.846711],[97.87664,24.014401],[98.10505,24.101527],[98.330669,24.099486],[98.434952,24.13026],[98.597113,24.083079],[98.855289,24.138967],[98.856219,24.083802],[98.658815,23.961123],[98.663672,23.796947],[98.777877,23.7693],[98.849604,23.614735],[98.780874,23.532854],[98.889602,23.406789],[98.86211,23.340592],[98.910686,23.297597],[98.859009,23.179387],[99.009388,23.162153],[99.05507,23.109598],[99.184881,23.094845],[99.21661,23.057379],[99.333812,23.129623],[99.403265,23.068335],[99.478196,23.065751],[99.538038,22.926431],[99.484501,22.910256],[99.42993,22.936741],[99.403575,22.841062],[99.316966,22.754116],[99.353449,22.484107],[99.243068,22.393156],[99.175062,22.168674],[99.14447,22.153533],[99.252887,22.102786],[99.538968,22.106714],[99.633536,22.084751],[99.683868,22.039018],[99.723659,22.070592],[99.821018,22.017779],[99.847838,22.055037],[99.942406,22.045529],[99.96566,21.963002],[99.917963,21.82916],[99.95026,21.721156],[100.142807,21.654907],[100.08865,21.581836],[100.089994,21.52892],[100.187145,21.427892],[100.341968,21.530367],[100.383671,21.527834],[100.44346,21.463497],[100.621744,21.469078],[100.834909,21.657542],[101.068693,21.762032],[101.118871,21.75981],[101.173855,21.611912],[101.157112,21.519669],[101.003426,21.405981],[100.8146,21.3002],[100.725407,21.311672],[100.689388,21.15933],[100.637557,21.069671],[100.561851,21.0351],[100.517823,20.906322],[100.534204,20.873921],[100.65213,20.882757],[100.626602,20.853509],[100.536685,20.807672],[100.383671,20.831701],[100.221613,20.70959],[100.149266,20.548101],[100.099295,20.317805],[99.932484,20.442733],[99.837709,20.416843],[99.78717,20.334083],[99.671259,20.310131],[99.420629,20.375553],[99.518917,20.212178],[99.508734,20.152805],[99.441403,20.101617],[99.295675,20.062497],[99.177749,20.121796],[99.073466,20.101229],[99.016829,20.041],[99.000913,19.821013],[98.899317,19.748615],[98.80785,19.806544],[98.532621,19.675854],[98.488799,19.706705],[98.237548,19.664692],[98.132232,19.766056],[98.024538,19.802978],[98.008312,19.639112],[97.848632,19.567644],[97.848735,19.493979],[97.767086,19.397525],[97.810804,19.11222],[97.727812,19.037082],[97.661873,18.913782],[97.723368,18.851977],[97.75179,18.582484],[97.509531,18.491276],[97.416617,18.49603],[97.351401,18.551169],[97.486483,18.29214],[97.528341,18.26532],[97.560587,18.328262],[97.643786,18.291314],[97.617948,18.241678],[97.75179,17.980764],[97.676136,17.830334],[97.768947,17.67918],[97.991672,17.495729],[98.094715,17.358631],[98.100606,17.302614],[98.278993,17.136578],[98.299664,17.064748],[98.417899,17.029039],[98.50947,16.892665],[98.524559,16.850445],[98.49004,16.843211],[98.520529,16.814117],[98.454693,16.740995],[98.631633,16.463131],[98.656954,16.301642],[98.682379,16.273478],[98.788626,16.374557],[98.839579,16.472432],[98.902521,16.381637],[98.888672,16.274563],[98.807229,16.110542],[98.697159,16.126872],[98.611582,16.046929],[98.546987,16.047497],[98.583781,15.976959],[98.540269,15.711962],[98.559906,15.355317],[98.533551,15.325965],[98.474537,15.383481],[98.40343,15.360097],[98.394748,15.264909],[98.295116,15.292608],[98.232898,15.226798],[98.17719,15.220597],[98.168072,15.082771],[98.1988,15.051583],[98.243336,14.805118],[98.418209,14.607559],[98.54771,14.377676],[98.935284,14.085395],[99.092173,13.863574],[99.101165,13.778824],[99.152531,13.714875],[99.190152,13.229504],[99.102095,13.171342],[99.093207,13.038327],[99.16483,12.975514],[99.155322,12.904485],[99.224465,12.717468],[99.404747,12.566941],[99.391276,12.44534],[99.470135,12.197396],[99.452255,12.12939],[99.545789,12.13187],[99.518401,12.025934],[99.566976,11.993326],[99.561395,11.87292],[99.630022,11.815766],[99.542585,11.640479],[99.440576,11.597278],[99.428173,11.496896],[99.212993,11.108264],[99.063648,10.95742],[99.001533,10.957627],[98.9697,10.823113],[98.905415,10.814406],[98.766715,10.688754],[98.747905,10.623125],[98.790383,10.500265],[98.747406,10.350531],[98.543142,9.987454],[98.490733,10.204332],[98.528494,10.364203],[98.459321,10.715399],[98.498302,10.731594],[98.528494,10.693101],[98.521007,10.740953],[98.563243,10.727281],[98.59669,10.837144],[98.624034,10.843207],[98.578868,10.87519],[98.712413,10.924384],[98.696544,11.00259],[98.722423,11.044867],[98.658214,11.131985],[98.724132,11.156195],[98.750987,11.257066],[98.702647,11.379055],[98.715343,11.443183],[98.774913,11.453518],[98.763438,11.506252],[98.720225,11.522406],[98.741547,11.665025],[98.805919,11.673245],[98.83546,11.71011],[98.891612,11.693671],[98.78297,11.755113],[98.825694,11.825873],[98.80893,11.851304],[98.703136,11.697455],[98.647634,11.700507],[98.603526,11.803616],[98.706554,11.878648],[98.549001,11.878648],[98.664073,11.920356],[98.721446,11.997789],[98.703136,12.048082],[98.64503,12.07807],[98.63087,12.146186],[98.673106,12.159166],[98.703298,12.237779],[98.59669,12.193996],[98.539073,12.241767],[98.552013,12.279608],[98.706554,12.347886],[98.607432,12.41828],[98.628429,12.492133],[98.708751,12.505561],[98.623057,12.558173],[98.673106,12.625393],[98.692882,12.725287],[98.641775,12.728095],[98.673025,12.746812],[98.617442,12.777411],[98.641775,12.782416],[98.634288,12.878607],[98.601248,12.911038],[98.578461,13.186754],[98.500499,13.249172],[98.46046,13.35578],[98.473155,13.413031],[98.45281,13.379462],[98.394054,13.542792],[98.257335,13.706366],[98.233653,14.002631],[98.197032,14.048163],[98.18686,13.54385],[98.144298,13.537095],[98.129731,13.582343],[98.158458,13.64232],[98.082774,13.769965],[98.110118,13.790351],[98.11085,13.902167],[98.061697,14.010077],[98.107677,14.110012],[98.101085,14.19184],[97.9935,14.330512],[97.995942,14.449693],[97.962087,14.45775],[97.885509,14.684068],[97.943126,14.720201],[98.027599,14.647528],[97.94988,14.798896],[97.931163,14.752183],[97.904063,14.797756],[97.902192,14.737698],[97.845958,14.729926],[97.794932,14.880154],[97.812836,14.983344],[97.779796,15.025784],[97.80836,15.031155],[97.822765,15.209296],[97.769379,15.223334],[97.72641,15.339586],[97.79477,15.407904],[97.716807,15.749457],[97.727061,15.843207],[97.582286,16.009101],[97.568858,16.062405],[97.61964,16.125434],[97.648204,16.259223],[97.637218,16.477362],[97.673839,16.533433],[97.740082,16.559231],[97.423106,16.523424],[97.370291,16.483547],[97.329828,16.679847],[97.311194,16.652366],[97.255445,16.697869],[97.240489,16.874579],[97.219493,16.826158],[97.219493,16.901272],[97.183279,16.921536],[97.198985,16.997463],[97.157237,17.086859],[97.17449,17.112494],[97.260997,17.107327],[97.158051,17.129299],[97.130626,17.079413],[97.068614,17.25137],[96.904552,17.375312],[96.888357,17.444281],[96.82488,17.398383],[96.910655,17.317084],[96.849376,17.212958],[96.910899,17.024807],[96.87908,16.934719],[96.820811,16.907538],[96.848888,16.860297],[96.801036,16.737372],[96.679473,16.574868],[96.615943,16.518005],[96.436261,16.477768],[96.273123,16.582099],[96.225759,16.761298],[96.274913,16.80268],[96.171153,16.771552],[96.240896,16.650133],[96.23463,16.576361],[96.327322,16.453437],[96.3213,16.415269],[96.285336,16.365993],[96.118988,16.321763],[96.006602,16.387356],[96.067556,16.310248],[95.979991,16.223131],[95.942393,16.219062],[95.948578,16.239325],[95.883067,16.209174],[95.889903,16.243964],[95.797699,16.144924],[95.755544,16.14525],[95.724864,16.222846],[95.73227,16.127265],[95.664724,15.949205],[95.431977,15.733629],[95.374197,15.715033],[95.287934,15.740139],[95.282563,15.838324],[95.364268,15.984565],[95.361583,16.148383],[95.327485,16.107408],[95.345714,15.996487],[95.251638,15.868232],[95.27296,16.00373],[95.239024,15.950344],[95.212738,15.786566],[95.173595,15.777818],[95.125743,15.817613],[95.137543,16.006659],[95.128917,16.03852],[95.107758,15.983873],[95.097667,16.025133],[95.13795,16.100328],[95.225922,16.11994],[95.183604,16.140937],[95.121593,16.131659],[95.070567,16.074856],[95.033946,15.805732],[94.949962,15.762641],[94.858653,15.78262],[94.896739,15.83926],[94.848399,15.863756],[94.83961,15.962063],[94.924083,16.03852],[94.889334,16.017401],[94.868419,16.142035],[94.986827,16.232245],[94.868419,16.173896],[94.856456,16.0185],[94.721202,15.856676],[94.658702,15.854478],[94.601329,15.92121],[94.703136,15.982367],[94.792654,16.147895],[94.705333,16.020657],[94.56658,15.935492],[94.663341,16.079983],[94.673595,16.274726],[94.73227,16.360663],[94.705821,16.47309],[94.731619,16.510199],[94.677013,16.531968],[94.683849,16.364081],[94.62794,16.260199],[94.583995,16.236518],[94.635509,16.326483],[94.618175,16.342027],[94.583669,16.274848],[94.515636,16.287258],[94.507009,16.189602],[94.428071,16.074164],[94.321462,15.989936],[94.239513,15.976304],[94.209239,16.044501],[94.215099,16.15766],[94.268321,16.527493],[94.341319,16.548407],[94.327647,16.600246],[94.398448,16.775784],[94.382335,16.901272],[94.464692,16.949652],[94.444347,16.949652],[94.456716,17.050605],[94.48878,17.124213],[94.454356,17.18008],[94.530447,17.181952],[94.511974,17.275214],[94.546153,17.319648],[94.594493,17.292304],[94.560313,17.582099],[94.615001,17.545559],[94.447439,17.973334],[94.490571,18.072496],[94.422862,18.242499],[94.327647,18.258734],[94.331065,18.303127],[94.378591,18.287095],[94.405284,18.330308],[94.258962,18.509019],[94.25294,18.627997],[94.148936,18.731024],[94.279307,18.738511],[94.228038,18.735541],[94.153087,18.821031],[94.148936,18.868232],[94.135102,18.820461],[94.038097,18.859117],[94.041189,18.997626],[94.086925,19.080512],[94.030528,19.087958],[94.073904,19.373847],[94.03061,19.315904],[94.033376,19.204535],[93.994395,19.159084],[93.947113,19.159654],[93.925466,19.210273],[93.910411,19.190985],[93.955577,19.118313],[93.983409,18.956692],[93.920258,18.867377],[93.669688,19.032701],[93.642345,19.134223],[93.487071,19.333726],[93.484141,19.392727],[93.552989,19.430569],[93.611339,19.403266],[93.621349,19.334377],[93.796886,19.235175],[93.929942,19.29975],[93.980968,19.37226],[93.991059,19.45718],[93.923839,19.462388],[93.739594,19.617499],[93.738455,19.651353],[93.800059,19.65648],[93.813162,19.739488],[93.761078,19.674872],[93.713145,19.697659],[93.741873,19.754055],[93.721934,19.768988],[93.648448,19.725165],[93.635509,19.759508],[93.60141,19.718573],[93.60141,19.783433],[93.660655,19.870836],[93.738048,19.882473],[93.745372,19.916571],[93.726248,19.936591],[93.566742,19.885932],[93.511974,19.970445],[93.531912,19.984849],[93.435313,19.95539],[93.413585,19.977525],[93.382335,20.088528],[93.361827,20.026435],[93.340668,20.1022],[93.272472,20.047512],[93.136078,20.081529],[93.23585,19.847235],[93.238292,19.82099],[93.131521,20.006578],[93.10613,19.93065],[93.168956,19.809394],[92.975922,20.087836],[92.974132,20.117255],[93.080089,20.170478],[93.086925,20.14997],[93.115489,20.202623],[92.990489,20.154934],[93.04127,20.332017],[93.091319,20.381008],[93.100434,20.431098],[93.043224,20.364936],[93.031016,20.409654],[93.073253,20.554633],[93.022634,20.452541],[93.016287,20.324856],[92.898448,20.135688],[92.860362,20.124945],[92.773611,20.216742],[92.864024,20.300767],[92.942882,20.321234],[92.840505,20.390123],[92.815278,20.504706],[92.78533,20.462958],[92.758556,20.472113],[92.778982,20.478258],[92.720714,20.592231],[92.63502,20.697984],[92.704438,20.589057],[92.737478,20.44477],[92.731212,20.259182],[92.653168,20.41828],[92.539887,20.527533],[92.507009,20.60928],[92.381114,20.700141],[92.270518,21.049018],[92.174973,21.175608],[92.183654,21.317201],[92.236261,21.417092],[92.284527,21.419055],[92.322664,21.461895],[92.389637,21.376526],[92.524512,21.361126],[92.558722,21.25984],[92.633756,21.282216],[92.590245,21.495537],[92.575879,21.977574]]],[[[98.057465,9.796861],[98.018321,9.794908],[98.015391,9.826402],[98.057465,9.796861]]],[[[98.228689,10.519965],[98.207367,10.483466],[98.185313,10.501166],[98.228689,10.519965]]],[[[98.429535,10.977729],[98.442556,11.002997],[98.452891,10.986274],[98.429535,10.977729]]],[[[97.464529,11.782457],[97.444347,11.800238],[97.476899,11.788235],[97.464529,11.782457]]],[[[97.836925,12.772447],[97.852794,12.806545],[97.863536,12.766832],[97.836925,12.772447]]],[[[98.295665,10.048896],[98.243907,9.96011],[98.120616,9.861314],[98.127452,9.96011],[98.23463,10.054185],[98.295665,10.048896]]],[[[98.185802,10.121161],[98.178966,10.192857],[98.240896,10.167792],[98.185802,10.04206],[98.185802,10.121161]]],[[[97.911469,10.494534],[97.943533,10.443793],[97.910167,10.401923],[97.889415,10.419989],[97.911469,10.494534]]],[[[98.493663,10.891099],[98.542247,10.860053],[98.541515,10.79621],[98.509532,10.786607],[98.526378,10.810858],[98.493663,10.891099]]],[[[97.890391,10.884955],[97.896332,10.913275],[97.951834,10.919094],[97.883556,10.84455],[97.890391,10.884955]]],[[[98.267751,10.837144],[98.295665,10.734687],[98.250743,10.693101],[98.241954,10.814399],[98.198741,10.881659],[98.165294,10.919094],[98.077403,10.888088],[98.171886,10.978664],[98.267751,10.837144]]],[[[98.528494,10.974311],[98.48585,10.955878],[98.478363,10.993354],[98.531912,11.083808],[98.543142,10.96011],[98.528494,10.974311]]],[[[98.275157,11.248033],[98.29835,11.248603],[98.247325,11.214504],[98.221853,11.261908],[98.281423,11.275946],[98.275157,11.248033]]],[[[98.278331,11.799791],[98.320079,11.72191],[98.283539,11.509426],[98.275157,11.48078],[98.237641,11.493801],[98.201996,11.466254],[98.219981,11.453518],[98.176524,11.449164],[98.278331,11.799791]]],[[[98.53533,11.803616],[98.556407,11.758734],[98.53419,11.542629],[98.42921,11.583157],[98.379405,11.691107],[98.410411,11.768622],[98.370779,11.789252],[98.53533,11.803616]]],[[[98.055431,11.701117],[98.08961,11.63227],[98.016612,11.697496],[98.013927,11.864976],[98.057953,11.729071],[98.082286,11.734687],[98.055431,11.701117]]],[[[97.664399,11.905951],[97.671886,11.837714],[97.642833,11.867662],[97.664399,11.905951]]],[[[98.254161,11.85814],[98.265391,11.908515],[98.28419,11.865465],[98.254161,11.85814]]],[[[98.267751,11.933905],[98.227061,11.953925],[98.252208,11.974758],[98.267751,11.933905]]],[[[98.603526,11.967434],[98.658214,11.933905],[98.572602,11.931627],[98.495779,11.888495],[98.46339,11.920803],[98.439138,12.112006],[98.509532,12.016791],[98.603526,11.967434]]],[[[98.096446,12.187161],[98.119477,12.197577],[98.140147,12.148383],[98.039399,12.207343],[98.046153,12.26203],[98.091807,12.288642],[98.123302,12.249661],[98.096446,12.187161]]],[[[98.065278,12.365302],[98.000255,12.269029],[97.945567,12.310045],[97.966075,12.358466],[97.939952,12.366278],[98.007009,12.401597],[98.013927,12.358466],[98.041759,12.358466],[98.07252,12.42121],[98.101248,12.404771],[98.087738,12.360053],[98.065278,12.365302]]],[[[98.514171,12.495592],[98.495616,12.405829],[98.474294,12.424994],[98.499848,12.513088],[98.514171,12.495592]]],[[[98.254161,12.567613],[98.289887,12.526313],[98.260509,12.495266],[98.229747,12.527411],[98.254161,12.567613]]],[[[97.822765,12.58747],[97.845714,12.597968],[97.849946,12.537258],[97.822765,12.58747]]],[[[98.466319,12.583726],[98.455821,12.45775],[98.349946,12.325914],[98.302013,12.337958],[98.336111,12.450914],[98.302745,12.598578],[98.315603,12.687445],[98.405528,12.638983],[98.425466,12.529731],[98.450938,12.60399],[98.466319,12.583726]]],[[[98.295665,13.084662],[98.336436,13.073879],[98.300548,13.019965],[98.314301,12.925523],[98.240489,13.139309],[98.261485,13.214342],[98.295665,13.084662]]],[[[97.931895,13.85928],[97.925059,13.783596],[97.914317,13.828437],[97.931895,13.85928]]],[[[93.396007,14.140448],[93.394786,14.076361],[93.374848,14.064683],[93.396007,14.140448]]],[[[93.675792,14.859198],[93.724376,14.913804],[93.704438,14.870998],[93.675792,14.859198]]],[[[97.664399,15.565579],[97.664399,15.504096],[97.65089,15.592231],[97.664399,15.565579]]],[[[94.827973,15.932034],[94.837413,15.864407],[94.803722,15.796576],[94.724864,15.811957],[94.827973,15.932034]]],[[[94.66212,16.221869],[94.629649,16.075181],[94.5796,16.013251],[94.478038,15.966132],[94.410167,15.83926],[94.389659,16.000922],[94.485362,16.058987],[94.611583,16.221747],[94.642833,16.24551],[94.66212,16.221869]]],[[[97.589366,16.415269],[97.547461,16.199928],[97.459269,16.301362],[97.484874,16.363918],[97.452159,16.449408],[97.50408,16.508002],[97.606293,16.483547],[97.589366,16.415269]]],[[[93.745372,18.799994],[93.731944,18.689683],[93.645274,18.679348],[93.484141,18.874986],[93.621755,18.910346],[93.663341,18.873196],[93.742442,18.872301],[93.745372,18.799994]]],[[[93.970714,19.416938],[93.917166,19.318305],[93.802745,19.276679],[93.749848,19.333319],[93.738048,19.403266],[93.641775,19.492011],[93.688162,19.559475],[93.723643,19.556383],[93.819998,19.471503],[93.880219,19.479193],[93.970714,19.416938]]],[[[93.505219,19.807318],[93.511974,19.745836],[93.440684,19.81094],[93.402843,19.95307],[93.505219,19.872219],[93.505219,19.807318]]],[[[92.964041,20.036689],[93.024913,19.827826],[92.908702,20.074856],[92.964041,20.036689]]]]}}