{"type":"Feature","properties":{"iso3":"MNE","name":"Montenegro","continent":"Europe"},"geometry":{"type":"Polygon","coordinates":[[[18.49643,42.416327],[18.492855,42.442372],[18.454925,42.464722],[18.437148,42.493402],[18.437355,42.559212],[18.458956,42.569728],[18.492132,42.564767],[18.486654,42.58983],[18.538434,42.618304],[18.549596,42.638923],[18.550009,42.668069],[18.539674,42.695457],[18.502157,42.727445],[18.453891,42.793151],[18.443659,42.834467],[18.473322,42.862553],[18.434047,42.936889],[18.433531,42.954201],[18.452754,42.993398],[18.483037,43.014637],[18.538951,43.023887],[18.638996,43.020243],[18.620599,43.122563],[18.645301,43.180182],[18.688399,43.224469],[18.664318,43.233176],[18.679511,43.24948],[18.807151,43.318029],[18.833506,43.324153],[18.821207,43.341387],[18.899135,43.351903],[18.923423,43.346838],[18.957323,43.325858],[18.959493,43.303456],[18.992463,43.267102],[19.022535,43.296546],[19.069668,43.30883],[19.00993,43.410995],[18.968278,43.448098],[18.946264,43.443938],[18.951225,43.463808],[18.937893,43.478949],[18.905647,43.490628],[18.911021,43.507268],[18.977477,43.546232],[19.000214,43.547886],[19.038145,43.511015],[19.054991,43.5067],[19.096023,43.512901],[19.122791,43.535948],[19.195345,43.532796],[19.175191,43.509619],[19.175914,43.480887],[19.192244,43.454532],[19.218392,43.438202],[19.372285,43.384226],[19.414039,43.338389],[19.473054,43.293276],[19.512431,43.240643],[19.598111,43.176203],[19.663016,43.158504],[19.713556,43.165609],[19.761202,43.108739],[19.805127,43.089955],[19.872203,43.090368],[19.907136,43.113261],[19.92915,43.113907],[19.959742,43.07856],[20.019894,43.047348],[20.116942,42.976654],[20.223189,42.957663],[20.337084,42.906969],[20.35362,42.890975],[20.345352,42.827439],[20.264427,42.817258],[20.217608,42.802737],[20.209236,42.791704],[20.208409,42.763282],[20.183398,42.742508],[20.076325,42.773437],[20.026508,42.743206],[20.024751,42.723414],[20.03612,42.707989],[20.101956,42.656674],[20.075704,42.603085],[20.077048,42.55991],[20.064956,42.546758],[20.039221,42.557765],[19.981757,42.510765],[19.907549,42.506399],[19.835512,42.470251],[19.801406,42.468132],[19.75159,42.493402],[19.73433,42.524382],[19.732159,42.555543],[19.746009,42.579934],[19.746009,42.5989],[19.722134,42.64608],[19.699293,42.654814],[19.676039,42.646675],[19.621779,42.604997],[19.605035,42.584844],[19.588086,42.532857],[19.549328,42.508595],[19.517806,42.45803],[19.481735,42.434491],[19.417243,42.374107],[19.402671,42.352015],[19.400397,42.325893],[19.304589,42.215099],[19.274926,42.191276],[19.272033,42.180682],[19.281956,42.164723],[19.355025,42.12004],[19.374869,42.094667],[19.356575,42.064798],[19.350581,42.027823],[19.354198,42.008703],[19.371045,41.98656],[19.365774,41.969713],[19.346447,41.961548],[19.352854,41.938501],[19.34593,41.914471],[19.364947,41.888995],[19.365082,41.852362],[19.310232,41.894517],[19.170258,41.937974],[19.16033,41.96898],[19.13795,41.985297],[19.139171,42.042426],[19.08253,42.081204],[19.074718,42.095649],[19.083832,42.110093],[19.063975,42.120185],[19.048676,42.140204],[19.01059,42.139553],[18.999848,42.161078],[18.981619,42.16706],[18.968028,42.188707],[18.913341,42.222235],[18.885997,42.284369],[18.854015,42.290473],[18.831391,42.277533],[18.817638,42.291164],[18.778575,42.27147],[18.714529,42.325263],[18.714122,42.338935],[18.693614,42.353217],[18.695811,42.373765],[18.678477,42.385972],[18.658539,42.386623],[18.653168,42.366278],[18.61671,42.368069],[18.570649,42.392971],[18.578136,42.400377],[18.545177,42.42357],[18.550141,42.435126],[18.562836,42.438544],[18.656505,42.415513],[18.70045,42.392971],[18.706554,42.421047],[18.683849,42.458808],[18.687348,42.482896],[18.654145,42.451809],[18.608653,42.44538],[18.502452,42.455634],[18.502452,42.448188],[18.521251,42.437974],[18.51295,42.409003],[18.529796,42.400377],[18.49643,42.416327]]]}}