{"type":"Feature","properties":{"iso3":"MNP","name":"Northern Mariana Islands","continent":"Oceania"},"geometry":{"type":"MultiPolygon","coordinates":[[[[145.20574,14.181383],[145.252452,14.200385],[145.279959,14.202786],[145.290538,14.181383],[145.282074,14.161038],[145.249848,14.150051],[145.229015,14.11994],[145.209972,14.110663],[145.171641,14.126166],[145.126231,14.123236],[145.119314,14.129584],[145.130707,14.146918],[145.157237,14.163764],[145.20574,14.181383]]],[[[145.647309,15.072089],[145.652599,15.059272],[145.647309,15.017483],[145.667817,14.982733],[145.645763,14.929755],[145.625824,14.915269],[145.606456,14.928127],[145.578461,15.017483],[145.611095,15.066799],[145.633067,15.082099],[145.647309,15.072089]]],[[[145.787852,15.267279],[145.81658,15.270168],[145.823741,15.262397],[145.792735,15.232245],[145.77589,15.189521],[145.784516,15.16828],[145.779796,15.159166],[145.766124,15.155015],[145.757172,15.160834],[145.73878,15.136664],[145.752615,15.096015],[145.716319,15.105618],[145.685557,15.102484],[145.683849,15.131293],[145.698253,15.203192],[145.729991,15.222886],[145.73406,15.239244],[145.787852,15.267279]]],[[[145.709483,16.367499],[145.717621,16.352607],[145.711192,16.344957],[145.669119,16.339179],[145.643809,16.344631],[145.628184,16.364081],[145.637706,16.37995],[145.654145,16.381171],[145.709483,16.367499]]],[[[145.771118,18.175209],[145.824962,18.167711],[145.839122,18.145087],[145.835623,18.128323],[145.758149,18.061184],[145.743663,18.05329],[145.719493,18.054185],[145.713067,18.077465],[145.739513,18.090969],[145.750766,18.113726],[145.756697,18.161751],[145.771118,18.175209]]],[[[145.661632,18.72427],[145.635517,18.747218],[145.632555,18.786914],[145.650372,18.808902],[145.688324,18.807359],[145.708018,18.77969],[145.709483,18.74844],[145.693614,18.727729],[145.661632,18.72427]]],[[[145.789236,16.675482],[145.769054,16.69477],[145.785899,16.7001],[145.804535,16.693061],[145.789236,16.675482]]],[[[145.854991,17.285793],[145.835948,17.305162],[145.851248,17.309394],[145.868175,17.301744],[145.854991,17.285793]]],[[[145.854259,17.566881],[145.832205,17.57746],[145.826915,17.593207],[145.834239,17.60578],[145.850597,17.606879],[145.862966,17.598538],[145.866954,17.575019],[145.854259,17.566881]]],[[[145.40561,19.652777],[145.382091,19.672797],[145.382091,19.684149],[145.409923,19.684475],[145.413748,19.662421],[145.40561,19.652777]]],[[[145.250743,20.009711],[145.226736,20.029771],[145.23878,20.050442],[145.24586,20.030422],[145.272797,20.032375],[145.265798,20.017564],[145.250743,20.009711]]],[[[144.915701,20.517157],[144.90211,20.540025],[144.906749,20.5515],[144.919688,20.555406],[144.931814,20.549221],[144.932465,20.537502],[144.915701,20.517157]]]]}}