{"type":"Feature","properties":{"iso3":"MOZ","name":"Mozambique","continent":"Africa"},"geometry":{"type":"MultiPolygon","coordinates":[[[[32.113884,-26.840014],[32.107063,-26.500293],[32.039884,-26.283666],[32.081432,-26.14879],[32.070579,-26.009781],[31.949243,-25.958104],[31.905835,-25.812997],[31.995649,-25.61518],[31.9664,-25.479684],[31.988724,-25.37261],[31.986554,-24.423108],[31.869455,-24.163795],[31.850438,-23.930631],[31.755198,-23.857767],[31.642285,-23.587861],[31.527615,-23.45681],[31.536349,-23.156983],[31.279103,-22.415323],[31.433822,-22.302048],[32.408543,-21.290327],[32.447197,-21.313685],[32.339814,-21.134058],[32.491019,-20.936344],[32.481614,-20.603031],[32.513136,-20.564583],[32.646462,-20.557969],[32.671783,-20.531821],[32.845209,-20.286668],[32.88531,-20.10301],[32.940087,-20.041515],[33.007266,-20.032006],[33.022769,-19.773107],[32.962411,-19.735383],[32.943188,-19.64929],[32.872184,-19.690218],[32.819629,-19.674302],[32.825365,-19.479172],[32.763354,-19.463979],[32.766454,-19.373442],[32.832187,-19.266678],[32.855906,-19.083744],[32.814203,-19.023799],[32.698965,-19.022249],[32.681085,-18.954966],[32.71576,-18.919826],[32.68987,-18.843241],[32.902518,-18.774512],[32.92231,-18.693173],[32.868257,-18.552613],[32.996414,-18.46714],[32.986803,-18.422285],[33.038066,-18.363064],[32.95497,-18.256301],[32.972282,-18.150261],[32.928977,-17.982312],[32.939674,-17.855498],[32.999102,-17.794313],[33.020599,-17.638457],[33.020392,-17.598563],[32.936676,-17.509369],[33.022459,-17.361471],[32.83012,-16.941549],[32.933369,-16.815768],[32.968509,-16.681616],[32.909598,-16.708075],[32.739893,-16.703217],[32.698655,-16.686784],[32.671783,-16.599761],[32.290463,-16.45176],[31.910279,-16.428919],[31.86005,-16.340759],[31.710705,-16.217872],[31.402713,-16.159374],[31.259983,-16.023465],[31.1141,-15.996904],[30.989767,-16.06429],[30.857424,-15.998144],[30.402568,-16.001244],[30.401224,-15.598478],[30.367428,-15.561271],[30.390165,-15.490785],[30.369185,-15.374719],[30.263145,-15.231266],[30.213845,-14.98849],[30.815772,-14.768245],[31.410878,-14.633576],[31.658408,-14.519578],[33.202707,-14.013872],[33.280221,-14.060794],[33.315568,-14.197117],[33.457368,-14.404339],[33.66242,-14.607014],[33.720401,-14.489709],[33.802412,-14.532807],[33.916307,-14.481337],[34.050769,-14.495186],[34.109576,-14.441443],[34.372093,-14.401962],[34.51813,-14.607428],[34.505831,-14.700342],[34.582312,-15.001305],[34.548309,-15.123675],[34.569083,-15.27116],[34.410127,-15.481276],[34.404029,-15.646847],[34.247139,-15.794125],[34.233186,-15.88983],[34.404546,-16.059742],[34.385219,-16.186453],[34.426456,-16.273889],[34.524745,-16.300761],[34.65497,-16.48938],[34.732071,-16.529171],[34.900949,-16.733293],[35.004509,-16.814631],[35.1183,-16.833442],[35.125122,-16.932867],[35.036548,-17.03591],[35.066004,-17.109807],[35.291673,-17.129368],[35.308366,-16.973692],[35.276017,-16.955191],[35.310227,-16.850598],[35.278187,-16.700737],[35.174318,-16.625496],[35.131943,-16.537646],[35.214419,-16.484212],[35.262271,-16.366597],[35.258757,-16.271512],[35.374616,-16.140977],[35.456368,-16.129402],[35.50205,-16.170846],[35.529025,-16.140771],[35.697593,-16.107491],[35.785133,-16.042275],[35.84053,-15.417197],[35.784203,-15.171838],[35.904299,-14.886894],[35.863268,-14.876662],[35.835569,-14.63585],[35.084091,-13.704227],[34.863898,-13.516283],[34.640603,-13.492354],[34.545312,-13.325749],[34.494463,-12.68739],[34.355581,-12.20494],[34.380051,-12.10386],[34.563812,-11.830905],[34.616729,-11.57831],[35.423501,-11.576553],[35.531505,-11.612727],[35.654805,-11.57831],[35.69563,-11.494594],[35.813142,-11.422351],[35.867299,-11.420904],[35.939749,-11.434133],[35.969825,-11.502449],[36.151932,-11.571076],[36.188209,-11.693652],[36.494857,-11.68094],[36.545707,-11.729412],[36.625702,-11.721351],[36.747038,-11.66647],[36.820109,-11.573556],[37.016686,-11.573969],[37.141639,-11.674738],[37.331395,-11.68156],[37.450665,-11.722591],[37.503788,-11.672671],[37.647758,-11.635981],[37.804441,-11.544514],[37.875238,-11.319101],[37.938077,-11.283961],[38.11543,-11.249545],[38.155014,-11.280551],[38.25661,-11.27714],[38.347664,-11.358789],[38.491688,-11.413137],[38.654209,-11.275796],[38.778025,-11.253679],[38.896261,-11.167689],[39.126221,-11.139681],[39.238152,-11.174201],[39.482685,-10.999224],[39.785819,-10.932562],[40.161093,-10.704358],[40.43686,-10.474786],[40.510509,-10.477716],[40.532074,-10.509454],[40.506602,-10.566339],[40.654959,-10.686944],[40.569835,-10.69671],[40.485362,-10.76214],[40.492198,-10.79697],[40.531993,-10.785821],[40.620291,-10.840916],[40.496104,-10.955743],[40.498383,-11.027276],[40.566091,-11.01393],[40.494151,-11.204767],[40.360525,-11.315199],[40.367686,-11.351251],[40.465831,-11.385186],[40.429454,-11.641534],[40.473806,-11.806248],[40.520193,-11.839044],[40.486176,-11.895196],[40.536876,-11.99684],[40.500824,-12.112481],[40.524913,-12.204522],[40.451182,-12.263604],[40.513682,-12.300551],[40.509532,-12.380304],[40.561046,-12.38714],[40.480317,-12.484308],[40.492198,-12.51686],[40.556895,-12.525323],[40.561046,-12.598565],[40.614106,-12.636814],[40.568044,-12.649591],[40.578136,-12.706313],[40.646821,-12.755304],[40.626964,-12.793634],[40.567882,-12.77752],[40.571951,-12.803399],[40.531993,-12.811456],[40.539317,-12.892999],[40.455333,-12.896173],[40.412608,-12.961033],[40.499034,-13.016534],[40.500173,-12.948012],[40.589203,-12.95794],[40.567882,-13.243341],[40.529633,-13.310235],[40.567882,-13.284763],[40.567882,-13.366632],[40.58839,-13.360447],[40.538748,-13.495538],[40.595225,-13.565199],[40.539399,-13.636407],[40.650564,-14.031915],[40.595225,-14.085382],[40.619477,-14.127211],[40.538585,-14.164483],[40.55421,-14.230076],[40.579112,-14.206638],[40.602061,-14.243585],[40.580903,-14.257257],[40.6963,-14.18255],[40.746104,-14.270929],[40.732432,-14.339939],[40.69516,-14.362726],[40.651622,-14.34352],[40.628754,-14.550714],[40.692638,-14.439711],[40.801443,-14.41074],[40.84254,-14.464451],[40.832042,-14.494073],[40.76002,-14.526137],[40.828624,-14.524835],[40.811371,-14.61297],[40.847992,-14.705011],[40.842459,-14.787205],[40.739268,-14.874282],[40.674083,-14.901544],[40.654552,-14.865167],[40.670909,-14.922052],[40.734386,-14.924493],[40.774425,-14.982354],[40.670909,-14.976658],[40.711925,-15.072931],[40.528005,-15.131036],[40.519705,-15.16725],[40.54835,-15.187433],[40.580903,-15.20322],[40.635427,-15.164646],[40.681651,-15.233005],[40.573253,-15.504978],[40.499034,-15.525323],[40.363617,-15.714776],[40.060802,-15.998305],[40.12908,-15.963556],[40.104747,-16.06406],[39.992361,-16.222426],[39.783376,-16.301935],[39.807953,-16.38893],[39.855968,-16.429783],[39.810557,-16.457615],[39.746104,-16.443292],[39.760753,-16.45908],[39.678396,-16.546075],[39.129161,-16.867852],[39.08074,-16.915704],[39.122325,-16.936782],[39.074555,-16.991388],[38.97047,-16.99627],[38.875499,-17.045587],[38.718272,-17.059666],[38.679454,-17.030206],[38.666759,-17.075372],[38.553071,-17.121759],[38.504242,-17.110935],[38.505382,-17.135431],[38.155935,-17.286798],[38.121755,-17.176935],[38.128591,-17.197442],[38.080821,-17.190688],[38.12794,-17.28631],[37.908865,-17.355157],[37.580577,-17.518976],[37.242198,-17.736505],[37.189464,-17.738702],[36.98406,-18.012384],[36.88795,-17.881036],[36.832774,-17.877618],[36.819591,-17.903253],[36.873546,-17.899021],[36.900076,-18.001642],[36.963552,-18.038263],[36.946625,-18.101821],[36.895274,-18.176935],[36.811209,-18.186944],[36.785411,-18.23211],[36.833507,-18.204767],[36.766287,-18.300226],[36.486664,-18.552911],[36.372406,-18.741795],[36.416189,-18.774998],[36.336274,-18.797296],[36.238129,-18.694106],[36.269379,-18.877211],[36.146739,-18.900486],[36.133067,-18.804132],[36.108572,-18.805922],[36.009532,-18.920831],[35.956798,-18.903741],[35.907481,-18.969822],[35.863943,-18.946384],[35.866873,-18.971938],[35.676117,-19.119806],[35.64088,-19.170668],[35.668224,-19.163832],[35.441661,-19.417657],[35.126801,-19.705011],[34.880056,-19.863377],[34.815684,-19.780857],[34.717133,-19.723077],[34.616954,-19.589451],[34.553233,-19.582289],[34.542735,-19.610121],[34.62322,-19.623305],[34.691905,-19.742934],[34.773611,-19.806085],[34.757579,-19.869073],[34.709239,-19.883884],[34.764822,-19.903253],[34.748871,-20.026788],[34.776866,-20.135024],[34.756521,-20.180352],[34.655284,-20.151462],[34.743337,-20.226495],[34.685313,-20.332289],[34.703461,-20.362481],[34.649262,-20.405532],[34.716319,-20.466974],[34.673106,-20.528904],[34.724294,-20.519138],[34.764985,-20.548598],[34.846446,-20.661554],[34.880382,-20.651137],[34.868012,-20.694431],[34.955577,-20.695977],[34.993337,-20.730157],[35.03712,-20.923272],[35.09962,-20.924737],[35.120128,-20.966404],[35.06544,-21.017836],[35.085785,-21.070001],[35.017751,-21.096612],[35.088552,-21.227309],[35.047537,-21.252862],[35.072276,-21.321954],[35.126964,-21.178643],[35.120128,-21.377211],[35.271007,-21.644138],[35.268565,-21.773614],[35.335785,-22.089125],[35.305675,-22.388604],[35.394054,-22.487726],[35.427989,-22.405694],[35.39088,-22.27158],[35.408458,-22.211602],[35.449067,-22.226821],[35.424083,-22.184747],[35.467133,-22.095798],[35.500499,-22.117771],[35.517345,-22.310154],[35.541759,-22.195896],[35.544688,-22.388604],[35.489431,-22.690037],[35.537852,-22.946954],[35.60613,-22.914727],[35.475841,-23.197035],[35.489431,-23.275323],[35.424083,-23.480645],[35.399262,-23.73919],[35.356944,-23.67254],[35.334646,-23.953709],[35.387706,-23.912693],[35.380138,-23.844415],[35.454356,-23.879978],[35.479991,-23.801039],[35.516775,-23.791762],[35.4935,-24.110528],[35.106456,-24.597914],[34.648936,-24.812758],[33.729177,-25.105076],[33.317638,-25.287042],[33.277192,-25.296808],[33.324067,-25.261163],[33.278575,-25.270766],[33.232921,-25.290785],[33.227306,-25.331964],[32.872732,-25.543878],[32.769542,-25.681736],[32.74464,-25.81699],[32.71225,-25.817804],[32.687022,-25.885919],[32.600597,-25.964044],[32.516612,-25.949965],[32.476817,-25.984552],[32.491384,-26.014093],[32.501964,-25.972101],[32.54713,-25.978936],[32.612804,-26.041436],[32.680837,-26.188165],[32.748057,-26.191502],[32.831065,-26.283787],[32.879405,-26.27752],[32.894786,-26.114679],[32.954438,-26.078871],[32.889903,-26.836602],[32.352216,-26.860272],[32.113884,-26.840014]],[[34.69414,-12.000403],[34.6559,-12.076264],[34.688973,-12.12453],[34.732484,-12.109027],[34.762353,-12.040298],[34.69414,-12.000403]],[[34.561642,-11.978596],[34.541798,-11.994616],[34.611148,-12.072544],[34.627478,-11.987278],[34.561642,-11.978596]]],[[[32.906749,-26.057794],[32.918305,-26.001397],[32.982595,-25.969008],[32.964529,-26.038018],[32.906749,-26.057794]]],[[[35.469574,-21.549086],[35.495453,-21.545505],[35.490733,-21.64186],[35.434906,-21.782892],[35.469574,-21.549086]]],[[[39.909537,-16.275827],[39.946372,-16.302192],[39.878476,-16.41689],[39.832455,-16.390517],[39.821337,-16.317412],[39.909537,-16.275827]]]]}}