{"type":"Feature","properties":{"iso3":"MRT","name":"Mauritania","continent":"Africa"},"geometry":{"type":"MultiPolygon","coordinates":[[[[-8.682385,27.285416],[-4.821613,24.995065],[-6.593107,24.994134],[-5.623347,16.527829],[-5.353286,16.311977],[-5.510951,15.495903],[-9.349218,15.495644],[-9.329322,15.655247],[-9.356453,15.697854],[-9.451692,15.588326],[-9.42389,15.440532],[-9.672118,15.430661],[-9.835596,15.371104],[-10.067624,15.364748],[-10.308746,15.435209],[-10.709187,15.433865],[-10.736368,15.422626],[-10.746807,15.341132],[-10.827216,15.287698],[-10.906229,15.119776],[-11.045393,15.270206],[-11.298195,15.451048],[-11.409557,15.602201],[-11.515391,15.644421],[-11.524279,15.600289],[-11.644117,15.526444],[-11.727057,15.541171],[-11.845655,15.179075],[-11.859142,15.054069],[-11.811083,15.014304],[-11.820437,14.906404],[-11.991486,14.76804],[-12.081454,14.740032],[-12.123674,14.776644],[-12.246793,14.767007],[-12.382495,14.84602],[-12.484892,15.017276],[-12.632273,15.105436],[-12.717049,15.10342],[-12.779758,15.146389],[-12.787225,15.214163],[-12.888356,15.250879],[-12.828049,15.283874],[-12.927217,15.380742],[-12.954941,15.493061],[-12.980185,15.516289],[-13.083845,15.49275],[-13.099015,15.586879],[-13.2473,15.648297],[-13.232547,15.71961],[-13.287453,15.778159],[-13.31373,15.92213],[-13.435067,16.096538],[-13.491549,16.088425],[-13.497259,16.156069],[-13.662417,16.107442],[-13.722775,16.146096],[-13.729416,16.189504],[-13.844835,16.126045],[-13.967799,16.246038],[-13.987049,16.34288],[-14.406635,16.660793],[-14.503916,16.632681],[-14.912496,16.640639],[-14.996625,16.682445],[-15.036933,16.632578],[-15.107574,16.665392],[-15.096154,16.613974],[-15.125093,16.58271],[-15.414532,16.548035],[-15.478508,16.575165],[-15.536696,16.516512],[-15.594418,16.523644],[-15.672191,16.481372],[-15.896932,16.518424],[-16.05377,16.495428],[-16.119657,16.552376],[-16.273808,16.523179],[-16.334941,16.455793],[-16.391682,16.224747],[-16.465993,16.174053],[-16.542348,15.808824],[-16.529286,16.332709],[-16.467152,16.492865],[-16.459218,16.643948],[-16.343088,16.942288],[-16.172597,17.262356],[-16.078969,17.544827],[-16.024159,17.96015],[-16.035227,18.141425],[-16.069407,18.484036],[-16.131988,18.628648],[-16.204579,18.982733],[-16.282786,19.130439],[-16.360707,19.21247],[-16.474599,19.270819],[-16.524078,19.365912],[-16.52184,19.39643],[-16.463735,19.381537],[-16.359202,19.415839],[-16.282826,19.536078],[-16.391469,19.464057],[-16.350494,19.546617],[-16.405181,19.507148],[-16.455068,19.408271],[-16.468495,19.455715],[-16.422515,19.54385],[-16.238433,19.787665],[-16.243479,19.888739],[-16.26651,19.913723],[-16.305572,19.873033],[-16.30956,19.902899],[-16.222483,20.003567],[-16.261138,20.135688],[-16.211659,20.175605],[-16.20226,20.233303],[-16.295074,20.330552],[-16.391184,20.569485],[-16.467193,20.649604],[-16.421946,20.669135],[-16.494496,20.691148],[-16.529286,20.738959],[-16.542348,20.560858],[-16.665028,20.670559],[-16.671132,20.737128],[-16.917592,21.159166],[-17.015859,21.031236],[-17.004384,20.93244],[-17.041249,20.911363],[-17.046946,20.777818],[-17.077428,20.904513],[-16.968339,21.324591],[-13.015247,21.333428],[-13.09333,22.495476],[-13.15498,22.688797],[-13.152293,22.820004],[-13.015247,23.018002],[-12.619432,23.270829],[-12.353892,23.322479],[-12.019339,23.460998],[-12.015308,25.9949],[-8.687656,26.000016],[-8.682385,27.285416]]],[[[-16.377797,19.813544],[-16.336822,19.855699],[-16.432485,19.601264],[-16.457143,19.703355],[-16.418202,19.805609],[-16.377797,19.813544]]],[[[-16.320912,19.728502],[-16.301625,19.722602],[-16.394521,19.599921],[-16.320912,19.728502]]],[[[-16.477162,19.731513],[-16.484242,19.67772],[-16.496897,19.705512],[-16.477162,19.731513]]],[[[-16.459299,20.614691],[-16.44811,20.57453],[-16.474233,20.594184],[-16.459299,20.614691]]]]}}