{"type":"Feature","properties":{"iso3":"MUS","name":"Mauritius","continent":"Africa"},"geometry":{"type":"MultiPolygon","coordinates":[[[[57.795746,-20.222752],[57.77589,-20.320408],[57.781505,-20.335707],[57.729259,-20.363946],[57.71225,-20.387465],[57.726085,-20.41961],[57.723318,-20.434259],[57.705821,-20.438735],[57.672211,-20.479669],[57.58839,-20.504815],[57.503591,-20.517348],[57.399262,-20.497979],[57.378103,-20.507013],[57.307872,-20.444268],[57.303477,-20.430922],[57.357758,-20.427423],[57.36378,-20.414483],[57.367849,-20.376153],[57.356944,-20.370375],[57.370616,-20.260512],[57.400157,-20.200616],[57.432628,-20.171808],[57.473643,-20.157485],[57.490733,-20.140802],[57.494477,-20.103692],[57.528087,-20.030857],[57.560069,-20.003839],[57.586111,-19.996759],[57.596528,-19.982599],[57.622895,-19.981703],[57.679698,-19.999933],[57.684825,-20.011],[57.67921,-20.028253],[57.708832,-20.089939],[57.744802,-20.105076],[57.744477,-20.143813],[57.762543,-20.162042],[57.772146,-20.190525],[57.795746,-20.222752]]],[[[56.524181,-10.330011],[56.535655,-10.323907],[56.568614,-10.386407],[56.569347,-10.406508],[56.529796,-10.35296],[56.524181,-10.330011]]],[[[63.476248,-19.67783],[63.493907,-19.681899],[63.489594,-19.70143],[63.469412,-19.722914],[63.416515,-19.736423],[63.366384,-19.767185],[63.332286,-19.736423],[63.343272,-19.709731],[63.389171,-19.684747],[63.454275,-19.669854],[63.476248,-19.67783]]]]}}