{"type":"Feature","properties":{"iso3":"MYS","name":"Malaysia","continent":"Asia"},"geometry":{"type":"MultiPolygon","coordinates":[[[[117.703608,4.163415],[117.647634,4.240627],[117.720225,4.266425],[117.907039,4.156683],[117.703608,4.163415]]],[[[102.07309,6.257514],[102.15211,6.203192],[102.199555,6.232815],[102.338145,6.176988],[102.520763,5.871731],[102.875662,5.571438],[103.027599,5.4855],[103.222423,5.221137],[103.442638,4.816596],[103.451427,4.488471],[103.49643,4.30622],[103.394054,4.098619],[103.434337,3.950019],[103.411632,3.963935],[103.394705,3.935004],[103.33961,3.738349],[103.462169,3.534125],[103.448009,3.50495],[103.482188,3.511786],[103.428071,3.367174],[103.456065,3.203762],[103.441173,2.922105],[103.520193,2.789008],[103.638438,2.672105],[103.766775,2.64175],[103.839692,2.524848],[103.837657,2.463813],[103.95338,2.329413],[103.97641,2.192369],[104.106456,1.986884],[104.135427,1.848944],[104.195323,1.798733],[104.284028,1.517483],[104.2824,1.382636],[104.224132,1.349514],[104.114024,1.368476],[104.059418,1.485338],[104.147634,1.545396],[104.060802,1.510077],[103.965994,1.647854],[104.008311,1.548733],[104.009776,1.448635],[103.974457,1.419827],[103.839692,1.476549],[103.681407,1.441799],[103.600108,1.353461],[103.547862,1.382066],[103.516368,1.270453],[103.454845,1.339423],[103.367361,1.538398],[102.923188,1.75788],[102.835623,1.845649],[102.699392,1.859442],[102.526866,2.070868],[102.154307,2.235663],[101.98878,2.394517],[101.858165,2.41942],[101.783051,2.575873],[101.542328,2.661282],[101.399181,2.819078],[101.286388,2.849677],[101.303477,2.894843],[101.281016,2.897854],[101.372813,3.028306],[101.297618,3.274604],[101.108409,3.473944],[101.040538,3.621975],[100.886485,3.756334],[100.822927,3.776068],[100.841563,3.843736],[100.784841,3.839342],[100.709483,3.883043],[100.718761,3.990871],[100.854991,4.022162],[100.777599,4.021389],[100.776052,4.086493],[100.622569,4.175849],[100.570567,4.34101],[100.645518,4.560045],[100.590994,4.590806],[100.666189,4.669908],[100.59783,4.693549],[100.594493,4.743069],[100.632579,4.758124],[100.617361,4.792914],[100.576182,4.799262],[100.577403,4.854315],[100.505382,4.867987],[100.503429,4.910142],[100.44158,4.922838],[100.364513,5.084296],[100.433279,5.211168],[100.350841,5.584215],[100.344005,5.669257],[100.384939,5.669257],[100.375743,5.81094],[100.349132,6.012681],[100.137462,6.38052],[100.173296,6.703416],[100.280783,6.688921],[100.317887,6.576706],[100.377659,6.526754],[100.612649,6.449168],[100.71285,6.493041],[100.805609,6.414803],[100.832997,6.236675],[100.910099,6.235796],[100.95516,6.268637],[101.088279,6.233522],[101.053449,6.15761],[101.094273,6.085754],[101.071122,5.919846],[101.031848,5.908917],[100.965289,5.792412],[101.105435,5.637642],[101.212302,5.681515],[101.248993,5.786986],[101.557914,5.911346],[101.624577,5.859411],[101.665918,5.765592],[101.740022,5.782361],[101.784154,5.7381],[101.812266,5.752544],[101.912931,5.859308],[101.934739,5.981729],[102.060002,6.094797],[102.07309,6.257514]]],[[[115.146169,4.908515],[115.224376,4.958319],[115.342296,4.899807],[115.556977,5.067206],[115.598643,5.225491],[115.523774,5.208808],[115.39975,5.324205],[115.365245,5.30744],[115.389415,5.405666],[115.550141,5.540188],[115.604828,5.63581],[115.584321,5.548489],[115.604828,5.519721],[115.614431,5.557278],[115.76238,5.523139],[115.848643,5.560004],[115.919932,5.746772],[116.050792,5.842271],[116.141856,6.073065],[116.105968,6.126451],[116.222667,6.237209],[116.278982,6.234931],[116.292735,6.275784],[116.236095,6.266343],[116.488292,6.48428],[116.64503,6.716946],[116.665782,6.859605],[116.76588,7.025092],[116.832042,6.973334],[116.851817,6.890204],[116.811209,6.868842],[116.858653,6.817857],[116.783946,6.59162],[116.84547,6.592027],[116.973806,6.708075],[117.052501,6.830756],[117.030528,6.931138],[117.085948,6.955756],[117.088878,6.994696],[117.143809,7.00373],[117.246755,6.950507],[117.230317,6.817532],[117.295909,6.636298],[117.349294,6.630113],[117.442231,6.553046],[117.474864,6.551459],[117.525401,6.620998],[117.574555,6.53498],[117.64088,6.521715],[117.728282,6.443671],[117.729503,6.269477],[117.609223,6.21483],[117.665538,6.079901],[117.633311,6.039862],[117.674815,5.988959],[117.468761,5.868557],[117.569347,5.902899],[117.756602,5.906155],[117.771658,5.944281],[117.884044,5.954657],[118.016856,6.060981],[118.118988,5.875393],[118.058849,5.808987],[117.910411,5.796861],[117.951996,5.694078],[118.062755,5.71662],[118.12672,5.693549],[118.17628,5.805162],[118.262218,5.827867],[118.384532,5.803941],[118.59962,5.669257],[118.56544,5.525946],[118.598969,5.607978],[118.651052,5.63642],[118.819347,5.478095],[118.918793,5.454983],[118.948253,5.388577],[119.008311,5.435858],[119.085704,5.409857],[119.189301,5.450751],[119.278087,5.344631],[119.2671,5.201077],[119.155935,5.106187],[118.681488,4.944322],[118.584972,4.971869],[118.509044,4.931057],[118.376231,5.041083],[118.29127,4.977851],[118.21697,4.965806],[118.143891,4.890286],[118.277599,4.695136],[118.411143,4.601508],[118.487478,4.587592],[118.469412,4.537177],[118.504893,4.502387],[118.587413,4.52383],[118.645274,4.444037],[118.592133,4.429145],[118.542817,4.360012],[118.160818,4.30622],[117.982677,4.231147],[117.70753,4.36994],[117.671153,4.426011],[117.614594,4.393052],[117.649099,4.260728],[117.602061,4.215277],[117.620291,4.184719],[117.567149,4.159654],[117.43648,4.185611],[117.202696,4.356066],[116.804477,4.330073],[116.729443,4.364463],[116.590227,4.331132],[116.533279,4.395366],[116.485944,4.316921],[116.400884,4.289998],[116.310657,4.383377],[116.228802,4.356118],[116.125759,4.378907],[116.004009,4.276691],[115.977241,4.328626],[115.844122,4.389216],[115.770742,4.225609],[115.655917,4.178635],[115.609511,3.996915],[115.545846,3.92772],[115.589358,3.824522],[115.544399,3.629159],[115.600623,3.441212],[115.517631,3.357161],[115.482801,3.206472],[115.517011,3.157276],[115.464094,3.030824],[115.309995,2.985917],[115.255838,3.03749],[115.069079,2.832645],[115.104633,2.761486],[115.056987,2.711257],[115.05647,2.608627],[115.151968,2.597052],[115.203748,2.527547],[115.192689,2.490547],[115.126543,2.47923],[114.972961,2.35748],[114.934514,2.360684],[114.913326,2.284048],[114.778761,2.247202],[114.752096,2.153513],[114.780621,2.036053],[114.84532,2.024968],[114.833641,1.921357],[114.674168,1.831905],[114.669,1.694006],[114.563167,1.536393],[114.545597,1.434952],[114.374858,1.506938],[114.183242,1.423454],[114.094255,1.465674],[113.909667,1.442471],[113.808174,1.339713],[113.624826,1.227575],[113.524471,1.313564],[113.397553,1.293927],[113.323656,1.351392],[113.089045,1.431335],[112.973186,1.415083],[113.024346,1.514379],[112.973186,1.569854],[112.470478,1.567657],[112.161556,1.434539],[112.187395,1.379659],[112.100061,1.154918],[111.910099,1.114042],[111.823076,1.008467],[111.762821,0.993015],[111.622675,1.030274],[111.515394,0.96449],[111.454519,1.022626],[111.374111,1.007537],[111.197584,1.075233],[110.880394,1.010534],[110.78624,0.916276],[110.674412,0.877002],[110.60961,0.890851],[110.553903,0.85137],[110.460265,0.879741],[110.364147,0.981388],[110.272783,0.991052],[110.17036,1.174451],[110.051814,1.215482],[109.920246,1.394774],[109.842835,1.403275],[109.65804,1.59719],[109.647188,1.761883],[109.555617,1.802165],[109.528436,1.889989],[109.645274,2.083238],[109.654633,1.936998],[109.693044,1.873114],[109.886729,1.760199],[109.927745,1.692288],[110.254161,1.706204],[110.283946,1.676093],[110.313324,1.792629],[110.343028,1.797512],[110.390147,1.699042],[110.491873,1.738959],[110.520763,1.722968],[110.471365,1.631985],[110.726736,1.547431],[110.733409,1.498684],[110.677908,1.456041],[110.7435,1.462388],[110.793305,1.572414],[110.83961,1.565985],[111.141938,1.371527],[111.232677,1.394599],[111.340587,1.333319],[111.383556,1.353664],[111.260997,1.419908],[111.176768,1.40058],[111.064952,1.462714],[111.005626,1.584459],[111.028575,1.664008],[111.09547,1.687974],[111.179454,1.627021],[111.267426,1.627346],[111.182628,1.657294],[111.096039,1.774482],[111.12322,1.785793],[111.113129,1.835517],[111.205903,2.068996],[111.267833,2.067532],[111.240082,2.113349],[111.327973,2.110419],[111.375011,2.153998],[111.356781,2.166205],[111.338634,2.130805],[111.179454,2.155911],[111.200043,2.210883],[111.240082,2.216376],[111.184825,2.253648],[111.220958,2.416083],[111.246349,2.436103],[111.358409,2.344794],[111.448253,2.372382],[111.493419,2.346137],[111.412283,2.469224],[111.507091,2.490709],[111.417247,2.555121],[111.457856,2.705634],[111.669607,2.843085],[112.01352,2.885932],[113.007823,3.161689],[113.082286,3.256781],[113.069347,3.278998],[113.277599,3.484198],[113.434255,3.75316],[113.736827,4.001288],[113.946788,4.27383],[113.992198,4.437079],[113.969412,4.578518],[113.99879,4.601142],[114.238329,4.484224],[114.289902,4.361311],[114.278016,4.274055],[114.432529,4.246925],[114.477384,4.144968],[114.581667,4.029342],[114.627762,4.016681],[114.766875,4.131816],[114.813798,4.277104],[114.781965,4.284933],[114.84563,4.395108],[114.847904,4.423736],[114.788166,4.461202],[114.741967,4.729454],[114.855759,4.806659],[114.948363,4.818932],[115.015798,4.916409],[115.026808,4.660027],[115.091817,4.405417],[115.346272,4.313769],[115.358261,4.350278],[115.272478,4.474663],[115.272684,4.636772],[115.207365,4.825598],[115.146169,4.908515]]],[[[118.219493,5.855536],[118.219493,5.827582],[118.172537,5.822821],[118.219493,5.855536]]],[[[111.411388,2.391099],[111.37436,2.369086],[111.312673,2.431342],[111.31544,2.784491],[111.381033,2.697903],[111.411388,2.391099]]],[[[104.222667,2.78559],[104.210785,2.715074],[104.138438,2.733629],[104.125824,2.777045],[104.170665,2.891099],[104.222667,2.78559]]],[[[118.726248,4.491889],[118.756114,4.457221],[118.674815,4.436591],[118.651215,4.479071],[118.726248,4.491889]]],[[[118.510265,4.648871],[118.59962,4.642646],[118.572276,4.601142],[118.535167,4.601304],[118.346446,4.669908],[118.476085,4.693793],[118.510265,4.648871]]],[[[115.248546,5.365465],[115.259288,5.291205],[115.15919,5.252183],[115.189138,5.344794],[115.226085,5.381049],[115.248546,5.365465]]],[[[100.309825,5.450751],[100.333995,5.426947],[100.292247,5.280463],[100.194998,5.272284],[100.185232,5.444281],[100.253754,5.469062],[100.309825,5.450751]]],[[[99.786292,6.241822],[99.823922,6.282136],[99.805596,6.171793],[99.767234,6.223804],[99.786292,6.241822]]],[[[99.900617,6.364304],[99.914477,6.339711],[99.870508,6.304924],[99.807307,6.317532],[99.728735,6.261476],[99.719044,6.353231],[99.650076,6.376695],[99.645228,6.435841],[99.770927,6.419842],[99.839203,6.45482],[99.913341,6.390204],[99.900617,6.364304]]],[[[117.468761,6.766669],[117.506602,6.673489],[117.443044,6.635728],[117.356212,6.647895],[117.365571,6.683051],[117.443858,6.698554],[117.403575,6.725816],[117.411632,6.75137],[117.468761,6.766669]]],[[[117.002615,7.355699],[117.020356,7.294582],[116.862315,7.194159],[116.900157,7.287421],[117.002615,7.355699]]],[[[117.171153,7.342678],[117.246267,7.35578],[117.281912,7.332343],[117.26238,7.201972],[117.152843,7.173082],[117.082367,7.110663],[117.064138,7.270738],[117.171153,7.342678]]],[[[101.271169,3.046454],[101.243826,3.02619],[101.244395,3.049018],[101.271169,3.046454]]],[[[101.337657,3.051825],[101.335297,3.009019],[101.281423,2.97248],[101.305919,3.063951],[101.337657,3.051825]]]]}}