{"type":"Feature","properties":{"iso3":"NAM","name":"Namibia","continent":"Africa"},"geometry":{"type":"Polygon","coordinates":[[[16.487071,-28.572931],[16.445811,-28.610528],[16.346853,-28.556085],[16.04363,-28.257094],[15.761485,-28.038344],[15.684255,-27.949884],[15.673025,-27.869887],[15.533539,-27.730157],[15.520681,-27.633722],[15.301606,-27.333103],[15.228526,-26.945571],[15.169688,-26.906183],[15.080821,-26.672133],[15.127126,-26.626723],[15.137706,-26.6749],[15.168142,-26.602797],[15.128754,-26.457615],[15.07252,-26.389744],[14.975271,-26.344171],[14.942556,-26.153904],[14.979015,-26.05877],[14.907725,-25.915297],[14.91863,-25.845473],[14.842784,-25.763604],[14.879568,-25.53867],[14.80128,-25.262791],[14.853282,-25.064223],[14.780772,-24.803399],[14.601899,-24.562433],[14.616954,-24.464776],[14.473643,-24.159112],[14.451915,-23.988458],[14.513927,-23.892267],[14.500255,-23.614435],[14.434337,-23.415216],[14.467459,-23.356052],[14.484386,-23.374933],[14.491954,-23.309177],[14.410167,-22.970798],[14.431895,-22.881768],[14.444347,-22.952813],[14.472911,-22.95379],[14.459239,-22.995294],[14.529307,-22.90016],[14.508556,-22.548028],[14.293468,-22.143324],[14.137218,-21.946384],[13.952322,-21.783949],[13.958263,-21.704848],[13.87794,-21.592218],[13.831716,-21.456476],[13.397634,-20.849298],[13.177745,-20.189223],[13.037345,-20.059465],[13.005382,-19.935479],[12.7046,-19.410821],[12.567393,-19.102309],[12.480317,-19.011],[12.450043,-18.904555],[12.286876,-18.697686],[12.031889,-18.50535],[11.937348,-18.23211],[11.849082,-18.143183],[11.796911,-17.956089],[11.717621,-17.546319],[11.755138,-17.266697],[12.095261,-17.139676],[12.16151,-17.146291],[12.239335,-17.220705],[12.407594,-17.204065],[12.554561,-17.235588],[12.818318,-17.104846],[12.930456,-17.014206],[13.166307,-16.951057],[13.245269,-16.98134],[13.382004,-16.970384],[13.479776,-17.010278],[13.521324,-17.1219],[13.980573,-17.423587],[14.287427,-17.388136],[18.445726,-17.389273],[18.74824,-17.736332],[18.89004,-17.799274],[19.020575,-17.822322],[19.246608,-17.804028],[19.421274,-17.859426],[19.672628,-17.842682],[19.755207,-17.889088],[19.951991,-17.862319],[20.119939,-17.890741],[20.336154,-17.854878],[20.552885,-17.979108],[20.754423,-17.997918],[20.806202,-18.031405],[21.161323,-17.930636],[21.405546,-18.009287],[24.220464,-17.4795],[24.407016,-17.474539],[24.571244,-17.533451],[24.684415,-17.49242],[25.036952,-17.5812],[25.096897,-17.67215],[25.259781,-17.794107],[25.153947,-17.781808],[25.057002,-17.827696],[24.958094,-17.800928],[24.820841,-17.839272],[24.577755,-18.044427],[24.518431,-18.057346],[24.433888,-17.967223],[24.365262,-17.950789],[24.305834,-18.019416],[24.218294,-18.012595],[23.915987,-18.201213],[23.912886,-18.235733],[23.715792,-18.419081],[23.609856,-18.477682],[23.57916,-18.467864],[23.521696,-18.268186],[23.395812,-18.191395],[23.292769,-17.998952],[22.981367,-18.020036],[21.475722,-18.299502],[20.993436,-18.318612],[20.984796,-21.963981],[20.97198,-22.000671],[19.978346,-22.000671],[19.981653,-28.422347],[19.568759,-28.531177],[19.45507,-28.705223],[19.277304,-28.729408],[19.244954,-28.792453],[19.27658,-28.889502],[19.120207,-28.957508],[19.01396,-28.928466],[18.954533,-28.866661],[18.745656,-28.839892],[18.496163,-28.888261],[18.18507,-28.902214],[17.913252,-28.781291],[17.746338,-28.748632],[17.628722,-28.764135],[17.598026,-28.689617],[17.403619,-28.704293],[17.420569,-28.593396],[17.373027,-28.559393],[17.328172,-28.456143],[17.39132,-28.418833],[17.402069,-28.367776],[17.345742,-28.22763],[17.21314,-28.232074],[17.189989,-28.116836],[17.076404,-28.026815],[16.896467,-28.079939],[16.885512,-28.162001],[16.819779,-28.20975],[16.815232,-28.270831],[16.768723,-28.265354],[16.796835,-28.347829],[16.740404,-28.480948],[16.720457,-28.496037],[16.692345,-28.461104],[16.487071,-28.572931]]]}}