{"type":"Feature","properties":{"iso3":"NCL","name":"New Caledonia","continent":"Oceania"},"geometry":{"type":"MultiPolygon","coordinates":[[[[163.985118,-20.047621],[163.978201,-20.083103],[163.971365,-20.06878],[163.956391,-20.073663],[163.947113,-20.066013],[163.937266,-20.033949],[163.949718,-20.002211],[163.967133,-20.008071],[163.985118,-20.047621]]],[[[167.521007,-22.569594],[167.554698,-22.612237],[167.555186,-22.638442],[167.530935,-22.605564],[167.521007,-22.603692],[167.521007,-22.648696],[167.507335,-22.670668],[167.475841,-22.667087],[167.418712,-22.645278],[167.42449,-22.5617],[167.432302,-22.54225],[167.476899,-22.54339],[167.521007,-22.569594]]],[[[166.801768,-22.398858],[166.82545,-22.395685],[166.843272,-22.41253],[166.843435,-22.424412],[166.840587,-22.431248],[166.828949,-22.425551],[166.801768,-22.439874],[166.801768,-22.445977],[166.820974,-22.448826],[166.801768,-22.463067],[166.770763,-22.450616],[166.789399,-22.406671],[166.801768,-22.398858]]],[[[168.137462,-21.431817],[168.143728,-21.488702],[168.12379,-21.555352],[168.126801,-21.622247],[168.035411,-21.658461],[167.992931,-21.654962],[167.958181,-21.638442],[167.959972,-21.61061],[167.912608,-21.595636],[167.863617,-21.603692],[167.859223,-21.597345],[167.856781,-21.589532],[167.889496,-21.559015],[167.891612,-21.541681],[167.856781,-21.500746],[167.843923,-21.439223],[167.808442,-21.383966],[167.848806,-21.37477],[167.904959,-21.392755],[167.987804,-21.335626],[167.990408,-21.348728],[167.966645,-21.394301],[167.983653,-21.429376],[168.00766,-21.452895],[168.038748,-21.459731],[168.074474,-21.455743],[168.137462,-21.431817]]],[[[166.424978,-20.719903],[166.458507,-20.719903],[166.45338,-20.728936],[166.418142,-20.740411],[166.39088,-20.726739],[166.424978,-20.719903]]],[[[167.432302,-21.027765],[167.464692,-21.063653],[167.431814,-21.074884],[167.42335,-21.147556],[167.390798,-21.178643],[167.331065,-21.164158],[167.322439,-21.13421],[167.282074,-21.123468],[167.267589,-21.091485],[167.176036,-21.082208],[167.146332,-21.073012],[167.120128,-21.051935],[167.096446,-21.027765],[167.08839,-21.003839],[167.067393,-20.996352],[167.061534,-20.986261],[167.068614,-20.959568],[167.020844,-20.911716],[167.082205,-20.916192],[167.121593,-20.901544],[167.190929,-20.809991],[167.185313,-20.788181],[167.120128,-20.760186],[167.044444,-20.768243],[167.047048,-20.737237],[167.058849,-20.715997],[167.113129,-20.701104],[167.154307,-20.713067],[167.171886,-20.702569],[167.178477,-20.682061],[167.212576,-20.672133],[167.30128,-20.713067],[167.308279,-20.73089],[167.281505,-20.784438],[167.30128,-20.849705],[167.281505,-20.894301],[167.331065,-20.929457],[167.385509,-20.941664],[167.40504,-20.972426],[167.390798,-21.007908],[167.399181,-21.01922],[167.432302,-21.027765]]],[[[166.637218,-20.425063],[166.67335,-20.445733],[166.673839,-20.463637],[166.633474,-20.465997],[166.611339,-20.477227],[166.579275,-20.549574],[166.587657,-20.599867],[166.629731,-20.596368],[166.575206,-20.685154],[166.537283,-20.704685],[166.493907,-20.713067],[166.479666,-20.699395],[166.508962,-20.683526],[166.558279,-20.624444],[166.559581,-20.545668],[166.60377,-20.458591],[166.599376,-20.43963],[166.571462,-20.405938],[166.561371,-20.410821],[166.563731,-20.401951],[166.60377,-20.383477],[166.615977,-20.389418],[166.637218,-20.425063]]],[[[167.034434,-22.237481],[167.031749,-22.246677],[167.013438,-22.254815],[167.02711,-22.276462],[167.000743,-22.336684],[166.993419,-22.344334],[166.988536,-22.335056],[166.965587,-22.347263],[166.966156,-22.364679],[166.915701,-22.395603],[166.890961,-22.392022],[166.925304,-22.370864],[166.903087,-22.373305],[166.874278,-22.322035],[166.860037,-22.350518],[166.851817,-22.346449],[166.835785,-22.316339],[166.849457,-22.310154],[166.840343,-22.297947],[166.824718,-22.314223],[166.818858,-22.353611],[166.822276,-22.364679],[166.843272,-22.378351],[166.806651,-22.375177],[166.77768,-22.392022],[166.752615,-22.386651],[166.739268,-22.374282],[166.740571,-22.360447],[166.76002,-22.344334],[166.719981,-22.343845],[166.706065,-22.334731],[166.71225,-22.316339],[166.705577,-22.310154],[166.690603,-22.315118],[166.667491,-22.307224],[166.637218,-22.278741],[166.59962,-22.288995],[166.56658,-22.277114],[166.554454,-22.26214],[166.565684,-22.250665],[166.545584,-22.237563],[166.506196,-22.23447],[166.478363,-22.287205],[166.458507,-22.282159],[166.452322,-22.288995],[166.460134,-22.307712],[166.436697,-22.308038],[166.446056,-22.248142],[166.418142,-22.245701],[166.397634,-22.226821],[166.430024,-22.228123],[166.452322,-22.213962],[166.434255,-22.212986],[166.428233,-22.204278],[166.431814,-22.172296],[166.39088,-22.172296],[166.383311,-22.196384],[166.367931,-22.202081],[166.344005,-22.227472],[166.340994,-22.210626],[166.349864,-22.200291],[166.315115,-22.172296],[166.328136,-22.144952],[166.312022,-22.154718],[166.285899,-22.149347],[166.287771,-22.158624],[166.268728,-22.165785],[166.218761,-22.151788],[166.208832,-22.117771],[166.157481,-22.086684],[166.145274,-22.084568],[166.130138,-22.104099],[166.108897,-22.090427],[166.116466,-22.062433],[166.1421,-22.07586],[166.150401,-22.071954],[166.144542,-22.046563],[166.116466,-22.028416],[166.164317,-22.035089],[166.163341,-22.024591],[166.135265,-22.008559],[166.140961,-21.983575],[166.135753,-21.958266],[166.088552,-21.938897],[166.069998,-21.943048],[166.082286,-21.925226],[166.064464,-21.913018],[166.061209,-21.891209],[166.039887,-21.909926],[166.036143,-21.941583],[166.006602,-21.938897],[166.009613,-21.955824],[166.003184,-21.963962],[165.965994,-21.928888],[165.934906,-21.917739],[165.914317,-21.884942],[165.872813,-21.861017],[165.810883,-21.858575],[165.808604,-21.843357],[165.8296,-21.852146],[165.794932,-21.816664],[165.800304,-21.792087],[165.780772,-21.791111],[165.780772,-21.816664],[165.764008,-21.811212],[165.759532,-21.768813],[165.732921,-21.738946],[165.732921,-21.719822],[165.725352,-21.719822],[165.706879,-21.748305],[165.677745,-21.761407],[165.677501,-21.729425],[165.669932,-21.725274],[165.65089,-21.726739],[165.63795,-21.740167],[165.504568,-21.678155],[165.473888,-21.651788],[165.48585,-21.62363],[165.463145,-21.625909],[165.479015,-21.616876],[165.463145,-21.605645],[165.413422,-21.62363],[165.290782,-21.576755],[165.268809,-21.552667],[165.256847,-21.515069],[165.173513,-21.483005],[165.116547,-21.397719],[165.111664,-21.373142],[165.087087,-21.377618],[165.084483,-21.391371],[165.075694,-21.396091],[165.06186,-21.377211],[165.046641,-21.38836],[165.026622,-21.383966],[165.045421,-21.364679],[165.043142,-21.348077],[165.027517,-21.339125],[165.005544,-21.343032],[165.013927,-21.328058],[165.009288,-21.318048],[164.985525,-21.302016],[164.971934,-21.349867],[164.951427,-21.353774],[164.937755,-21.335626],[164.951427,-21.302016],[164.920421,-21.285089],[164.834158,-21.183282],[164.827159,-21.114679],[164.819184,-21.104099],[164.800059,-21.110284],[164.807384,-21.082289],[164.786388,-21.076267],[164.792247,-21.068536],[164.783946,-21.064386],[164.772716,-21.069431],[164.770274,-21.080987],[164.758962,-21.082452],[164.739594,-21.058364],[164.719249,-21.065851],[164.725434,-21.076267],[164.711762,-21.089776],[164.69337,-21.042901],[164.664073,-21.014093],[164.683279,-21.001153],[164.636729,-20.972426],[164.660818,-20.964776],[164.656586,-20.945896],[164.622813,-20.933526],[164.622406,-20.917901],[164.600597,-20.927667],[164.561046,-20.898045],[164.519379,-20.890558],[164.502615,-20.863214],[164.462413,-20.848565],[164.375499,-20.774021],[164.365571,-20.758071],[164.40268,-20.754083],[164.410411,-20.738458],[164.404307,-20.725356],[164.357188,-20.702325],[164.335134,-20.65545],[164.316742,-20.644789],[164.286632,-20.57586],[164.266124,-20.582696],[164.256033,-20.565037],[164.192556,-20.525811],[164.177419,-20.504002],[164.158702,-20.43255],[164.123383,-20.410821],[164.118663,-20.390313],[164.156993,-20.397149],[164.166515,-20.386651],[164.166515,-20.332127],[164.132498,-20.300958],[164.073741,-20.294122],[164.081228,-20.267836],[164.07488,-20.261163],[164.06072,-20.266778],[164.059337,-20.288018],[164.040212,-20.300958],[164.025401,-20.297052],[164.018077,-20.278497],[163.994802,-20.264255],[163.99822,-20.244561],[164.016612,-20.231052],[164.04713,-20.239435],[164.056407,-20.227634],[164.033458,-20.192315],[164.052501,-20.17783],[164.04713,-20.151462],[164.032237,-20.140313],[163.991954,-20.151462],[164.005544,-20.123468],[163.986013,-20.109633],[163.991954,-20.083103],[164.01352,-20.083103],[164.051768,-20.109308],[164.077403,-20.149835],[164.109141,-20.164972],[164.197927,-20.260512],[164.244314,-20.285333],[164.264334,-20.28867],[164.292817,-20.28102],[164.31658,-20.319106],[164.334483,-20.321466],[164.310883,-20.27516],[164.306488,-20.23504],[164.495616,-20.300226],[164.595225,-20.403578],[164.653494,-20.431817],[164.684581,-20.458591],[164.725434,-20.472833],[164.767751,-20.520766],[164.791759,-20.535089],[164.82781,-20.582696],[164.879649,-20.62656],[164.91977,-20.645115],[164.935232,-20.659112],[164.930349,-20.672133],[164.947927,-20.683689],[164.988536,-20.685317],[165.061534,-20.734063],[165.167166,-20.754083],[165.184093,-20.768243],[165.198578,-20.760512],[165.21754,-20.764418],[165.264415,-20.813246],[165.259939,-20.828546],[165.280447,-20.883884],[165.323253,-20.912774],[165.328298,-20.928399],[165.413097,-20.949151],[165.395518,-21.018243],[165.406749,-21.055434],[165.502208,-21.12713],[165.542979,-21.134698],[165.541026,-21.151951],[165.554861,-21.144464],[165.58546,-21.16839],[165.615408,-21.206476],[165.583263,-21.202325],[165.554861,-21.18613],[165.568614,-21.206964],[165.60255,-21.226495],[165.623057,-21.267999],[165.706554,-21.292169],[165.725352,-21.309503],[165.754405,-21.302341],[165.781261,-21.316176],[165.801117,-21.340265],[165.808604,-21.363539],[165.826182,-21.359633],[165.836681,-21.402032],[165.856293,-21.418715],[165.845876,-21.398858],[165.84962,-21.383966],[165.868175,-21.379164],[165.883637,-21.397719],[165.890391,-21.378025],[165.87615,-21.356703],[165.894054,-21.361098],[165.94988,-21.455743],[165.945323,-21.464288],[165.924083,-21.459731],[165.972341,-21.493829],[165.966482,-21.503025],[165.992931,-21.497247],[165.964041,-21.435805],[165.961925,-21.417413],[165.969412,-21.410414],[166.020274,-21.452895],[166.064626,-21.463149],[166.066742,-21.469903],[166.048188,-21.479669],[166.068044,-21.487074],[166.07488,-21.528009],[166.116466,-21.517267],[166.253917,-21.618748],[166.370372,-21.658949],[166.370372,-21.665216],[166.342459,-21.665216],[166.3567,-21.693129],[166.425548,-21.712335],[166.437022,-21.731541],[166.475841,-21.758396],[166.489757,-21.792169],[166.513682,-21.802992],[166.506196,-21.809259],[166.573416,-21.874933],[166.661388,-21.93963],[166.671235,-21.925226],[166.719086,-21.952569],[166.719086,-21.960056],[166.685069,-21.973077],[166.685069,-21.980564],[166.76002,-21.986749],[166.778331,-22.014581],[166.873709,-22.035089],[166.938813,-22.079848],[166.960785,-22.119236],[166.959321,-22.144952],[166.948009,-22.16367],[166.971528,-22.17018],[167.034434,-22.237481]]],[[[164.22462,-20.137628],[164.240245,-20.158298],[164.1692,-20.123305],[164.163748,-20.061944],[164.170584,-20.061944],[164.22462,-20.137628]]],[[[163.682791,-19.739841],[163.696137,-19.765069],[163.669688,-19.787693],[163.639985,-19.723728],[163.637869,-19.660577],[163.632335,-19.645929],[163.615733,-19.636163],[163.621837,-19.623712],[163.649669,-19.646254],[163.682791,-19.739841]]],[[[171.340605,-22.344761],[171.343765,-22.346342],[171.341922,-22.349239],[171.340605,-22.344761]]]]}}