{"type":"Feature","properties":{"iso3":"NER","name":"Niger","continent":"Africa"},"geometry":{"type":"Polygon","coordinates":[[[3.5964,11.695773],[3.484262,11.84517],[3.307012,11.902375],[3.255129,12.018751],[3.013077,12.271087],[2.944967,12.292481],[2.844301,12.399244],[2.700434,12.347103],[2.672942,12.296718],[2.370015,12.236257],[2.405568,12.046708],[2.457348,11.99622],[2.375183,11.935035],[2.388205,11.906768],[2.051792,12.341935],[2.054169,12.370926],[2.145016,12.41175],[2.244958,12.424152],[2.193282,12.609464],[2.109049,12.705634],[1.971693,12.724237],[1.843742,12.606105],[1.563863,12.63215],[1.113968,12.996236],[0.983536,13.032358],[0.983536,13.36841],[1.160683,13.311307],[1.205745,13.358901],[1.268687,13.34606],[1.015266,13.465665],[0.991391,13.541113],[0.896927,13.614932],[0.775694,13.635293],[0.766392,13.67511],[0.59431,13.688881],[0.593689,13.778101],[0.454809,13.902357],[0.343575,14.114333],[0.390601,14.237633],[0.202382,14.435545],[0.152941,14.54671],[0.219707,14.731221],[0.184102,14.819562],[0.213196,14.985417],[0.387035,14.963248],[0.514831,14.993556],[0.670067,14.939735],[0.949327,14.979552],[1.331526,15.283616],[3.000158,15.339117],[3.03354,15.42645],[3.507103,15.353973],[3.526534,15.495954],[3.692208,15.63145],[3.846101,15.685297],[3.886512,15.750099],[3.903462,15.886318],[3.98325,15.983987],[3.971158,16.086099],[4.060558,16.298334],[4.183961,16.416053],[4.181998,16.809621],[4.203702,16.982789],[4.235638,16.995863],[4.22861,19.142244],[5.794302,19.449796],[7.482726,20.872577],[11.968861,23.517351],[13.482257,23.179672],[13.599562,23.119029],[14.23172,22.617949],[14.979168,22.995316],[15.172024,21.993387],[15.180396,21.507267],[15.301009,21.40133],[15.60931,20.95066],[15.544301,20.890302],[15.570243,20.751913],[15.968151,20.352816],[15.736021,19.903541],[15.471954,16.916746],[14.368973,15.749634],[13.833915,15.019601],[13.760534,14.866355],[13.764358,14.719077],[13.648345,14.649417],[13.657853,14.548725],[13.482257,14.483587],[13.449494,14.439042],[13.607314,13.7041],[13.329915,13.709423],[13.228112,13.548037],[13.150184,13.522664],[13.153698,13.548761],[13.054893,13.548373],[12.939344,13.495069],[12.842296,13.489126],[12.857075,13.450653],[12.798474,13.384275],[12.683132,13.288932],[12.640654,13.302393],[12.561073,13.242759],[12.547947,13.165451],[12.472706,13.064165],[12.201405,13.125427],[12.057641,13.116772],[11.852795,13.245394],[11.440004,13.364431],[10.674986,13.375102],[10.119775,13.250097],[9.930122,13.145969],[9.891778,13.076231],[9.590298,12.80139],[8.942792,12.847201],[8.679346,12.923579],[8.533515,13.06463],[8.397813,13.075405],[8.116589,13.29105],[7.823997,13.345285],[7.391982,13.112534],[7.198196,13.117392],[7.068695,12.996081],[6.937127,12.995409],[6.778687,13.130285],[6.672543,13.321178],[6.509297,13.496051],[6.302178,13.663844],[6.229831,13.679192],[6.129476,13.649065],[5.521761,13.880291],[5.374069,13.855254],[5.304203,13.773941],[5.227618,13.741333],[4.925105,13.733091],[4.824852,13.770737],[4.452575,13.673766],[4.248453,13.494139],[4.125774,13.472977],[4.088773,12.996236],[3.929093,12.750386],[3.6457,12.528539],[3.623995,12.09425],[3.653554,11.986815],[3.603945,11.905579],[3.66699,11.759697],[3.5964,11.695773]]]}}