{"type":"Feature","properties":{"iso3":"NGA","name":"Nigeria","continent":"Africa"},"geometry":{"type":"MultiPolygon","coordinates":[[[[3.5964,11.695773],[3.66699,11.759697],[3.603945,11.905579],[3.653554,11.986815],[3.623995,12.09425],[3.651487,12.26902],[3.641565,12.517997],[3.929093,12.750386],[4.088773,12.996236],[4.125774,13.472977],[4.248453,13.494139],[4.506732,13.694669],[4.856892,13.774096],[4.925105,13.733091],[5.227618,13.741333],[5.304203,13.773941],[5.374069,13.855254],[5.521761,13.880291],[6.142395,13.640822],[6.210608,13.675265],[6.368944,13.626275],[6.672543,13.321178],[6.837908,13.063493],[6.937127,12.995409],[7.068695,12.996081],[7.198196,13.117392],[7.391982,13.112534],[7.823997,13.345285],[8.105117,13.299654],[8.397813,13.075405],[8.533515,13.06463],[8.679346,12.923579],[8.942792,12.847201],[9.590298,12.80139],[9.891778,13.076231],[9.930122,13.145969],[10.119775,13.250097],[10.674986,13.375102],[11.440004,13.364431],[11.852795,13.245394],[12.057641,13.116772],[12.486659,13.070805],[12.597556,13.276503],[12.630009,13.310377],[12.674347,13.283712],[12.77739,13.386703],[12.791136,13.371846],[12.857075,13.450653],[12.842296,13.489126],[12.939344,13.495069],[13.054893,13.548373],[13.228112,13.548037],[13.259221,13.628963],[13.35892,13.714232],[13.607314,13.7041],[14.064908,13.077988],[14.188932,12.370409],[14.487105,12.337801],[14.610612,12.183547],[14.669936,12.167424],[14.604307,12.03043],[14.623427,11.916535],[14.546533,11.718614],[14.62136,11.629782],[14.605754,11.514725],[14.165471,11.238333],[13.98233,11.276264],[13.75485,11.016719],[13.744411,10.930497],[13.538791,10.62142],[13.434921,10.153412],[13.359784,10.100547],[13.247956,10.079412],[13.230179,10.045331],[13.242271,9.949756],[13.212712,9.870148],[13.262942,9.801728],[13.195453,9.542209],[12.982442,9.474591],[12.848394,9.359947],[12.88157,9.352221],[12.898416,9.262433],[12.822142,9.09681],[12.805709,8.831503],[12.772946,8.759053],[12.720236,8.756469],[12.660395,8.659318],[12.557972,8.605677],[12.368836,8.609579],[12.403873,8.496537],[12.331319,8.424293],[12.271788,8.427781],[12.227036,8.386311],[12.237682,8.21689],[12.182594,8.093486],[12.192103,7.960652],[12.018987,7.718858],[12.021054,7.576231],[11.744585,7.272167],[11.868918,7.127111],[11.872226,7.079362],[11.820343,7.078794],[11.561754,6.876067],[11.538086,6.8239],[11.568885,6.739099],[11.533435,6.645099],[11.41675,6.572003],[11.369828,6.455757],[11.113512,6.434001],[11.036721,6.740546],[10.909391,6.784264],[10.831876,6.94521],[10.620623,7.043757],[10.578661,7.130832],[10.495979,6.874672],[10.210828,6.879168],[10.142926,7.007687],[9.874622,6.787701],[9.788529,6.794754],[9.69398,6.534305],[9.60301,6.515185],[9.548957,6.443174],[9.453149,6.397673],[9.422866,6.339356],[9.341011,6.313983],[9.273315,6.202775],[9.136165,6.092523],[8.986304,5.908814],[8.921708,5.904473],[8.855872,5.847499],[8.866621,5.777452],[8.832411,5.678156],[8.903932,5.595086],[8.844297,5.492353],[8.798925,5.159635],[8.61103,4.896653],[8.612166,4.831877],[8.545258,4.796291],[8.538585,4.724595],[8.469005,4.711656],[8.48227,4.738349],[8.40919,4.749335],[8.421886,4.84748],[8.358409,4.797349],[8.181651,4.991441],[8.332367,4.71776],[8.323497,4.665595],[8.356456,4.625556],[8.29835,4.55329],[8.05128,4.559394],[7.742361,4.526313],[7.703136,4.497545],[7.558442,4.525336],[7.529633,4.638861],[7.551036,4.711005],[7.517426,4.679918],[7.511241,4.579983],[7.454112,4.553168],[7.281016,4.601142],[7.271169,4.560045],[7.32838,4.5362],[7.281016,4.504869],[7.181651,4.65941],[7.136404,4.661811],[7.082693,4.742743],[7.060232,4.73192],[7.088634,4.676459],[7.169688,4.605943],[7.147472,4.560045],[7.178233,4.501451],[7.112804,4.450873],[7.078624,4.504869],[7.078624,4.443427],[7.051443,4.436591],[7.007009,4.563137],[7.037364,4.653754],[6.962657,4.730862],[6.989268,4.607896],[6.900564,4.683661],[6.924571,4.591051],[6.983084,4.57685],[6.975597,4.484442],[7.023692,4.398139],[6.880056,4.38817],[6.818614,4.542711],[6.848399,4.613593],[6.803233,4.649807],[6.770193,4.745063],[6.78533,4.817043],[6.724294,4.830146],[6.767833,4.680365],[6.82545,4.601142],[6.796153,4.559719],[6.845958,4.347235],[6.715587,4.354682],[6.736095,4.607896],[6.697032,4.435981],[6.679861,4.520575],[6.654063,4.511705],[6.687673,4.336575],[6.6185,4.330756],[6.595876,4.482082],[6.550466,4.504869],[6.58839,4.447659],[6.569591,4.334906],[6.434337,4.347235],[6.270518,4.292629],[6.246837,4.320502],[6.33253,4.436591],[6.263031,4.395657],[6.242524,4.498033],[6.194835,4.300035],[6.222667,4.300035],[6.151622,4.278998],[6.084321,4.302314],[6.088715,4.411119],[6.043305,4.416083],[6.061778,4.295233],[6.004893,4.314114],[5.987478,4.398912],[5.9546,4.395657],[5.961436,4.333564],[5.930919,4.34512],[5.867524,4.387274],[5.865896,4.436591],[5.7824,4.455959],[5.566905,4.675238],[5.389334,5.109768],[5.418468,5.141262],[5.462738,5.102281],[5.460216,5.133775],[5.49586,5.14232],[5.461192,5.184149],[5.37615,5.158189],[5.34018,5.34394],[5.435313,5.363349],[5.468028,5.340888],[5.56129,5.388861],[5.533946,5.476386],[5.639903,5.540188],[5.5171,5.498603],[5.498057,5.426418],[5.468598,5.407782],[5.436046,5.434638],[5.433849,5.395575],[5.263194,5.43651],[5.198009,5.501451],[5.214203,5.575141],[5.385997,5.560614],[5.439952,5.627672],[5.509613,5.590644],[5.428477,5.655829],[5.379649,5.597968],[5.32602,5.605414],[5.337576,5.724555],[5.263031,5.610541],[5.179698,5.582587],[5.129161,5.628119],[5.088634,5.708726],[5.102712,5.793199],[5.146495,5.781073],[5.290375,5.910102],[5.055024,5.766588],[4.885916,6.006537],[4.747813,6.138861],[4.405528,6.358873],[3.870291,6.431627],[3.443614,6.410346],[3.399099,6.434027],[3.428477,6.458726],[3.43629,6.4383],[3.541352,6.45482],[3.57016,6.500678],[3.857921,6.6022],[3.773692,6.622382],[3.528331,6.527777],[3.478526,6.541449],[3.480235,6.58808],[3.451915,6.581773],[3.402354,6.552151],[3.384532,6.397691],[2.703841,6.368352],[2.73113,6.641844],[2.778569,6.698765],[2.723585,6.799715],[2.71511,6.979833],[2.779706,7.041328],[2.735264,7.096002],[2.761102,7.14835],[2.741155,7.408179],[2.783323,7.419238],[2.792315,7.477633],[2.720588,7.586566],[2.727203,7.793324],[2.671082,7.897917],[2.734437,8.189966],[2.697127,8.320708],[2.744773,8.498294],[2.722949,8.771218],[2.751077,8.803417],[2.769164,9.057045],[2.971425,9.060508],[3.076019,9.095157],[3.151363,9.288633],[3.132553,9.457279],[3.243554,9.584403],[3.245724,9.633702],[3.33161,9.652022],[3.325926,9.801728],[3.452946,9.853095],[3.513098,9.846609],[3.589476,9.948825],[3.605805,10.054116],[3.667507,10.146565],[3.573352,10.266997],[3.59299,10.330947],[3.652107,10.435798],[3.756907,10.405257],[3.787706,10.426367],[3.837419,10.599897],[3.82295,10.70325],[3.7351,10.795776],[3.754117,10.907139],[3.722077,11.112346],[3.662546,11.143145],[3.468449,11.419485],[3.504933,11.556557],[3.5964,11.695773]]],[[[7.541026,4.484442],[7.574229,4.48786],[7.569998,4.459418],[7.449229,4.436591],[7.336925,4.46015],[7.404552,4.498033],[7.541026,4.484442]]],[[[7.274181,4.491889],[7.319672,4.496527],[7.29835,4.41474],[7.147716,4.385077],[7.229503,4.532782],[7.274181,4.491889]]]]}}