{"type":"Feature","properties":{"iso3":"NIC","name":"Nicaragua","continent":"Americas"},"geometry":{"type":"MultiPolygon","coordinates":[[[[-85.701736,11.08088],[-85.785797,11.11225],[-85.80309,11.166083],[-85.821319,11.192816],[-85.928009,11.310736],[-85.960113,11.334011],[-85.994862,11.343655],[-86.043935,11.398098],[-86.070587,11.411689],[-86.104726,11.447292],[-86.148305,11.471747],[-86.16275,11.484524],[-86.176137,11.522406],[-86.207143,11.536038],[-86.244374,11.571601],[-86.352081,11.622626],[-86.376617,11.66946],[-86.496368,11.759426],[-86.515614,11.783108],[-86.542388,11.842353],[-86.605214,11.90469],[-86.63036,11.964911],[-86.689809,12.024075],[-86.727569,12.088284],[-86.772572,12.197414],[-87.002227,12.341376],[-87.015045,12.356838],[-87.071401,12.388699],[-87.101959,12.420966],[-87.17101,12.451443],[-87.173573,12.474514],[-87.142486,12.446845],[-87.097808,12.433539],[-87.12267,12.460354],[-87.157867,12.481024],[-87.180409,12.522976],[-87.186635,12.522976],[-87.176422,12.485907],[-87.238067,12.550238],[-87.312978,12.60281],[-87.331207,12.638983],[-87.344838,12.619167],[-87.454864,12.743801],[-87.467763,12.769965],[-87.447296,12.756293],[-87.447296,12.762519],[-87.460927,12.769965],[-87.46349,12.786322],[-87.480255,12.799994],[-87.522979,12.817165],[-87.482533,12.781195],[-87.482045,12.769965],[-87.492218,12.771389],[-87.529205,12.803494],[-87.670929,12.8935],[-87.685658,12.91828],[-87.685821,12.947577],[-87.667022,12.982245],[-87.588775,13.046332],[-87.583852,13.084662],[-87.577626,13.084662],[-87.583852,13.057318],[-87.547637,13.052151],[-87.506378,13.01968],[-87.471059,12.985053],[-87.467763,12.954291],[-87.435048,12.92239],[-87.392486,12.913398],[-87.289581,12.919582],[-87.289581,12.927029],[-87.367787,12.928534],[-87.379018,12.937567],[-87.368927,12.953559],[-87.314036,12.981553],[-87.084654,12.995926],[-87.035045,12.979777],[-87.029618,12.996081],[-86.983187,13.021868],[-86.948409,13.069694],[-86.922932,13.086386],[-86.920245,13.096178],[-86.932338,13.108529],[-86.923708,13.161136],[-86.934921,13.185527],[-86.910789,13.239581],[-86.8495,13.288828],[-86.816221,13.291929],[-86.7493,13.261285],[-86.725477,13.273299],[-86.704031,13.298828],[-86.709922,13.348902],[-86.740205,13.381923],[-86.724288,13.439413],[-86.756586,13.55938],[-86.751573,13.624415],[-86.774053,13.654594],[-86.766198,13.74526],[-86.727234,13.768256],[-86.66269,13.764691],[-86.541664,13.782131],[-86.490814,13.759497],[-86.448233,13.772959],[-86.426529,13.752986],[-86.410096,13.749033],[-86.340126,13.756655],[-86.313564,13.776602],[-86.284108,13.845719],[-86.218583,13.914371],[-86.184063,13.966875],[-86.138019,13.996175],[-86.121689,14.027207],[-86.09673,14.044079],[-86.020197,14.055164],[-86.031256,14.022582],[-86.028413,13.996072],[-85.957772,13.946101],[-85.929401,13.912098],[-85.9155,13.907447],[-85.883564,13.913855],[-85.861602,13.904424],[-85.824162,13.847683],[-85.758301,13.839286],[-85.744994,13.824687],[-85.733393,13.831793],[-85.723006,13.863418],[-85.747449,13.888275],[-85.727347,13.965014],[-85.699235,13.9615],[-85.666188,13.984471],[-85.651486,13.98199],[-85.644613,13.988786],[-85.647868,13.999302],[-85.612806,14.00974],[-85.593608,14.03346],[-85.527953,14.050901],[-85.510641,14.093792],[-85.474675,14.103404],[-85.431732,14.132834],[-85.409123,14.166165],[-85.384008,14.226445],[-85.362873,14.250113],[-85.340807,14.253369],[-85.321351,14.281326],[-85.277813,14.29732],[-85.215207,14.301583],[-85.169629,14.321763],[-85.158027,14.338273],[-85.159035,14.361063],[-85.171877,14.38101],[-85.205828,14.407158],[-85.178491,14.427648],[-85.178491,14.455605],[-85.151826,14.485964],[-85.14547,14.564254],[-85.137538,14.578491],[-85.119322,14.573969],[-85.086378,14.54454],[-85.065242,14.554255],[-85.029637,14.588956],[-85.023657,14.602541],[-85.048163,14.605776],[-85.020206,14.633733],[-85.053925,14.66306],[-85.033048,14.669571],[-85.015659,14.728172],[-84.904219,14.816978],[-84.8181,14.828657],[-84.792132,14.82106],[-84.77017,14.805144],[-84.755468,14.781476],[-84.766397,14.768867],[-84.747045,14.764475],[-84.745288,14.739101],[-84.72485,14.72564],[-84.699321,14.674687],[-84.680847,14.685461],[-84.600439,14.662517],[-84.52742,14.660398],[-84.534215,14.633733],[-84.519048,14.638281],[-84.482694,14.619471],[-84.408435,14.649417],[-84.362934,14.715615],[-84.338387,14.674687],[-84.287796,14.66722],[-84.267281,14.677736],[-84.261803,14.758532],[-84.226379,14.749773],[-84.195011,14.718715],[-84.168191,14.714969],[-84.128736,14.734192],[-84.095431,14.736104],[-84.122716,14.784525],[-84.11176,14.793413],[-84.075199,14.771632],[-84.047811,14.770805],[-84.040757,14.76034],[-83.924718,14.763441],[-83.929859,14.771658],[-83.924718,14.803775],[-83.896554,14.780443],[-83.883764,14.777109],[-83.889939,14.790726],[-83.869475,14.777109],[-83.839503,14.797418],[-83.801211,14.803775],[-83.821055,14.825479],[-83.765296,14.828786],[-83.744522,14.836667],[-83.746563,14.852195],[-83.723619,14.851575],[-83.705015,14.838527],[-83.714498,14.867233],[-83.710622,14.878344],[-83.691967,14.886974],[-83.649954,14.888498],[-83.615615,14.872685],[-83.604272,14.909194],[-83.540477,14.94157],[-83.545128,14.952163],[-83.526861,14.948365],[-83.528618,14.973402],[-83.523037,14.977692],[-83.513218,14.968855],[-83.509084,15.01154],[-83.485855,15.01048],[-83.45919,14.982497],[-83.415472,14.996941],[-83.390306,15.03097],[-83.354546,15.010067],[-83.349352,14.996812],[-83.334237,15.006449],[-83.272974,15.003039],[-83.285661,14.992109],[-83.266153,14.982497],[-83.217732,14.982497],[-83.177399,14.996812],[-83.130444,14.997012],[-83.165151,14.969062],[-83.17984,14.985989],[-83.191884,14.97427],[-83.266957,14.866645],[-83.273793,14.82567],[-83.294016,14.804267],[-83.32844,14.790961],[-83.311391,14.809516],[-83.308502,14.82567],[-83.316274,14.821031],[-83.32844,14.831855],[-83.305084,14.838772],[-83.287424,14.82567],[-83.307851,14.91059],[-83.322174,14.913886],[-83.369862,14.883002],[-83.424631,14.803941],[-83.411529,14.818264],[-83.397817,14.807603],[-83.380238,14.757392],[-83.337514,14.731431],[-83.322174,14.749945],[-83.356313,14.770453],[-83.333485,14.773261],[-83.314768,14.749945],[-83.315419,14.772773],[-83.308176,14.779853],[-83.299224,14.771186],[-83.260121,14.596015],[-83.191803,14.386908],[-83.186594,14.347642],[-83.191396,14.313422],[-83.218577,14.250312],[-83.301666,14.11994],[-83.337514,14.077541],[-83.34968,14.048774],[-83.397288,14.016303],[-83.431264,13.956732],[-83.493804,13.737738],[-83.517486,13.623684],[-83.520375,13.531643],[-83.559153,13.415839],[-83.570139,13.287095],[-83.561147,13.249172],[-83.568593,13.242906],[-83.50768,12.902777],[-83.541331,12.638983],[-83.541331,12.580634],[-83.513824,12.510484],[-83.485911,12.472154],[-83.481801,12.416653],[-83.492299,12.400336],[-83.512563,12.393785],[-83.617584,12.375149],[-83.637522,12.385728],[-83.603383,12.413723],[-83.602528,12.425442],[-83.612701,12.454901],[-83.634633,12.474107],[-83.637522,12.564521],[-83.62385,12.570746],[-83.58845,12.559638],[-83.563791,12.590888],[-83.555409,12.635891],[-83.568593,12.673774],[-83.556549,12.696723],[-83.554921,12.75259],[-83.541331,12.769965],[-83.544667,12.79678],[-83.564036,12.81269],[-83.616363,12.817125],[-83.637034,12.805325],[-83.645904,12.786851],[-83.637522,12.748847],[-83.615549,12.737291],[-83.610219,12.707913],[-83.597483,12.694322],[-83.603383,12.652655],[-83.589101,12.632148],[-83.673695,12.570461],[-83.7058,12.557074],[-83.767201,12.546698],[-83.774648,12.533515],[-83.774648,12.481431],[-83.740956,12.479722],[-83.726226,12.468329],[-83.71939,12.423651],[-83.733713,12.362982],[-83.726226,12.344794],[-83.707672,12.335883],[-83.67634,12.342475],[-83.67101,12.327094],[-83.676381,12.279853],[-83.64977,12.353176],[-83.621205,12.355658],[-83.617014,12.348049],[-83.663726,12.25609],[-83.685902,12.137437],[-83.678578,12.009426],[-83.67101,11.987942],[-83.685292,11.981106],[-83.681223,12.001654],[-83.723744,12.074652],[-83.700673,12.095201],[-83.692738,12.118232],[-83.697865,12.135199],[-83.728627,12.171576],[-83.747385,12.180325],[-83.77774,12.177151],[-83.776275,12.162299],[-83.760325,12.153062],[-83.739898,12.166653],[-83.713246,12.125678],[-83.739369,12.051947],[-83.803944,12.060289],[-83.761301,12.035346],[-83.754221,11.999091],[-83.767201,11.964301],[-83.759836,11.946845],[-83.83609,11.871243],[-83.806956,11.848212],[-83.784779,11.813544],[-83.76773,11.804836],[-83.742909,11.805243],[-83.747385,11.824042],[-83.735097,11.853664],[-83.709543,11.85814],[-83.699941,11.849921],[-83.653635,11.667467],[-83.651723,11.619371],[-83.664784,11.59809],[-83.694732,11.593655],[-83.713735,11.573472],[-83.7447,11.568508],[-83.761057,11.557115],[-83.794423,11.443996],[-83.821889,11.447252],[-83.862782,11.392035],[-83.867909,11.273668],[-83.83727,11.142524],[-83.815663,11.090399],[-83.752065,10.982245],[-83.725453,10.963202],[-83.710317,10.922675],[-83.692738,10.92593],[-83.696523,10.936591],[-83.688754,10.934587],[-83.67685,10.910299],[-83.679832,10.897011],[-83.669855,10.891718],[-83.660134,10.834172],[-83.663028,10.807016],[-83.698142,10.789162],[-83.835343,10.747614],[-83.855807,10.723998],[-83.886865,10.72715],[-83.907483,10.715368],[-83.926578,10.714903],[-83.993628,10.765003],[-83.998201,10.782056],[-84.009234,10.789446],[-84.034556,10.775519],[-84.051635,10.77955],[-84.07644,10.763814],[-84.088558,10.775519],[-84.106929,10.766915],[-84.118427,10.77123],[-84.137004,10.789162],[-84.180413,10.789756],[-84.191601,10.78172],[-84.227102,10.819315],[-84.204649,10.836988],[-84.20837,10.860966],[-84.264283,10.901816],[-84.310741,10.919412],[-84.341798,10.959901],[-84.345984,10.989899],[-84.355466,10.994627],[-84.417762,10.955043],[-84.4382,10.952201],[-84.457837,10.961348],[-84.498171,11.001991],[-84.58168,11.03447],[-84.62067,11.035762],[-84.676455,11.070411],[-84.707771,11.063047],[-84.884969,10.947679],[-84.908404,10.939359],[-84.9314,10.941891],[-85.508626,11.152421],[-85.597794,11.209937],[-85.631151,11.196217],[-85.701736,11.08088]]],[[[-83.665352,10.935318],[-83.671276,10.926495],[-83.686867,10.93797],[-83.665352,10.935318]]],[[[-83.726226,11.878648],[-83.736073,11.941799],[-83.728993,11.973334],[-83.708404,11.987291],[-83.726226,11.920233],[-83.719838,11.870307],[-83.726226,11.878648]]],[[[-83.053944,12.143866],[-83.055979,12.166205],[-83.046457,12.183743],[-83.032541,12.190823],[-83.021148,12.181789],[-83.053944,12.143866]]],[[[-82.767323,14.41413],[-82.737782,14.421942],[-82.728993,14.413764],[-82.732533,14.369574],[-82.750844,14.361477],[-82.803944,14.365953],[-82.784779,14.381985],[-82.767323,14.41413]]]]}}