{"type":"Feature","properties":{"iso3":"NIU","name":"Niue","continent":"Oceania"},"geometry":{"type":"Polygon","coordinates":[[[-169.851145,-18.965102],[-169.825307,-18.96795],[-169.782908,-19.068943],[-169.865427,-19.129653],[-169.872996,-19.125909],[-169.898915,-19.142755],[-169.909983,-19.128595],[-169.933705,-19.129653],[-169.919423,-19.115981],[-169.924062,-19.099379],[-169.950429,-19.087335],[-169.947703,-19.069431],[-169.926259,-19.03753],[-169.933705,-19.013604],[-169.916005,-19.003106],[-169.895823,-18.965102],[-169.851145,-18.965102]]]}}