{"type":"Feature","properties":{"iso3":"NPL","name":"Nepal","continent":"Asia"},"geometry":{"type":"Polygon","coordinates":[[[88.118218,27.860885],[88.164623,27.845356],[88.166587,27.833599],[88.154598,27.815151],[88.159662,27.77412],[88.134858,27.723167],[88.11088,27.639503],[88.02334,27.494912],[88.039308,27.42949],[88.014762,27.378072],[88.035122,27.322571],[87.989337,27.218391],[87.985461,27.14837],[87.969183,27.110801],[88.009491,27.045637],[88.055948,27.018042],[88.096824,26.959337],[88.151394,26.862806],[88.167827,26.762915],[88.163383,26.705141],[88.101681,26.581944],[88.079822,26.517556],[88.074189,26.453942],[88.044321,26.405676],[88.006648,26.369864],[87.975488,26.366557],[87.914768,26.40826],[87.897301,26.443452],[87.870688,26.460712],[87.852084,26.46066],[87.821595,26.437509],[87.768988,26.451461],[87.756173,26.446914],[87.74222,26.410482],[87.727544,26.403764],[87.68119,26.424228],[87.586984,26.378029],[87.552051,26.386711],[87.480324,26.423401],[87.416452,26.426967],[87.356404,26.403712],[87.326225,26.353328],[87.314029,26.343768],[87.30049,26.34599],[87.2453,26.370226],[87.2191,26.408105],[87.135022,26.394204],[87.10629,26.404746],[87.066706,26.465621],[87.041333,26.580187],[87.029912,26.579774],[86.972448,26.531973],[86.875968,26.494921],[86.865684,26.472442],[86.821863,26.438129],[86.796438,26.431514],[86.738199,26.44371],[86.713601,26.414565],[86.5579,26.484018],[86.494906,26.527839],[86.353674,26.582616],[86.316002,26.580963],[86.308613,26.60215],[86.284428,26.61202],[86.195855,26.582668],[86.152653,26.600651],[86.115859,26.602563],[86.041704,26.645455],[86.01137,26.654447],[85.952148,26.642044],[85.866366,26.579929],[85.828538,26.566131],[85.809728,26.603028],[85.780996,26.599204],[85.712887,26.653206],[85.702241,26.68845],[85.709631,26.76245],[85.701828,26.796608],[85.687772,26.811853],[85.598578,26.854383],[85.439622,26.78772],[85.421535,26.782656],[85.385878,26.788444],[85.337044,26.746792],[85.302369,26.737336],[85.194934,26.758885],[85.165685,26.786273],[85.162016,26.851024],[85.122845,26.8657],[85.043987,26.843737],[85.018562,26.845804],[85.018045,26.874433],[84.952726,26.897636],[84.924046,26.955668],[84.851751,26.982127],[84.828289,26.994839],[84.817489,27.0106],[84.801934,27.013753],[84.760697,26.999025],[84.627268,27.03649],[84.62148,27.057988],[84.654398,27.125374],[84.657654,27.203405],[84.631919,27.277044],[84.606546,27.310479],[84.577039,27.329031],[84.289408,27.376108],[84.267703,27.388562],[84.225536,27.440393],[84.185848,27.438636],[84.165746,27.472174],[84.121563,27.494964],[84.11717,27.513283],[84.099548,27.516874],[84.079601,27.509536],[84.028907,27.453726],[84.007668,27.440807],[83.923022,27.449954],[83.834087,27.434037],[83.87119,27.38944],[83.87765,27.369907],[83.877391,27.361742],[83.854602,27.34505],[83.663399,27.43228],[83.590432,27.45662],[83.480981,27.469746],[83.387034,27.470469],[83.360989,27.462201],[83.355925,27.452486],[83.355821,27.428663],[83.370962,27.410214],[83.362746,27.385616],[83.32435,27.341691],[83.282441,27.330943],[83.249419,27.348099],[83.21924,27.393781],[83.169631,27.431195],[83.132786,27.444217],[83.010468,27.443391],[82.947164,27.457317],[82.876264,27.487548],[82.752137,27.494964],[82.72971,27.518166],[82.709246,27.630924],[82.69705,27.669397],[82.679687,27.694409],[82.652143,27.70415],[82.526156,27.675211],[82.440683,27.666426],[82.401926,27.677175],[82.347924,27.726009],[82.270409,27.760477],[82.151037,27.848275],[82.090369,27.872331],[82.051611,27.905171],[82.02722,27.912406],[81.975905,27.916953],[81.946398,27.905352],[81.883198,27.849051],[81.855654,27.850937],[81.750131,27.909667],[81.688946,27.963204],[81.615049,27.981239],[81.561925,28.025991],[81.473455,28.066402],[81.458211,28.07728],[81.435267,28.129783],[81.396044,28.160634],[81.357907,28.165982],[81.338115,28.132728],[81.307057,28.123814],[81.296205,28.12831],[81.299409,28.142521],[81.276775,28.153787],[81.295947,28.167455],[81.282356,28.191588],[81.224323,28.250783],[81.190372,28.338116],[81.169701,28.361319],[81.146344,28.372249],[81.000409,28.397002],[80.9878,28.430979],[80.976018,28.436922],[80.941188,28.432684],[80.905273,28.440849],[80.88667,28.452786],[80.872252,28.496866],[80.798406,28.505703],[80.781663,28.514746],[80.727093,28.559679],[80.67862,28.574717],[80.635625,28.627866],[80.563589,28.647038],[80.555837,28.678948],[80.517596,28.680033],[80.487624,28.656469],[80.493412,28.575647],[80.488451,28.562444],[80.408352,28.626342],[80.349751,28.620218],[80.329701,28.627479],[80.291047,28.689671],[80.257044,28.702745],[80.233273,28.732718],[80.162063,28.753285],[80.11421,28.802584],[80.036386,28.837026],[80.031115,28.897798],[80.04052,28.932809],[80.052922,28.949113],[80.099431,28.977276],[80.107906,28.994588],[80.104702,29.027609],[80.113073,29.072206],[80.132607,29.110214],[80.16351,29.123366],[80.220664,29.126079],[80.233066,29.139308],[80.213739,29.196565],[80.218803,29.211086],[80.236063,29.213076],[80.258181,29.202456],[80.278748,29.268085],[80.280092,29.31015],[80.254977,29.316635],[80.242161,29.367408],[80.213739,29.416888],[80.217666,29.434639],[80.257457,29.450064],[80.266242,29.47213],[80.320089,29.515822],[80.327221,29.52484],[80.327221,29.548585],[80.350785,29.562073],[80.385201,29.604835],[80.386752,29.626823],[80.354402,29.70488],[80.354299,29.730279],[80.368975,29.757926],[80.395227,29.776582],[80.454861,29.790586],[80.476152,29.80614],[80.549533,29.89368],[80.57134,29.946855],[80.641413,29.963444],[80.715827,30.013311],[80.769674,30.077287],[80.829825,30.117129],[80.849669,30.143381],[80.83644,30.170046],[80.883684,30.21028],[80.903309,30.180433],[80.920827,30.17666],[80.988162,30.196556],[81.006507,30.188908],[81.074203,30.071912],[81.084454,30.027876],[81.097768,30.016929],[81.148101,30.023233],[81.194506,30.004475],[81.21683,30.008195],[81.227269,30.022458],[81.225719,30.050467],[81.257086,30.063541],[81.272021,30.079922],[81.275948,30.095373],[81.266956,30.125087],[81.277705,30.131857],[81.322405,30.133769],[81.350052,30.15723],[81.361834,30.204772],[81.377854,30.232626],[81.368036,30.301046],[81.387259,30.345126],[81.387518,30.373909],[81.407413,30.37918],[81.42612,30.372514],[81.46281,30.341353],[81.509371,30.328382],[81.520688,30.331948],[81.536811,30.37856],[81.576705,30.390963],[81.591588,30.414269],[81.614015,30.416904],[81.779018,30.358045],[81.844389,30.371171],[81.887177,30.354996],[81.941231,30.353962],[81.969032,30.328279],[82.049854,30.339235],[82.088767,30.330088],[82.093211,30.31474],[82.0821,30.257327],[82.084994,30.230817],[82.095898,30.213454],[82.155688,30.181363],[82.127576,30.124364],[82.135224,30.089741],[82.153827,30.058166],[82.210671,30.064419],[82.255733,30.039666],[82.318882,30.031811],[82.347304,30.003441],[82.394433,30.003131],[82.457065,29.95409],[82.541814,29.923239],[82.618502,29.839833],[82.635865,29.829033],[82.666974,29.835028],[82.688988,29.827741],[82.681754,29.797717],[82.690952,29.780741],[82.751517,29.739323],[82.781076,29.705113],[82.815544,29.690127],[82.836576,29.659793],[82.899725,29.688422],[82.931919,29.664185],[82.975896,29.66403],[83.032895,29.620467],[83.064935,29.57879],[83.079559,29.579643],[83.093357,29.615144],[83.150046,29.625635],[83.173558,29.621268],[83.187253,29.612095],[83.197175,29.589099],[83.229317,29.575948],[83.26084,29.542048],[83.26332,29.527088],[83.247197,29.494738],[83.26394,29.473008],[83.327968,29.485023],[83.355201,29.460735],[83.35701,29.415363],[83.38724,29.393504],[83.393132,29.356245],[83.428168,29.333456],[83.437212,29.305241],[83.493384,29.276147],[83.502996,29.261032],[83.523718,29.183594],[83.56139,29.176231],[83.583818,29.162149],[83.639266,29.154759],[83.654992,29.160414],[83.675078,29.208761],[83.69549,29.226176],[83.719727,29.233591],[83.79321,29.234754],[83.868865,29.263435],[83.883438,29.282012],[83.914392,29.289402],[83.957955,29.28904],[83.973251,29.277025],[83.975835,29.263745],[84.012525,29.270204],[84.035211,29.247622],[84.08973,29.256613],[84.112364,29.209097],[84.155462,29.206642],[84.161663,29.192534],[84.13226,29.143804],[84.137996,29.124657],[84.166211,29.098458],[84.175461,29.057401],[84.220575,29.0389],[84.231427,29.025981],[84.206725,28.940664],[84.235147,28.90002],[84.285997,28.873743],[84.354003,28.861289],[84.376586,28.848835],[84.422733,28.799173],[84.450845,28.73388],[84.498594,28.72786],[84.551821,28.706388],[84.616209,28.69365],[84.632642,28.668794],[84.682975,28.650759],[84.677756,28.604405],[84.755632,28.585414],[84.781781,28.558904],[84.81196,28.54198],[84.92849,28.538466],[84.954948,28.574303],[85.002491,28.594431],[85.02528,28.628409],[85.054942,28.638692],[85.11189,28.608823],[85.160982,28.595],[85.16801,28.583192],[85.153748,28.524901],[85.123155,28.504592],[85.109461,28.459298],[85.077577,28.435681],[85.08569,28.381008],[85.080212,28.318789],[85.087395,28.304113],[85.109409,28.292254],[85.173591,28.30432],[85.223924,28.271686],[85.259581,28.266932],[85.312601,28.282771],[85.345364,28.261248],[85.362572,28.259672],[85.41523,28.296439],[85.43156,28.297059],[85.475692,28.279102],[85.52065,28.282926],[85.565299,28.275381],[85.59894,28.250835],[85.611807,28.251145],[85.639093,28.287887],[85.675059,28.306387],[85.679142,28.332897],[85.692939,28.335222],[85.699761,28.269102],[85.734487,28.221534],[85.782753,28.1881],[85.848279,28.158928],[85.863368,28.143348],[85.87174,28.110921],[85.889103,28.090276],[85.898302,28.036016],[85.956593,27.976226],[85.951218,27.91623],[85.96269,27.891374],[85.98026,27.885172],[86.061703,27.889048],[86.112862,27.926798],[86.095602,27.957855],[86.098134,27.985631],[86.079169,28.001134],[86.084699,28.043871],[86.068731,28.076763],[86.15596,28.156525],[86.176011,28.153011],[86.186036,28.133529],[86.187173,28.108699],[86.172238,28.071828],[86.203038,28.002581],[86.278072,27.983694],[86.327733,27.939691],[86.362976,27.946099],[86.425298,27.909925],[86.496921,27.937882],[86.510461,27.952429],[86.516197,28.012245],[86.538366,28.047178],[86.544154,28.093015],[86.553559,28.104151],[86.569527,28.106606],[86.612315,28.080277],[86.661976,28.106838],[86.699648,28.098751],[86.731739,28.076918],[86.732204,28.034957],[86.739801,28.021495],[86.76998,28.01209],[86.840466,28.014777],[86.868165,27.994881],[86.876898,27.970645],[86.893073,27.954186],[86.914725,27.945117],[87.005676,27.951499],[87.062003,27.908427],[87.116522,27.844581],[87.155796,27.825796],[87.232897,27.829724],[87.290516,27.816081],[87.335837,27.846363],[87.363845,27.855252],[87.385343,27.849412],[87.369116,27.819078],[87.369116,27.803937],[87.531587,27.836803],[87.551327,27.831894],[87.573342,27.805022],[87.589981,27.804609],[87.636077,27.823652],[87.700466,27.805642],[87.726821,27.807761],[87.779841,27.839439],[87.825884,27.906566],[87.836685,27.908323],[87.856115,27.898608],[87.93456,27.895301],[87.978433,27.880522],[88.029954,27.893337],[88.118218,27.860885]]]}}