{"type":"Feature","properties":{"iso3":"NZL","name":"New Zealand","continent":"Oceania"},"geometry":{"type":"MultiPolygon","coordinates":[[[[166.136974,-50.864353],[166.226329,-50.885431],[165.985525,-50.904392],[165.924083,-50.851251],[166.136974,-50.864353]]],[[[169.250421,-52.520257],[169.260438,-52.544456],[169.195296,-52.600313],[169.025645,-52.553481],[169.113593,-52.546453],[169.186255,-52.469199],[169.293524,-52.520198],[169.250421,-52.520257]]],[[[166.243419,-50.600763],[166.201834,-50.604669],[166.212087,-50.652602],[166.164317,-50.686782],[166.226329,-50.693536],[166.122732,-50.700372],[166.198416,-50.72088],[166.177908,-50.75506],[166.219412,-50.753513],[166.206798,-50.790297],[166.253673,-50.817071],[166.240082,-50.851007],[166.108897,-50.80283],[166.061209,-50.830743],[166.078624,-50.772393],[166.054373,-50.753595],[166.007498,-50.7763],[166.011078,-50.84238],[165.933116,-50.821384],[165.896739,-50.851251],[165.886485,-50.79461],[165.925304,-50.754002],[166.078787,-50.675551],[166.115245,-50.574477],[166.095876,-50.535903],[166.287771,-50.542739],[166.295584,-50.571547],[166.243419,-50.600763]]],[[[178.839041,-49.629164],[178.822113,-49.719822],[178.719005,-49.700128],[178.770763,-49.627211],[178.839041,-49.629164]]],[[[-176.145253,-44.248142],[-176.113881,-44.265069],[-176.218984,-44.341241],[-176.223744,-44.23089],[-176.155466,-44.224216],[-176.145253,-44.248142]]],[[[-176.382029,-43.898614],[-176.409373,-43.854181],[-176.358022,-43.804864],[-176.372263,-43.765883],[-176.53539,-43.755629],[-176.514231,-43.791436],[-176.423044,-43.805841],[-176.496409,-43.85117],[-176.456532,-43.949802],[-176.395212,-43.938572],[-176.382395,-43.985772],[-176.300038,-44.042576],[-176.581492,-44.123142],[-176.659617,-44.023858],[-176.51594,-43.922296],[-176.566151,-43.837823],[-176.638376,-43.799574],[-176.825917,-43.839614],[-176.85497,-43.820082],[-176.779286,-43.779067],[-176.786488,-43.75628],[-176.644846,-43.764337],[-176.580637,-43.703383],[-176.391957,-43.744887],[-176.169138,-43.731378],[-176.203318,-43.771661],[-176.285105,-43.769708],[-176.382029,-43.898614]]],[[[-177.909535,-29.278578],[-177.957997,-29.222752],[-177.889394,-29.233819],[-177.848134,-29.278578],[-177.909535,-29.278578]]],[[[-171.190663,-9.356378],[-171.2058,-9.330987],[-171.185658,-9.361261],[-171.190663,-9.356378]]],[[[-172.486073,-8.565362],[-172.502553,-8.543227],[-172.483632,-8.586521],[-172.486073,-8.565362]]],[[[166.637218,-47.993585],[166.637218,-48.062433],[166.56837,-48.041925],[166.637218,-47.993585]]],[[[167.418712,-47.232599],[167.477306,-47.205662],[167.449474,-47.239435],[167.418712,-47.232599]]],[[[167.709239,-46.784112],[167.662852,-46.778497],[167.706716,-46.759698],[167.709239,-46.784112]]],[[[168.590017,-46.732354],[168.605724,-46.754571],[168.572602,-46.791762],[168.550304,-46.772231],[168.590017,-46.732354]]],[[[168.199474,-47.047621],[168.259288,-47.084731],[168.191091,-47.067153],[168.192068,-47.098891],[168.021251,-47.116469],[167.884125,-47.188084],[167.764903,-47.137465],[167.61671,-47.212172],[167.726573,-47.205255],[167.671886,-47.260512],[167.67213,-47.236098],[167.521007,-47.273045],[167.534028,-47.204034],[167.630382,-47.156915],[167.627452,-47.064711],[167.743826,-47.027276],[167.737071,-46.955173],[167.808604,-46.922052],[167.811371,-46.87477],[167.764415,-46.818292],[167.787446,-46.697198],[167.96754,-46.699802],[168.17921,-46.864435],[168.192068,-46.897393],[168.167328,-46.909845],[168.008149,-46.895115],[167.966645,-46.972589],[168.048676,-46.931573],[168.151134,-46.965753],[168.139008,-46.98211],[168.222667,-46.97324],[168.249848,-47.034112],[168.199474,-47.047621]]],[[[166.711436,-45.616306],[166.754649,-45.690118],[166.72169,-45.737074],[166.644216,-45.728692],[166.623057,-45.658298],[166.506196,-45.724867],[166.578624,-45.634942],[166.711436,-45.616306]]],[[[166.973643,-45.163263],[167.034434,-45.30047],[166.893321,-45.243422],[166.973643,-45.163263]]],[[[174.38087,-41.106378],[174.401378,-41.140558],[174.365977,-41.202569],[174.197276,-41.230076],[174.351248,-41.17547],[174.367524,-41.158868],[174.325694,-41.126886],[174.38087,-41.106378]]],[[[173.784434,-40.907159],[173.784434,-40.838962],[173.845876,-40.873142],[173.811778,-40.819024],[173.826834,-40.76629],[173.884776,-40.75628],[173.882498,-40.788995],[173.926524,-40.788018],[173.90797,-40.77752],[173.959809,-40.714776],[173.927745,-40.855239],[173.805186,-40.926365],[173.784434,-40.907159]]],[[[172.748694,-43.279694],[172.729659,-43.414847],[172.778982,-43.557794],[172.756033,-43.58115],[172.832286,-43.601658],[172.681407,-43.639337],[172.742931,-43.655532],[172.836762,-43.629327],[172.875743,-43.668878],[172.893809,-43.614516],[172.924815,-43.67962],[173.052908,-43.653253],[173.107107,-43.70379],[173.092947,-43.854181],[173.005138,-43.882257],[172.948578,-43.751153],[172.926768,-43.840265],[172.968923,-43.903253],[172.817231,-43.881443],[172.745128,-43.824884],[172.763438,-43.792739],[172.422618,-43.854587],[172.647716,-43.782647],[172.497081,-43.721856],[172.417328,-43.737481],[172.376313,-43.864435],[172.061209,-43.956638],[171.346002,-44.278631],[171.28004,-44.371515],[171.257335,-44.473565],[171.173839,-44.54697],[171.212657,-44.724705],[171.183604,-44.773614],[171.212413,-44.813572],[171.203136,-44.905532],[171.091156,-45.073663],[170.980317,-45.154962],[170.926117,-45.238377],[170.876964,-45.35589],[170.906261,-45.402765],[170.865977,-45.482029],[170.786794,-45.571466],[170.756114,-45.56113],[170.769786,-45.601495],[170.684093,-45.620701],[170.722016,-45.642999],[170.625173,-45.71502],[170.7588,-45.763442],[170.566417,-45.879164],[170.687185,-45.851658],[170.765961,-45.794041],[170.786876,-45.792901],[170.787283,-45.863051],[170.333751,-45.981541],[170.26002,-46.063653],[170.21697,-46.172947],[169.899425,-46.344903],[169.853689,-46.457289],[169.797374,-46.488946],[169.675466,-46.489028],[169.755544,-46.499607],[169.704112,-46.549005],[169.635102,-46.578383],[169.566905,-46.565037],[169.47462,-46.629083],[169.391775,-46.64365],[169.330089,-46.625665],[169.219737,-46.66074],[169.180186,-46.615655],[169.154959,-46.661798],[169.118419,-46.664158],[169.076508,-46.636163],[169.035981,-46.681899],[168.877452,-46.64422],[168.8449,-46.560154],[168.66505,-46.581476],[168.712901,-46.56113],[168.617849,-46.547459],[168.635265,-46.591404],[168.591482,-46.614353],[168.4192,-46.601983],[168.460134,-46.572035],[168.547211,-46.590753],[168.513194,-46.559666],[168.365733,-46.540216],[168.405528,-46.623142],[168.378103,-46.619806],[168.267833,-46.5263],[168.385102,-46.499607],[168.387462,-46.440525],[168.343516,-46.417087],[168.341482,-46.465753],[168.301931,-46.478448],[168.199474,-46.341974],[167.855968,-46.394627],[167.752208,-46.329034],[167.789236,-46.294122],[167.712901,-46.197931],[167.460948,-46.148207],[167.405772,-46.251153],[167.309906,-46.269708],[166.761974,-46.219985],[166.675792,-46.163018],[166.832286,-46.001072],[166.952485,-45.950291],[166.802908,-45.992771],[166.752778,-46.066339],[166.744477,-46.040216],[166.616059,-46.088067],[166.658539,-46.000177],[166.808604,-45.930434],[166.688487,-45.933852],[166.753917,-45.86891],[166.732595,-45.8624],[166.629242,-45.965265],[166.474783,-45.996026],[166.473399,-45.817315],[166.875987,-45.776951],[167.020844,-45.697686],[166.774262,-45.718845],[166.875499,-45.659275],[166.794607,-45.659926],[166.770763,-45.61061],[166.882172,-45.56463],[166.991954,-45.575453],[167.013438,-45.56113],[166.952485,-45.546808],[167.054942,-45.491632],[166.722667,-45.579685],[166.702403,-45.557387],[166.757498,-45.425226],[166.812266,-45.392836],[166.952485,-45.436944],[166.925629,-45.388604],[166.897797,-45.402765],[166.809255,-45.357192],[166.825531,-45.317153],[166.881358,-45.279555],[166.964041,-45.352472],[167.047537,-45.361912],[167.021821,-45.417169],[167.05421,-45.429295],[167.090017,-45.387465],[167.199067,-45.47381],[167.200206,-45.445977],[167.047537,-45.327081],[167.180512,-45.284763],[167.259125,-45.331638],[167.308849,-45.313409],[167.233897,-45.29339],[167.247325,-45.254327],[167.064789,-45.276951],[167.004893,-45.149591],[167.06422,-45.122735],[167.178477,-45.177504],[167.054942,-45.101739],[167.1185,-45.039239],[167.192149,-45.135919],[167.214041,-45.089532],[167.274669,-45.094415],[167.181814,-45.057061],[167.164806,-44.991876],[167.335704,-45.037205],[167.203461,-44.949965],[167.385753,-44.84238],[167.418712,-44.840916],[167.447113,-44.950779],[167.496755,-44.994724],[167.457693,-44.789321],[167.523285,-44.763767],[167.555186,-44.785821],[167.54005,-44.860528],[167.568126,-44.882013],[167.594737,-44.79339],[167.551117,-44.741957],[167.588715,-44.716241],[167.679373,-44.765395],[167.603038,-44.683364],[167.751964,-44.603204],[167.810802,-44.599216],[167.932628,-44.697035],[167.932628,-44.642511],[167.856781,-44.594659],[167.836436,-44.505304],[168.033214,-44.353285],[168.028168,-44.320408],[168.118175,-44.320408],[168.139496,-44.299249],[168.103282,-44.265069],[168.30714,-44.148858],[168.386567,-44.057061],[168.37086,-44.039158],[168.645844,-43.964532],[168.699229,-44.00506],[168.803722,-43.997247],[169.419607,-43.650567],[169.717784,-43.573663],[169.875011,-43.407485],[170.030121,-43.345798],[170.114919,-43.251723],[170.227224,-43.23561],[170.303559,-43.162205],[170.200531,-43.216729],[170.289317,-43.106866],[170.385225,-43.095285],[170.514415,-43.006606],[170.700742,-42.954659],[170.858409,-42.843357],[171.215017,-42.465509],[171.304861,-42.29461],[171.363943,-42.063409],[171.417817,-42.00628],[171.48878,-41.830336],[171.46811,-41.76629],[171.639415,-41.757501],[171.855235,-41.66546],[171.994151,-41.451104],[172.070811,-41.414239],[172.087657,-41.30877],[172.127615,-41.291762],[172.115408,-40.879164],[172.507091,-40.589451],[172.544281,-40.57822],[172.540863,-40.626642],[172.584158,-40.609308],[172.625255,-40.574314],[172.557384,-40.565118],[172.595876,-40.527765],[172.83961,-40.50213],[172.996837,-40.524184],[172.731944,-40.530938],[172.677501,-40.649102],[172.689138,-40.734063],[172.856456,-40.843683],[172.943858,-40.793227],[173.017345,-40.797296],[173.009776,-40.866795],[173.064952,-40.886651],[173.058279,-40.963067],[172.996837,-41.017022],[173.069347,-41.1242],[173.030935,-41.149102],[173.075694,-41.176446],[173.105317,-41.256931],[173.086436,-41.299412],[173.212738,-41.301853],[173.402192,-41.159601],[173.555512,-41.103285],[173.588634,-41.056329],[173.688813,-41.099705],[173.674815,-41.075942],[173.746593,-41.027114],[173.687673,-41.037367],[173.698741,-40.999933],[173.853526,-40.925877],[173.849783,-40.971856],[173.87379,-40.976007],[173.983653,-40.900974],[174.034841,-40.933526],[173.969412,-40.927667],[173.917979,-41.001886],[173.795746,-41.001397],[173.770274,-41.099705],[173.790212,-41.110121],[173.828136,-41.063409],[173.95574,-41.058689],[173.880138,-41.082208],[173.885997,-41.10589],[173.829112,-41.140069],[173.87379,-41.185235],[173.861827,-41.217869],[173.763927,-41.264744],[173.774262,-41.283949],[173.934581,-41.236749],[173.887462,-41.216241],[174.006033,-41.221938],[174.133962,-41.175388],[173.896332,-41.191664],[173.887462,-41.161065],[173.948904,-41.079034],[173.983653,-41.085219],[173.976329,-41.147393],[174.045665,-41.092869],[174.033702,-41.017185],[174.000173,-41.052911],[173.956309,-41.022638],[173.998546,-40.968845],[174.094249,-41.019138],[174.198904,-40.984552],[174.207205,-41.070571],[174.326427,-41.009373],[174.260427,-41.118259],[174.216807,-41.147393],[174.20281,-41.096287],[174.167003,-41.1242],[174.216482,-41.188897],[173.938324,-41.267755],[174.138927,-41.239516],[174.211762,-41.262384],[174.325694,-41.216241],[174.245291,-41.322442],[174.190278,-41.343357],[174.19752,-41.314874],[174.133067,-41.320082],[174.055512,-41.424574],[174.058116,-41.517267],[174.115408,-41.558526],[174.105968,-41.513442],[174.172374,-41.57822],[174.225922,-41.723403],[174.286388,-41.754571],[174.21518,-41.856703],[174.00408,-42.031183],[173.89088,-42.240818],[173.703624,-42.378595],[173.715587,-42.443455],[173.668468,-42.41546],[173.558604,-42.491143],[173.499522,-42.610121],[173.455414,-42.62713],[173.476573,-42.641371],[173.38795,-42.800226],[173.32252,-42.851332],[173.291026,-42.946873],[173.153656,-43.002537],[173.083263,-43.06699],[172.91505,-43.102797],[172.811209,-43.169041],[172.748694,-43.279694]]],[[[175.16863,-36.741143],[175.206391,-36.744806],[175.182628,-36.824965],[175.099376,-36.82936],[175.009776,-36.773696],[175.124522,-36.772149],[175.16863,-36.741143]]],[[[175.847667,-36.625095],[175.797537,-36.621759],[175.776866,-36.587498],[175.799164,-36.569757],[175.847667,-36.625095]]],[[[174.853282,-36.391697],[174.882335,-36.389744],[174.90797,-36.439386],[174.855235,-36.452407],[174.853282,-36.391697]]],[[[175.134532,-36.175958],[175.146007,-36.221938],[175.080821,-36.205662],[175.134532,-36.175958]]],[[[175.538422,-36.282403],[175.557791,-36.304295],[175.522797,-36.352146],[175.505544,-36.309259],[175.47755,-36.319757],[175.333751,-36.223728],[175.326915,-36.199884],[175.352794,-36.225193],[175.369477,-36.207127],[175.333751,-36.131606],[175.387706,-36.117934],[175.364106,-36.081313],[175.420258,-36.071954],[175.460297,-36.149102],[175.512055,-36.170994],[175.501801,-36.241306],[175.538422,-36.282403]]],[[[172.145995,-34.144658],[172.148231,-34.164982],[172.116323,-34.144252],[172.145995,-34.144658]]],[[[176.953712,-39.607513],[177.035655,-39.663832],[177.118907,-39.66725],[177.036388,-39.753595],[176.861827,-40.14072],[176.797048,-40.222833],[176.681814,-40.274591],[176.669444,-40.311293],[176.703624,-40.290216],[176.628429,-40.462091],[176.56186,-40.481215],[176.424815,-40.603936],[176.235606,-40.913995],[176.14975,-40.967055],[176.068126,-41.139825],[175.966807,-41.247003],[175.448416,-41.551853],[175.237478,-41.620294],[175.181326,-41.510024],[175.181814,-41.417901],[175.035167,-41.380792],[174.917166,-41.445001],[174.87908,-41.429864],[174.889659,-41.224542],[174.785411,-41.249444],[174.771332,-41.277765],[174.818126,-41.286716],[174.810069,-41.333754],[174.694835,-41.339532],[174.609386,-41.291925],[174.611501,-41.2374],[174.675141,-41.223077],[174.78004,-41.116143],[174.871267,-41.09531],[174.861339,-41.033298],[174.926606,-40.99212],[174.969981,-40.890069],[175.141287,-40.674412],[175.222667,-40.46502],[175.23878,-40.296319],[175.183767,-40.134454],[174.967296,-39.916436],[174.84197,-39.862481],[174.567638,-39.826755],[174.319021,-39.613865],[173.986583,-39.54225],[173.851248,-39.463962],[173.784434,-39.393243],[173.759288,-39.301365],[173.777599,-39.207696],[173.852712,-39.134454],[174.211599,-38.973321],[174.41505,-38.963067],[174.594005,-38.818617],[174.634776,-38.700616],[174.643565,-38.462823],[174.707367,-38.288507],[174.709809,-38.10475],[174.866873,-38.145685],[174.839041,-38.124688],[174.942638,-38.097345],[174.855968,-38.055759],[174.801768,-38.091078],[174.798595,-38.043227],[174.888031,-37.966892],[174.853282,-37.947849],[174.828136,-37.988539],[174.788097,-37.985284],[174.79184,-37.872003],[174.818858,-37.824884],[174.976817,-37.803806],[174.969981,-37.734796],[174.914806,-37.775811],[174.850352,-37.764907],[174.728526,-37.457778],[174.726899,-37.389093],[174.835785,-37.30283],[174.779552,-37.309828],[174.742686,-37.357354],[174.706391,-37.347833],[174.558279,-37.062758],[174.667328,-37.069513],[174.740001,-37.244399],[174.747325,-37.17254],[174.804861,-37.166274],[174.734548,-37.159356],[174.785899,-37.108657],[174.79184,-37.132745],[174.880544,-37.076349],[174.945811,-37.113051],[174.943614,-37.088067],[174.834972,-37.008477],[174.800304,-37.018324],[174.783865,-36.986261],[174.828787,-36.95379],[174.768321,-36.933526],[174.667328,-36.944106],[174.611501,-37.018324],[174.5796,-37.001153],[174.500336,-37.032159],[174.407563,-36.761489],[174.217947,-36.545099],[174.182302,-36.45322],[174.209727,-36.425877],[174.20281,-36.481052],[174.243175,-36.439548],[174.379731,-36.581964],[174.365245,-36.620782],[174.441742,-36.645603],[174.490733,-36.576593],[174.469737,-36.583429],[174.44988,-36.515313],[174.467621,-36.379002],[174.434581,-36.357354],[174.389985,-36.38893],[174.299571,-36.386651],[174.271007,-36.33766],[174.395193,-36.322686],[174.521495,-36.25449],[174.514903,-36.234308],[174.371267,-36.287856],[174.305186,-36.282403],[174.310069,-36.260512],[174.35613,-36.280857],[174.437999,-36.164809],[174.441742,-36.13836],[174.393891,-36.1242],[174.385509,-36.188735],[174.33253,-36.227797],[174.316173,-36.180759],[174.271821,-36.172947],[174.284679,-36.117934],[174.182302,-36.145196],[174.318858,-36.241469],[174.269054,-36.26629],[174.141368,-36.17254],[174.075206,-36.168064],[173.998057,-36.116388],[173.990408,-36.059259],[173.900564,-35.959649],[173.937266,-35.931899],[173.925792,-35.875909],[173.922374,-35.926853],[173.884288,-35.943536],[173.979991,-36.10711],[174.131114,-36.271905],[174.182302,-36.289239],[174.161876,-36.296808],[174.20281,-36.347589],[174.174815,-36.382094],[174.079845,-36.399509],[174.024099,-36.268162],[173.407237,-35.571222],[173.457856,-35.437921],[173.541515,-35.452569],[173.54184,-35.41074],[173.572113,-35.432712],[173.660899,-35.312921],[173.612153,-35.2999],[173.592621,-35.336521],[173.565278,-35.274509],[173.566417,-35.360528],[173.406993,-35.391209],[173.369965,-35.516534],[173.272146,-35.391371],[173.31837,-35.302341],[173.269705,-35.321954],[173.24936,-35.370701],[173.207286,-35.333429],[173.245128,-35.293145],[173.177501,-35.29046],[173.100271,-35.219985],[173.095225,-35.18727],[173.179373,-35.15602],[173.198416,-35.109063],[173.156749,-34.945001],[172.799327,-34.550958],[172.674083,-34.479913],[172.69809,-34.421808],[172.82545,-34.445896],[172.899669,-34.412286],[173.079275,-34.411716],[173.042735,-34.446873],[173.038097,-34.522068],[172.970063,-34.466567],[172.916677,-34.537286],[172.948985,-34.56992],[172.975759,-34.541436],[172.967052,-34.563165],[172.996837,-34.561782],[173.003673,-34.64422],[173.031098,-34.591567],[173.009776,-34.541436],[173.035818,-34.552341],[173.071788,-34.698989],[173.17921,-34.793634],[173.18865,-34.835626],[173.119151,-34.774102],[173.123057,-34.809666],[173.298188,-34.909438],[173.263845,-35.002211],[173.317149,-35.015395],[173.355805,-34.979669],[173.357921,-34.868748],[173.424815,-34.846449],[173.43572,-34.796482],[173.448741,-34.849867],[173.479015,-34.837335],[173.503184,-34.869806],[173.404063,-34.903416],[173.458751,-34.981215],[173.586436,-35.014907],[173.565278,-34.945489],[173.588227,-34.927504],[173.660655,-34.96852],[173.722667,-34.959731],[173.771251,-35.002862],[173.734141,-35.055597],[173.760265,-35.096938],[173.803477,-35.020766],[173.89088,-35.000665],[173.990001,-35.118748],[174.12794,-35.136489],[174.15504,-35.182306],[174.033865,-35.16253],[174.052013,-35.199395],[174.018077,-35.202895],[174.030528,-35.227227],[174.093516,-35.219822],[174.148204,-35.366876],[174.20281,-35.322849],[174.249197,-35.332208],[174.164561,-35.290134],[174.175792,-35.269789],[174.288341,-35.262302],[174.353038,-35.199395],[174.34018,-35.311782],[174.401378,-35.322849],[174.422374,-35.373712],[174.342133,-35.337091],[174.385753,-35.418552],[174.474783,-35.45379],[174.498302,-35.488946],[174.464366,-35.505629],[174.569509,-35.594334],[174.565278,-35.651788],[174.476573,-35.643243],[174.531016,-35.671645],[174.528331,-35.718357],[174.576182,-35.750258],[174.606781,-35.84352],[174.558849,-35.839044],[174.481944,-35.769464],[174.385509,-35.789483],[174.359874,-35.713311],[174.352712,-35.841974],[174.415863,-35.816827],[174.503754,-35.830011],[174.516124,-35.86712],[174.476573,-35.905043],[174.509125,-36.000095],[174.63087,-36.055108],[174.62615,-36.107354],[174.824474,-36.277032],[174.806407,-36.334893],[174.880544,-36.351332],[174.753266,-36.368341],[174.783051,-36.471287],[174.716645,-36.411554],[174.734874,-36.455662],[174.709809,-36.473565],[174.743988,-36.500909],[174.709646,-36.542087],[174.722911,-36.593683],[174.856944,-36.610935],[174.781586,-36.645603],[174.723481,-36.63128],[174.819102,-36.823663],[174.743988,-36.816827],[174.703624,-36.758477],[174.621104,-36.796319],[174.66505,-36.799574],[174.649425,-36.825942],[174.692556,-36.913018],[174.766449,-36.842706],[174.897472,-36.862481],[174.884776,-36.95908],[174.928396,-36.837335],[174.963145,-36.933526],[175.011404,-36.92783],[175.02711,-36.874607],[175.079845,-36.884535],[175.093435,-36.970473],[175.22169,-36.940851],[175.319021,-36.999607],[175.324718,-37.151625],[175.367198,-37.207208],[175.447927,-37.224867],[175.570974,-37.184503],[175.609548,-37.25156],[175.62794,-37.241957],[175.527843,-36.962498],[175.448904,-36.874119],[175.503184,-36.861749],[175.517914,-36.844822],[175.455903,-36.837335],[175.53712,-36.786065],[175.482432,-36.704767],[175.497569,-36.63128],[175.370616,-36.559259],[175.354259,-36.490981],[175.44044,-36.474705],[175.495942,-36.53045],[175.532237,-36.507745],[175.562022,-36.55169],[175.538422,-36.597101],[175.607432,-36.642185],[175.576671,-36.689874],[175.634451,-36.704522],[175.628103,-36.763849],[175.681651,-36.722345],[175.841319,-36.719415],[175.848318,-36.748142],[175.746837,-36.798028],[175.711111,-36.867283],[175.744884,-36.889907],[175.751964,-36.837172],[175.850759,-36.840997],[175.88795,-36.97381],[175.868012,-37.053399],[175.919688,-37.05462],[175.884939,-37.128676],[175.917817,-37.187188],[175.900076,-37.177179],[175.88795,-37.241957],[175.943126,-37.282403],[176.004649,-37.447442],[175.984874,-37.476495],[176.09018,-37.518813],[176.169119,-37.624933],[176.075694,-37.596449],[176.059255,-37.58408],[176.100841,-37.570408],[176.01588,-37.515883],[175.943126,-37.521905],[175.995616,-37.626886],[176.063324,-37.632013],[176.121104,-37.681329],[176.189952,-37.672784],[176.201508,-37.719903],[176.229991,-37.715753],[176.208751,-37.636163],[176.236339,-37.631768],[176.271739,-37.68255],[176.490571,-37.755304],[176.718272,-37.877699],[177.097911,-37.965265],[177.135509,-37.981866],[177.076915,-37.981866],[177.145518,-38.023533],[177.149181,-37.981866],[177.296641,-38.00921],[177.556814,-37.913832],[177.731456,-37.683282],[177.858653,-37.652276],[178.031505,-37.549574],[178.301036,-37.565037],[178.330577,-37.611098],[178.550548,-37.680597],[178.555919,-37.726739],[178.348318,-38.012628],[178.381114,-38.078709],[178.339366,-38.130141],[178.354666,-38.188084],[178.318533,-38.26572],[178.358897,-38.327732],[178.300141,-38.531671],[178.079845,-38.70908],[177.997325,-38.683282],[177.931326,-38.714288],[177.961681,-38.772882],[177.882823,-39.085545],[177.998871,-39.129815],[177.944347,-39.173517],[177.911957,-39.255955],[177.8685,-39.290216],[177.841156,-39.228936],[177.852061,-39.089288],[177.422618,-39.061293],[177.064952,-39.199395],[176.906912,-39.400323],[176.953712,-39.607513]]]]}}