{"type":"Feature","properties":{"iso3":"OMN","name":"Oman","continent":"Asia"},"geometry":{"type":"MultiPolygon","coordinates":[[[[56.260625,25.331075],[56.349123,25.294025],[56.344375,25.266528],[56.219958,25.215258],[56.208375,25.255374],[56.260625,25.331075]],[[56.263026,25.249223],[56.288328,25.271926],[56.273812,25.281289],[56.263026,25.249223]]],[[[56.077397,26.061048],[56.181814,26.245998],[56.208263,26.263088],[56.212413,26.207831],[56.279959,26.22309],[56.294932,26.194241],[56.397472,26.213853],[56.367849,26.244086],[56.308442,26.221503],[56.315929,26.274644],[56.36378,26.279527],[56.322276,26.309638],[56.360525,26.371283],[56.462169,26.331855],[56.500987,26.35871],[56.511078,26.333482],[56.407237,26.27912],[56.420909,26.247626],[56.487315,26.235175],[56.468761,26.205512],[56.431977,26.221503],[56.472911,26.164008],[56.412446,26.158433],[56.383637,26.198065],[56.328787,26.172838],[56.36378,26.104885],[56.472992,26.098619],[56.383637,26.022284],[56.408865,26.034369],[56.400401,25.990465],[56.453298,25.94717],[56.383637,25.926093],[56.36378,25.806871],[56.301768,25.741767],[56.301768,25.762885],[56.273774,25.639309],[56.237528,25.616577],[56.156396,25.655903],[56.140376,25.715537],[56.172002,25.76525],[56.144511,25.837907],[56.17841,26.035001],[56.162701,26.073552],[56.077397,26.061048]]],[[[56.383311,24.978217],[56.611176,24.496324],[56.939464,24.115912],[57.151541,23.953559],[57.645193,23.790432],[57.777354,23.785956],[57.887706,23.720852],[58.131602,23.713324],[58.317231,23.620917],[58.584158,23.646959],[58.651541,23.570543],[58.786143,23.512112],[58.807628,23.421129],[58.929454,23.318101],[59.083669,23.055365],[59.23227,22.94302],[59.297537,22.792711],[59.529796,22.587877],[59.515798,22.56151],[59.626801,22.57982],[59.715668,22.542914],[59.734711,22.500474],[59.758962,22.493638],[59.741547,22.524726],[59.776378,22.541449],[59.82488,22.508857],[59.844574,22.445258],[59.811778,22.237372],[59.688162,22.082709],[59.645274,21.925849],[59.497895,21.756334],[59.347504,21.453559],[59.054373,21.277086],[58.854259,21.065619],[58.739024,20.86225],[58.680349,20.828355],[58.667654,20.772284],[58.71811,20.780829],[58.71811,20.753648],[58.672699,20.746405],[58.591807,20.643948],[58.521495,20.424384],[58.467459,20.369534],[58.29005,20.371405],[58.202891,20.404731],[58.21339,20.465277],[58.23463,20.423651],[58.264171,20.587633],[58.20574,20.613349],[58.084483,20.558051],[58.055349,20.467231],[57.955821,20.399563],[57.966563,20.330227],[57.85613,20.260647],[57.823741,20.201077],[57.847992,20.111762],[57.81365,19.976996],[57.68922,19.728176],[57.719981,19.653062],[57.704438,19.548733],[57.773936,19.409654],[57.750662,19.268052],[57.839854,19.029975],[57.815684,18.991767],[57.709727,18.943996],[57.501475,18.953681],[57.20753,18.90998],[56.807791,18.745592],[56.641124,18.559272],[56.56129,18.149237],[56.462576,18.084418],[56.356293,17.940009],[56.031098,17.943427],[55.453949,17.845404],[55.228201,17.538764],[55.229503,17.488593],[55.300792,17.416815],[55.253429,17.29914],[55.260265,17.23428],[55.026866,17.011135],[54.808442,16.951483],[54.60434,17.036322],[54.084972,17.011135],[54.023448,16.985338],[53.98113,16.908759],[53.73463,16.856147],[53.615408,16.75788],[53.338634,16.734809],[53.090343,16.642401],[52.801562,17.267423],[52.736243,17.289178],[51.985689,18.979732],[54.97838,19.995421],[55.637565,21.97897],[55.186843,22.703577],[55.191287,22.995368],[55.22591,23.121251],[55.534109,23.756768],[55.530595,23.874668],[55.45277,23.948565],[55.618341,24.020137],[55.78846,24.009569],[55.986794,24.06538],[55.933154,24.220719],[55.847164,24.211417],[55.754147,24.245472],[55.810887,24.389236],[55.771407,24.441093],[55.759831,24.558528],[55.818226,24.643381],[55.788667,24.855202],[55.829388,24.921167],[55.935428,24.977727],[56.005604,24.956178],[56.029272,24.861171],[55.957649,24.868664],[56.031546,24.754149],[56.099139,24.730507],[56.171176,24.82399],[56.308325,24.895174],[56.31928,24.962534],[56.383311,24.978217]]],[[[55.836192,17.490912],[55.837087,17.510077],[55.883067,17.507148],[55.836192,17.490912]]],[[[56.055349,17.559801],[56.095551,17.518866],[56.063813,17.499579],[55.986827,17.492906],[55.964203,17.519924],[56.055349,17.559801]]],[[[58.906261,20.626003],[58.950043,20.508938],[58.844086,20.437323],[58.785167,20.279527],[58.652354,20.170478],[58.642914,20.356106],[58.698253,20.425686],[58.768891,20.451606],[58.906261,20.697984],[58.906261,20.626003]]]]}}