{"type":"Feature","properties":{"iso3":"PAK","name":"Pakistan","continent":"Asia"},"geometry":{"type":"MultiPolygon","coordinates":[[[[75.981083,36.445444],[75.96883,36.301971],[76.014409,36.230399],[75.894313,36.097384],[75.922321,36.031652],[76.08996,35.978115],[76.166027,35.806239],[76.384102,35.828202],[76.537168,35.902513],[76.570757,35.751256],[76.763407,35.647076],[76.913161,35.378277],[77.048971,35.110442],[77.013108,34.986393],[76.933836,34.928877],[76.817047,34.940762],[76.757619,34.915131],[76.743873,34.819271],[76.652613,34.746976],[76.553187,34.72584],[76.438156,34.762892],[76.154969,34.661658],[76.023401,34.677161],[75.795818,34.507921],[75.611643,34.49836],[75.348093,34.55722],[75.212907,34.644967],[75.017777,34.629722],[74.285832,34.768887],[74.120881,34.690855],[73.919343,34.642538],[73.925957,34.564971],[73.779817,34.396067],[73.804208,34.327492],[73.93774,34.304212],[73.990553,34.218507],[73.995411,34.176442],[73.893298,34.11474],[73.916242,34.02795],[73.976704,34.004592],[74.228368,34.012886],[74.272293,33.96214],[74.177518,33.857547],[74.034581,33.828608],[73.966162,33.734531],[73.968332,33.662081],[74.141552,33.549374],[74.157778,33.494236],[74.085121,33.314324],[73.991793,33.252571],[74.002335,33.177692],[74.153851,33.040181],[74.311257,32.994292],[74.336682,32.870139],[74.306503,32.809911],[74.34619,32.76689],[74.418951,32.784615],[74.573773,32.75255],[74.653562,32.837428],[74.685291,32.831227],[74.632581,32.568168],[74.689322,32.471352],[74.83815,32.474866],[74.906983,32.445178],[75.023668,32.466262],[75.230167,32.380195],[75.359048,32.261675],[75.29807,32.159795],[75.195751,32.128634],[75.17415,32.086828],[75.040825,32.09799],[74.955662,32.032206],[74.828641,32.025437],[74.783683,31.942858],[74.698417,31.950247],[74.550415,31.826999],[74.492641,31.714551],[74.614598,31.477821],[74.506387,31.175411],[74.536773,31.115156],[74.650254,31.093142],[74.519306,30.962452],[74.441585,30.946174],[74.401277,30.893103],[74.31074,30.884473],[74.155711,30.659577],[74.067448,30.610536],[74.057526,30.531367],[73.85175,30.372669],[73.934639,30.261048],[73.944354,30.188288],[73.739716,30.048451],[73.557815,30.012536],[73.370332,29.927322],[73.232873,29.536596],[72.930359,29.047685],[72.354581,28.767186],[72.256499,28.645591],[72.149942,28.353774],[71.908303,28.135571],[71.860864,27.950207],[71.560727,27.868533],[71.226329,27.845356],[70.831573,27.701463],[70.710391,27.74115],[70.640732,27.854787],[70.633187,27.93163],[70.534898,28.015965],[70.456247,28.039788],[70.359509,28.016327],[70.101953,27.81174],[69.993536,27.571083],[69.534443,27.125581],[69.465093,26.80777],[69.50416,26.735165],[69.815562,26.580291],[70.056064,26.589076],[70.158074,26.530113],[70.146912,26.217419],[70.078285,26.099648],[70.064281,25.99552],[70.249231,25.707683],[70.360129,25.673473],[70.592259,25.708819],[70.653857,25.674455],[70.654478,25.39659],[70.734886,25.267348],[70.848574,25.163323],[70.915237,24.946618],[71.056632,24.69282],[70.977145,24.639686],[70.954821,24.584521],[70.974355,24.472202],[71.082772,24.411508],[71.007118,24.363966],[70.917717,24.361718],[70.840926,24.30583],[70.857566,24.271672],[70.755453,24.231442],[70.567661,24.272809],[70.562907,24.424092],[70.416353,24.401948],[70.109705,24.3049],[70.052137,24.202064],[69.972039,24.165219],[69.714587,24.168578],[69.563071,24.276762],[69.280815,24.283739],[69.166713,24.253172],[69.067701,24.288441],[68.980781,24.255394],[68.890296,24.319473],[68.848903,24.244025],[68.819654,24.250304],[68.79919,24.329085],[68.747307,24.331177],[68.724466,23.965179],[68.431564,23.967143],[68.353636,23.939289],[68.348882,23.964611],[68.300409,23.910505],[68.254934,23.929109],[68.183517,23.8433],[68.157481,23.905097],[68.149099,23.694525],[68.102224,23.733832],[68.098888,23.709296],[68.062755,23.723131],[68.102224,23.809516],[68.024181,23.935248],[68.053884,23.829413],[68.024425,23.774604],[67.905935,23.85928],[67.868907,23.850491],[67.863292,23.902818],[67.839041,23.823391],[67.718598,23.843695],[67.73227,23.795233],[67.631602,23.803453],[67.651215,23.929755],[67.614513,23.850084],[67.546641,23.898261],[67.491059,23.883124],[67.532237,23.929145],[67.463634,23.982001],[67.46811,24.021959],[67.533051,24.070258],[67.509776,24.052069],[67.341319,24.086371],[67.279145,24.281236],[67.285981,24.329576],[67.362478,24.34394],[67.28297,24.357611],[67.286632,24.439521],[67.2588,24.419094],[67.210948,24.50845],[67.230805,24.525092],[67.183604,24.590318],[67.252615,24.590318],[67.149587,24.635077],[67.245128,24.761664],[67.176036,24.757717],[67.148204,24.799791],[67.073741,24.795803],[67.08253,24.774156],[66.965099,24.843573],[66.960216,24.817816],[66.882091,24.85102],[66.654145,24.839179],[66.704438,24.892035],[66.681326,24.948879],[66.737153,25.181098],[66.710216,25.239244],[66.547862,25.365627],[66.591156,25.399604],[66.531016,25.518134],[66.492849,25.518052],[66.375499,25.625678],[66.203949,25.593207],[66.094412,25.47484],[66.20045,25.48786],[66.279145,25.549994],[66.336436,25.553371],[66.411957,25.491116],[66.492198,25.481024],[66.45753,25.453762],[66.498383,25.398505],[66.359548,25.465237],[66.251801,25.472886],[65.858409,25.417548],[65.671641,25.347398],[65.467784,25.385443],[65.400727,25.366685],[65.395356,25.392279],[65.23227,25.370673],[65.143403,25.295885],[64.744395,25.324042],[64.66863,25.255113],[64.66863,25.206732],[64.710216,25.179389],[64.65504,25.165717],[64.615245,25.173163],[64.610606,25.251695],[64.56544,25.27025],[64.448009,25.235745],[64.360688,25.283026],[64.094493,25.335883],[64.083751,25.426744],[64.155284,25.446926],[64.127289,25.453762],[63.989594,25.425442],[64.061697,25.399156],[64.066742,25.346259],[63.944102,25.334906],[63.737804,25.385321],[63.57252,25.364976],[63.469493,25.289252],[63.515391,25.206855],[63.144054,25.260932],[63.027843,25.220364],[62.770518,25.261908],[62.477179,25.259064],[62.489431,25.214179],[62.413829,25.206529],[62.34311,25.155463],[62.381052,25.087572],[62.256055,25.098627],[62.318126,25.141832],[62.275184,25.19989],[62.145193,25.218411],[62.068045,25.178142],[62.097179,25.107123],[61.881114,25.103013],[61.847341,25.037909],[61.729551,25.021783],[61.783051,25.187974],[61.588227,25.202094],[61.620042,25.285486],[61.643193,25.613321],[61.673475,25.65828],[61.66035,25.769178],[61.754504,25.819975],[61.832949,26.225377],[62.094173,26.314829],[62.123835,26.373999],[62.265119,26.360976],[62.248996,26.416528],[62.291991,26.501226],[62.41064,26.55683],[62.70194,26.60401],[62.742712,26.641321],[63.163772,26.645093],[63.182272,26.83025],[63.264851,26.890039],[63.234982,26.941147],[63.235602,27.075868],[63.30242,27.123358],[63.271259,27.203405],[63.189559,27.254462],[62.892419,27.213482],[62.742351,27.266812],[62.778783,27.299833],[62.756045,27.348099],[62.814698,27.494964],[62.735684,27.994985],[62.761523,28.246442],[62.575643,28.229027],[62.362787,28.418887],[61.89279,28.5426],[61.566505,28.870978],[61.510901,29.007378],[61.470284,29.035903],[61.478035,29.087476],[61.332824,29.274907],[61.337372,29.374384],[60.844379,29.858179],[62.477509,29.407819],[63.568605,29.497477],[64.086093,29.386605],[64.172599,29.4843],[64.477697,29.570367],[65.036371,29.540162],[66.195628,29.835338],[66.340529,29.956571],[66.221725,30.073721],[66.300893,30.225598],[66.321822,30.437368],[66.267975,30.601389],[66.366264,30.922868],[66.550025,30.976973],[66.663093,31.083117],[66.696993,31.195823],[66.943283,31.314731],[67.002091,31.315867],[67.035267,31.235924],[67.346204,31.20776],[67.749435,31.328011],[67.770364,31.394674],[67.611459,31.410797],[67.568981,31.52986],[67.696312,31.520816],[67.842711,31.623497],[67.955211,31.633212],[68.046575,31.688403],[68.159126,31.825914],[68.255037,31.766383],[68.49802,31.725248],[68.540601,31.762507],[68.418748,31.783022],[68.527476,31.822968],[68.675787,31.774702],[68.803841,31.602568],[69.040106,31.673107],[69.29885,31.93769],[69.251049,32.13065],[69.268102,32.301337],[69.232859,32.462671],[69.426025,32.655088],[69.376313,32.771877],[69.48721,32.885875],[69.487727,33.028373],[69.547517,33.075011],[69.771844,33.114776],[69.880933,33.089248],[69.994725,33.127333],[70.048003,33.194073],[70.124794,33.199034],[70.294448,33.318949],[70.285715,33.382873],[70.163758,33.488655],[70.174093,33.632108],[70.118128,33.716522],[69.972659,33.744841],[69.847188,33.926948],[69.889253,34.031206],[70.002838,34.043789],[70.521979,33.938705],[70.862217,33.964775],[70.894308,34.009372],[71.062618,34.054253],[71.122046,34.356819],[70.991511,34.443067],[70.956991,34.532002],[71.076571,34.578511],[71.080601,34.672923],[71.189535,34.737054],[71.289478,34.87503],[71.46957,34.949702],[71.508947,35.072021],[71.637932,35.189688],[71.529825,35.300895],[71.622429,35.429621],[71.587806,35.470911],[71.584188,35.564187],[71.492721,35.609559],[71.515355,35.701491],[71.356399,35.933053],[71.165919,36.045708],[71.313972,36.194019],[71.55835,36.327861],[71.542227,36.356387],[71.600725,36.449301],[71.766916,36.391837],[71.794408,36.407598],[71.773221,36.480048],[72.038838,36.580456],[72.070877,36.632287],[72.154179,36.645465],[72.169682,36.711352],[72.454109,36.757964],[72.565214,36.820596],[73.640083,36.896638],[73.834077,36.882866],[74.035305,36.815583],[74.094319,36.831241],[74.129666,36.898421],[74.235706,36.902167],[74.43559,37.003221],[74.521373,36.958495],[74.561784,37.029679],[74.66245,37.054484],[74.824301,36.994125],[74.866779,36.916559],[74.924966,36.970871],[75.100149,36.994125],[75.351297,36.915784],[75.431912,36.722928],[75.49258,36.720705],[75.570508,36.766749],[75.728741,36.723186],[75.874779,36.619471],[75.981083,36.445444]]],[[[67.375499,24.06273],[67.477794,24.051215],[67.426931,24.007514],[67.375499,24.06273]]]]}}