{"type":"Feature","properties":{"iso3":"PAN","name":"Panama","continent":"Americas"},"geometry":{"type":"MultiPolygon","coordinates":[[[[-82.573598,9.576199],[-82.465647,9.493964],[-82.406606,9.435248],[-82.368967,9.414944],[-82.342763,9.432522],[-82.349599,9.402045],[-82.379465,9.343817],[-82.376291,9.330064],[-82.348134,9.305569],[-82.348948,9.294745],[-82.362457,9.284125],[-82.387603,9.286078],[-82.394928,9.267076],[-82.364491,9.242865],[-82.350575,9.207261],[-82.307973,9.185492],[-82.300445,9.197089],[-82.28246,9.202094],[-82.294301,9.220282],[-82.280995,9.21662],[-82.266428,9.185492],[-82.255483,9.182603],[-82.244456,9.197577],[-82.245961,9.213446],[-82.239084,9.213446],[-82.231068,9.193752],[-82.219228,9.196357],[-82.212514,9.220038],[-82.204945,9.213446],[-82.19811,9.220282],[-82.184438,9.192939],[-82.170806,9.199774],[-82.177642,9.145168],[-82.22411,9.169664],[-82.249623,9.17182],[-82.260732,9.164049],[-82.263783,9.146552],[-82.253407,9.110419],[-82.273834,9.116604],[-82.268463,9.102362],[-82.239084,9.079332],[-82.245961,9.014146],[-82.260162,9.020982],[-82.243031,9.004462],[-82.218821,8.993354],[-82.194692,8.990953],[-82.177642,9.000556],[-82.141754,8.988959],[-82.129018,8.981391],[-82.097808,8.930609],[-81.997711,8.947455],[-81.958567,8.931627],[-81.929433,8.943834],[-81.920766,8.955146],[-81.923736,8.966376],[-81.912465,8.971096],[-81.889638,8.966376],[-81.86734,8.949286],[-81.852284,8.958319],[-81.793446,8.931627],[-81.775543,8.940253],[-81.774241,8.997463],[-81.841868,9.035305],[-81.877065,9.087307],[-81.93342,9.129218],[-81.937408,9.138332],[-81.872874,9.129543],[-81.862375,9.14175],[-81.910308,9.168118],[-81.90331,9.179267],[-81.882802,9.179511],[-81.814565,9.116604],[-81.824208,9.105455],[-81.841868,9.110419],[-81.820881,9.070647],[-81.761971,9.06375],[-81.736887,9.036933],[-81.721172,9.032022],[-81.706451,8.999172],[-81.687489,8.984198],[-81.627553,8.899115],[-81.539052,8.812934],[-81.503292,8.80096],[-81.473474,8.806594],[-81.421506,8.796427],[-81.381547,8.80012],[-81.357981,8.785102],[-81.304463,8.781882],[-81.070709,8.80683],[-81.053578,8.822414],[-80.881717,8.885698],[-80.822418,8.890692],[-80.726826,8.997222],[-80.579337,9.080687],[-80.408316,9.142262],[-80.292592,9.151353],[-80.234934,9.179267],[-80.129709,9.206204],[-80.100819,9.222317],[-80.000823,9.320516],[-79.978944,9.363353],[-79.953731,9.373434],[-79.943756,9.363593],[-79.943756,9.315863],[-79.929433,9.304145],[-79.909047,9.308417],[-79.894683,9.356431],[-79.874867,9.343166],[-79.881703,9.377265],[-79.874867,9.37108],[-79.868031,9.377265],[-79.880402,9.39464],[-79.871212,9.404205],[-79.818623,9.391032],[-79.792958,9.349351],[-79.802724,9.40058],[-79.792958,9.418199],[-79.731516,9.45303],[-79.714655,9.479845],[-79.69063,9.495799],[-79.677375,9.545608],[-79.651662,9.559694],[-79.656485,9.564963],[-79.676503,9.558417],[-79.682158,9.564527],[-79.630335,9.608474],[-79.596243,9.611521],[-79.550969,9.629292],[-79.532867,9.624335],[-79.52245,9.595282],[-79.532867,9.583319],[-79.519195,9.569078],[-79.504994,9.583319],[-79.463979,9.569078],[-79.456532,9.596381],[-79.444569,9.583808],[-79.42984,9.589545],[-79.336046,9.574359],[-79.239709,9.545515],[-79.193757,9.539602],[-79.156274,9.554955],[-79.116037,9.55189],[-78.970583,9.573313],[-78.957311,9.565284],[-78.957363,9.554033],[-78.974512,9.544735],[-79.054873,9.531959],[-79.065859,9.51372],[-79.05806,9.457931],[-79.01389,9.451183],[-78.95259,9.454663],[-78.924619,9.444231],[-78.90331,9.422919],[-78.864878,9.422398],[-78.852544,9.423754],[-78.847236,9.433084],[-78.817845,9.43108],[-78.728223,9.454984],[-78.701657,9.43426],[-78.633265,9.428733],[-78.620028,9.418825],[-78.6039,9.416394],[-78.561318,9.43804],[-78.51282,9.415992],[-78.47989,9.416003],[-78.46345,9.404608],[-78.452607,9.408833],[-78.378322,9.36575],[-78.338339,9.356007],[-78.208025,9.290336],[-78.176654,9.290059],[-78.141905,9.27771],[-78.114003,9.253811],[-78.036901,9.236392],[-77.999257,9.190823],[-77.968658,9.180609],[-77.890152,9.077213],[-77.855744,9.054291],[-77.877661,9.118888],[-77.860097,9.110419],[-77.839194,9.076502],[-77.811865,9.05804],[-77.808172,9.035333],[-77.770741,9.003974],[-77.747548,8.972561],[-77.744416,8.963576],[-77.754206,8.945659],[-77.720772,8.89229],[-77.710321,8.881282],[-77.701056,8.88926],[-77.69552,8.873319],[-77.633453,8.81745],[-77.614329,8.808743],[-77.631744,8.829901],[-77.629058,8.844468],[-77.574073,8.792754],[-77.577874,8.77503],[-77.559342,8.759708],[-77.553623,8.776756],[-77.543688,8.774885],[-77.535099,8.757745],[-77.54475,8.714604],[-77.476959,8.669908],[-77.413197,8.666693],[-77.394602,8.678412],[-77.373525,8.66474],[-77.374936,8.650946],[-77.385375,8.643634],[-77.434003,8.62826],[-77.429093,8.592629],[-77.441134,8.567669],[-77.480356,8.526199],[-77.488728,8.473644],[-77.479685,8.467856],[-77.449609,8.470647],[-77.422324,8.45641],[-77.391266,8.393546],[-77.374368,8.289314],[-77.363206,8.27208],[-77.324345,8.261202],[-77.316904,8.250841],[-77.231069,8.098732],[-77.2012,7.981995],[-77.16327,7.939258],[-77.236134,7.929233],[-77.300419,7.902103],[-77.321606,7.881019],[-77.347186,7.823813],[-77.379897,7.77441],[-77.339745,7.707231],[-77.369097,7.680773],[-77.509347,7.594111],[-77.579989,7.528379],[-77.602675,7.526053],[-77.61332,7.537474],[-77.625464,7.587445],[-77.660759,7.638036],[-77.671869,7.641964],[-77.670629,7.657312],[-77.679931,7.670954],[-77.740237,7.718858],[-77.764215,7.705732],[-77.77052,7.66899],[-77.765817,7.626461],[-77.731245,7.530343],[-77.75512,7.486107],[-77.796306,7.471276],[-77.820181,7.476547],[-77.895839,7.235098],[-77.918813,7.241645],[-78.014394,7.34101],[-78.014394,7.393541],[-78.035878,7.393012],[-78.043446,7.422309],[-78.065541,7.417792],[-78.117421,7.465562],[-78.127919,7.489163],[-78.144154,7.49787],[-78.155588,7.527655],[-78.161773,7.527655],[-78.166086,7.512641],[-78.174224,7.575426],[-78.184804,7.579413],[-78.194447,7.571438],[-78.196523,7.553697],[-78.200307,7.606431],[-78.237701,7.649888],[-78.271637,7.66356],[-78.27359,7.682807],[-78.292144,7.691474],[-78.278147,7.737372],[-78.315338,7.799872],[-78.329416,7.843248],[-78.394521,7.917426],[-78.415639,7.980129],[-78.415639,8.013617],[-78.436147,8.058295],[-78.419057,8.095404],[-78.407297,8.1022],[-78.395741,8.069892],[-78.381337,8.063625],[-78.353586,8.07567],[-78.325185,8.06094],[-78.286448,8.080715],[-78.252187,8.117499],[-78.237457,8.153957],[-78.239369,8.174384],[-78.305776,8.253852],[-78.278635,8.250963],[-78.257395,8.259996],[-78.271637,8.281155],[-78.257395,8.294827],[-78.230702,8.274359],[-78.199696,8.274359],[-78.185862,8.295111],[-78.182932,8.335761],[-78.157541,8.365546],[-78.155588,8.39411],[-78.132476,8.405341],[-78.120839,8.356269],[-78.051015,8.322496],[-78.024892,8.259711],[-78.002553,8.237006],[-77.961293,8.238023],[-77.953521,8.223782],[-77.929067,8.212877],[-77.915395,8.212877],[-77.915395,8.219062],[-77.944732,8.230536],[-77.962554,8.253852],[-77.885976,8.234687],[-77.845082,8.202582],[-77.829254,8.162787],[-77.797271,8.157701],[-77.778147,8.11579],[-77.746409,8.11636],[-77.737213,8.130316],[-77.765126,8.130072],[-77.801869,8.174384],[-77.819203,8.171291],[-77.880686,8.243313],[-77.984283,8.267524],[-78.023183,8.290473],[-78.067047,8.402737],[-78.05191,8.41767],[-78.094146,8.459296],[-78.098541,8.475775],[-78.088124,8.512763],[-78.114003,8.527574],[-78.123118,8.556057],[-78.134429,8.561713],[-78.124501,8.517646],[-78.106191,8.508043],[-78.106516,8.472113],[-78.089589,8.420396],[-78.094146,8.410875],[-78.131418,8.458075],[-78.15685,8.466213],[-78.179433,8.442084],[-78.188873,8.405748],[-78.24059,8.383531],[-78.252838,8.394721],[-78.245351,8.41767],[-78.21642,8.431952],[-78.202748,8.424506],[-78.206695,8.487738],[-78.223256,8.541815],[-78.230702,8.541815],[-78.237701,8.527533],[-78.21642,8.50023],[-78.230458,8.456448],[-78.223256,8.438178],[-78.237457,8.431952],[-78.257395,8.45185],[-78.26065,8.460639],[-78.240387,8.485297],[-78.241567,8.494778],[-78.257395,8.50023],[-78.25475,8.481879],[-78.278472,8.445624],[-78.294545,8.443264],[-78.312611,8.486558],[-78.334828,8.446194],[-78.367258,8.424506],[-78.394521,8.520697],[-78.388336,8.534369],[-78.401967,8.527574],[-78.401967,8.548041],[-78.408193,8.548041],[-78.412017,8.523505],[-78.384104,8.425971],[-78.365346,8.410631],[-78.360992,8.39411],[-78.388336,8.335761],[-78.415639,8.356269],[-78.449778,8.391018],[-78.44518,8.421088],[-78.456654,8.45185],[-78.470855,8.424506],[-78.486399,8.447821],[-78.491363,8.473375],[-78.483957,8.507066],[-78.531728,8.575995],[-78.49592,8.570746],[-78.483957,8.575995],[-78.505849,8.599066],[-78.504384,8.634019],[-78.566477,8.651068],[-78.55899,8.670966],[-78.603749,8.66474],[-78.618886,8.681464],[-78.627919,8.705715],[-78.613678,8.717231],[-78.608388,8.735338],[-78.614247,8.774604],[-78.621693,8.774604],[-78.61974,8.723538],[-78.634755,8.726223],[-78.651519,8.707953],[-78.6822,8.747748],[-78.709869,8.747301],[-78.7294,8.759345],[-78.749379,8.801825],[-78.765126,8.815579],[-78.757639,8.82925],[-78.77245,8.833564],[-78.799875,8.863349],[-78.790151,8.833564],[-78.796457,8.823472],[-78.82787,8.813137],[-78.838002,8.816962],[-78.857574,8.839789],[-78.873891,8.891181],[-79.005279,8.95954],[-79.057607,8.971015],[-79.082997,8.988837],[-79.08849,9.004096],[-79.079823,9.024726],[-79.080881,9.062812],[-79.088857,9.073798],[-79.107737,9.075629],[-79.107737,9.083075],[-79.069895,9.093329],[-79.05248,9.12401],[-79.027699,9.111029],[-78.977366,9.145168],[-79.005279,9.138332],[-79.02892,9.116604],[-79.042633,9.13109],[-79.05248,9.130845],[-79.087799,9.092027],[-79.119049,9.083197],[-79.114573,9.068793],[-79.089996,9.056383],[-79.087229,9.035305],[-79.116078,8.994127],[-79.162343,9.007392],[-79.173492,9.022528],[-79.176015,9.010728],[-79.192983,9.005194],[-79.273346,9.019273],[-79.305735,9.014146],[-79.305735,9.020982],[-79.330312,9.013414],[-79.38683,9.018866],[-79.409332,9.007392],[-79.42748,9.013373],[-79.482004,8.998358],[-79.519195,8.966376],[-79.522206,8.942288],[-79.532867,8.939114],[-79.51183,8.898139],[-79.541127,8.923285],[-79.56017,8.95954],[-79.566396,8.95954],[-79.56017,8.945299],[-79.566396,8.939114],[-79.559193,8.914293],[-79.563873,8.892768],[-79.578481,8.88227],[-79.601186,8.890692],[-79.64684,8.882636],[-79.661204,8.87523],[-79.655751,8.857123],[-79.703603,8.870185],[-79.696767,8.849677],[-79.713938,8.852607],[-79.730214,8.844306],[-79.752024,8.815579],[-79.752024,8.736762],[-79.739329,8.716498],[-79.746816,8.697943],[-79.761952,8.674709],[-79.826311,8.63852],[-79.813691,8.62606],[-79.779608,8.61841],[-79.702094,8.657321],[-79.696897,8.648888],[-79.774396,8.57955],[-79.864118,8.552358],[-79.871734,8.524156],[-79.926747,8.493394],[-79.970204,8.444078],[-80.080881,8.371772],[-80.224965,8.301052],[-80.272735,8.294827],[-80.300038,8.301052],[-80.334218,8.287991],[-80.374664,8.303371],[-80.380727,8.31037],[-80.375762,8.315253],[-80.385772,8.311347],[-80.388783,8.294827],[-80.470245,8.220649],[-80.478179,8.202338],[-80.474843,8.106472],[-80.484405,8.082546],[-80.46817,8.074856],[-80.447174,8.027289],[-80.348866,7.989285],[-80.300038,7.883328],[-80.143788,7.752753],[-80.052398,7.637112],[-79.99352,7.522773],[-79.994659,7.503445],[-80.017852,7.456814],[-80.064971,7.450995],[-80.135528,7.424628],[-80.198516,7.424709],[-80.210683,7.417792],[-80.259063,7.438259],[-80.306874,7.424628],[-80.306874,7.417792],[-80.265899,7.430813],[-80.259063,7.424628],[-80.330963,7.40119],[-80.357574,7.382025],[-80.36148,7.35574],[-80.34439,7.327419],[-80.347564,7.318264],[-80.387115,7.308051],[-80.398834,7.286648],[-80.424184,7.273749],[-80.437245,7.246487],[-80.474477,7.253323],[-80.713124,7.216457],[-80.82079,7.219143],[-80.831085,7.211371],[-80.848134,7.219143],[-80.861806,7.205715],[-80.894439,7.243435],[-80.929718,7.256496],[-80.916005,7.278144],[-80.916371,7.307929],[-80.895985,7.328396],[-80.891591,7.360175],[-80.89566,7.376614],[-80.921173,7.392035],[-80.910186,7.441677],[-80.915069,7.454657],[-80.966908,7.509914],[-80.954701,7.516913],[-80.946319,7.555691],[-80.979115,7.589057],[-80.971669,7.602729],[-81.02005,7.650539],[-81.04129,7.661689],[-81.027821,7.686184],[-81.005767,7.685329],[-81.043324,7.711982],[-81.026235,7.746731],[-81.05484,7.750027],[-81.061025,7.754177],[-81.053578,7.760403],[-81.07669,7.764797],[-81.08609,7.77912],[-81.078114,7.801337],[-81.02127,7.822699],[-81.02005,7.835517],[-81.048858,7.822699],[-81.055898,7.849392],[-81.053578,7.9112],[-81.090443,7.857856],[-81.108184,7.877102],[-81.087677,7.842312],[-81.133046,7.842312],[-81.192413,7.863349],[-81.199941,7.893622],[-81.218048,7.897528],[-81.204376,7.883328],[-81.217641,7.878974],[-81.215199,7.870998],[-81.180206,7.846869],[-81.183258,7.823676],[-81.164703,7.789008],[-81.174428,7.763007],[-81.218048,7.726264],[-81.218048,7.754177],[-81.245961,7.754177],[-81.218048,7.719428],[-81.231557,7.714382],[-81.245961,7.719428],[-81.231679,7.69892],[-81.19754,7.711982],[-81.193267,7.700751],[-81.19754,7.630072],[-81.218048,7.608954],[-81.273305,7.63349],[-81.278717,7.646064],[-81.291168,7.650662],[-81.396962,7.673529],[-81.424102,7.671047],[-81.450795,7.705146],[-81.473907,7.699408],[-81.525787,7.711453],[-81.52713,7.726264],[-81.488759,7.749213],[-81.528066,7.760565],[-81.539052,7.757351],[-81.540191,7.739936],[-81.574941,7.760403],[-81.568389,7.776028],[-81.588002,7.80447],[-81.567494,7.855984],[-81.581899,7.862494],[-81.601593,7.855984],[-81.60912,7.870266],[-81.599884,7.885037],[-81.622711,7.890082],[-81.612945,7.931423],[-81.595448,7.924872],[-81.615875,7.952175],[-81.60912,7.986355],[-81.627105,7.982815],[-81.622589,7.947943],[-81.63329,7.945868],[-81.691029,8.054633],[-81.697865,8.021064],[-81.708363,8.031317],[-81.710357,8.059841],[-81.725738,8.068264],[-81.725738,8.07571],[-81.709462,8.06863],[-81.691029,8.07571],[-81.677358,8.068264],[-81.743438,8.173163],[-81.746246,8.191799],[-81.752471,8.191799],[-81.76065,8.169582],[-81.746246,8.15766],[-81.780385,8.123481],[-81.885365,8.173285],[-81.951812,8.191433],[-81.931182,8.233344],[-81.956695,8.221015],[-81.978383,8.192532],[-82.013173,8.219062],[-82.027862,8.208279],[-82.060292,8.210273],[-82.11559,8.233344],[-82.142405,8.160061],[-82.148915,8.164089],[-82.156524,8.15766],[-82.147206,8.180935],[-82.147572,8.1883],[-82.156524,8.184963],[-82.155385,8.193183],[-82.143463,8.212917],[-82.187896,8.199246],[-82.219228,8.219062],[-82.204945,8.233344],[-82.216542,8.264228],[-82.211781,8.294827],[-82.21878,8.304348],[-82.211781,8.315253],[-82.204945,8.308498],[-82.208648,8.332099],[-82.184438,8.343207],[-82.225453,8.339504],[-82.242462,8.301052],[-82.277089,8.309272],[-82.284413,8.322211],[-82.280059,8.343207],[-82.313954,8.330837],[-82.348907,8.335761],[-82.342763,8.308498],[-82.400136,8.287991],[-82.433258,8.304348],[-82.435333,8.316107],[-82.417226,8.322781],[-82.430287,8.338162],[-82.430898,8.356269],[-82.441029,8.3487],[-82.447011,8.323554],[-82.465606,8.315253],[-82.452016,8.281155],[-82.470855,8.277126],[-82.511708,8.276435],[-82.658925,8.322781],[-82.738026,8.31745],[-82.808705,8.295681],[-82.862457,8.254055],[-82.877187,8.219062],[-82.872833,8.135891],[-82.849233,8.062038],[-82.876943,8.023871],[-82.897629,8.034748],[-82.886409,8.102194],[-82.939093,8.216838],[-82.943666,8.248567],[-82.968006,8.267972],[-82.995524,8.26482],[-83.053246,8.315101],[-83.052109,8.327632],[-82.997772,8.360163],[-82.953511,8.402098],[-82.870415,8.438117],[-82.848297,8.465169],[-82.835973,8.529765],[-82.841864,8.599476],[-82.862224,8.6557],[-82.919223,8.727065],[-82.92297,8.756159],[-82.875789,8.793909],[-82.875634,8.807526],[-82.888321,8.816931],[-82.87858,8.829772],[-82.763781,8.87995],[-82.73386,8.897985],[-82.720157,8.920238],[-82.74913,8.974079],[-82.808171,8.998367],[-82.88243,9.04534],[-82.900232,9.072057],[-82.939377,9.059577],[-82.941703,9.456349],[-82.933305,9.470327],[-82.846385,9.492548],[-82.844783,9.500687],[-82.860209,9.511204],[-82.879252,9.559909],[-82.866048,9.585075],[-82.847471,9.600655],[-82.829022,9.602722],[-82.771093,9.579856],[-82.729364,9.544897],[-82.711691,9.545],[-82.678049,9.497768],[-82.632135,9.484668],[-82.618854,9.486709],[-82.612395,9.499499],[-82.601103,9.548669],[-82.562837,9.538695],[-82.573598,9.576199]]],[[[-81.807729,7.287421],[-81.766713,7.287421],[-81.800893,7.239],[-81.793446,7.225979],[-81.800893,7.225979],[-81.816233,7.271308],[-81.814565,7.294257],[-81.807729,7.287421]]],[[[-81.149159,7.561184],[-81.087717,7.58161],[-81.03307,7.575426],[-81.052846,7.544623],[-81.075022,7.535346],[-81.109853,7.547065],[-81.129262,7.545315],[-81.190745,7.493476],[-81.21581,7.498277],[-81.251943,7.490424],[-81.222727,7.521064],[-81.174387,7.53144],[-81.149159,7.561184]]],[[[-81.664377,7.397284],[-81.652496,7.391018],[-81.62206,7.393866],[-81.588002,7.335191],[-81.649403,7.321519],[-81.684234,7.341376],[-81.746246,7.348863],[-81.841868,7.430813],[-81.872874,7.486029],[-81.882802,7.516791],[-81.848704,7.520209],[-81.824452,7.585354],[-81.760365,7.620185],[-81.752512,7.6164],[-81.759918,7.644273],[-81.752512,7.644273],[-81.752512,7.636868],[-81.73884,7.644273],[-81.705922,7.543118],[-81.671783,7.526353],[-81.670522,7.51024],[-81.708363,7.493476],[-81.718984,7.452541],[-81.694732,7.423977],[-81.684438,7.395006],[-81.664377,7.397284]]],[[[-82.211781,8.199205],[-82.253407,8.202338],[-82.245961,8.171291],[-82.273834,8.191799],[-82.307973,8.199205],[-82.315663,8.214911],[-82.273834,8.233344],[-82.220123,8.212063],[-82.211781,8.199205]]],[[[-82.342763,8.259996],[-82.314809,8.24018],[-82.386464,8.212877],[-82.412506,8.231024],[-82.430898,8.259996],[-82.401926,8.257148],[-82.350006,8.293647],[-82.316518,8.27733],[-82.317209,8.267564],[-82.342763,8.267524],[-82.342763,8.259996]]],[[[-79.094065,8.308498],[-79.083001,8.274186],[-79.065741,8.26076],[-79.103788,8.252959],[-79.09851,8.22988],[-79.108682,8.223925],[-79.10952,8.210469],[-79.122709,8.208982],[-79.140003,8.244396],[-79.136973,8.257438],[-79.130564,8.25669],[-79.129411,8.287243],[-79.112431,8.317409],[-79.094065,8.308498]]],[[[-82.36205,8.086859],[-82.343129,8.123358],[-82.320709,8.130316],[-82.318227,8.099921],[-82.36205,8.086859]]],[[[-79.084393,8.382491],[-79.092844,8.377183],[-79.130098,8.40487],[-79.118238,8.42911],[-79.094838,8.40648],[-79.087943,8.419544],[-79.082438,8.415997],[-79.084393,8.382491]]],[[[-82.123036,9.322659],[-82.085276,9.30268],[-82.074615,9.28852],[-82.093984,9.291246],[-82.114166,9.283271],[-82.130198,9.268256],[-82.138824,9.245307],[-82.154408,9.258368],[-82.150258,9.287258],[-82.163971,9.308417],[-82.150299,9.302191],[-82.159332,9.323147],[-82.211781,9.343166],[-82.211781,9.349351],[-82.200999,9.356187],[-82.174387,9.344062],[-82.156565,9.349351],[-82.123036,9.322659]]],[[[-82.328481,9.412055],[-82.301666,9.432318],[-82.266428,9.439358],[-82.238759,9.398749],[-82.231801,9.373358],[-82.245961,9.356838],[-82.245961,9.330064],[-82.280751,9.374701],[-82.328481,9.412055]]],[[[-78.892244,8.458047],[-78.88993,8.474136],[-78.862782,8.453681],[-78.854683,8.413287],[-78.842229,8.411064],[-78.83551,8.397995],[-78.847959,8.368606],[-78.834476,8.342811],[-78.858022,8.295844],[-78.896399,8.297429],[-78.901325,8.308967],[-78.920476,8.282566],[-78.922775,8.265446],[-78.912987,8.253881],[-78.91114,8.234148],[-78.897574,8.228897],[-78.903985,8.219222],[-78.928454,8.235668],[-78.940043,8.28259],[-78.969898,8.305099],[-78.954777,8.346514],[-78.969908,8.369891],[-78.961218,8.390315],[-78.974712,8.444368],[-78.970922,8.45845],[-78.949104,8.45279],[-78.908777,8.470041],[-78.895416,8.45185],[-78.892244,8.458047]]],[[[-79.570393,8.798576],[-79.556895,8.802517],[-79.541853,8.786757],[-79.543381,8.775545],[-79.569154,8.783117],[-79.570393,8.798576]]],[[[-81.568269,9.108249],[-81.547221,9.102741],[-81.533872,9.08867],[-81.571671,9.089599],[-81.575396,9.107639],[-81.568269,9.108249]]],[[[-82.047238,9.172569],[-82.05241,9.177661],[-82.028867,9.169192],[-82.010477,9.141459],[-82.027113,9.132941],[-82.050084,9.145941],[-82.054691,9.161797],[-82.047238,9.172569]]]]}}