{"type":"Feature","properties":{"iso3":"PER","name":"Peru","continent":"Americas"},"geometry":{"type":"MultiPolygon","coordinates":[[[[-69.510089,-17.506588],[-69.683902,-17.656036],[-69.818054,-17.659137],[-69.849835,-17.69159],[-69.783095,-17.981598],[-69.865338,-18.144585],[-69.970345,-18.250625],[-70.159067,-18.32597],[-70.394703,-18.337746],[-70.878896,-18.016697],[-70.914622,-17.946547],[-71.086578,-17.869073],[-71.304555,-17.705987],[-71.380035,-17.695245],[-71.359609,-17.633071],[-71.400258,-17.400323],[-71.514516,-17.284601],[-71.807607,-17.191339],[-72.003082,-17.042576],[-72.109934,-17.023126],[-72.197255,-16.916436],[-72.293365,-16.880629],[-72.362213,-16.761326],[-72.478098,-16.695082],[-72.781321,-16.629327],[-73.17516,-16.413263],[-73.296213,-16.395603],[-73.317291,-16.340427],[-73.420318,-16.293145],[-73.598909,-16.239849],[-73.700687,-16.244594],[-73.735015,-16.190118],[-74.004077,-16.037059],[-74.04662,-15.960138],[-74.265739,-15.847661],[-74.398012,-15.826863],[-74.488515,-15.717706],[-75.064565,-15.44964],[-75.189416,-15.369545],[-75.155422,-15.34642],[-75.263173,-15.250421],[-75.232777,-15.245782],[-75.241119,-15.205336],[-75.361806,-15.144789],[-75.502756,-14.92547],[-75.930653,-14.649347],[-75.980636,-14.461099],[-76.143553,-14.327895],[-76.106709,-14.30586],[-76.149159,-14.223891],[-76.215443,-14.161228],[-76.24994,-14.147806],[-76.271193,-14.20093],[-76.290435,-14.167413],[-76.270439,-13.9625],[-76.293772,-13.907485],[-76.39396,-13.90802],[-76.371361,-13.809178],[-76.325754,-13.791192],[-76.295904,-13.793436],[-76.261773,-13.861428],[-76.181264,-13.539483],[-76.221102,-13.357556],[-76.483347,-13.036296],[-76.516233,-12.869919],[-76.630035,-12.750665],[-76.68932,-12.609633],[-76.799079,-12.509342],[-76.790886,-12.381047],[-76.853646,-12.302644],[-77.038319,-12.20436],[-77.053944,-12.11419],[-77.174916,-12.071873],[-77.145904,-11.932061],[-77.210927,-11.646417],[-77.360463,-11.461114],[-77.634185,-11.303399],[-77.65209,-11.236992],[-77.597799,-11.206837],[-77.594684,-11.165117],[-77.670539,-10.92752],[-77.968495,-10.49391],[-78.100416,-10.214693],[-78.166596,-10.141411],[-78.228895,-9.954287],[-78.229422,-9.793784],[-78.369904,-9.615432],[-78.421012,-9.368],[-78.526723,-9.269627],[-78.489703,-9.233451],[-78.497411,-9.189538],[-78.558565,-9.183727],[-78.552269,-9.232258],[-78.611155,-9.176522],[-78.570567,-9.168327],[-78.559451,-9.128187],[-78.641722,-9.056428],[-78.654772,-8.933333],[-78.7643,-8.775112],[-78.740746,-8.711458],[-78.759328,-8.608327],[-78.940262,-8.435526],[-78.902125,-8.376761],[-78.965485,-8.264764],[-79.124656,-8.065073],[-79.299713,-7.938653],[-79.465942,-7.715929],[-79.435287,-7.674387],[-79.582509,-7.463637],[-79.573761,-7.386539],[-79.61276,-7.266392],[-79.683776,-7.192112],[-79.70824,-7.106777],[-79.931549,-6.883477],[-80.004547,-6.740899],[-80.298096,-6.544448],[-80.790528,-6.299692],[-81.130811,-6.034561],[-81.149386,-5.892391],[-81.123591,-5.846354],[-81.075194,-5.786785],[-80.939931,-5.850844],[-80.864012,-5.743936],[-80.856212,-5.650462],[-80.931824,-5.463815],[-81.072196,-5.318921],[-81.131606,-5.300402],[-81.198476,-5.208103],[-81.165988,-5.164328],[-81.1714,-5.087299],[-81.082757,-5.079214],[-81.063355,-5.022043],[-81.337558,-4.678304],[-81.305253,-4.643568],[-81.328928,-4.476658],[-81.27953,-4.396417],[-81.293813,-4.31756],[-81.264027,-4.252374],[-80.867787,-3.872735],[-80.807607,-3.739435],[-80.613108,-3.615655],[-80.536244,-3.505304],[-80.384511,-3.478692],[-80.340729,-3.393498],[-80.279746,-3.415553],[-80.215202,-3.642516],[-80.221636,-3.769433],[-80.165257,-3.890046],[-80.325506,-4.015413],[-80.407103,-3.982443],[-80.481078,-3.998773],[-80.512213,-4.064195],[-80.469605,-4.21323],[-80.345272,-4.198451],[-80.488545,-4.395958],[-80.483532,-4.433992],[-80.390747,-4.476987],[-80.255407,-4.38676],[-80.205048,-4.298186],[-80.143088,-4.28413],[-79.982012,-4.38862],[-79.904084,-4.398645],[-79.832874,-4.47895],[-79.657975,-4.438746],[-79.507209,-4.531557],[-79.527854,-4.618063],[-79.450572,-4.810196],[-79.303217,-4.961246],[-79.104159,-4.980057],[-79.063929,-5.011373],[-79.009281,-4.96011],[-78.991014,-4.890398],[-78.900218,-4.843683],[-78.928614,-4.747461],[-78.898642,-4.694234],[-78.681678,-4.56711],[-78.639898,-4.451252],[-78.682428,-4.326918],[-78.57662,-4.100059],[-78.566905,-3.996189],[-78.501767,-3.953711],[-78.480683,-3.849531],[-78.419679,-3.791034],[-78.426371,-3.707214],[-78.350794,-3.389611],[-78.269688,-3.399533],[-78.226306,-3.50702],[-78.163726,-3.477254],[-78.156646,-3.429299],[-78.196411,-3.36367],[-77.867826,-2.990256],[-76.625266,-2.537673],[-76.091242,-2.128913],[-75.58074,-1.54664],[-75.412576,-0.923922],[-75.348729,-0.974978],[-75.236204,-0.970431],[-75.297027,-0.746982],[-75.293978,-0.667917],[-75.25765,-0.63319],[-75.272042,-0.525703],[-75.405625,-0.442401],[-75.484768,-0.247684],[-75.628635,-0.170479],[-75.623002,-0.106607],[-75.4295,-0.163658],[-75.330746,-0.144641],[-75.206748,-0.029093],[-75.120655,-0.054104],[-74.933458,-0.209443],[-74.872712,-0.221949],[-74.836538,-0.17327],[-74.803698,-0.18898],[-74.755329,-0.278276],[-74.773002,-0.318687],[-74.632727,-0.34742],[-74.415815,-0.552678],[-74.364888,-0.676185],[-74.385145,-0.72197],[-74.28913,-0.836279],[-74.338326,-0.867698],[-74.266754,-0.972291],[-74.119631,-1.02097],[-74.076895,-0.990894],[-74.029094,-1.086393],[-73.987831,-1.068926],[-73.857167,-1.210519],[-73.802545,-1.223645],[-73.769782,-1.188919],[-73.63656,-1.255168],[-73.567753,-1.382705],[-73.583437,-1.401722],[-73.495277,-1.487918],[-73.483546,-1.553341],[-73.530985,-1.673747],[-73.440086,-1.758703],[-73.350531,-1.790639],[-73.267694,-1.772242],[-73.257255,-1.742373],[-73.186252,-1.799631],[-73.12455,-2.060803],[-73.198551,-2.193818],[-73.188319,-2.228752],[-73.083829,-2.345127],[-73.058869,-2.310607],[-72.987556,-2.337686],[-72.935414,-2.425329],[-72.804673,-2.377787],[-72.761678,-2.402281],[-72.733721,-2.367555],[-72.695842,-2.416544],[-72.644321,-2.334068],[-72.396584,-2.446516],[-72.292404,-2.435871],[-72.25096,-2.396287],[-72.176391,-2.410343],[-72.089419,-2.330968],[-71.936354,-2.311847],[-71.841062,-2.190098],[-71.746133,-2.132324],[-71.712026,-2.18679],[-71.654924,-2.173768],[-71.538394,-2.222964],[-71.498138,-2.315051],[-71.456486,-2.255107],[-71.415249,-2.316292],[-71.42083,-2.37603],[-71.315461,-2.334068],[-71.21986,-2.34151],[-71.119969,-2.252109],[-71.029691,-2.263995],[-71.03199,-2.210768],[-70.992716,-2.197436],[-70.904556,-2.211078],[-70.787871,-2.307403],[-70.706584,-2.328281],[-70.654468,-2.445379],[-70.606357,-2.450754],[-70.578607,-2.405485],[-70.456987,-2.492715],[-70.357535,-2.486927],[-70.37092,-2.550282],[-70.273949,-2.546252],[-70.23607,-2.62511],[-70.164085,-2.635032],[-70.141838,-2.666968],[-70.105794,-2.625213],[-70.050448,-2.714303],[-70.734127,-3.782042],[-70.490886,-3.87847],[-70.377689,-3.818836],[-70.311104,-3.829274],[-70.216975,-3.924979],[-70.188398,-4.028952],[-69.992751,-4.180881],[-69.962572,-4.264286],[-69.989392,-4.314619],[-70.050965,-4.337254],[-70.096621,-4.265733],[-70.138892,-4.260462],[-70.205632,-4.342938],[-70.306996,-4.260256],[-70.330612,-4.143157],[-70.361437,-4.168168],[-70.429934,-4.134165],[-70.500886,-4.177367],[-70.565636,-4.148841],[-70.576566,-4.183878],[-70.632531,-4.166825],[-70.646768,-4.115665],[-70.683071,-4.163827],[-70.832235,-4.179434],[-70.839806,-4.228733],[-70.968687,-4.385313],[-71.005454,-4.347589],[-71.029329,-4.385829],[-71.081574,-4.364125],[-71.144102,-4.399265],[-71.186167,-4.372187],[-71.214072,-4.410841],[-71.264818,-4.375494],[-71.363262,-4.45921],[-71.477415,-4.440606],[-71.617148,-4.500344],[-71.613428,-4.47926],[-71.665207,-4.507579],[-71.774348,-4.481534],[-71.890155,-4.513677],[-72.078722,-4.613412],[-72.251063,-4.75883],[-72.386094,-4.79397],[-72.404129,-4.860219],[-72.644786,-5.060569],[-72.760179,-5.064703],[-72.917948,-5.132089],[-72.8949,-5.255699],[-72.9735,-5.466125],[-72.97691,-5.651747],[-73.140001,-5.878503],[-73.234776,-6.077561],[-73.126979,-6.39134],[-73.147804,-6.476193],[-73.233587,-6.564043],[-73.370685,-6.583886],[-73.748595,-6.875548],[-73.812337,-7.102924],[-73.734539,-7.225088],[-73.724746,-7.324823],[-73.902022,-7.373399],[-73.982895,-7.356449],[-73.944319,-7.448743],[-73.971423,-7.523984],[-74.018475,-7.543518],[-73.838796,-7.720561],[-73.712163,-7.788154],[-73.713713,-7.866289],[-73.7796,-7.874454],[-73.784949,-7.940393],[-73.668031,-8.013773],[-73.60111,-8.136143],[-73.540829,-8.359075],[-73.356422,-8.479791],[-73.350583,-8.598337],[-73.289863,-8.670477],[-73.174573,-8.720707],[-72.976084,-8.985394],[-72.972001,-9.134428],[-73.214984,-9.409037],[-72.813303,-9.410897],[-72.409503,-9.486345],[-72.322945,-9.53213],[-72.267651,-9.649539],[-72.265223,-9.762194],[-72.194736,-9.805809],[-72.162903,-9.877225],[-72.195666,-10.00559],[-71.2997,-9.993394],[-71.196502,-9.939857],[-71.144257,-9.863066],[-70.997212,-9.803535],[-70.875488,-9.660494],[-70.606383,-9.448828],[-70.524993,-9.430948],[-70.576153,-9.529133],[-70.564525,-9.56541],[-70.619225,-9.56448],[-70.541865,-9.708244],[-70.638448,-9.851801],[-70.641342,-11.0108],[-70.534114,-10.938143],[-70.437272,-11.036741],[-70.2894,-11.06475],[-69.956113,-10.919332],[-69.808318,-10.927187],[-69.72021,-10.964911],[-69.574017,-10.958503],[-68.689463,-12.493418],[-68.793419,-12.62021],[-68.752982,-12.65473],[-68.766134,-12.710541],[-68.876566,-12.754983],[-68.980953,-12.867947],[-68.970747,-13.501449],[-69.023844,-13.634981],[-69.101591,-13.666607],[-69.027048,-13.73823],[-68.982968,-13.972221],[-68.899976,-14.0548],[-68.864448,-14.191226],[-69.01015,-14.245899],[-68.990254,-14.379018],[-69.158203,-14.498494],[-69.164507,-14.566397],[-69.2475,-14.593682],[-69.267628,-14.750675],[-69.36142,-14.787985],[-69.384313,-14.981772],[-69.1481,-15.233333],[-69.291166,-15.350845],[-69.285404,-15.396733],[-69.343411,-15.442209],[-69.430021,-15.62628],[-69.184868,-16.195031],[-69.120815,-16.231205],[-68.982038,-16.210017],[-68.833494,-16.328976],[-69.027875,-16.454137],[-69.040122,-16.581364],[-69.008341,-16.634177],[-69.037073,-16.670247],[-69.166368,-16.719133],[-69.407154,-17.015653],[-69.427437,-17.086863],[-69.633833,-17.207269],[-69.666492,-17.288298],[-69.613007,-17.295119],[-69.522599,-17.36912],[-69.510089,-17.506588]]],[[[-76.195232,-14.263294],[-76.185845,-14.28305],[-76.220311,-14.263276],[-76.195232,-14.263294]]],[[[-76.443669,-13.830488],[-76.43674,-13.844096],[-76.47025,-13.853856],[-76.443669,-13.830488]]],[[[-77.232714,-12.065443],[-77.181541,-12.115912],[-77.236668,-12.093345],[-77.25366,-12.063488],[-77.232714,-12.065443]]],[[[-80.84297,-6.381612],[-80.850799,-6.476945],[-80.87538,-6.433053],[-80.84297,-6.381612]]]]}}