{"type":"Feature","properties":{"iso3":"PHL","name":"Philippines","continent":"Asia"},"geometry":{"type":"MultiPolygon","coordinates":[[[[120.860688,5.574368],[120.904552,5.538031],[120.897797,5.498521],[120.819835,5.54328],[120.860688,5.574368]]],[[[121.902354,6.033637],[121.929047,6.045356],[121.868419,5.999742],[121.784679,6.059556],[121.902354,6.033637]]],[[[125.79127,6.948188],[125.776866,6.894029],[125.717621,7.052232],[125.671723,7.081977],[125.715831,7.19595],[125.781912,7.135199],[125.79127,6.948188]]],[[[122.97169,7.383612],[122.826996,7.291327],[122.808604,7.304877],[122.7942,7.383938],[122.82838,7.430813],[122.882986,7.397284],[122.90504,7.43773],[122.97169,7.383612]]],[[[121.252452,9.631171],[121.210948,9.575873],[121.258637,9.644843],[121.252452,9.631171]]],[[[125.990245,9.685736],[125.984141,9.589504],[125.946951,9.56623],[125.918142,9.617499],[125.934825,9.759914],[125.990245,9.685736]]],[[[126.569184,7.301093],[126.610362,7.277045],[126.47641,7.06623],[126.466156,7.003119],[126.417491,6.980048],[126.349457,7.000067],[126.309581,6.94892],[126.33961,6.786526],[126.242686,6.919257],[126.191905,6.925116],[126.192556,6.883368],[126.17213,6.903876],[126.257172,6.744818],[126.18572,6.286851],[126.095063,6.514106],[126.082693,6.830878],[125.983409,6.920885],[125.986501,7.006293],[125.902599,7.101142],[125.845388,7.350246],[125.668305,7.257025],[125.639008,7.088772],[125.509939,7.01557],[125.480642,6.913235],[125.403575,6.811835],[125.377615,6.674221],[125.397472,6.598456],[125.421886,6.582343],[125.43214,6.61579],[125.534516,6.512844],[125.589854,6.499172],[125.706554,6.149726],[125.699229,6.040473],[125.667328,5.950141],[125.436371,5.617662],[125.371267,5.572943],[125.302419,5.59219],[125.295095,5.691067],[125.181163,5.798326],[125.278005,5.979234],[125.250743,6.093085],[125.168956,6.111965],[125.088715,5.884711],[124.963634,5.858588],[124.605805,5.992336],[124.201671,6.221747],[124.054942,6.43769],[124.036632,6.799709],[123.968923,6.81273],[123.974864,6.965318],[124.02947,7.115139],[124.183767,7.226386],[124.246755,7.40412],[124.167328,7.431912],[124.065196,7.602729],[123.910899,7.69892],[123.7942,7.710517],[123.703949,7.809394],[123.586925,7.839342],[123.456879,7.811469],[123.448253,7.766425],[123.497813,7.708808],[123.485688,7.66356],[123.353526,7.572089],[123.451671,7.452541],[123.431,7.36872],[123.355968,7.410346],[123.264415,7.526353],[123.199474,7.482001],[123.140636,7.513129],[123.127615,7.572577],[123.186778,7.626207],[123.117931,7.74136],[123.05714,7.667304],[122.995616,7.467271],[122.905284,7.543402],[122.862559,7.465562],[122.807384,7.465562],[122.792491,7.522691],[122.83074,7.549791],[122.804373,7.758612],[122.630707,7.776313],[122.443858,7.608588],[122.485118,7.553697],[122.46754,7.522854],[122.443614,7.499701],[122.451427,7.534166],[122.428477,7.532904],[122.347992,7.452541],[122.37908,7.391588],[122.280447,7.294501],[122.24936,7.118109],[122.15447,6.928127],[122.118663,6.89643],[122.037934,6.917385],[121.937022,6.978949],[121.898936,7.057196],[121.933442,7.217922],[122.053477,7.316881],[122.034679,7.36579],[122.069998,7.513658],[122.137218,7.572984],[122.104991,7.770819],[122.239594,7.965725],[122.360037,8.040473],[122.638438,8.108547],[122.667735,8.14997],[122.7588,8.116034],[122.945323,8.161851],[123.013682,8.232408],[122.958181,8.302395],[123.031016,8.474555],[123.082042,8.519232],[123.195079,8.542222],[123.300955,8.524237],[123.363536,8.623277],[123.427582,8.644232],[123.390147,8.719387],[123.51295,8.698879],[123.521821,8.622545],[123.581309,8.582831],[123.633067,8.668443],[123.710297,8.633246],[123.844737,8.452216],[123.882986,8.164496],[123.767751,8.059027],[123.702403,8.045803],[123.688975,7.968329],[123.968923,8.167792],[124.23227,8.212877],[124.274669,8.281073],[124.261729,8.32453],[124.321788,8.514553],[124.405772,8.607896],[124.469981,8.624823],[124.571544,8.528144],[124.657481,8.514553],[124.636485,8.431952],[124.663097,8.475816],[124.753184,8.50023],[124.771495,8.615871],[124.746349,8.670966],[124.77711,8.717353],[124.781749,8.971137],[124.809418,9.009467],[124.915294,8.994127],[125.115733,8.830552],[125.187348,8.875922],[125.177745,9.007392],[125.208751,9.086493],[125.311778,8.99433],[125.441173,8.980414],[125.516612,9.015937],[125.542003,9.189195],[125.398692,9.681057],[125.45574,9.812812],[125.589203,9.754625],[125.643565,9.611274],[125.848969,9.537177],[125.952403,9.45303],[125.96339,9.47248],[125.910981,9.404934],[125.993907,9.397773],[125.996593,9.324652],[126.057953,9.245998],[126.2199,9.30565],[126.178966,9.093004],[126.312755,8.956244],[126.338227,8.837633],[126.300059,8.768297],[126.240245,8.735053],[126.261485,8.698879],[126.138438,8.654039],[126.110525,8.607123],[126.167247,8.526597],[126.268321,8.555487],[126.401052,8.502183],[126.380056,8.395575],[126.33253,8.347073],[126.379893,8.302069],[126.346446,8.195502],[126.459321,8.24018],[126.466156,8.095526],[126.431488,8.0456],[126.453136,7.980129],[126.383067,7.885688],[126.487478,7.746731],[126.582856,7.719428],[126.569184,7.62637],[126.60727,7.485175],[126.562999,7.410346],[126.589692,7.389838],[126.569184,7.301093]]],[[[125.295095,9.970649],[125.306163,9.937445],[125.267426,9.924506],[125.145763,10.070705],[125.124522,10.151801],[125.216482,10.129625],[125.295095,9.970649]]],[[[124.379731,10.691311],[124.389985,10.641303],[124.284353,10.603827],[124.340994,10.711819],[124.379731,10.691311]]],[[[124.465831,10.713609],[124.520681,10.665758],[124.5088,10.641547],[124.40919,10.648261],[124.408458,10.683824],[124.465831,10.713609]]],[[[125.822032,10.734687],[125.826915,10.70893],[125.769379,10.700385],[125.684093,10.752753],[125.687266,10.805162],[125.731456,10.808051],[125.760509,10.740953],[125.822032,10.734687]]],[[[119.632091,11.069892],[119.64796,11.015286],[119.579763,11.045966],[119.576671,11.084052],[119.632091,11.069892]]],[[[119.613129,11.200263],[119.632335,11.181627],[119.609874,11.156724],[119.567149,11.15705],[119.613129,11.200263]]],[[[124.59962,11.563381],[124.625011,11.532701],[124.592459,11.481635],[124.467133,11.477729],[124.354991,11.67121],[124.523204,11.686265],[124.59962,11.563381]]],[[[124.815196,11.63227],[124.856212,11.604926],[124.838878,11.540025],[124.787852,11.570217],[124.732677,11.721625],[124.815196,11.63227]]],[[[122.297211,18.403876],[122.324962,18.336615],[122.306977,18.251288],[122.16977,18.100491],[122.183116,17.996487],[122.136078,17.744289],[122.156586,17.619289],[122.246349,17.374905],[122.414561,17.319078],[122.443614,17.265611],[122.411632,17.260443],[122.41684,17.145819],[122.519298,17.127834],[122.521495,17.072008],[122.422699,16.794338],[122.211436,16.449408],[122.197113,16.291693],[122.231944,16.319037],[122.205333,16.242499],[121.997895,16.031073],[122.132579,16.225491],[122.107758,16.263821],[122.066905,16.190131],[121.752289,16.07689],[121.57781,15.932074],[121.554861,15.828925],[121.585216,15.765448],[121.642263,15.736884],[121.594493,15.67475],[121.619802,15.667467],[121.495616,15.532457],[121.464122,15.421536],[121.381602,15.352688],[121.391124,15.266262],[121.487559,15.163316],[121.508149,15.062812],[121.615001,14.87287],[121.594493,14.859198],[121.726085,14.72016],[121.629161,14.702826],[121.608165,14.630194],[121.662446,14.417385],[121.754649,14.255764],[121.744884,14.177151],[121.93629,13.995185],[122.231944,13.90644],[122.183442,13.988959],[122.293305,13.97012],[122.313731,14.016303],[122.208669,14.087633],[122.162934,14.167792],[122.177257,14.146674],[122.266612,14.227607],[122.300141,14.092027],[122.345714,14.131334],[122.337657,14.207587],[122.355479,14.195054],[122.41627,14.324774],[122.470958,14.345893],[122.519298,14.324774],[122.505056,14.345893],[122.527843,14.3487],[122.634613,14.286038],[122.677989,14.294664],[122.671397,14.339423],[122.69752,14.338446],[122.873302,14.265204],[123.042247,14.098049],[123.033214,14.023139],[123.078136,13.988105],[123.08839,13.901435],[123.049815,13.775824],[123.108246,13.722113],[123.214692,13.728949],[123.301768,13.789455],[123.280935,13.891832],[123.33546,13.982164],[123.29005,13.934556],[123.21811,13.992743],[123.259044,14.031195],[123.252289,14.068101],[123.314301,14.051093],[123.327159,14.096015],[123.362153,14.043606],[123.342052,14.027777],[123.390147,14.03734],[123.375824,14.010077],[123.417328,13.918443],[123.444672,13.961656],[123.492524,13.920722],[123.681407,13.88467],[123.711681,13.934394],[123.804047,13.837633],[123.937755,13.784003],[123.965505,13.714667],[123.859386,13.742621],[123.797374,13.687974],[123.570486,13.722968],[123.526622,13.606024],[123.536306,13.5633],[123.667247,13.485582],[123.743419,13.340318],[123.848155,13.241889],[123.767589,13.224311],[123.745779,13.064154],[123.787364,13.051174],[123.894542,13.1435],[124.071137,13.016099],[124.12672,13.078681],[124.188243,13.039537],[124.118826,12.925482],[124.129405,12.677191],[124.066742,12.541449],[123.983165,12.54678],[123.878591,12.645209],[123.842052,12.801215],[123.79363,12.831448],[123.863048,12.872382],[123.912283,12.842027],[124.002452,12.879706],[124.025157,12.955308],[123.881602,12.966498],[123.839366,12.88817],[123.729747,12.846259],[123.731293,12.883287],[123.677257,12.884182],[123.703298,12.927191],[123.615733,12.889472],[123.450206,13.029283],[123.38502,13.044094],[123.310069,13.012356],[123.278982,13.120185],[123.300792,13.2355],[123.190929,13.359036],[123.168793,13.449205],[122.859141,13.606106],[122.828949,13.64175],[122.862559,13.69477],[122.753103,13.810492],[122.653168,13.826077],[122.540294,13.958564],[122.51588,13.934394],[122.41627,13.961656],[122.509613,13.820014],[122.497569,13.652045],[122.635997,13.537095],[122.567149,13.56387],[122.663259,13.420478],[122.692556,13.248765],[122.604828,13.177558],[122.505056,13.239203],[122.50115,13.368069],[122.375987,13.540839],[122.319021,13.592231],[122.20753,13.614325],[122.059906,13.804633],[121.989431,13.810045],[121.786306,13.948676],[121.718435,13.955308],[121.499034,13.859076],[121.433442,13.796373],[121.43629,13.700995],[121.464122,13.69477],[121.278819,13.595038],[121.158702,13.639472],[121.047537,13.627265],[121.053477,13.722113],[120.990977,13.783637],[120.903087,13.692939],[120.882335,13.705227],[120.929047,13.783596],[120.906261,13.89647],[120.87672,13.912258],[120.704845,13.927436],[120.722911,13.855414],[120.662283,13.85928],[120.649669,13.784247],[120.601329,13.969143],[120.628917,13.981269],[120.619477,14.104234],[120.573497,14.174547],[120.601329,14.181383],[120.627452,14.269599],[120.713145,14.298529],[120.87794,14.458889],[120.970388,14.501899],[120.943126,14.65351],[120.830089,14.763617],[120.6421,14.787014],[120.585704,14.902818],[120.536469,14.723212],[120.57838,14.65941],[120.58839,14.466986],[120.481456,14.423977],[120.410167,14.452053],[120.382009,14.480292],[120.367361,14.620754],[120.285411,14.653754],[120.242361,14.729641],[120.292247,14.82567],[120.209321,14.880032],[120.175548,14.757392],[120.090099,14.794338],[120.005138,15.269436],[119.888194,15.429023],[119.963878,15.51435],[119.904307,15.597073],[119.919688,15.690334],[119.867198,15.743069],[119.896251,15.83747],[119.878917,15.91474],[119.828298,15.955715],[119.785167,15.928656],[119.75587,15.944566],[119.778331,16.137844],[119.755707,16.203437],[119.790782,16.341864],[119.916352,16.380845],[119.901866,16.2508],[120.061534,16.173],[120.138845,16.046129],[120.292247,16.055609],[120.299083,16.017401],[120.35255,16.05272],[120.361013,16.073188],[120.334646,16.065253],[120.397716,16.154039],[120.397472,16.22899],[120.336274,16.292182],[120.276134,16.611884],[120.306651,16.613918],[120.319591,16.819322],[120.434093,16.982123],[120.403087,17.221625],[120.443696,17.388495],[120.40211,17.518866],[120.333832,17.556383],[120.353201,17.678127],[120.412446,17.712836],[120.398692,17.796332],[120.472667,17.991604],[120.470063,18.09101],[120.579112,18.325141],[120.57016,18.501776],[120.611095,18.53856],[120.770844,18.561469],[120.812999,18.644517],[120.90919,18.567206],[121.106781,18.642727],[121.592052,18.384711],[121.649669,18.313951],[121.634939,18.355129],[121.659679,18.364814],[121.852794,18.287991],[121.97462,18.286038],[122.111583,18.392768],[122.145763,18.507392],[122.199392,18.522854],[122.297211,18.403876]]],[[[120.251964,5.266506],[120.226817,5.129381],[120.184581,5.136461],[120.182384,5.204413],[120.145518,5.183295],[120.120942,5.218004],[120.085948,5.150702],[120.025401,5.160549],[119.954112,5.075507],[119.819347,5.059801],[119.821788,5.130561],[120.076834,5.254828],[120.187836,5.34512],[120.208751,5.347968],[120.216319,5.276842],[120.251964,5.266506]]],[[[120.588145,6.380764],[120.582856,6.261461],[120.506114,6.244086],[120.488617,6.260159],[120.588145,6.380764]]],[[[122.296723,6.633246],[122.3213,6.588568],[122.235362,6.571194],[122.166352,6.444525],[121.96225,6.404853],[121.880056,6.503241],[121.879568,6.556138],[121.806814,6.619289],[121.839203,6.668931],[121.940196,6.677314],[122.066661,6.740709],[122.296723,6.633246]]],[[[118.537608,7.006293],[118.503103,6.971422],[118.428396,7.006293],[118.510265,7.047187],[118.537608,7.006293]]],[[[117.084972,8.057847],[117.073009,7.861518],[117.009939,7.800279],[116.955821,7.921088],[116.961681,8.061998],[116.996755,8.02733],[117.005138,8.054836],[117.084972,8.057847]]],[[[117.030528,8.068264],[116.99586,8.103013],[117.057872,8.123481],[117.06837,8.09276],[117.030528,8.068264]]],[[[117.167735,8.178127],[117.20574,8.155504],[117.161794,8.156724],[117.167735,8.178127]]],[[[117.32545,8.32274],[117.355317,8.30272],[117.359548,8.219062],[117.289724,8.184312],[117.279633,8.311103],[117.32545,8.32274]]],[[[117.242849,8.315253],[117.264496,8.313788],[117.243337,8.282904],[117.190115,8.26203],[117.181407,8.287991],[117.242849,8.343207],[117.242849,8.315253]]],[[[124.78419,9.199774],[124.80128,9.096259],[124.77947,9.079495],[124.67213,9.125393],[124.636485,9.182359],[124.708507,9.25019],[124.78419,9.199774]]],[[[123.698009,9.165025],[123.722423,9.149115],[123.703298,9.128363],[123.578461,9.107001],[123.47462,9.197089],[123.564952,9.226142],[123.626964,9.293931],[123.703868,9.233303],[123.698009,9.165025]]],[[[126.165863,9.829169],[126.180186,9.8015],[126.138845,9.765611],[126.048595,9.754625],[125.972667,9.841498],[126.014415,9.864488],[125.983409,9.901801],[126.071462,10.059068],[126.12672,9.956041],[126.117849,9.866889],[126.165863,9.829169]]],[[[124.565278,9.870754],[124.624034,9.801825],[124.585216,9.732082],[124.499848,9.768297],[124.410492,9.658433],[124.2942,9.606757],[123.937511,9.617499],[123.871755,9.645006],[123.863048,9.734198],[123.801036,9.757758],[123.886078,9.914862],[124.050792,9.979315],[124.116222,10.08983],[124.222667,10.151923],[124.331309,10.161526],[124.355968,10.110297],[124.382498,10.143785],[124.577647,10.033922],[124.565278,9.870754]]],[[[125.719574,9.911689],[125.714529,9.880845],[125.678559,9.87759],[125.658051,9.939032],[125.593028,9.992987],[125.601329,10.080268],[125.521007,10.062567],[125.497081,10.103461],[125.522146,10.316962],[125.562511,10.378485],[125.610362,10.370998],[125.637706,10.460395],[125.684825,10.399888],[125.638682,10.261379],[125.706554,10.069322],[125.681977,10.021552],[125.719574,9.911689]]],[[[119.950206,10.603746],[120.000011,10.580471],[119.984141,10.531317],[119.942719,10.515041],[119.918793,10.548041],[119.914887,10.480862],[119.788585,10.456977],[119.778331,10.535468],[119.757091,10.534003],[119.843516,10.642239],[119.950206,10.603746]]],[[[122.711111,10.734687],[122.737071,10.640041],[122.68686,10.506008],[122.634451,10.444241],[122.526378,10.432359],[122.482432,10.503363],[122.545909,10.540717],[122.528575,10.591213],[122.564138,10.652574],[122.658458,10.748033],[122.711111,10.734687]]],[[[123.574474,10.830959],[123.485688,10.54914],[123.344737,10.347968],[123.296641,10.111477],[123.156749,9.867621],[123.170421,9.69599],[123.135427,9.618354],[123.177419,9.589911],[123.135509,9.55268],[123.180919,9.537421],[123.321137,9.343166],[123.317638,9.256903],[123.230154,9.107611],[123.033214,9.035305],[122.957693,9.081244],[122.8449,9.347073],[122.657237,9.401435],[122.551768,9.490953],[122.464366,9.646959],[122.423106,9.658433],[122.395193,9.836615],[122.461599,9.965806],[122.707774,9.986396],[122.872813,10.100409],[122.869395,10.350531],[122.814708,10.515041],[122.910411,10.597561],[122.97169,10.721096],[122.952159,10.847724],[122.993826,10.906724],[123.259776,10.994818],[123.3296,10.951402],[123.403575,10.953192],[123.396251,10.92593],[123.521821,10.919908],[123.574474,10.830959]]],[[[124.047374,10.834052],[124.020763,10.747748],[124.054942,10.590074],[124.018728,10.380805],[123.992849,10.357367],[123.979666,10.377183],[123.972911,10.326606],[123.868663,10.248196],[123.808116,10.23664],[123.656993,10.069322],[123.62908,9.887519],[123.488292,9.566474],[123.342459,9.406806],[123.314301,9.507636],[123.404959,9.878404],[123.387055,9.973782],[123.706798,10.461982],[123.729259,10.569241],[123.849294,10.752631],[123.934581,10.970445],[123.917735,11.028957],[123.945079,11.097846],[123.972911,11.077338],[123.958751,11.17593],[124.045665,11.277167],[124.074718,11.26911],[124.068126,11.233344],[123.999522,11.077338],[124.051931,11.043158],[124.047374,10.834052]]],[[[123.801036,11.179145],[123.818044,11.154731],[123.733653,11.154283],[123.704845,11.241197],[123.732758,11.283759],[123.754649,11.289537],[123.801036,11.179145]]],[[[119.671886,10.552558],[119.714122,10.53266],[119.709972,10.494534],[119.575857,10.38052],[119.378266,10.344143],[119.285981,10.261379],[119.1963,10.056342],[118.774181,9.934149],[118.750499,9.887519],[118.777843,9.734198],[118.700938,9.775539],[118.716319,9.692572],[118.758311,9.683336],[118.497895,9.313666],[118.365001,9.193061],[118.136974,9.130845],[118.013682,8.8876],[117.755382,8.690172],[117.565603,8.661078],[117.503184,8.500718],[117.344981,8.471259],[117.198009,8.334784],[117.263927,8.610093],[117.375987,8.746812],[117.435557,8.773139],[117.66863,9.066636],[117.750011,9.069403],[117.79656,9.163275],[117.889985,9.250556],[117.989513,9.267401],[118.016368,9.243232],[118.126964,9.337836],[118.360118,9.658433],[118.530528,9.774237],[118.763682,10.120754],[118.77947,10.056301],[118.832367,10.083645],[118.822276,10.194525],[118.949718,10.22016],[118.949718,10.282213],[119.02475,10.309556],[119.017914,10.357367],[118.97641,10.357367],[118.989757,10.383287],[119.072032,10.391506],[119.111095,10.480658],[119.127208,10.394924],[119.152843,10.398505],[119.263927,10.494127],[119.247244,10.542955],[119.309093,10.57453],[119.344981,10.723578],[119.223399,10.850816],[119.252615,10.887274],[119.237071,10.932685],[119.278575,10.927558],[119.291677,10.884955],[119.271251,10.884955],[119.312836,10.878119],[119.333263,10.823472],[119.46754,10.732652],[119.456798,10.830959],[119.370128,10.867743],[119.35906,10.92768],[119.319102,10.94302],[119.319998,11.000881],[119.325938,11.022773],[119.360606,11.000963],[119.325938,11.090399],[119.415294,11.05622],[119.43214,11.122219],[119.38795,11.186591],[119.428966,11.227525],[119.420584,11.297553],[119.491059,11.420885],[119.569021,11.261664],[119.516368,11.117499],[119.572439,11.015326],[119.517589,11.011868],[119.507335,10.874945],[119.531586,10.81981],[119.593435,10.837144],[119.590831,10.672431],[119.653575,10.675116],[119.671886,10.552558]]],[[[119.867198,11.51557],[119.869802,11.440619],[119.832856,11.378363],[119.832856,11.426174],[119.782074,11.411322],[119.730235,11.456448],[119.728689,11.478013],[119.781016,11.447699],[119.785167,11.494452],[119.823578,11.472561],[119.82602,11.508734],[119.867198,11.51557]]],[[[125.273936,10.323188],[125.26002,10.261054],[125.159353,10.281806],[125.134044,10.257961],[125.144054,10.200995],[125.117035,10.197496],[125.041759,10.364203],[124.979747,10.364203],[125.041759,10.028998],[124.882823,10.134955],[124.795177,10.143378],[124.765798,10.18594],[124.792247,10.32567],[124.735606,10.420315],[124.798106,10.659125],[124.778819,10.821438],[124.637218,10.994208],[124.562673,10.99433],[124.553559,10.908596],[124.514496,10.873684],[124.396821,10.953803],[124.404307,11.30268],[124.354747,11.328681],[124.370291,11.374945],[124.311371,11.466783],[124.297537,11.526801],[124.32602,11.554389],[124.480154,11.385199],[124.503266,11.443834],[124.629893,11.304429],[124.744395,11.328559],[124.854666,11.430976],[124.984141,11.381334],[124.96518,11.306383],[125.023448,11.227932],[125.034434,11.248033],[125.054454,11.010647],[125.013845,10.754584],[125.11199,10.707465],[125.194102,10.602973],[125.196544,10.446845],[125.273936,10.323188]]],[[[123.170421,11.48078],[123.122081,11.330634],[123.131358,11.182685],[123.04127,11.163398],[123.028331,11.109849],[122.950694,11.035793],[122.947276,11.062323],[122.789317,10.97606],[122.798025,10.875434],[122.744802,10.79564],[122.642751,10.781236],[122.589854,10.698717],[122.214529,10.634467],[122.101817,10.569322],[122.015798,10.445461],[121.949718,10.433173],[121.932465,10.508694],[121.984874,10.647284],[121.937022,10.775702],[122.045095,11.017401],[122.041759,11.300442],[122.107188,11.657945],[122.084483,11.724677],[121.853852,11.769436],[121.891856,11.88524],[121.958995,11.933173],[122.094412,11.834662],[122.377208,11.733222],[122.622325,11.508734],[122.654145,11.565985],[122.692638,11.542467],[122.724783,11.611762],[122.830333,11.605292],[122.944509,11.522406],[122.875824,11.465644],[122.900727,11.437934],[123.08961,11.52969],[123.156749,11.59809],[123.164399,11.537991],[123.129242,11.493801],[123.170421,11.48078]]],[[[120.02475,11.892971],[120.073253,11.865302],[120.039073,11.81037],[120.079926,11.789252],[120.047048,11.70893],[119.96697,11.664374],[119.950206,11.709377],[119.998057,11.796088],[119.943696,11.767035],[119.921153,11.788316],[119.854015,11.954413],[119.904796,11.976874],[120.021658,11.926459],[120.02475,11.892971]]],[[[120.347504,12.029486],[120.326427,11.995307],[120.251801,11.990871],[120.1421,12.029486],[120.114106,11.967434],[120.00115,12.011176],[119.89503,12.207668],[119.860362,12.159166],[119.872325,12.251695],[119.922374,12.276516],[119.87794,12.308092],[119.908702,12.323676],[119.935883,12.276516],[120.021495,12.253119],[120.196056,12.112006],[120.224132,12.219184],[120.251964,12.142483],[120.342133,12.080756],[120.319591,12.036322],[120.347504,12.029486]]],[[[122.687511,12.402818],[122.670177,12.317532],[122.625336,12.280992],[122.446056,12.396674],[122.423025,12.462877],[122.48113,12.493354],[122.632091,12.484524],[122.687511,12.402818]]],[[[125.712738,11.148749],[125.779633,11.052395],[125.760509,11.022773],[125.666677,11.141669],[125.588064,11.12226],[125.563813,11.156806],[125.531098,11.102281],[125.482432,11.127631],[125.424653,11.090399],[125.416515,11.116604],[125.306,11.147447],[125.232921,11.097846],[125.172374,11.265204],[125.000987,11.289781],[125.00294,11.419745],[124.917328,11.487047],[124.869884,11.46776],[124.828298,11.508734],[124.900076,11.548774],[124.89031,11.570217],[124.977794,11.59276],[124.991222,11.670315],[125.034434,11.727851],[125.055431,11.714179],[125.043712,11.757758],[124.892426,11.761461],[124.794119,11.85814],[124.823985,11.905829],[124.751964,11.910305],[124.679861,12.029731],[124.493175,12.097805],[124.390798,12.221869],[124.276215,12.533271],[124.293468,12.579983],[124.358409,12.544908],[124.67921,12.515937],[124.867931,12.530341],[124.87672,12.583726],[125.049571,12.529364],[125.099783,12.574652],[125.156993,12.575995],[125.272146,12.49901],[125.34962,12.3994],[125.312836,12.366685],[125.31601,12.302069],[125.450694,12.273627],[125.538259,12.183498],[125.459483,12.125678],[125.525157,12.056952],[125.443858,11.927883],[125.490489,11.799791],[125.447276,11.767768],[125.500499,11.701117],[125.470876,11.602607],[125.55421,11.436265],[125.637706,11.368476],[125.555024,11.211859],[125.599132,11.189114],[125.63087,11.200263],[125.628917,11.236314],[125.712738,11.148749]]],[[[124.054942,11.799791],[124.054861,11.725572],[123.855642,11.913398],[123.742931,11.926947],[123.716075,11.966742],[123.732677,12.008368],[123.659434,12.042955],[123.546397,12.188056],[123.485362,12.218085],[123.412364,12.188178],[123.354747,12.095404],[123.159679,11.917792],[123.210216,12.114976],[123.27003,12.159166],[123.259776,12.193996],[123.293956,12.235541],[123.21811,12.228095],[123.273448,12.423651],[123.231944,12.580634],[123.347341,12.55093],[123.355968,12.495592],[123.321137,12.450914],[123.434093,12.518622],[123.54713,12.460883],[123.609223,12.378892],[123.588145,12.35102],[123.621918,12.368354],[123.688243,12.337795],[123.79363,12.187161],[123.788422,12.231269],[123.818126,12.231838],[123.899425,12.18773],[124.054942,11.954413],[123.999522,12.008368],[124.058279,11.87519],[124.054942,11.799791]]],[[[122.279633,12.605455],[122.31129,12.536689],[122.279633,12.474514],[122.245616,12.570746],[122.279633,12.605455]]],[[[122.115245,12.666327],[122.156261,12.632148],[122.019054,12.10456],[121.965017,12.161444],[121.963715,12.228095],[121.973318,12.204495],[122.005382,12.231838],[121.929698,12.296373],[121.924083,12.339342],[121.993175,12.441799],[121.99586,12.592719],[122.115245,12.666327]]],[[[123.787364,12.375556],[123.769216,12.358954],[123.583181,12.623928],[123.609223,12.687445],[123.732677,12.591254],[123.787364,12.375556]]],[[[123.280284,12.864936],[123.375824,12.69359],[123.251964,12.832709],[123.035492,13.004381],[122.973888,13.018704],[122.958263,13.120022],[122.992198,13.153551],[123.039806,13.128079],[123.160167,12.937567],[123.280284,12.864936]]],[[[121.526134,12.704495],[121.545665,12.611233],[121.43629,12.512397],[121.412446,12.414984],[121.443614,12.365302],[121.381602,12.35102],[121.394542,12.307685],[121.34018,12.316636],[121.247813,12.219916],[121.113617,12.251288],[121.101085,12.330512],[121.142589,12.310045],[121.094412,12.345404],[121.08725,12.323676],[120.994884,12.413723],[120.916352,12.512397],[120.912446,12.634711],[120.854503,12.715318],[120.797862,12.729438],[120.758311,13.002387],[120.664887,13.155911],[120.525157,13.225653],[120.439952,13.427232],[120.340099,13.386298],[120.306651,13.444322],[120.321544,13.487779],[120.403168,13.52733],[120.737315,13.468248],[120.977387,13.530341],[120.973155,13.482733],[121.026866,13.421576],[121.108653,13.415961],[121.121593,13.372016],[121.190278,13.440904],[121.440766,13.209418],[121.43629,13.146064],[121.544444,13.130316],[121.549164,13.090644],[121.481944,12.990871],[121.485606,12.768459],[121.526134,12.704495]]],[[[122.101573,13.416693],[122.120291,13.356635],[122.0088,13.204779],[121.817231,13.341946],[121.814301,13.450507],[121.873057,13.568508],[121.90919,13.522895],[121.997895,13.550767],[122.039561,13.489325],[122.115245,13.464993],[122.101573,13.416693]]],[[[120.260916,13.711575],[120.268565,13.678697],[120.108246,13.776842],[120.093028,13.865302],[120.222179,13.815416],[120.271739,13.752509],[120.260916,13.711575]]],[[[124.417979,13.872952],[124.407481,13.683743],[124.366059,13.660712],[124.333344,13.572455],[124.293468,13.604071],[124.235199,13.591539],[124.187755,13.522895],[124.047374,13.606024],[124.035899,13.680813],[124.107432,13.745103],[124.129405,13.818305],[124.129649,14.064846],[124.207774,14.091254],[124.308116,13.90644],[124.329763,13.933092],[124.417979,13.872952]]],[[[122.104747,14.102607],[122.172699,14.053534],[122.177013,14.007066],[121.96518,14.142971],[121.926606,14.221259],[121.964041,14.226142],[122.104747,14.102607]]],[[[122.235362,14.797756],[122.256602,14.745917],[122.104991,14.837836],[122.203868,14.838772],[122.206309,14.796617],[122.235362,14.797756]]],[[[122.005382,15.010688],[122.048188,14.999457],[122.053071,14.962226],[122.005382,14.99018],[121.971528,14.862047],[122.02589,14.736314],[122.004161,14.673651],[121.940196,14.640082],[121.908702,14.670966],[121.933849,14.76496],[121.831391,14.940579],[121.826427,15.012152],[121.927989,15.052232],[121.993826,15.042914],[122.005382,15.010688]]],[[[121.388438,18.902981],[121.46697,18.881781],[121.406749,18.850816],[121.279145,18.862006],[121.388438,18.902981]]],[[[121.971202,18.984931],[121.990896,18.961127],[121.847179,18.824368],[121.871593,18.971259],[121.941661,19.010728],[121.971202,18.984931]]],[[[121.210948,19.176703],[121.252208,19.081285],[121.244965,19.018459],[121.190278,19.087348],[121.210948,19.176703]]],[[[121.526134,19.320705],[121.546723,19.282864],[121.470958,19.269232],[121.349864,19.370307],[121.395763,19.403266],[121.516612,19.393541],[121.526134,19.320705]]],[[[121.977306,19.577379],[121.997732,19.564927],[121.960948,19.491767],[121.896821,19.556871],[121.977306,19.577379]]],[[[121.841645,20.346015],[121.89324,20.313666],[121.869314,20.27619],[121.841645,20.346015]]],[[[122.009776,20.488471],[122.032725,20.473456],[121.938975,20.3487],[121.916026,20.375922],[122.009776,20.488471]]],[[[121.877208,20.770331],[121.829845,20.698961],[121.786388,20.70307],[121.855805,20.838324],[121.877208,20.770331]]],[[[119.483246,4.850898],[119.503591,4.764228],[119.467052,4.666449],[119.435395,4.902777],[119.483246,4.850898]]],[[[121.217459,5.820746],[121.23113,5.80093],[121.13502,5.807074],[121.162852,5.848049],[121.217459,5.820746]]],[[[121.381602,6.005683],[121.421235,5.987128],[121.419444,5.947984],[121.281423,5.859036],[121.227794,5.942125],[121.088227,5.891181],[121.008311,5.923774],[120.943614,5.886868],[120.876313,5.942572],[120.905528,6.015041],[121.077403,6.095282],[121.179047,6.063625],[121.217784,5.998928],[121.271251,6.02619],[121.381602,6.005683]]],[[[121.628917,6.657416],[121.623302,6.567532],[121.58961,6.620103],[121.628917,6.657416]]],[[[121.094493,10.895819],[121.062266,10.817572],[121.017589,10.834133],[121.094493,10.895819]]],[[[120.285167,11.930162],[120.263438,11.916164],[120.277192,11.831773],[120.203298,11.947577],[120.2588,11.967597],[120.285167,11.930162]]],[[[121.406423,12.062445],[121.401866,12.002834],[121.371837,12.011135],[121.358653,12.114691],[121.406423,12.062445]]],[[[119.959727,8.880601],[119.960623,8.877102],[119.958344,8.877183],[119.959727,8.880601]]],[[[119.969249,8.880927],[119.968272,8.884101],[119.971934,8.882392],[119.969249,8.880927]]],[[[119.965343,8.887193],[119.964854,8.884996],[119.963227,8.88703],[119.965343,8.887193]]],[[[119.967784,8.891547],[119.967296,8.88935],[119.965668,8.891425],[119.967784,8.891547]]],[[[121.723969,12.913967],[121.684744,12.920152],[121.68865,12.94717],[121.723969,12.913967]]],[[[121.088634,13.530341],[121.043468,13.561225],[121.091319,13.562323],[121.088634,13.530341]]],[[[121.936697,21.065619],[121.929698,21.064521],[121.934825,21.073228],[121.936697,21.065619]]],[[[121.947439,21.116156],[121.954275,21.118394],[121.949067,21.106879],[121.947439,21.116156]]],[[[119.830903,4.82095],[119.85377,4.808254],[119.833995,4.796617],[119.830903,4.82095]]],[[[119.836925,4.86286],[119.798595,4.879788],[119.804373,4.927436],[119.842621,4.904853],[119.836925,4.86286]]],[[[119.79656,5.057603],[119.752126,5.036078],[119.79835,5.121039],[119.79656,5.057603]]],[[[125.418712,5.425482],[125.42335,5.377916],[125.343272,5.380601],[125.358165,5.422065],[125.418712,5.425482]]],[[[120.860118,5.703843],[120.860118,5.675849],[120.808116,5.664293],[120.807384,5.695705],[120.860118,5.703843]]],[[[120.904307,5.759101],[120.924327,5.711737],[120.89088,5.709784],[120.904307,5.759101]]],[[[123.841319,9.642401],[123.862315,9.608547],[123.804535,9.560289],[123.765147,9.549954],[123.737641,9.579088],[123.841319,9.642401]]],[[[124.606944,10.140326],[124.597667,10.094184],[124.529552,10.068549],[124.535655,10.114691],[124.606944,10.140326]]],[[[121.474132,11.866848],[121.510509,11.855943],[121.495372,11.827826],[121.42628,11.842434],[121.474132,11.866848]]],[[[124.206228,12.081244],[124.228038,12.073676],[124.150238,12.04385],[124.206228,12.081244]]],[[[121.115977,12.196763],[121.108653,12.162502],[121.051606,12.220933],[121.059906,12.278388],[121.115977,12.196763]]],[[[124.16863,12.398139],[124.1338,12.459418],[124.176606,12.432685],[124.16863,12.398139]]],[[[124.148611,13.185777],[124.069021,13.203762],[124.138845,13.234198],[124.209646,13.195787],[124.196788,13.173326],[124.148611,13.185777]]],[[[124.086274,13.260443],[124.025401,13.221991],[123.914806,13.279608],[124.086274,13.260443]]],[[[123.89031,13.274075],[123.884288,13.229926],[123.845958,13.27025],[123.848888,13.354153],[123.92213,13.329983],[123.89031,13.274075]]],[[[123.801524,13.366034],[123.775157,13.391588],[123.827485,13.373114],[123.801524,13.366034]]],[[[122.411794,14.725816],[122.397797,14.685858],[122.319347,14.683498],[122.411794,14.725816]]],[[[120.005056,16.268622],[119.992931,16.23017],[119.922374,16.303778],[119.98406,16.3487],[120.005056,16.268622]]],[[[123.991649,10.324284],[124.038621,10.329503],[123.988518,10.266874],[123.933196,10.254348],[123.947809,10.306539],[123.991649,10.324284]]]]}}