{"type":"Feature","properties":{"iso3":"PLW","name":"Palau","continent":"Oceania"},"geometry":{"type":"MultiPolygon","coordinates":[[[[134.271495,7.07453],[134.284434,7.062649],[134.271495,7.033596],[134.279959,7.020494],[134.257823,7.013088],[134.234386,6.98432],[134.235688,7.00849],[134.271495,7.07453]]],[[[134.463878,7.294257],[134.449229,7.290025],[134.463878,7.263577],[134.458344,7.256741],[134.425955,7.253323],[134.392914,7.224514],[134.364919,7.221503],[134.349132,7.237779],[134.347911,7.267808],[134.382579,7.237942],[134.401703,7.246487],[134.443858,7.287421],[134.441091,7.316718],[134.458995,7.307685],[134.463878,7.294257]]],[[[134.471365,7.362494],[134.511892,7.347317],[134.527354,7.331529],[134.522227,7.311347],[134.511892,7.30858],[134.491222,7.342678],[134.477794,7.346869],[134.449474,7.328355],[134.449555,7.355414],[134.471365,7.362494]]],[[[134.648204,7.719428],[134.660167,7.686021],[134.658214,7.591051],[134.625743,7.530504],[134.635997,7.50316],[134.59962,7.442572],[134.594249,7.421129],[134.601085,7.383612],[134.591645,7.366889],[134.559337,7.376166],[134.5442,7.358547],[134.528005,7.357571],[134.499278,7.438218],[134.485525,7.444159],[134.487559,7.469916],[134.511567,7.493476],[134.515473,7.480536],[134.533865,7.485989],[134.536143,7.507961],[134.511567,7.527655],[134.54477,7.561835],[134.556977,7.601142],[134.586111,7.620551],[134.63502,7.62934],[134.640961,7.645982],[134.62143,7.729682],[134.634288,7.732164],[134.648204,7.719428]]],[[[131.1421,3.047309],[131.160899,3.058783],[131.183604,3.060289],[131.192068,3.048814],[131.180431,3.033271],[131.138438,3.018948],[131.131114,3.029486],[131.1421,3.047309]]],[[[132.220388,5.292222],[132.213878,5.307115],[132.220225,5.310248],[132.226736,5.304348],[132.220388,5.292222]]],[[[134.159679,6.884467],[134.136729,6.919094],[134.139659,6.934272],[134.159841,6.935004],[134.173188,6.924872],[134.17335,6.893744],[134.159679,6.884467]]],[[[131.791515,2.977729],[131.806407,2.97427],[131.812999,2.960435],[131.795177,2.949042],[131.778819,2.952826],[131.775401,2.964057],[131.791515,2.977729]]],[[[134.709676,8.096618],[134.722248,8.096466],[134.727343,8.082879],[134.718108,8.058676],[134.701245,8.050245],[134.692814,8.075539],[134.709676,8.096618]]]]}}