{"type":"Feature","properties":{"iso3":"PNG","name":"Papua New Guinea","continent":"Oceania"},"geometry":{"type":"MultiPolygon","coordinates":[[[[140.974457,-2.600518],[141.081309,-2.594334],[141.264659,-2.638604],[141.338227,-2.701837],[141.832774,-2.905938],[141.885427,-2.9638],[142.000011,-2.955987],[142.064952,-3.008966],[142.062836,-3.060154],[142.137462,-3.055597],[142.948985,-3.335056],[143.52296,-3.435968],[143.607921,-3.532973],[143.818044,-3.621677],[144.021495,-3.802992],[144.167003,-3.800551],[144.12615,-3.814142],[144.249685,-3.867852],[144.309906,-3.798435],[144.498709,-3.813897],[144.546886,-3.863214],[144.572927,-3.990981],[144.730317,-4.026056],[144.867849,-4.099216],[144.865001,-4.161554],[144.991222,-4.232354],[144.996104,-4.274998],[145.07781,-4.356622],[145.181326,-4.390232],[145.345714,-4.390232],[145.690196,-4.768243],[145.801443,-4.842462],[145.792735,-5.202569],[145.727387,-5.422459],[145.759613,-5.476983],[145.872406,-5.48211],[145.886974,-5.513604],[145.956309,-5.474705],[146.295421,-5.582778],[146.460948,-5.599298],[146.812755,-5.838556],[146.932872,-5.841974],[147.007823,-5.924493],[147.225108,-5.968845],[147.343598,-5.930759],[147.513682,-6.005548],[147.621755,-6.106622],[147.726248,-6.272231],[147.826671,-6.335382],[147.865489,-6.463149],[147.854015,-6.691013],[147.573009,-6.7492],[147.194835,-6.738539],[147.147634,-6.712823],[146.962657,-6.747003],[146.956228,-6.954685],[147.027192,-7.032322],[147.059581,-7.020766],[147.063813,-7.132745],[147.141368,-7.213067],[147.182384,-7.452081],[147.354503,-7.515313],[147.487315,-7.616306],[147.503266,-7.678318],[147.585948,-7.718438],[147.606944,-7.816502],[147.655284,-7.809666],[147.634776,-7.767999],[147.68336,-7.810724],[147.726817,-7.932061],[147.876475,-7.937188],[147.967296,-7.987074],[148.018077,-8.057712],[148.13502,-8.046075],[148.236095,-8.441502],[148.229503,-8.55462],[148.436778,-8.666192],[148.48113,-8.730645],[148.496349,-8.882989],[148.585623,-9.06406],[148.767426,-9.10003],[148.921397,-9.044203],[149.069102,-9.035089],[149.141856,-8.974542],[149.153575,-9.003595],[149.284353,-9.008477],[149.324392,-9.033949],[149.306407,-9.09002],[149.326834,-9.097589],[149.302501,-9.104099],[149.334239,-9.145278],[149.272227,-9.172621],[149.19044,-9.343927],[149.226573,-9.486749],[149.619884,-9.620864],[149.753754,-9.600763],[150.000987,-9.634047],[150.048839,-9.684503],[150.055919,-9.71502],[149.806651,-9.775323],[149.720958,-9.830662],[149.8567,-9.975193],[149.854503,-10.014907],[149.977306,-10.075453],[150.177257,-10.093194],[150.382172,-10.201593],[150.601736,-10.20672],[150.583263,-10.228448],[150.627208,-10.277927],[150.874034,-10.224705],[150.653087,-10.338474],[150.399913,-10.300226],[150.366466,-10.326918],[150.361501,-10.399672],[150.647309,-10.476983],[150.687348,-10.56756],[150.48699,-10.621677],[150.429535,-10.674249],[150.368907,-10.687677],[150.319347,-10.662042],[150.211274,-10.701349],[150.187755,-10.657892],[150.012055,-10.611993],[150.018321,-10.578058],[149.854503,-10.55047],[149.893728,-10.498468],[149.991954,-10.51393],[150.081554,-10.461114],[149.954763,-10.426446],[149.92335,-10.488458],[149.872081,-10.396091],[149.748383,-10.338311],[149.572602,-10.337498],[149.5088,-10.364923],[149.368419,-10.276137],[149.314789,-10.302179],[149.101573,-10.234633],[148.978038,-10.276137],[148.761241,-10.236017],[148.737804,-10.186782],[148.767426,-10.158298],[148.710216,-10.150974],[148.689301,-10.104913],[148.641612,-10.18377],[148.402029,-10.200453],[148.163422,-10.077732],[147.977387,-10.166274],[147.913341,-10.0888],[147.854015,-10.098077],[147.879649,-10.052179],[147.85906,-10.044854],[147.844737,-10.078546],[147.785411,-10.054457],[147.723643,-10.098077],[147.699392,-10.014907],[147.608409,-9.979913],[147.509532,-9.864923],[147.490977,-9.767673],[147.310069,-9.538832],[147.172618,-9.513279],[147.122244,-9.431248],[147.095958,-9.429457],[147.107677,-9.474542],[147.069998,-9.473403],[146.966075,-9.279067],[146.905528,-9.281996],[146.892426,-9.140069],[146.976817,-9.076104],[146.975352,-9.033461],[146.872813,-9.106541],[146.601817,-9.006036],[146.54835,-8.892022],[146.606456,-8.802016],[146.575857,-8.821954],[146.435313,-8.61061],[146.363048,-8.560968],[146.277192,-8.435235],[146.235118,-8.274347],[146.099864,-8.165216],[146.102794,-8.100274],[145.798106,-8.007013],[145.770844,-7.969985],[145.79127,-7.911879],[145.722504,-7.93255],[145.73699,-7.952732],[145.441905,-7.944106],[145.321625,-7.861993],[145.234386,-7.858819],[145.191905,-7.818455],[145.124278,-7.830743],[145.081879,-7.778741],[145.071137,-7.80641],[144.996267,-7.816502],[144.955333,-7.775486],[144.872406,-7.769952],[144.850922,-7.758071],[144.852306,-7.569431],[144.824962,-7.68255],[144.771007,-7.681085],[144.653575,-7.561293],[144.661143,-7.63421],[144.604015,-7.656915],[144.564464,-7.625258],[144.522309,-7.496189],[144.523285,-7.669041],[144.42156,-7.526544],[144.413422,-7.569431],[144.507823,-7.798028],[144.413422,-7.720147],[144.384532,-7.751886],[144.311046,-7.610284],[144.333832,-7.688653],[144.307465,-7.692641],[144.269542,-7.630792],[144.228526,-7.658136],[144.254405,-7.66725],[144.242198,-7.726332],[144.276215,-7.767999],[144.228526,-7.789158],[143.85141,-7.651788],[143.765798,-7.506036],[143.646251,-7.438409],[143.681163,-7.50156],[143.745616,-7.523696],[143.856212,-7.808282],[143.956798,-7.972263],[143.922699,-7.988539],[143.87908,-7.939223],[143.803966,-7.93255],[143.913829,-8.007582],[143.860688,-8.041274],[143.767345,-8.040216],[143.65089,-7.981378],[143.506358,-7.99391],[143.448416,-7.918878],[143.364024,-7.896417],[143.548025,-8.031671],[143.627615,-8.186293],[143.612478,-8.23919],[143.337901,-8.247735],[142.957856,-8.337172],[142.683604,-8.26922],[142.514008,-8.331964],[142.413829,-8.310479],[142.360037,-8.167087],[142.224783,-8.173272],[142.159679,-8.206801],[142.159679,-8.240899],[142.231212,-8.193943],[142.354015,-8.188735],[142.397309,-8.328058],[142.452159,-8.373305],[142.632091,-8.309259],[142.769298,-8.329767],[142.899669,-8.412856],[143.102061,-8.467218],[143.261567,-8.59238],[143.399913,-8.782159],[143.406016,-8.944513],[143.372569,-8.99977],[143.052745,-9.093357],[142.652599,-9.330255],[142.577322,-9.323826],[142.465099,-9.240492],[142.223399,-9.161228],[141.621267,-9.234063],[141.345876,-9.141534],[141.152599,-9.232192],[140.97698,-9.106134],[140.977162,-6.896632],[140.916029,-6.862732],[140.849211,-6.702846],[140.8504,-6.623574],[140.90497,-6.589467],[140.967085,-6.393924],[140.974457,-2.600518]]],[[[153.761567,-11.58587],[153.780935,-11.598891],[153.564464,-11.636326],[153.556895,-11.599867],[153.490245,-11.590753],[153.472992,-11.55047],[153.435557,-11.578383],[153.372813,-11.559015],[153.372813,-11.490899],[153.288097,-11.523126],[153.32252,-11.484308],[153.194591,-11.367852],[153.205577,-11.317071],[153.547862,-11.484633],[153.695649,-11.521254],[153.761567,-11.58587]]],[[[154.281749,-11.34824],[154.302257,-11.385919],[154.268077,-11.420668],[154.219493,-11.396173],[154.163422,-11.417739],[154.144705,-11.392185],[154.096202,-11.429132],[154.017345,-11.387465],[154.021169,-11.344985],[154.143321,-11.368341],[154.095225,-11.328302],[154.178722,-11.310805],[154.281749,-11.34824]]],[[[153.185069,-11.277439],[153.199229,-11.263116],[153.101085,-11.197931],[153.117035,-11.180841],[153.235606,-11.238539],[153.243337,-11.263442],[153.185069,-11.277439]]],[[[152.808279,-10.632501],[152.871837,-10.66546],[152.731212,-10.706801],[152.540782,-10.632501],[152.67335,-10.655369],[152.808279,-10.632501]]],[[[151.074718,-10.605727],[151.031993,-10.671075],[151.007091,-10.642999],[150.954763,-10.635512],[150.933767,-10.672133],[150.914561,-10.652114],[150.934093,-10.599867],[151.074718,-10.605727]]],[[[150.875499,-10.53631],[150.899181,-10.550877],[150.882335,-10.653497],[150.793468,-10.639907],[150.766856,-10.605727],[150.860199,-10.625909],[150.799571,-10.534601],[150.875499,-10.53631]]],[[[151.177013,-9.954685],[151.246349,-9.922296],[151.300629,-9.967706],[151.226817,-10.182061],[150.958018,-10.104913],[150.952322,-10.034112],[150.992524,-9.993829],[150.95045,-9.954685],[150.907237,-9.997328],[150.852224,-9.84881],[150.760509,-9.783298],[150.757579,-9.71559],[151.048106,-9.935154],[151.035411,-9.984552],[151.089692,-10.027927],[151.13502,-10.041925],[151.177013,-9.954685]]],[[[150.800955,-9.652439],[150.433604,-9.63128],[150.513682,-9.54697],[150.457774,-9.48797],[150.43214,-9.36533],[150.505544,-9.33766],[150.656098,-9.431085],[150.759451,-9.399184],[150.79835,-9.425714],[150.885753,-9.515802],[150.863536,-9.574314],[150.930919,-9.652439],[150.841319,-9.713962],[150.848155,-9.653985],[150.800955,-9.652439]]],[[[150.368907,-9.37184],[150.335216,-9.471287],[150.361501,-9.474298],[150.355235,-9.501642],[150.312266,-9.519464],[150.114106,-9.369236],[150.112804,-9.299412],[150.214529,-9.205824],[150.31544,-9.259454],[150.368907,-9.37184]]],[[[152.995469,-9.141299],[152.985923,-9.192577],[152.929447,-9.191946],[152.967416,-9.256546],[152.942356,-9.228055],[152.811554,-9.254673],[152.744234,-9.181268],[152.735896,-9.2604],[152.644216,-9.182558],[152.695546,-9.186317],[152.696815,-9.139514],[152.598097,-9.068639],[152.47162,-9.04513],[152.494734,-9.000178],[152.451666,-8.96527],[152.425949,-8.982342],[152.421424,-9.083721],[152.388623,-8.991155],[152.452304,-8.94499],[152.51787,-8.996409],[152.774954,-9.000954],[152.995469,-9.141299]]],[[[151.112559,-8.76865],[151.144542,-8.816176],[151.045421,-8.732843],[151.119477,-8.579034],[150.999034,-8.518162],[151.061046,-8.42962],[151.129242,-8.419122],[151.112559,-8.76865]]],[[[143.608409,-8.638116],[143.644379,-8.66131],[143.642345,-8.72617],[143.188487,-8.429864],[143.207367,-8.414158],[143.256033,-8.456964],[143.465099,-8.52158],[143.608409,-8.638116]]],[[[143.379405,-8.425958],[143.316661,-8.372247],[143.573741,-8.373712],[143.610606,-8.47503],[143.530121,-8.485528],[143.379405,-8.425958]]],[[[148.049164,-5.606134],[148.077485,-5.65781],[148.067638,-5.74684],[147.998546,-5.847589],[147.969005,-5.786228],[147.867524,-5.746352],[147.769054,-5.611749],[147.767345,-5.521254],[147.781912,-5.495294],[147.858897,-5.496759],[148.049164,-5.606134]]],[[[155.933442,-6.640802],[155.96754,-6.727146],[155.930186,-6.793634],[155.912364,-6.809015],[155.92449,-6.738214],[155.878184,-6.801528],[155.816417,-6.782159],[155.697032,-6.876642],[155.523611,-6.839125],[155.330089,-6.719659],[155.173106,-6.527927],[155.224864,-6.500746],[155.234874,-6.45436],[155.214854,-6.317071],[154.981781,-6.199477],[154.959646,-6.130629],[154.75587,-5.947849],[154.74879,-5.834731],[154.701671,-5.773858],[154.727387,-5.575128],[154.770356,-5.55877],[154.700206,-5.431085],[154.774425,-5.449395],[154.891938,-5.55462],[155.064952,-5.547784],[155.187022,-5.75213],[155.203949,-5.853611],[155.364268,-5.951837],[155.502778,-6.189223],[155.551036,-6.178806],[155.590831,-6.219985],[155.623057,-6.190851],[155.758556,-6.343683],[155.813324,-6.364841],[155.916759,-6.517511],[155.933442,-6.640802]]],[[[148.100352,-5.37656],[148.146495,-5.41961],[148.12086,-5.465265],[148.076345,-5.428643],[148.100352,-5.37656]]],[[[147.606944,-5.287205],[147.647797,-5.321222],[147.600108,-5.362888],[147.562185,-5.318129],[147.606944,-5.287205]]],[[[147.209646,-5.269952],[147.243826,-5.355401],[147.21518,-5.430352],[147.161876,-5.444757],[147.099132,-5.423761],[147.005138,-5.319431],[147.018077,-5.24391],[147.112559,-5.191827],[147.209646,-5.269952]]],[[[154.727387,-5.211358],[154.688731,-5.427341],[154.631847,-5.45908],[154.562185,-5.239679],[154.577647,-5.119561],[154.535655,-5.137465],[154.62436,-5.01336],[154.679047,-5.046563],[154.69337,-5.170505],[154.727387,-5.211358]]],[[[149.121918,-4.883071],[149.180431,-4.879164],[149.156098,-4.924005],[149.121918,-4.883071]]],[[[146.202891,-4.82464],[146.243337,-4.787367],[146.263845,-4.835219],[146.23227,-4.853285],[146.202891,-4.82464]]],[[[149.519298,-4.643487],[149.563813,-4.712823],[149.512462,-4.663344],[149.478282,-4.711684],[149.4546,-4.692478],[149.519298,-4.643487]]],[[[145.996837,-4.534275],[146.048106,-4.585138],[146.055186,-4.659926],[146.028575,-4.721449],[145.93922,-4.760919],[145.879161,-4.702732],[145.880707,-4.649591],[145.955903,-4.538995],[145.996837,-4.534275]]],[[[152.417979,-4.34531],[152.36085,-4.506524],[152.411632,-4.68377],[152.386404,-4.791192],[152.29184,-4.935479],[152.157725,-4.999282],[151.974376,-4.984145],[151.97755,-5.148614],[152.147472,-5.345798],[152.089854,-5.457696],[151.834239,-5.59295],[151.739431,-5.534112],[151.671153,-5.529555],[151.606619,-5.571954],[151.580821,-5.535333],[151.479015,-5.52988],[151.445323,-5.569431],[151.530284,-5.647149],[151.515391,-5.681573],[151.431407,-5.707452],[151.355479,-5.834161],[151.286876,-5.856215],[151.182791,-5.964288],[151.086925,-5.985772],[151.061046,-6.029392],[150.972341,-6.020766],[150.880382,-6.053888],[150.827647,-6.01393],[150.796072,-6.120294],[150.625011,-6.157647],[150.421397,-6.286065],[150.246755,-6.29697],[150.163422,-6.259698],[150.103363,-6.302667],[150.054047,-6.257745],[150.012055,-6.321222],[149.98878,-6.274021],[149.92335,-6.308201],[149.727794,-6.287693],[149.635427,-6.308201],[149.488129,-6.12005],[149.320567,-6.054864],[149.236339,-6.093683],[149.1692,-6.082208],[149.141856,-6.14422],[149.065278,-6.161879],[149.080089,-6.11004],[149.033214,-6.068536],[149.053071,-6.006524],[149.012055,-6.027602],[148.868175,-5.992852],[148.881847,-5.951837],[148.804454,-5.915134],[148.779307,-5.931329],[148.764415,-5.862726],[148.635753,-5.817071],[148.57016,-5.841974],[148.397227,-5.778904],[148.328949,-5.68377],[148.342052,-5.533298],[148.422537,-5.451593],[148.556407,-5.539972],[148.665375,-5.482029],[148.832774,-5.533868],[148.978038,-5.465265],[149.224376,-5.599298],[149.430431,-5.561456],[149.492198,-5.586602],[149.614919,-5.513604],[149.663259,-5.52044],[149.670095,-5.478936],[149.709321,-5.567478],[149.792817,-5.521417],[149.911469,-5.515069],[149.980235,-5.438084],[149.92335,-5.339288],[150.026378,-5.22503],[150.034923,-5.034356],[150.112559,-5.007745],[150.199474,-5.070571],[150.075369,-5.159112],[150.084158,-5.250909],[150.032074,-5.29518],[150.161306,-5.546645],[150.306895,-5.561456],[150.411876,-5.463149],[150.474132,-5.447931],[150.59254,-5.486993],[150.633962,-5.556736],[150.70338,-5.539972],[150.763927,-5.456476],[150.809581,-5.443292],[150.905935,-5.490004],[151.022227,-5.390313],[151.033376,-5.258884],[151.082856,-5.163832],[151.261974,-4.988946],[151.357921,-4.946547],[151.368907,-4.903497],[151.473399,-4.940199],[151.534028,-4.916599],[151.612478,-4.96559],[151.678966,-4.90016],[151.695649,-4.81878],[151.657481,-4.608087],[151.609141,-4.451755],[151.518565,-4.310642],[151.507335,-4.229181],[151.540294,-4.17669],[151.804535,-4.21087],[151.852875,-4.230645],[151.882091,-4.305108],[151.964692,-4.331231],[152.030284,-4.276625],[152.008637,-4.191664],[152.126231,-4.20436],[152.185069,-4.142511],[152.245779,-4.235121],[152.172048,-4.22031],[152.177908,-4.296808],[152.417979,-4.34531]]],[[[145.078868,-4.047052],[145.10613,-4.101007],[145.054698,-4.128839],[145.023692,-4.070489],[145.078868,-4.047052]]],[[[153.191742,-3.470961],[153.221934,-3.448175],[153.260102,-3.498956],[153.191742,-3.470961]]],[[[153.301606,-3.368585],[153.343272,-3.416274],[153.267589,-3.403253],[153.301606,-3.368585]]],[[[154.641971,-3.262332],[154.737858,-3.44185],[154.613479,-3.24101],[154.55318,-3.206315],[154.627763,-3.226888],[154.641971,-3.262332]]],[[[152.650645,-3.114679],[152.671153,-3.128351],[152.643809,-3.224542],[152.544243,-3.130871],[152.531557,-3.075272],[152.574661,-3.040101],[152.650645,-3.046482],[152.650645,-3.114679]]],[[[150.992198,-2.957696],[151.012869,-2.958591],[150.992198,-2.984308],[150.856944,-2.959568],[150.776703,-2.984308],[150.882335,-2.903009],[150.992198,-2.957696]]],[[[152.071544,-2.916681],[152.078871,-2.956761],[152.025356,-2.996072],[151.958507,-2.875177],[151.971934,-2.847833],[152.071544,-2.916681]]],[[[152.013194,-2.806817],[151.927562,-2.851772],[151.913038,-2.705389],[152.005056,-2.74212],[152.013194,-2.806817]]],[[[151.982432,-2.662774],[151.960297,-2.626723],[151.999522,-2.594496],[152.037364,-2.642348],[151.982432,-2.662774]]],[[[153.137218,-4.269464],[153.137218,-4.375909],[153.041026,-4.485772],[153.075206,-4.601821],[152.897716,-4.848321],[152.732595,-4.649591],[152.700531,-4.561212],[152.67213,-4.465265],[152.703868,-4.289972],[152.687836,-4.163832],[152.523204,-3.863865],[152.359874,-3.694106],[152.288585,-3.569757],[152.171072,-3.490167],[151.945486,-3.444268],[151.809093,-3.361098],[151.612478,-3.166192],[151.473888,-3.117608],[151.430431,-3.053318],[151.007579,-2.790948],[150.759776,-2.768813],[150.747325,-2.71795],[150.892426,-2.697524],[150.869884,-2.63714],[150.793468,-2.615004],[150.813975,-2.573989],[151.170421,-2.785089],[151.216319,-2.869236],[151.437348,-2.908868],[151.780447,-3.135837],[151.798595,-3.17783],[152.052501,-3.246677],[152.186778,-3.431573],[152.358897,-3.537693],[152.417247,-3.644952],[152.444672,-3.669122],[152.492931,-3.642836],[152.585297,-3.824884],[152.755219,-3.896173],[152.812266,-3.874282],[152.871104,-3.990899],[152.946056,-3.985528],[152.958995,-4.040704],[153.137218,-4.269464]]],[[[150.465099,-2.532485],[150.451345,-2.65838],[150.177257,-2.676446],[150.04713,-2.51629],[149.957774,-2.477634],[150.19337,-2.377048],[150.423595,-2.467218],[150.465099,-2.532485]]],[[[147.826671,-2.237563],[147.863617,-2.278253],[147.858165,-2.324477],[147.816417,-2.347426],[147.730479,-2.32643],[147.78712,-2.3117],[147.826671,-2.237563]]],[[[147.432791,-1.983819],[147.431163,-2.060805],[147.333181,-2.06699],[147.327159,-2.045505],[147.20574,-2.18613],[147.139496,-2.165297],[146.954926,-2.194757],[146.802501,-2.169366],[146.702403,-2.114353],[146.727712,-2.17669],[146.64796,-2.169366],[146.586599,-2.224379],[146.538097,-2.203546],[146.520193,-2.149591],[146.620616,-2.093683],[146.580577,-1.995212],[146.626801,-2.011651],[146.657888,-1.963311],[147.110037,-1.963311],[147.147634,-2.004978],[147.171072,-1.980401],[147.422618,-2.045831],[147.386974,-1.968927],[147.432791,-1.983819]]],[[[149.735037,-1.473565],[149.792979,-1.580336],[149.729503,-1.590509],[149.701996,-1.560724],[149.68336,-1.581313],[149.546886,-1.482192],[149.539806,-1.42547],[149.572276,-1.358575],[149.618663,-1.353774],[149.710948,-1.415134],[149.735037,-1.473565]]],[[[154.192149,-4.464614],[154.25408,-4.526544],[154.23227,-4.580662],[154.185313,-4.546075],[154.185313,-4.519952],[154.21697,-4.567966],[154.241954,-4.527927],[154.192149,-4.464614]]],[[[154.151378,-4.438084],[154.134532,-4.377211],[154.151215,-4.378839],[154.151378,-4.438084]]],[[[152.486583,-4.136326],[152.492686,-4.21087],[152.431326,-4.163018],[152.486583,-4.136326]]],[[[153.664806,-4.040704],[153.670584,-4.090265],[153.629649,-4.129978],[153.59197,-4.083591],[153.643809,-4.022556],[153.664806,-4.040704]]],[[[153.719249,-3.9992],[153.747081,-4.014907],[153.732921,-4.040704],[153.678884,-4.026462],[153.719249,-3.9992]]],[[[152.094493,-10.402032],[152.099132,-10.390883],[152.110118,-10.39129],[152.094493,-10.402032]]],[[[151.86964,-10.344822],[151.868419,-10.337823],[151.877452,-10.334161],[151.86964,-10.344822]]],[[[151.852712,-10.259535],[151.862315,-10.250258],[151.856619,-10.264907],[151.852712,-10.259535]]],[[[144.600271,-3.49977],[144.618663,-3.508722],[144.599864,-3.518162],[144.600271,-3.49977]]],[[[144.061569,-3.215308],[144.095799,-3.188539],[144.115155,-3.247935],[144.061569,-3.215308]]],[[[142.818126,-1.733331],[142.833507,-1.697035],[142.865489,-1.703302],[142.818126,-1.733331]]],[[[151.024669,-9.63893],[151.031261,-9.660821],[150.959809,-9.59238],[151.011729,-9.585056],[151.024669,-9.63893]]],[[[143.815929,-8.495375],[143.813487,-8.530857],[143.782563,-8.527602],[143.815929,-8.495375]]],[[[143.674327,-8.390558],[143.667735,-8.427992],[143.540863,-8.35003],[143.63795,-8.34059],[143.674327,-8.390558]]],[[[143.662934,-8.109308],[143.688243,-8.153578],[143.666677,-8.167413],[143.599376,-8.110772],[143.662934,-8.109308]]],[[[143.675629,-8.053806],[143.697602,-8.090916],[143.607107,-8.08172],[143.56422,-8.029962],[143.675629,-8.053806]]],[[[151.188487,-4.891534],[151.223318,-4.91839],[151.206798,-4.947524],[151.119477,-4.925714],[151.188487,-4.891534]]],[[[143.585216,-3.378676],[143.507172,-3.347589],[143.51588,-3.320408],[143.593923,-3.348728],[143.585216,-3.378676]]],[[[150.004242,-1.672621],[149.91212,-1.664158],[149.956309,-1.633477],[150.004242,-1.672621]]]]}}