{"type":"Feature","properties":{"iso3":"POL","name":"Poland","continent":"Europe"},"geometry":{"type":"Polygon","coordinates":[[[18.833196,49.510261],[18.792579,49.660794],[18.617706,49.713866],[18.566753,49.804765],[18.593831,49.852204],[18.544428,49.912975],[18.481797,49.896645],[18.368832,49.932044],[18.306923,49.909668],[18.002446,50.046765],[18.032418,50.00284],[17.839355,49.973643],[17.774553,50.015191],[17.732592,50.092964],[17.632753,50.106348],[17.584177,50.145881],[17.600403,50.16681],[17.738173,50.202363],[17.713575,50.30768],[17.606398,50.258225],[17.419122,50.242722],[17.388013,50.272643],[17.355044,50.253264],[17.316803,50.318635],[17.210866,50.336412],[17.185442,50.375686],[16.892953,50.432943],[16.865771,50.422401],[17.014806,50.218486],[16.960339,50.231974],[16.795284,50.174406],[16.660616,50.093016],[16.566668,50.142212],[16.535042,50.207738],[16.350764,50.360648],[16.2625,50.36442],[16.199559,50.406278],[16.226534,50.455371],[16.362029,50.501208],[16.425901,50.567561],[16.331644,50.644042],[16.086491,50.64678],[15.982001,50.603631],[15.971459,50.678613],[15.854567,50.673704],[15.76744,50.744191],[15.684345,50.731426],[15.441775,50.800208],[15.356096,50.775455],[15.341006,50.83173],[15.265352,50.88227],[15.253776,50.969035],[15.170164,50.977975],[15.156108,51.007844],[15.119211,50.982471],[15.003973,51.020685],[14.961081,50.992651],[14.996635,50.959216],[14.984129,50.867697],[14.810393,50.858447],[14.955293,51.064042],[15.019476,51.271678],[14.963768,51.328393],[14.945061,51.449186],[14.710037,51.530241],[14.743937,51.606644],[14.732465,51.658347],[14.585807,51.803893],[14.687093,51.911897],[14.699082,51.992512],[14.761403,52.076667],[14.696394,52.106691],[14.712414,52.235908],[14.584153,52.291228],[14.545396,52.382153],[14.539815,52.421866],[14.632316,52.496745],[14.609061,52.517803],[14.644821,52.576921],[14.123923,52.850651],[14.164954,52.895661],[14.150485,52.943643],[14.343341,53.048624],[14.38954,53.131668],[14.380651,53.189855],[14.44163,53.251841],[14.403286,53.27879],[14.359878,53.444077],[14.30417,53.508518],[14.263863,53.699876],[14.318044,53.739732],[14.531016,53.657782],[14.579112,53.607245],[14.62379,53.652818],[14.544932,53.704047],[14.575938,53.769517],[14.62379,53.769517],[14.630626,53.851508],[14.58961,53.817328],[14.575857,53.854804],[14.393809,53.899319],[14.371593,53.885891],[14.417654,53.865139],[14.405284,53.844184],[14.303071,53.823065],[14.175289,53.906478],[14.210053,53.938463],[14.406749,53.92182],[14.781912,54.034613],[15.859711,54.249986],[16.131521,54.283515],[16.069347,54.263007],[16.17921,54.263007],[16.21518,54.299628],[16.137706,54.290269],[16.275401,54.358588],[16.240489,54.330024],[16.323904,54.349921],[16.32488,54.373114],[16.296235,54.367255],[16.323985,54.401313],[16.569591,54.557196],[16.939952,54.606024],[17.035818,54.66706],[17.337413,54.74901],[18.152354,54.838324],[18.339529,54.833482],[18.75172,54.69009],[18.834321,54.616685],[18.817638,54.598131],[18.707774,54.701239],[18.456309,54.787665],[18.41505,54.753119],[18.474457,54.687567],[18.475922,54.640082],[18.52296,54.646552],[18.588064,54.433661],[18.885916,54.350165],[19.377208,54.377631],[19.59254,54.452379],[22.698387,54.342937],[22.837603,54.400918],[22.973305,54.37539],[23.035317,54.346503],[23.050096,54.294827],[23.117069,54.303457],[23.316023,54.236277],[23.449039,54.154938],[23.496167,54.044558],[23.462888,53.972521],[23.590942,53.611251],[23.800645,53.242462],[23.893663,53.151951],[23.859349,53.067976],[23.911336,53.00506],[23.922498,52.742596],[23.868961,52.670042],[23.392298,52.509638],[23.165645,52.289393],[23.189726,52.240533],[23.491517,52.174103],[23.512497,52.124442],[23.637451,52.084471],[23.676415,51.994088],[23.628666,51.946339],[23.617504,51.786504],[23.56035,51.754542],[23.539886,51.607109],[23.689437,51.416423],[23.635177,51.304699],[23.863587,51.148274],[23.854492,51.121532],[23.979342,50.937512],[24.130237,50.868937],[24.130857,50.839069],[23.992881,50.836226],[23.957638,50.808011],[24.025851,50.767032],[24.026884,50.728016],[24.081041,50.712978],[24.107706,50.540844],[24.010658,50.492785],[23.981306,50.40478],[23.682203,50.368245],[23.644169,50.312692],[23.101463,49.957107],[22.665831,49.567363],[22.640922,49.528761],[22.724225,49.367065],[22.737764,49.275391],[22.687121,49.173382],[22.841324,49.094886],[22.855276,48.994013],[22.744482,49.045535],[22.390085,49.093025],[22.040752,49.197463],[21.928408,49.330788],[21.799423,49.374817],[21.757566,49.348927],[21.601193,49.426493],[21.444406,49.409905],[21.274391,49.447267],[21.194086,49.400603],[21.068822,49.419207],[21.033269,49.399673],[21.072543,49.357195],[20.91896,49.290326],[20.79411,49.323657],[20.689517,49.4005],[20.543996,49.370838],[20.437543,49.402515],[20.329539,49.391767],[20.284374,49.338643],[20.138336,49.307327],[20.050486,49.173227],[19.937935,49.22511],[19.831998,49.185888],[19.760685,49.194208],[19.751797,49.219064],[19.808641,49.270895],[19.769263,49.39311],[19.627044,49.401868],[19.457344,49.598059],[19.347067,49.532998],[19.248675,49.516255],[19.141705,49.394195],[18.981818,49.386806],[18.956703,49.400448],[18.961147,49.492794],[18.833196,49.510261]]]}}