{"type":"Feature","properties":{"iso3":"PRI","name":"Puerto Rico","continent":"Americas"},"geometry":{"type":"MultiPolygon","coordinates":[[[[-67.855865,18.114691],[-67.844146,18.097561],[-67.873158,18.053453],[-67.891957,18.053453],[-67.931142,18.080512],[-67.937815,18.094224],[-67.919749,18.114488],[-67.855865,18.114691]]],[[[-65.347727,18.114691],[-65.356597,18.12287],[-65.484242,18.087348],[-65.565094,18.09394],[-65.580434,18.122138],[-65.540151,18.123765],[-65.478505,18.15705],[-65.398549,18.169338],[-65.351064,18.155707],[-65.298573,18.153713],[-65.275746,18.137152],[-65.309804,18.135199],[-65.347727,18.114691]]],[[[-65.278798,18.279202],[-65.33434,18.337104],[-65.309438,18.340766],[-65.256663,18.32392],[-65.244618,18.306545],[-65.25829,18.306545],[-65.251454,18.299709],[-65.270416,18.301418],[-65.285553,18.313951],[-65.27481,18.289008],[-65.278798,18.279202]]],[[[-65.628814,18.279202],[-65.632924,18.266913],[-65.625803,18.259833],[-65.603702,18.262861],[-65.606587,18.25361],[-65.591764,18.230885],[-65.603533,18.21527],[-65.633363,18.229183],[-65.636995,18.21857],[-65.627235,18.205929],[-65.636831,18.198097],[-65.665517,18.208441],[-65.737538,18.182685],[-65.790289,18.113973],[-65.793142,18.087631],[-65.806996,18.070299],[-65.840484,18.056342],[-65.830269,18.026907],[-65.887178,17.987727],[-65.939117,17.970526],[-66.004994,17.977525],[-66.046539,17.963853],[-66.084096,17.963853],[-66.163238,17.929145],[-66.204213,17.922919],[-66.210439,17.936591],[-66.197011,17.944403],[-66.210439,17.957099],[-66.241363,17.937323],[-66.292592,17.945746],[-66.30663,17.963853],[-66.328114,17.972317],[-66.367665,17.96601],[-66.396148,17.947252],[-66.416493,17.949612],[-66.469146,17.992662],[-66.559885,17.977525],[-66.592519,17.963568],[-66.608266,17.97134],[-66.622548,17.963853],[-66.629384,17.975165],[-66.687408,17.97134],[-66.724965,17.984361],[-66.76594,17.984361],[-66.765126,17.998033],[-66.774037,18.002183],[-66.80012,17.991848],[-66.80012,17.984361],[-66.786448,17.984361],[-66.817698,17.95897],[-66.86148,17.949612],[-66.924224,17.949612],[-66.930409,17.929145],[-66.949127,17.93122],[-66.985707,17.963853],[-67.067006,17.972561],[-67.111969,17.949612],[-67.15856,17.954569],[-67.180467,17.966118],[-67.191221,17.957994],[-67.184192,17.935072],[-67.195073,17.935682],[-67.214771,17.966335],[-67.214349,17.994144],[-67.163197,18.022528],[-67.176869,18.032701],[-67.202875,18.035716],[-67.202134,18.054358],[-67.185693,18.070427],[-67.193877,18.097302],[-67.183245,18.107689],[-67.173695,18.176174],[-67.151858,18.203392],[-67.171198,18.22487],[-67.196512,18.291339],[-67.236906,18.299862],[-67.270842,18.361826],[-67.268825,18.3689],[-67.198394,18.393704],[-67.159451,18.420911],[-67.170007,18.48602],[-67.151682,18.508938],[-67.101715,18.522773],[-67.048451,18.521145],[-67.012359,18.505764],[-66.907316,18.485325],[-66.803456,18.498277],[-66.736806,18.48314],[-66.640859,18.496405],[-66.587799,18.484036],[-66.507069,18.486396],[-66.467437,18.475287],[-66.382395,18.491441],[-66.303863,18.468817],[-66.258127,18.481513],[-66.20519,18.465399],[-66.193989,18.473587],[-66.180898,18.471503],[-66.161584,18.453298],[-66.144085,18.468702],[-66.134145,18.465888],[-66.13747,18.452756],[-66.118081,18.443027],[-66.108469,18.42064],[-66.060211,18.429389],[-66.060211,18.436835],[-66.09496,18.447699],[-66.121631,18.47347],[-66.0121,18.443962],[-65.988881,18.46308],[-65.920438,18.445889],[-65.904826,18.455925],[-65.892812,18.453599],[-65.8308,18.428697],[-65.812606,18.410405],[-65.788347,18.423249],[-65.796307,18.405028],[-65.772027,18.41457],[-65.755002,18.391041],[-65.738107,18.382365],[-65.724849,18.391267],[-65.698015,18.371111],[-65.6632,18.366414],[-65.629384,18.391059],[-65.621409,18.389065],[-65.630767,18.332831],[-65.628814,18.279202]]]]}}