{"type":"Feature","properties":{"iso3":"PRK","name":"North Korea","continent":"Asia"},"geometry":{"type":"MultiPolygon","coordinates":[[[[128.364919,38.624335],[128.281089,38.584416],[128.274785,38.571497],[128.28543,38.519846],[128.281089,38.48437],[128.268067,38.45352],[128.225589,38.399776],[128.172362,38.355954],[128.10849,38.323502],[128.039864,38.304278],[127.866851,38.304846],[127.800757,38.293917],[127.787011,38.296682],[127.753731,38.325362],[127.560823,38.312081],[127.47194,38.295906],[127.377113,38.318515],[127.157489,38.307224],[127.090464,38.285855],[126.971919,38.218909],[126.953728,38.200667],[126.919829,38.134598],[126.847327,38.082018],[126.761906,37.979001],[126.722115,37.953938],[126.665787,37.937634],[126.660516,37.913811],[126.667459,37.82781],[126.651622,37.799262],[126.593272,37.7744],[126.436615,37.848375],[126.397716,37.89175],[126.358002,37.884345],[126.259532,37.845445],[126.178477,37.840522],[126.149181,37.82217],[126.165375,37.768256],[126.158214,37.733466],[126.110362,37.740912],[126.086925,37.80036],[126.062836,37.802232],[126.055756,37.870592],[126.026134,37.853664],[126.012787,37.854315],[126.000743,37.885565],[125.959483,37.912177],[125.944102,37.901923],[125.972504,37.874335],[125.986176,37.822821],[125.955903,37.840318],[125.921641,37.844875],[125.895518,37.864814],[125.834972,37.943549],[125.805186,37.951565],[125.799327,37.992906],[125.596934,38.032213],[125.578949,38.025133],[125.578217,38.009019],[125.596528,37.992255],[125.640717,37.973619],[125.675385,37.977607],[125.685313,37.972113],[125.678315,37.952541],[125.698985,37.958197],[125.71933,37.952541],[125.698822,37.925238],[125.732921,37.932685],[125.739757,37.925238],[125.685069,37.898586],[125.668956,37.899156],[125.630626,37.925238],[125.627452,37.902167],[125.641205,37.856391],[125.623057,37.837104],[125.644135,37.822821],[125.633556,37.809556],[125.609223,37.806301],[125.620128,37.765326],[125.583995,37.767524],[125.575206,37.7744],[125.582774,37.781887],[125.570567,37.787095],[125.551606,37.782701],[125.548595,37.771308],[125.528901,37.772528],[125.520518,37.780178],[125.527599,37.796129],[125.50351,37.778795],[125.47462,37.731187],[125.438731,37.719794],[125.385265,37.716376],[125.361583,37.68008],[125.347504,37.675605],[125.335053,37.686265],[125.348643,37.737982],[125.36378,37.760891],[125.390391,37.754543],[125.444916,37.7744],[125.429454,37.781562],[125.395112,37.776435],[125.377289,37.781887],[125.389903,37.796129],[125.455821,37.822821],[125.505138,37.813178],[125.524181,37.817816],[125.527599,37.843329],[125.497325,37.839667],[125.479096,37.857611],[125.508637,37.883734],[125.510102,37.894273],[125.463878,37.90412],[125.445649,37.920396],[125.424408,37.912177],[125.430024,37.902004],[125.383556,37.89175],[125.427989,37.874498],[125.4463,37.860012],[125.444916,37.843329],[125.399669,37.865465],[125.349376,37.864407],[125.377289,37.843329],[125.30836,37.809149],[125.301036,37.822821],[125.239513,37.822821],[125.25172,37.837836],[125.294932,37.859849],[125.30836,37.878079],[125.300629,37.895209],[125.257091,37.914618],[125.26002,37.932685],[125.240082,37.929592],[125.208507,37.881171],[125.176606,37.867621],[125.100352,37.875067],[125.062104,37.896145],[125.013194,37.905992],[125.006602,37.918443],[125.01352,37.939521],[124.979503,37.925238],[124.992198,37.952948],[125.036632,37.963609],[125.062022,37.978583],[125.075694,37.980455],[125.1338,37.960028],[125.175385,37.969916],[125.184906,37.980455],[125.177501,37.987942],[125.155284,37.979967],[125.115326,38.002387],[125.1067,38.034613],[125.116222,38.041938],[125.201671,38.049384],[125.213227,38.045722],[125.22519,38.02143],[125.246349,38.020087],[125.253184,38.053941],[125.273692,38.062405],[125.264903,38.077948],[125.140636,38.097805],[125.01352,38.062405],[124.885265,38.131659],[124.865489,38.107082],[124.793793,38.097805],[124.677094,38.115383],[124.667247,38.125718],[124.673595,38.137193],[124.745128,38.147935],[124.765147,38.156073],[124.773285,38.175971],[124.821788,38.18594],[124.855968,38.226955],[124.879161,38.230658],[124.895274,38.221503],[124.920909,38.189358],[124.993012,38.226955],[124.967621,38.235338],[124.91505,38.229071],[124.872325,38.257636],[124.879731,38.345201],[124.927989,38.409084],[124.947276,38.450507],[124.972179,38.462144],[124.972667,38.440375],[125.016368,38.497952],[125.021007,38.514879],[124.996837,38.535875],[124.995697,38.574042],[124.980866,38.584157],[124.983949,38.591942],[125.017686,38.583523],[125.037625,38.591271],[125.058241,38.568468],[125.102769,38.593523],[125.128009,38.580281],[125.137218,38.624742],[125.118419,38.645168],[125.123383,38.666327],[125.13756,38.662332],[125.1566,38.631727],[125.179623,38.634655],[125.179797,38.670002],[125.203485,38.652553],[125.267295,38.67031],[125.301036,38.656806],[125.369108,38.694761],[125.441905,38.686225],[125.45102,38.704006],[125.462657,38.707261],[125.507091,38.686225],[125.520763,38.652655],[125.532725,38.65412],[125.545177,38.679389],[125.564952,38.670111],[125.585948,38.641913],[125.610362,38.63109],[125.657807,38.631008],[125.630626,38.658881],[125.588959,38.666327],[125.527599,38.720933],[125.479096,38.727729],[125.447765,38.777248],[125.424571,38.755927],[125.410899,38.755072],[125.434174,38.736762],[125.419313,38.729265],[125.389244,38.717449],[125.356212,38.734565],[125.341075,38.717475],[125.314545,38.720933],[125.301036,38.734565],[125.295909,38.728461],[125.30836,38.707261],[125.27768,38.703315],[125.262462,38.707913],[125.2435,38.728339],[125.266856,38.755072],[125.253184,38.762519],[125.257823,38.771918],[125.240977,38.793118],[125.22519,38.796088],[125.230479,38.771918],[125.216557,38.739717],[125.18812,38.738608],[125.172111,38.76323],[125.145274,38.777088],[125.137218,38.803534],[125.151966,38.891529],[125.172981,38.9388],[125.200901,38.975262],[125.198643,38.986056],[125.270803,39.080606],[125.335053,39.083441],[125.28407,39.089556],[125.293305,39.143541],[125.287364,39.15233],[125.30714,39.165432],[125.343516,39.168891],[125.328868,39.193305],[125.343598,39.212877],[125.365082,39.220893],[125.410899,39.213813],[125.393565,39.245795],[125.444916,39.310614],[125.41627,39.320258],[125.411143,39.333482],[125.418224,39.350979],[125.404633,39.364651],[125.424408,39.357123],[125.445649,39.366929],[125.459239,39.385077],[125.357026,39.398749],[125.359955,39.413153],[125.383556,39.440334],[125.34254,39.433539],[125.346039,39.459621],[125.397227,39.501776],[125.413666,39.538723],[125.441987,39.547553],[125.451752,39.571275],[125.444916,39.584377],[125.285981,39.521186],[125.237071,39.562893],[125.210297,39.573065],[125.22519,39.591213],[125.157563,39.591213],[125.171235,39.56387],[125.116954,39.565863],[125.097504,39.602729],[125.047699,39.604193],[125.01059,39.635321],[124.986339,39.638983],[124.958263,39.662014],[124.947276,39.662991],[124.937836,39.645819],[124.901622,39.662055],[124.881602,39.704169],[124.849132,39.721503],[124.803071,39.730455],[124.799164,39.739814],[124.77065,39.741811],[124.76039,39.748008],[124.746104,39.782945],[124.739513,39.762112],[124.754731,39.73371],[124.744624,39.691356],[124.757115,39.687906],[124.753045,39.672459],[124.729805,39.665293],[124.743907,39.644355],[124.716412,39.647128],[124.695017,39.63754],[124.649063,39.612121],[124.637452,39.590483],[124.62379,39.597968],[124.629405,39.61164],[124.610803,39.628651],[124.628574,39.644748],[124.632149,39.662946],[124.645095,39.669466],[124.646983,39.697577],[124.62379,39.693549],[124.609467,39.714667],[124.584809,39.723578],[124.589122,39.765855],[124.561615,39.786689],[124.564057,39.814276],[124.434418,39.830756],[124.417735,39.82453],[124.396576,39.865546],[124.362559,39.871731],[124.341807,39.89997],[124.321544,39.912665],[124.332123,39.925116],[124.369965,39.940009],[124.383067,40.002672],[124.405772,40.027777],[124.465831,40.015286],[124.499604,40.022528],[124.479259,40.030748],[124.410248,40.0362],[124.391449,40.048285],[124.369965,40.098293],[124.528192,40.214136],[124.548656,40.220905],[124.554857,40.241421],[124.570877,40.252428],[124.642603,40.294286],[124.71247,40.310305],[124.741202,40.370353],[124.800837,40.394073],[124.849878,40.43159],[124.895508,40.483628],[124.917935,40.461097],[124.935299,40.455568],[125.041287,40.461097],[125.0463,40.471071],[125.015294,40.508278],[125.025112,40.534374],[125.256106,40.615041],[125.27719,40.643618],[125.293313,40.648579],[125.33667,40.641138],[125.363593,40.646719],[125.390878,40.632456],[125.413254,40.631785],[125.418887,40.666563],[125.452993,40.673384],[125.469065,40.712917],[125.546476,40.725939],[125.560067,40.778339],[125.571746,40.784902],[125.608126,40.76418],[125.668691,40.762164],[125.682643,40.768882],[125.644816,40.810585],[125.683212,40.847895],[125.745895,40.868153],[125.760933,40.885671],[125.821963,40.869755],[125.885215,40.897505],[125.901545,40.899313],[125.936168,40.877403],[125.96428,40.891304],[126.007843,40.899313],[126.015336,40.909132],[126.010013,40.913886],[125.980558,40.913628],[125.99203,40.928356],[126.045515,40.944685],[126.065824,40.968612],[126.075643,40.997085],[126.104065,41.009178],[126.101326,41.022097],[126.138171,41.056978],[126.123753,41.07553],[126.274752,41.15258],[126.30953,41.207822],[126.357331,41.249421],[126.380585,41.290814],[126.440892,41.348382],[126.472518,41.36652],[126.501301,41.366107],[126.487659,41.344403],[126.522127,41.351947],[126.522127,41.377631],[126.501301,41.434371],[126.542229,41.488993],[126.577266,41.561805],[126.580883,41.575241],[126.567034,41.614154],[126.60207,41.642059],[126.617883,41.665933],[126.669301,41.667122],[126.727954,41.701254],[126.68713,41.724018],[126.679482,41.735981],[126.727282,41.736911],[126.788622,41.695906],[126.808879,41.729831],[126.864793,41.747272],[126.887118,41.784918],[126.929802,41.801041],[126.939621,41.793729],[126.946132,41.766186],[126.981169,41.763318],[127.033155,41.731588],[127.042664,41.732648],[127.076615,41.68079],[127.048968,41.677741],[127.049433,41.653428],[127.058993,41.643299],[127.104675,41.626168],[127.097234,41.612448],[127.166067,41.594956],[127.17971,41.585163],[127.136508,41.569247],[127.104675,41.537414],[127.12824,41.531575],[127.134648,41.522014],[127.155938,41.530541],[127.17971,41.51695],[127.207098,41.545941],[127.244512,41.528009],[127.28146,41.531058],[127.28978,41.518552],[127.269058,41.504961],[127.305128,41.494678],[127.344247,41.491319],[127.378974,41.498812],[127.427343,41.483102],[127.47411,41.498812],[127.525838,41.484342],[127.542891,41.491319],[127.544752,41.468891],[127.558808,41.458246],[127.597513,41.450339],[127.638338,41.429875],[127.65813,41.446567],[127.690273,41.43897],[127.784634,41.436903],[127.810369,41.44357],[127.848868,41.431322],[127.865146,41.43742],[127.881475,41.460881],[127.944211,41.470855],[127.974235,41.450339],[128.001416,41.470855],[128.012372,41.460106],[128.015162,41.413287],[128.050612,41.420729],[128.046892,41.398766],[128.064152,41.388431],[128.08813,41.388896],[128.103943,41.399593],[128.118205,41.393444],[128.103943,41.379129],[128.14611,41.376339],[128.185695,41.404451],[128.287601,41.5447],[128.303,41.583406],[128.28326,41.605058],[128.268997,41.643377],[128.25091,41.66012],[128.224142,41.669447],[128.159133,41.711822],[128.14425,41.754713],[128.091023,41.841737],[128.05764,41.84985],[128.047822,41.863983],[128.020433,41.965062],[128.021467,41.979816],[128.034593,41.993743],[128.100532,41.999091],[128.261969,42.032862],[128.363772,42.02648],[128.407593,42.008341],[128.453999,42.010331],[128.502368,41.996094],[128.543709,42.008057],[128.56438,42.000797],[128.607891,42.030175],[128.70928,42.030175],[128.720959,42.04759],[128.817077,42.043869],[128.90348,42.026273],[128.940067,42.035368],[128.963838,42.088517],[129.026574,42.101876],[129.06347,42.136086],[129.064711,42.153759],[129.088482,42.143191],[129.119798,42.149366],[129.211162,42.219956],[129.209301,42.234684],[129.186874,42.236028],[129.180776,42.243107],[129.18336,42.254554],[129.211162,42.267008],[129.216123,42.291063],[129.228008,42.297729],[129.193902,42.310778],[129.193902,42.318245],[129.236276,42.323878],[129.242271,42.338735],[129.228008,42.359199],[129.23607,42.374366],[129.303766,42.389584],[129.315445,42.422321],[129.326504,42.426765],[129.337872,42.414415],[129.352135,42.420616],[129.340146,42.445472],[129.36309,42.445007],[129.386241,42.428109],[129.434094,42.441106],[129.517086,42.390954],[129.535173,42.36956],[129.55419,42.376872],[129.563182,42.404105],[129.587676,42.411366],[129.594498,42.422218],[129.591707,42.447953],[129.671185,42.437928],[129.703328,42.442372],[129.728856,42.475858],[129.736504,42.585154],[129.763066,42.606238],[129.763066,42.612387],[129.74622,42.615514],[129.741569,42.629001],[129.751077,42.642928],[129.776709,42.647191],[129.772264,42.661661],[129.787561,42.676854],[129.786527,42.684734],[129.757588,42.703648],[129.757278,42.734705],[129.789524,42.79248],[129.799033,42.836663],[129.846679,42.928234],[129.851743,42.961901],[129.907037,42.976138],[129.879751,42.996033],[129.909207,43.008435],[129.934115,43.00841],[129.981347,42.966732],[130.008219,42.960557],[130.047286,42.961901],[130.121494,42.981848],[130.133586,42.972727],[130.130485,42.959472],[130.098756,42.921516],[130.140407,42.907124],[130.239006,42.90224],[130.256473,42.866894],[130.24221,42.782015],[130.243037,42.743361],[130.262674,42.708609],[130.317141,42.667397],[130.324789,42.650292],[130.393002,42.606238],[130.427728,42.599365],[130.431242,42.561512],[130.452533,42.549342],[130.467933,42.554897],[130.471033,42.569754],[130.455117,42.585154],[130.467829,42.600398],[130.501419,42.610785],[130.516508,42.599365],[130.530771,42.53048],[130.575626,42.445731],[130.587408,42.432011],[130.645803,42.400876],[130.656655,42.383254],[130.662753,42.32057],[130.699962,42.295111],[130.597544,42.26278],[130.594981,42.298163],[130.569366,42.315259],[130.540501,42.318371],[130.51019,42.33578],[130.465653,42.334752],[130.469396,42.322075],[130.440098,42.309128],[130.40745,42.324577],[130.405854,42.307115],[130.384157,42.291195],[130.386241,42.270657],[130.405854,42.26081],[130.40089,42.242499],[130.378182,42.257855],[130.367992,42.255687],[130.360655,42.243664],[130.369837,42.232011],[130.358829,42.229272],[130.351505,42.216083],[130.335057,42.213999],[130.330645,42.191508],[130.307026,42.183154],[130.315635,42.218883],[130.307418,42.236295],[130.294182,42.237045],[130.228986,42.182452],[130.202274,42.173551],[130.199311,42.101304],[130.17392,42.098782],[130.160248,42.08511],[130.166596,42.077094],[130.159432,42.072838],[130.120069,42.090081],[130.092772,42.089811],[130.073041,42.078459],[130.067015,42.051899],[130.052222,42.050365],[130.044908,42.035976],[130.033879,41.995514],[130.026817,41.9927],[130.01495,42.014404],[130.002884,42.010912],[130.001297,41.990466],[129.982188,41.982652],[130.002696,41.962226],[129.974864,41.941636],[129.964692,41.898749],[129.954438,41.892035],[129.91362,41.911195],[129.89674,41.904263],[129.883393,41.857408],[129.884532,41.824164],[129.869652,41.791457],[129.855171,41.781792],[129.85246,41.764923],[129.842813,41.758783],[129.826546,41.778446],[129.813315,41.777733],[129.77476,41.759417],[129.741361,41.684018],[129.715019,41.675337],[129.690823,41.649716],[129.669409,41.575959],[129.648798,41.549403],[129.660655,41.525946],[129.65273,41.494124],[129.659403,41.464647],[129.714603,41.419646],[129.736056,41.421286],[129.758184,41.392594],[129.796641,41.386176],[129.806163,41.376044],[129.786143,41.324774],[129.770356,41.315131],[129.759125,41.292873],[129.711925,41.122626],[129.728282,41.08515],[129.719819,41.05622],[129.728282,40.978705],[129.764891,40.944414],[129.755574,40.93897],[129.752997,40.90994],[129.734272,40.891102],[129.737343,40.871456],[129.716558,40.834586],[129.698357,40.845606],[129.662852,40.838772],[129.571773,40.839716],[129.553941,40.828932],[129.551051,40.810117],[129.531997,40.807277],[129.518081,40.795467],[129.426954,40.781296],[129.351687,40.745343],[129.303233,40.673651],[129.286632,40.68358],[129.270138,40.70798],[129.233482,40.705714],[129.217703,40.696353],[129.206426,40.675546],[129.197765,40.638007],[129.174555,40.60366],[129.172618,40.568915],[129.161235,40.565549],[129.150899,40.545897],[129.077564,40.472565],[129.030116,40.47397],[128.975812,40.459933],[128.860532,40.371848],[128.764042,40.34653],[128.752005,40.335095],[128.721645,40.338947],[128.687808,40.331197],[128.669669,40.310771],[128.656655,40.310763],[128.65534,40.320177],[128.636489,40.313217],[128.618948,40.297331],[128.616447,40.271443],[128.656722,40.25714],[128.66778,40.240309],[128.664561,40.201239],[128.628875,40.180266],[128.588611,40.186673],[128.543199,40.166767],[128.527681,40.143424],[128.479799,40.134749],[128.434946,40.104002],[128.411388,40.096381],[128.364765,40.09689],[128.337765,40.067048],[128.327753,40.028216],[128.302094,40.033433],[128.263444,40.077105],[128.236322,40.067904],[128.227837,40.056206],[128.234386,40.029364],[128.19337,40.029364],[128.155121,40.016303],[128.139415,40.02733],[128.006847,40.045152],[127.997813,40.020413],[127.963715,40.004096],[127.940033,39.974758],[127.930268,39.97191],[127.906659,39.983942],[127.891038,39.961225],[127.884044,39.902086],[127.874604,39.892808],[127.78183,39.885403],[127.796397,39.875637],[127.794037,39.865668],[127.762438,39.853534],[127.727383,39.857189],[127.69575,39.848201],[127.679629,39.816439],[127.663291,39.806801],[127.623749,39.830935],[127.607188,39.810248],[127.56186,39.784003],[127.549408,39.761054],[127.520844,39.746975],[127.503754,39.715522],[127.512218,39.649482],[127.552745,39.636786],[127.570323,39.617865],[127.574555,39.595038],[127.53677,39.552012],[127.520439,39.510465],[127.562999,39.343736],[127.562104,39.31623],[127.543468,39.301947],[127.521821,39.31623],[127.5206,39.329413],[127.542247,39.371487],[127.495128,39.433417],[127.482921,39.436998],[127.425548,39.392524],[127.378429,39.378852],[127.378429,39.371487],[127.425548,39.357123],[127.453868,39.367987],[127.46754,39.363837],[127.473399,39.347561],[127.425548,39.330471],[127.408295,39.343248],[127.391938,39.341864],[127.398285,39.323676],[127.37203,39.240426],[127.393403,39.201728],[127.45224,39.165961],[127.471934,39.16828],[127.473399,39.193305],[127.491303,39.194892],[127.511729,39.15644],[127.531749,39.146145],[127.606944,39.152045],[127.631684,39.146145],[127.675629,39.11815],[127.759288,39.117011],[127.851573,39.00141],[127.885509,38.974189],[127.888682,38.961371],[127.914317,38.964179],[127.92628,38.934475],[127.961762,38.917914],[128.014659,38.85814],[128.091156,38.843736],[128.210216,38.727729],[128.282807,38.755072],[128.313243,38.717231],[128.347667,38.696723],[128.35963,38.678656],[128.364919,38.624335]]],[[[124.926741,39.604786],[124.909674,39.593554],[124.933609,39.550543],[124.883182,39.52747],[124.861664,39.507636],[124.818563,39.495444],[124.836927,39.520939],[124.849816,39.516534],[124.85697,39.527899],[124.842773,39.538426],[124.856588,39.544228],[124.854475,39.573754],[124.870522,39.580934],[124.869706,39.595657],[124.881769,39.603869],[124.880471,39.612455],[124.926741,39.604786]]],[[[124.883474,38.528551],[124.903982,38.494371],[124.822032,38.522366],[124.79949,38.50849],[124.790294,38.517401],[124.794444,38.533922],[124.844249,38.555162],[124.883474,38.528551]]],[[[125.328787,37.766669],[125.337738,37.768704],[125.295746,37.727607],[125.246837,37.699856],[125.226329,37.696357],[125.220551,37.703762],[125.250173,37.731676],[125.274587,37.733832],[125.27947,37.749416],[125.328787,37.766669]]],[[[125.147716,37.78559],[125.141368,37.799506],[125.166189,37.813707],[125.191417,37.815497],[125.147716,37.78559]]],[[[125.030447,37.836168],[125.040782,37.834459],[125.041759,37.817288],[125.01588,37.80565],[124.997732,37.808417],[125.011974,37.821845],[125.025401,37.817857],[125.030447,37.836168]]],[[[124.687673,39.527167],[124.704708,39.537076],[124.707779,39.530399],[124.697765,39.50259],[124.680149,39.507726],[124.687673,39.527167]]],[[[124.687022,39.544745],[124.661632,39.538398],[124.644786,39.547675],[124.595876,39.537909],[124.63087,39.56509],[124.673839,39.570624],[124.69809,39.562893],[124.687022,39.544745]]],[[[124.596039,39.430243],[124.592865,39.446804],[124.612559,39.457139],[124.61907,39.43301],[124.596039,39.430243]]],[[[124.214651,39.807242],[124.227065,39.821298],[124.242751,39.804633],[124.226015,39.791423],[124.211316,39.799505],[124.214651,39.807242]]]]}}