{"type":"Feature","properties":{"iso3":"PRY","name":"Paraguay","continent":"Americas"},"geometry":{"type":"Polygon","coordinates":[[[-62.650357,-22.234456],[-62.275703,-21.066568],[-62.26883,-20.553111],[-61.94425,-20.104146],[-61.761213,-19.657765],[-60.006384,-19.298097],[-59.069646,-19.291483],[-58.161174,-19.847211],[-58.158797,-20.165125],[-58.118541,-20.214424],[-58.155283,-20.226413],[-58.156316,-20.261656],[-58.09508,-20.272198],[-58.090791,-20.359428],[-57.989401,-20.433119],[-58.008935,-20.525723],[-57.974415,-20.704006],[-57.918088,-20.669797],[-57.857678,-20.73987],[-57.940412,-20.793613],[-57.859642,-20.831647],[-57.914832,-20.905648],[-57.817577,-20.953604],[-57.852459,-21.037836],[-57.833959,-21.173849],[-57.90491,-21.287433],[-57.863311,-21.356886],[-57.949145,-21.508298],[-57.921602,-21.555427],[-57.934831,-21.640693],[-57.901138,-21.678934],[-57.948939,-21.83386],[-57.925374,-21.904967],[-57.986818,-22.035295],[-57.952453,-22.105988],[-57.848686,-22.140301],[-57.670816,-22.102371],[-57.596712,-22.181022],[-57.351249,-22.217196],[-57.227484,-22.191254],[-56.924944,-22.262361],[-56.90368,-22.236936],[-56.85606,-22.29316],[-56.720538,-22.21947],[-56.644135,-22.255436],[-56.5113,-22.091415],[-56.421797,-22.074465],[-56.347331,-22.180402],[-56.196798,-22.279311],[-55.998567,-22.277244],[-55.874388,-22.317345],[-55.86103,-22.289543],[-55.751579,-22.416253],[-55.723932,-22.569629],[-55.62368,-22.638669],[-55.659001,-22.818296],[-55.639984,-22.983764],[-55.535236,-23.229124],[-55.559007,-23.291342],[-55.513868,-23.379399],[-55.542471,-23.465802],[-55.530533,-23.603468],[-55.445319,-23.735449],[-55.420669,-23.954506],[-55.367184,-23.989646],[-55.165439,-24.016827],[-54.926746,-23.95988],[-54.827424,-23.887016],[-54.612553,-23.811155],[-54.24575,-24.050393],[-54.334637,-24.148912],[-54.262187,-24.358512],[-54.334534,-24.496695],[-54.321305,-24.628366],[-54.462278,-25.03723],[-54.435665,-25.167042],[-54.609814,-25.432762],[-54.583356,-25.644842],[-54.633715,-25.652077],[-54.643146,-25.68794],[-54.589557,-25.832944],[-54.61524,-25.961722],[-54.662266,-25.979912],[-54.644696,-26.208218],[-54.706475,-26.441796],[-54.789829,-26.528509],[-54.793059,-26.644987],[-54.919899,-26.674133],[-54.97527,-26.787821],[-55.060898,-26.805184],[-55.125778,-26.863579],[-55.138361,-26.953702],[-55.2806,-26.934272],[-55.414003,-26.979851],[-55.451313,-27.082067],[-55.598281,-27.16754],[-55.568671,-27.245984],[-55.591331,-27.328357],[-55.754732,-27.443698],[-55.842091,-27.407422],[-55.892837,-27.334868],[-56.124554,-27.298901],[-56.279842,-27.389645],[-56.296998,-27.480905],[-56.399731,-27.586842],[-56.54644,-27.455067],[-56.613,-27.446386],[-56.771155,-27.506744],[-56.904351,-27.418687],[-57.076227,-27.484006],[-57.180097,-27.487313],[-57.356466,-27.404343],[-57.513358,-27.41414],[-57.697791,-27.333524],[-58.003664,-27.263303],[-58.510765,-27.278437],[-58.600165,-27.312957],[-58.60156,-27.245674],[-58.653289,-27.156274],[-58.56549,-27.115966],[-58.54544,-27.041036],[-58.507561,-27.055092],[-58.47547,-26.937993],[-58.328916,-26.884146],[-58.340026,-26.808595],[-58.27481,-26.798363],[-58.235536,-26.649845],[-58.181379,-26.641577],[-58.179312,-26.57264],[-58.217346,-26.527579],[-58.18541,-26.451718],[-58.206184,-26.402728],[-58.161846,-26.263305],[-58.105983,-26.239534],[-58.148927,-26.19933],[-58.096682,-26.136698],[-57.872716,-26.010298],[-57.859694,-25.994278],[-57.905841,-25.968646],[-57.851374,-25.908392],[-57.875352,-25.890202],[-57.812823,-25.845243],[-57.805588,-25.769899],[-57.75107,-25.734862],[-57.753705,-25.672747],[-57.616298,-25.609185],[-57.570047,-25.546657],[-57.565293,-25.430385],[-57.640792,-25.37261],[-57.754067,-25.180891],[-57.890493,-25.078675],[-57.969764,-25.078468],[-58.224064,-24.941216],[-58.335995,-24.991858],[-58.473403,-24.851299],[-58.809196,-24.776781],[-59.000916,-24.644179],[-59.340973,-24.4876],[-59.459725,-24.358512],[-60.033669,-24.007009],[-60.328018,-24.017964],[-60.57175,-23.946031],[-60.621153,-23.895801],[-60.837625,-23.871823],[-61.006349,-23.805471],[-61.10965,-23.675608],[-61.109857,-23.606982],[-61.36178,-23.454743],[-61.491849,-23.413195],[-61.51606,-23.344982],[-61.732997,-23.243386],[-61.769274,-23.165562],[-61.956446,-23.034407],[-62.035821,-22.884855],[-62.184184,-22.713703],[-62.187646,-22.638565],[-62.239736,-22.613761],[-62.241183,-22.538416],[-62.287227,-22.483949],[-62.368256,-22.464416],[-62.61315,-22.311454],[-62.650357,-22.234456]]]}}