{"type":"Feature","properties":{"iso3":"PSE","name":"Palestine","continent":"Asia"},"geometry":{"type":"MultiPolygon","coordinates":[[[[34.481204,31.583141],[34.556032,31.539825],[34.367339,31.392814],[34.345841,31.357725],[34.350905,31.289254],[34.248351,31.211449],[34.224608,31.275715],[34.200269,31.314267],[34.281423,31.376695],[34.301606,31.407701],[34.348399,31.437649],[34.368175,31.468166],[34.44337,31.534573],[34.481204,31.583141]]],[[[34.986695,31.967228],[34.997837,31.978779],[34.996775,32.011102],[35.007245,32.020772],[34.984217,32.089584],[34.986943,32.123991],[34.958223,32.186454],[34.961411,32.201576],[35.007609,32.24439],[35.009366,32.267644],[34.989936,32.27847],[34.996551,32.323041],[35.000685,32.335728],[35.017841,32.342213],[35.044713,32.43412],[35.06435,32.463136],[35.151683,32.507914],[35.190751,32.54171],[35.208631,32.54264],[35.270436,32.510471],[35.363143,32.51011],[35.392909,32.494478],[35.406862,32.414793],[35.560961,32.384717],[35.565612,32.367948],[35.55941,32.374821],[35.551969,32.374821],[35.551969,32.367948],[35.556517,32.328209],[35.565612,32.313352],[35.560857,32.28263],[35.572536,32.251908],[35.55941,32.237594],[35.572536,32.237594],[35.555173,32.174394],[35.55941,32.155093],[35.546698,32.147031],[35.551969,32.135197],[35.535226,32.110806],[35.545148,32.086828],[35.528301,32.075098],[35.522824,32.057838],[35.524684,32.011691],[35.545871,31.944563],[35.524684,31.919241],[35.549075,31.839195],[35.538326,31.819299],[35.55941,31.765349],[35.527578,31.735067],[35.480139,31.641119],[35.464222,31.568565],[35.458745,31.494409],[35.390118,31.487071],[35.332344,31.458804],[35.223307,31.381031],[35.164913,31.362273],[35.040166,31.363203],[34.927408,31.34491],[34.900949,31.348475],[34.878832,31.362841],[34.867153,31.396431],[34.926788,31.494409],[34.93733,31.582001],[34.973606,31.63037],[35.059226,31.676797],[35.125742,31.733103],[35.148952,31.737349],[35.179423,31.720103],[35.205255,31.723187],[35.23797,31.709332],[35.262811,31.748625],[35.252699,31.76965],[35.262896,31.789684],[35.255871,31.812216],[35.264935,31.826272],[35.253605,31.829352],[35.257231,31.838593],[35.24998,31.844368],[35.233353,31.842611],[35.222023,31.879178],[35.205255,31.877254],[35.216132,31.823745],[35.213271,31.818763],[35.183587,31.825116],[35.186167,31.80874],[35.112472,31.823963],[35.07632,31.854158],[35.056018,31.853317],[35.027492,31.832731],[34.98031,31.831317],[34.97874,31.837333],[34.99854,31.853835],[35.034323,31.861114],[35.039006,31.908637],[35.029902,31.92443],[35.005424,31.933769],[35.007734,31.944922],[34.986695,31.967228]]]]}}