{"type":"Feature","properties":{"iso3":"ROU","name":"Romania","continent":"Europe"},"geometry":{"type":"Polygon","coordinates":[[[22.877601,47.946739],[22.939302,48.00565],[23.004415,47.983067],[23.063119,48.007458],[23.139083,48.098125],[23.460821,47.971337],[23.563243,48.005753],[23.780078,47.987511],[23.876609,47.93444],[24.008798,47.961208],[24.231006,47.897026],[24.409187,47.952061],[24.542098,47.943819],[24.633669,47.908291],[24.679144,47.84013],[24.793659,47.804473],[24.896599,47.710061],[25.079947,47.742927],[25.261744,47.898576],[26.173058,47.993144],[26.270727,48.093603],[26.30349,48.212045],[26.688531,48.274832],[26.804906,48.25827],[26.908001,48.184528],[26.950582,48.197524],[26.997607,48.16657],[26.966602,48.149594],[27.048044,48.122232],[27.041739,48.077273],[27.109332,48.033503],[27.088971,48.019809],[27.16876,47.983067],[27.160698,47.921727],[27.253406,47.828089],[27.219196,47.813775],[27.282448,47.755691],[27.281104,47.693007],[27.428382,47.581024],[27.483676,47.485423],[27.582998,47.450671],[27.572353,47.375197],[27.6447,47.303987],[27.722835,47.283317],[27.794665,47.155831],[28.069067,46.988503],[28.121518,46.8343],[28.234121,46.662424],[28.219032,46.503726],[28.247247,46.436185],[28.177794,46.287047],[28.108961,46.23413],[28.144721,46.183229],[28.084466,46.024582],[28.167975,45.632461],[28.062142,45.593601],[28.140949,45.560218],[28.199498,45.461774],[28.286418,45.421725],[28.330239,45.322919],[28.710061,45.226956],[28.802665,45.244165],[28.75967,45.274189],[28.789746,45.321421],[28.929893,45.279098],[29.228169,45.42374],[29.332969,45.442137],[29.569699,45.394956],[29.650262,45.346122],[29.664215,45.223184],[29.623871,45.216498],[29.699555,45.161811],[29.664399,45.116929],[29.617849,44.861477],[29.569347,44.824897],[29.156098,44.78441],[29.000743,44.68891],[28.997325,44.751614],[29.138682,44.804023],[29.096365,44.875067],[29.103363,44.851304],[29.048595,44.847154],[29.041759,44.925686],[29.101736,44.980292],[28.983246,45.012274],[28.880056,44.954779],[28.866466,44.882636],[28.952403,44.826646],[28.932953,44.773505],[28.788829,44.706244],[28.80836,44.696357],[28.784028,44.649237],[28.869477,44.661811],[28.911957,44.696357],[28.897716,44.716783],[28.987559,44.675279],[28.938731,44.634263],[28.972667,44.670233],[28.952403,44.696357],[28.753673,44.613756],[28.787852,44.586493],[28.732677,44.552314],[28.761078,44.560207],[28.758474,44.465277],[28.924978,44.620551],[28.844005,44.49372],[28.64088,44.328559],[28.664887,44.175605],[28.637462,44.135891],[28.671235,44.003323],[28.583018,43.751044],[28.434574,43.735213],[28.221254,43.761981],[27.98101,43.84934],[27.912074,43.993233],[27.721698,43.94874],[27.633434,44.029768],[27.383837,44.015092],[27.251132,44.122373],[27.027476,44.177046],[26.150734,44.012405],[25.781144,43.732009],[25.403131,43.65005],[24.963675,43.749605],[24.705603,43.743765],[24.466341,43.802418],[24.375494,43.763867],[24.159383,43.752938],[23.742871,43.8427],[23.592699,43.837429],[23.484695,43.880604],[22.888763,43.839522],[22.850522,43.896986],[22.885869,43.994525],[23.023018,44.031629],[23.030976,44.093072],[22.69164,44.228435],[22.689498,44.291716],[22.549352,44.348974],[22.480002,44.455789],[22.484136,44.499766],[22.600305,44.569787],[22.741692,44.551855],[22.759262,44.564671],[22.714716,44.623065],[22.587489,44.649369],[22.426052,44.733653],[22.319702,44.685336],[22.185136,44.515113],[22.126639,44.502659],[22.004269,44.651539],[21.871977,44.695981],[21.65628,44.687661],[21.578042,44.777681],[21.41216,44.784813],[21.346428,44.845636],[21.522128,44.880776],[21.539078,44.908474],[21.385185,44.969504],[21.356143,45.008572],[21.421875,45.031413],[21.442443,45.092908],[21.49784,45.131872],[21.484388,45.152702],[21.206075,45.245922],[21.155638,45.295169],[21.09156,45.288089],[20.981489,45.33279],[20.767135,45.479344],[20.800208,45.530504],[20.75804,45.58926],[20.77747,45.762324],[20.68807,45.7431],[20.572108,45.887691],[20.370984,45.96779],[20.242826,46.108091],[20.283237,46.1438],[20.444157,46.1469],[20.468549,46.174134],[20.663989,46.137753],[20.819638,46.271699],[21.033475,46.231339],[21.134865,46.27852],[21.17879,46.384457],[21.280695,46.416393],[21.247623,46.497473],[21.316249,46.616639],[21.396037,46.626354],[21.501767,46.703507],[21.477066,46.760222],[21.640053,46.935689],[21.667545,46.992378],[21.63427,47.019422],[21.763767,47.105214],[21.856061,47.285745],[22.001582,47.393827],[22.007886,47.517411],[22.148549,47.579345],[22.29159,47.730705],[22.395873,47.735692],[22.454371,47.787394],[22.562994,47.757215],[22.637719,47.771555],[22.745826,47.824989],[22.752854,47.86124],[22.877601,47.946739]]]}}