{"type":"Feature","properties":{"iso3":"RWA","name":"Rwanda","continent":"Africa"},"geometry":{"type":"Polygon","coordinates":[[[29.015365,-2.720711],[29.000121,-2.703658],[28.936404,-2.685055],[28.891342,-2.652705],[28.89806,-2.576327],[28.891342,-2.553073],[28.860956,-2.531162],[28.857236,-2.518346],[28.878216,-2.489718],[28.864574,-2.459435],[28.858838,-2.418198],[28.866331,-2.391946],[28.880387,-2.379854],[28.928136,-2.364454],[28.959658,-2.339753],[28.993661,-2.277741],[29.075413,-2.263892],[29.10983,-2.23671],[29.134841,-2.197746],[29.156339,-2.108656],[29.12771,-1.915696],[29.130501,-1.843349],[29.233337,-1.658657],[29.303823,-1.587861],[29.342787,-1.516547],[29.439629,-1.504765],[29.498747,-1.431074],[29.538641,-1.402342],[29.577915,-1.38839],[29.657703,-1.383945],[29.710517,-1.352526],[29.734805,-1.348185],[29.774906,-1.366272],[29.798212,-1.330925],[29.816143,-1.322554],[29.836091,-1.329478],[29.864203,-1.370303],[29.871024,-1.432418],[29.880739,-1.453605],[29.897896,-1.469625],[29.917429,-1.475206],[29.960424,-1.464767],[30.038662,-1.424977],[30.06078,-1.389733],[30.147183,-1.345085],[30.165579,-1.277492],[30.212192,-1.259509],[30.269759,-1.200494],[30.287536,-1.155432],[30.317405,-1.137035],[30.337455,-1.066239],[30.352752,-1.060761],[30.403188,-1.070373],[30.445614,-1.058694],[30.471786,-1.066837],[30.453004,-1.097348],[30.470884,-1.118122],[30.467266,-1.155329],[30.476051,-1.16122],[30.490521,-1.156466],[30.511191,-1.170418],[30.521217,-1.210829],[30.5546,-1.273461],[30.549949,-1.3024],[30.555323,-1.31842],[30.632424,-1.367616],[30.737534,-1.406683],[30.743219,-1.432831],[30.732935,-1.476446],[30.738878,-1.489469],[30.772261,-1.532463],[30.791588,-1.590961],[30.807246,-1.60326],[30.831017,-1.594165],[30.838303,-1.615352],[30.824247,-1.730694],[30.83789,-1.758703],[30.826418,-1.786195],[30.83789,-1.836838],[30.816599,-1.884173],[30.824247,-1.902053],[30.796962,-1.929338],[30.826934,-1.934093],[30.829932,-1.960551],[30.816754,-2.018739],[30.835461,-2.014708],[30.853496,-2.0237],[30.879438,-2.053465],[30.887809,-2.082507],[30.853393,-2.193818],[30.844711,-2.237847],[30.848949,-2.306266],[30.834376,-2.345334],[30.758825,-2.381094],[30.687718,-2.349985],[30.663327,-2.360733],[30.63785,-2.39701],[30.573927,-2.389259],[30.5546,-2.400628],[30.521733,-2.399387],[30.488454,-2.383781],[30.434142,-2.339236],[30.418484,-2.311847],[30.37859,-2.303062],[30.362518,-2.307817],[30.331151,-2.340269],[30.297974,-2.353705],[30.262731,-2.358356],[30.207489,-2.339236],[30.20134,-2.362387],[30.156174,-2.419024],[30.139121,-2.430807],[30.116797,-2.43153],[30.072975,-2.408792],[30.013341,-2.348331],[29.976134,-2.34368],[29.949934,-2.321149],[29.931692,-2.316912],[29.92239,-2.382954],[29.929573,-2.459849],[29.907921,-2.5354],[29.897896,-2.671102],[29.876191,-2.71358],[29.842395,-2.752441],[29.803379,-2.767324],[29.744727,-2.759985],[29.729637,-2.79957],[29.719922,-2.805461],[29.678684,-2.805357],[29.619256,-2.787684],[29.574091,-2.806081],[29.541845,-2.808561],[29.504121,-2.826855],[29.480867,-2.813729],[29.425366,-2.803394],[29.339687,-2.826441],[29.318086,-2.762569],[29.337516,-2.723812],[29.309714,-2.691049],[29.307337,-2.664797],[29.294418,-2.651052],[29.113447,-2.594621],[29.05526,-2.598445],[29.032574,-2.620666],[29.015365,-2.720711]]]}}