{"type":"Feature","properties":{"iso3":"SAU","name":"Saudi Arabia","continent":"Asia"},"geometry":{"type":"MultiPolygon","coordinates":[[[[50.807872,24.746649],[50.881008,24.636404],[50.978883,24.567726],[51.095465,24.560182],[51.268809,24.624498],[51.306407,24.610826],[51.29656,24.521918],[51.395274,24.631334],[51.498302,24.583564],[51.336192,24.447943],[51.277843,24.318996],[51.479015,24.310858],[51.569347,24.256171],[51.593522,24.078325],[52.558476,22.938575],[55.105297,22.620946],[55.186843,22.703577],[55.637565,21.97897],[54.97838,19.995421],[51.978615,18.995638],[49.035849,18.57972],[48.161949,18.148919],[47.589012,17.463276],[47.428569,17.093104],[47.161338,16.947442],[46.970342,16.956847],[46.710099,17.275381],[46.322629,17.224066],[45.430384,17.312019],[45.165387,17.428395],[44.149015,17.40483],[44.08535,17.343439],[43.982307,17.356823],[43.915128,17.301839],[43.892649,17.34008],[43.730643,17.35243],[43.577061,17.482965],[43.412885,17.519965],[43.167887,17.33052],[43.252171,17.27197],[43.156156,17.2097],[43.118432,17.086245],[43.135899,17.009609],[43.108717,16.926978],[43.145821,16.834477],[43.211502,16.796857],[43.168507,16.737222],[43.179979,16.664617],[43.097762,16.677794],[43.036267,16.536304],[42.917411,16.483801],[42.872452,16.401636],[42.78948,16.370958],[42.794932,16.452826],[42.728689,16.547187],[42.712413,16.730618],[42.635753,16.815172],[42.575857,16.832343],[42.541759,16.877997],[42.534516,17.010321],[42.44752,17.049018],[42.401703,17.16352],[42.3567,17.18244],[42.384044,17.120998],[42.362966,17.024807],[42.307872,17.444322],[42.093516,17.652086],[41.97934,17.710639],[41.869477,17.820502],[41.787608,17.833564],[41.719249,17.909247],[41.507172,18.228258],[41.438162,18.464179],[41.363292,18.558661],[41.275401,18.592027],[41.216563,18.686347],[41.239513,18.848334],[41.171235,18.871649],[41.137218,18.957709],[41.176524,19.067369],[41.068614,19.125393],[41.041677,19.245754],[40.955903,19.343329],[40.944672,19.505683],[40.760427,19.60871],[40.794444,19.601264],[40.798025,19.692328],[40.744884,19.777004],[40.674001,19.794989],[40.64503,19.784735],[40.656586,19.759508],[40.533539,19.903998],[40.522634,19.97248],[40.313487,20.090725],[40.083832,20.279242],[39.968028,20.275092],[39.903087,20.308254],[39.947113,20.262152],[39.923188,20.263577],[39.778331,20.342719],[39.567393,20.567694],[39.591075,20.580268],[39.492931,20.706244],[39.506033,20.746405],[39.43629,20.756659],[39.417654,20.805325],[39.450694,20.817816],[39.359711,20.862616],[39.352794,20.919867],[39.306814,20.926093],[39.237804,21.062893],[39.185395,21.097235],[39.163259,21.205878],[39.08074,21.315009],[39.171072,21.40412],[39.158946,21.507799],[39.142751,21.54092],[39.110362,21.528144],[39.092296,21.576565],[39.077403,21.691555],[39.101248,21.759996],[39.066742,21.725246],[38.949598,21.921916],[38.931254,22.006073],[38.959144,22.034443],[38.986214,22.002239],[39.01002,22.024115],[39.040375,22.235785],[39.13738,22.4147],[39.070256,22.365828],[39.081517,22.546792],[38.993012,22.708564],[39.014659,22.758979],[38.945486,22.831204],[38.971446,22.763861],[38.851001,22.929721],[38.941417,22.850531],[38.964692,22.870429],[38.937348,22.912095],[38.799571,22.998684],[38.779063,23.041164],[38.79835,23.149604],[38.777619,23.139292],[38.711436,23.235745],[38.601573,23.551947],[38.560883,23.545722],[38.59547,23.528388],[38.540064,23.543245],[38.452647,23.784003],[38.079135,24.070388],[37.935321,24.139007],[37.983072,24.165664],[37.93953,24.161441],[37.937292,24.21085],[37.923905,24.155547],[37.865634,24.149888],[37.676091,24.291236],[37.625987,24.28144],[37.628394,24.24804],[37.52272,24.267732],[37.429403,24.367307],[37.417958,24.400966],[37.454954,24.406871],[37.456669,24.441249],[37.228526,24.737698],[37.230317,24.792548],[37.178722,24.799384],[37.148611,24.85102],[37.256602,24.871243],[37.279959,24.964097],[37.242198,25.175279],[37.105317,25.32217],[37.077403,25.431057],[36.944102,25.635199],[36.817393,25.757961],[36.779552,25.724066],[36.702322,25.779975],[36.66212,25.879096],[36.705821,25.943752],[36.696056,26.022284],[36.512706,26.110989],[36.30893,26.498236],[36.229828,26.625556],[36.097667,26.753974],[36.031993,26.906806],[35.831716,27.092719],[35.784028,27.2355],[35.559581,27.455634],[35.41505,27.75137],[35.181488,28.002916],[35.226899,28.033149],[35.216319,28.054389],[35.051931,28.119574],[34.927745,28.078599],[34.838878,28.078599],[34.866222,28.112779],[34.836762,28.116278],[34.804861,28.071194],[34.793712,28.11107],[34.681977,28.135159],[34.613048,28.030219],[34.606212,28.096015],[34.574392,28.094062],[34.627126,28.176663],[34.651703,28.167792],[34.803775,28.527133],[34.77847,28.6645],[34.945323,29.3369],[36.069457,29.200028],[36.477081,29.494609],[36.728745,29.853528],[37.470198,29.994553],[37.647552,30.330863],[37.97332,30.494522],[36.959532,31.490999],[38.963337,31.994379],[39.157744,32.121348],[40.37028,31.938465],[42.075395,31.079861],[44.691825,29.201836],[46.357459,29.063137],[46.532436,29.095745],[47.433363,28.994717],[47.549945,28.770596],[47.581674,28.631483],[47.668129,28.533505],[48.432781,28.54048],[48.49464,28.500149],[48.507823,28.415717],[48.476085,28.400784],[48.523936,28.414455],[48.522227,28.318834],[48.618419,28.217271],[48.606456,28.126451],[48.653331,28.049872],[48.77589,28.011949],[48.753266,27.947984],[48.87794,27.836819],[48.852794,27.737494],[48.852875,27.817939],[48.821788,27.766832],[48.820567,27.830024],[48.778819,27.71955],[48.803966,27.736477],[48.84547,27.667141],[48.880138,27.687567],[48.869802,27.618557],[48.831798,27.612494],[48.893809,27.632961],[48.914317,27.571519],[48.926036,27.613837],[48.9817,27.614569],[49.071625,27.539496],[49.239757,27.545111],[49.309825,27.456692],[49.119802,27.441148],[49.195486,27.40644],[49.246918,27.423774],[49.226085,27.34276],[49.312755,27.344957],[49.345225,27.182807],[49.37086,27.218736],[49.40089,27.207831],[49.377696,27.159166],[49.399099,27.144721],[49.435069,27.166815],[49.431895,27.142768],[49.508311,27.133979],[49.50408,27.187934],[49.572113,27.194159],[49.564626,27.116685],[49.699474,26.958238],[49.871837,26.862494],[49.972992,26.842353],[50.158458,26.664862],[50.161876,26.639228],[50.037852,26.695217],[50.006358,26.747626],[49.988455,26.724433],[50.03061,26.494615],[50.19158,26.403551],[50.216563,26.32392],[50.21225,26.191311],[50.154552,26.166246],[50.141368,26.035956],[50.0324,26.201077],[49.975841,26.139594],[50.0088,26.086493],[49.996918,26.017279],[50.101329,25.989488],[50.118337,25.867865],[50.257498,25.631903],[50.144705,25.733344],[50.148692,25.699856],[50.196056,25.687161],[50.347992,25.482123],[50.374278,25.461168],[50.381358,25.512885],[50.462901,25.446926],[50.520356,25.314765],[50.562185,25.054836],[50.606293,25.042711],[50.72641,24.881659],[50.750011,24.753119],[50.771332,24.726955],[50.807872,24.746649]]],[[[42.186438,16.705528],[42.188199,16.605264],[42.155836,16.584977],[42.083815,16.626718],[42.117633,16.659855],[42.085753,16.693525],[41.955457,16.670115],[41.867396,16.728569],[41.824941,16.798237],[41.778168,16.81269],[41.755614,16.878387],[41.828084,16.858608],[41.898467,16.751484],[42.064606,16.728382],[42.021739,16.755805],[42.062185,16.814195],[42.186438,16.705528]]],[[[41.918893,16.791155],[41.84303,16.880347],[41.928477,16.954901],[41.858572,16.996405],[41.938162,16.972886],[41.939919,16.901473],[41.985181,16.853596],[41.944102,16.853013],[41.938162,16.821357],[42.001958,16.772556],[41.918893,16.791155]]],[[[49.56544,27.351752],[49.688813,27.317694],[49.56544,27.297797],[49.531261,27.346177],[49.463878,27.306627],[49.501231,27.360541],[49.56544,27.351752]]],[[[37.026866,25.419623],[37.031261,25.398749],[36.946544,25.441881],[36.951834,25.467515],[36.999278,25.469428],[37.026866,25.419623]]],[[[36.942149,25.418362],[36.914806,25.370917],[36.878673,25.373725],[36.776134,25.489163],[36.906423,25.431627],[36.91627,25.396877],[36.942149,25.418362]]],[[[36.849376,25.533026],[36.841319,25.570014],[36.866547,25.557522],[36.849376,25.533026]]],[[[36.790212,25.49787],[36.734386,25.546617],[36.681163,25.544135],[36.691254,25.567206],[36.879161,25.443345],[36.790212,25.49787]]],[[[36.900727,25.549302],[36.904633,25.603176],[36.927582,25.52851],[36.900727,25.549302]]],[[[36.683116,25.572333],[36.667654,25.54975],[36.510509,25.610419],[36.491466,25.645087],[36.54363,25.702867],[36.537934,25.639838],[36.683116,25.572333]]],[[[36.544281,25.73135],[36.542491,25.801947],[36.583669,25.857896],[36.555431,25.796332],[36.611095,25.709459],[36.544281,25.73135]]]]}}