{"type":"Feature","properties":{"iso3":"SDN","name":"Sudan","continent":"Africa"},"geometry":{"type":"MultiPolygon","coordinates":[[[[22.861064,10.919154],[22.954536,11.237843],[22.914808,11.396101],[22.781792,11.398892],[22.743035,11.466097],[22.592347,11.543663],[22.541704,11.632986],[22.612397,12.072804],[22.464499,12.032962],[22.484033,12.164737],[22.374892,12.450869],[22.445689,12.611066],[22.204877,12.743358],[22.105865,12.650392],[21.935953,12.63954],[21.813686,12.782296],[21.964065,13.098349],[22.139971,13.193511],[22.267612,13.334562],[22.195885,13.580464],[22.132116,13.638652],[22.073722,13.771357],[22.214695,13.956617],[22.546355,14.139707],[22.531885,14.220632],[22.429049,14.264608],[22.424915,14.470436],[22.363523,14.543532],[22.465429,14.629289],[22.666347,14.681741],[22.650844,14.841938],[22.715337,14.899428],[22.738901,14.97981],[22.905506,15.112567],[22.958009,15.201631],[22.976406,15.373636],[22.906849,15.481408],[22.906746,15.541404],[23.094642,15.704262],[23.320571,15.681318],[23.592699,15.749014],[23.945546,15.692222],[23.984406,15.72116],[23.981306,19.995421],[24.968016,19.994956],[24.981245,21.995351],[31.248407,21.994369],[31.359512,22.188104],[31.442504,22.224174],[31.491803,22.173221],[31.435476,21.995351],[33.181136,21.995409],[33.558442,21.710957],[33.999118,21.767353],[34.084179,21.995454],[36.883637,21.995714],[36.857758,21.971991],[36.887869,21.650133],[37.113617,21.278062],[37.305431,21.074449],[37.291352,21.012641],[37.251964,21.006049],[37.192231,21.086086],[37.272146,21.054267],[37.229747,21.127834],[37.15268,21.157782],[37.159516,21.206448],[37.104991,21.207506],[37.118175,21.097846],[37.086436,21.040595],[37.147309,20.940863],[37.228038,20.565009],[37.222423,20.468248],[37.182302,20.462836],[37.175141,20.349189],[37.224892,20.119532],[37.188813,20.01317],[37.26531,19.786851],[37.245372,19.567776],[37.285818,19.475287],[37.333507,19.159654],[37.434337,18.861721],[37.539806,18.715888],[37.674725,18.740953],[37.740733,18.709174],[37.758067,18.628648],[37.925505,18.585044],[38.038198,18.461086],[38.109251,18.427425],[38.076119,18.348119],[38.151674,18.249331],[38.245434,18.243906],[38.251161,18.280825],[38.306163,18.306545],[38.264496,18.23078],[38.217296,18.217719],[38.376231,18.190619],[38.391449,18.224189],[38.45045,18.132392],[38.502289,18.126044],[38.505707,18.086371],[38.531993,18.070705],[38.52589,18.128363],[38.584483,18.077135],[38.603852,18.013861],[38.459285,17.890744],[38.371332,17.698817],[38.25661,17.602544],[38.233356,17.525701],[38.125352,17.546527],[38.091452,17.480019],[38.038846,17.548181],[37.895909,17.442554],[37.79886,17.477126],[37.720415,17.38385],[37.506785,17.318479],[37.494693,17.174612],[37.403432,17.029918],[37.309795,17.055343],[37.133991,17.01643],[36.980099,17.070019],[36.992398,16.980205],[36.96811,16.946615],[36.999736,16.842126],[36.960359,16.705648],[36.892352,16.636867],[36.877263,16.527313],[36.933693,16.418069],[36.954261,16.278284],[36.885944,16.184853],[36.759544,15.837484],[36.670971,15.723124],[36.61671,15.531534],[36.627872,15.445622],[36.423647,15.111508],[36.52638,14.263523],[36.432122,13.969924],[36.458167,13.820139],[36.391298,13.599352],[36.233581,13.36164],[36.136946,13.032436],[36.123614,12.721447],[35.684054,12.656076],[35.428772,12.266953],[35.403348,12.185097],[35.353738,12.14603],[35.317358,12.023712],[35.215555,11.896588],[35.072722,11.818866],[35.040579,11.727399],[35.073135,11.54896],[34.944254,11.253242],[34.984148,11.186398],[34.914282,10.963957],[34.950662,10.869183],[34.838524,10.72914],[34.752948,10.698728],[34.737445,10.755391],[34.557818,10.877787],[34.420048,10.780816],[34.279489,10.565506],[34.325894,10.223563],[34.098208,9.67972],[34.070698,9.454592],[33.900855,9.45529],[33.881425,9.499215],[33.904886,9.7107],[33.973254,9.861776],[33.966794,10.047269],[33.916978,10.174522],[33.389827,10.639248],[33.141418,10.750818],[33.182088,10.843241],[33.082921,11.584565],[33.129016,11.67549],[33.144984,11.934673],[33.209218,12.210367],[32.731779,12.216155],[32.746662,12.002731],[32.082207,11.999811],[32.34524,11.709106],[32.348754,11.30758],[32.430713,11.082193],[31.942887,10.655552],[31.864184,10.472127],[31.664816,10.214236],[31.234817,9.792323],[31.164382,9.764005],[30.83696,9.749354],[30.779082,9.719873],[30.484578,9.972028],[30.012979,10.270485],[29.615432,10.058147],[29.613882,9.914461],[29.483089,9.761679],[29.132258,9.667731],[28.913833,9.529031],[28.828745,9.427474],[28.843841,9.324545],[28.04511,9.331407],[27.895072,9.59541],[27.080393,9.606831],[26.694318,9.476942],[26.625744,9.480663],[26.556859,9.520454],[26.179466,9.95898],[26.102623,9.987841],[26.000872,10.131062],[25.902791,10.185529],[25.894884,10.34583],[25.843053,10.417815],[25.629061,10.386706],[25.327425,10.316581],[25.131261,10.308287],[25.067028,10.27493],[24.976284,9.967351],[24.796398,9.818859],[24.794383,9.532184],[24.680178,9.373357],[24.660954,9.182283],[24.565353,9.014851],[24.558377,8.886746],[24.380093,8.844216],[24.114011,8.681642],[23.59642,8.734145],[23.540506,8.704793],[23.49007,8.732595],[23.482318,8.783393],[23.553632,8.883154],[23.567481,8.974828],[23.560143,8.996455],[23.478081,8.958912],[23.435706,9.018934],[23.474257,9.170682],[23.549498,9.185254],[23.63218,9.277574],[23.646856,9.418393],[23.606755,9.526241],[23.674038,9.69034],[23.644789,9.863068],[23.291219,10.439726],[23.005551,10.686817],[22.861064,10.919154]]],[[[37.26531,20.855048],[37.283539,20.83275],[37.254405,20.749823],[37.26531,20.855048]]]]}}