{"type":"Feature","properties":{"iso3":"SEN","name":"Senegal","continent":"Africa"},"geometry":{"type":"Polygon","coordinates":[[[-12.26413,14.774939],[-12.256508,14.745794],[-12.222815,14.70329],[-12.180311,14.692825],[-12.192197,14.666884],[-12.18982,14.655954],[-12.165015,14.641872],[-12.165945,14.625181],[-12.198398,14.58756],[-12.204186,14.554255],[-12.230386,14.536685],[-12.236432,14.519451],[-12.21987,14.434598],[-12.22173,14.391242],[-12.115612,14.35512],[-12.108688,14.34202],[-12.113029,14.329592],[-12.127808,14.324295],[-12.119591,14.310575],[-12.097784,14.28807],[-12.044299,14.264919],[-11.997583,14.166165],[-12.002751,14.103456],[-12.02523,14.026742],[-12.025334,13.985246],[-12.015308,13.959304],[-11.962908,13.909152],[-11.956811,13.890342],[-11.962908,13.829467],[-11.978825,13.784819],[-12.012311,13.751177],[-12.097629,13.70441],[-12.070395,13.673249],[-12.015153,13.564444],[-11.939034,13.50295],[-11.918157,13.474708],[-11.890406,13.465148],[-11.883482,13.453547],[-11.897589,13.371175],[-11.854595,13.350556],[-11.844569,13.323839],[-11.828136,13.307277],[-11.775116,13.343347],[-11.76659,13.383164],[-11.741217,13.407813],[-11.726902,13.405798],[-11.70401,13.380373],[-11.649801,13.38412],[-11.643962,13.355594],[-11.613111,13.360813],[-11.605824,13.319653],[-11.554251,13.256866],[-11.572338,13.217101],[-11.569341,13.199195],[-11.538542,13.16297],[-11.533064,13.111811],[-11.450278,13.075095],[-11.45896,13.054682],[-11.435654,13.016726],[-11.422993,13.009414],[-11.433432,12.99696],[-11.438703,12.9589],[-11.411521,12.960709],[-11.401806,12.989492],[-11.393434,12.980811],[-11.384443,12.933114],[-11.402891,12.916396],[-11.427231,12.918618],[-11.415138,12.896656],[-11.432502,12.835523],[-11.408472,12.804491],[-11.405423,12.782348],[-11.41457,12.764209],[-11.402168,12.73173],[-11.410332,12.718811],[-11.437359,12.712248],[-11.447953,12.685945],[-11.461905,12.673129],[-11.460975,12.658402],[-11.436842,12.637473],[-11.437359,12.570758],[-11.43984,12.559286],[-11.467797,12.543525],[-11.449451,12.535205],[-11.429814,12.508333],[-11.42475,12.526368],[-11.416999,12.529314],[-11.400514,12.479549],[-11.390437,12.497533],[-11.377776,12.480221],[-11.388422,12.403895],[-11.515391,12.431645],[-11.643083,12.417641],[-11.757805,12.383328],[-11.839609,12.386687],[-11.930869,12.418726],[-11.997583,12.386377],[-12.07918,12.408133],[-12.103985,12.407357],[-12.192042,12.348756],[-12.36092,12.305607],[-12.377121,12.313668],[-12.405517,12.356456],[-12.466754,12.384465],[-12.505072,12.390253],[-12.570649,12.363691],[-12.593671,12.361572],[-12.603412,12.381933],[-12.648009,12.425754],[-12.688058,12.435986],[-12.773272,12.435056],[-12.783479,12.453091],[-12.838617,12.466372],[-12.849133,12.475829],[-12.84965,12.491073],[-12.874042,12.516395],[-12.913135,12.536342],[-12.949489,12.535928],[-12.969514,12.476811],[-12.981038,12.466992],[-13.051989,12.472263],[-13.078267,12.496241],[-13.082711,12.515671],[-13.060413,12.583367],[-13.063642,12.62228],[-13.076458,12.635922],[-13.091703,12.638196],[-13.127308,12.634837],[-13.145317,12.643932],[-13.154696,12.632822],[-13.169217,12.638765],[-13.197872,12.634062],[-13.22154,12.648376],[-13.25469,12.641813],[-13.284146,12.653337],[-13.338613,12.63923],[-13.404758,12.661761],[-13.728279,12.673388],[-15.195114,12.679434],[-15.249736,12.663621],[-15.421731,12.557122],[-15.677049,12.439294],[-15.711517,12.432214],[-15.893883,12.442756],[-15.973258,12.437226],[-16.090512,12.464305],[-16.181876,12.443376],[-16.22239,12.455055],[-16.412301,12.361727],[-16.462686,12.361314],[-16.533327,12.347826],[-16.668874,12.356715],[-16.705616,12.348033],[-16.728437,12.332531],[-16.74413,12.378852],[-16.798736,12.430894],[-16.800771,12.494452],[-16.781361,12.522935],[-16.731679,12.552069],[-16.678822,12.550238],[-16.645375,12.570746],[-16.618031,12.605455],[-16.579742,12.632799],[-16.56135,12.611802],[-16.54719,12.573879],[-16.533315,12.565334],[-16.532704,12.580878],[-16.52245,12.593085],[-16.50475,12.598049],[-16.370961,12.550238],[-16.30956,12.598049],[-16.246693,12.587958],[-16.212229,12.60635],[-16.19286,12.577582],[-16.11498,12.606106],[-16.057607,12.616197],[-16.029775,12.632961],[-15.990346,12.62287],[-15.939605,12.580634],[-15.863881,12.577582],[-15.839996,12.557074],[-15.805531,12.564521],[-15.768788,12.592597],[-15.747874,12.583726],[-15.729604,12.591498],[-15.715932,12.581773],[-15.699452,12.583726],[-15.673085,12.54442],[-15.644765,12.537258],[-15.587717,12.55801],[-15.538686,12.615424],[-15.509836,12.63581],[-15.507069,12.649563],[-15.529856,12.665758],[-15.521311,12.673774],[-15.543446,12.758043],[-15.534901,12.783026],[-15.46642,12.796454],[-15.446156,12.824612],[-15.425608,12.804999],[-15.406809,12.799709],[-15.394032,12.810248],[-15.391591,12.838202],[-15.407053,12.822333],[-15.453033,12.831448],[-15.492787,12.807115],[-15.549469,12.794338],[-15.555409,12.721584],[-15.54247,12.6494],[-15.641021,12.559475],[-15.672109,12.570746],[-15.666412,12.600653],[-15.696767,12.614163],[-15.76769,12.625393],[-15.833485,12.591254],[-15.860463,12.611721],[-15.889556,12.600165],[-15.913319,12.601223],[-15.953277,12.625393],[-15.952707,12.643744],[-15.981191,12.652655],[-16.013173,12.696194],[-16.022125,12.72899],[-16.02831,12.72899],[-16.045155,12.690497],[-16.048899,12.656399],[-16.076812,12.638983],[-16.117747,12.632148],[-16.155019,12.611721],[-16.22761,12.619127],[-16.268625,12.605455],[-16.323842,12.609565],[-16.346791,12.598049],[-16.370961,12.564521],[-16.44518,12.596137],[-16.467193,12.62226],[-16.489573,12.631822],[-16.492828,12.648912],[-16.467193,12.666327],[-16.467193,12.673774],[-16.492299,12.681708],[-16.501332,12.707913],[-16.508168,12.625393],[-16.565663,12.673896],[-16.570221,12.69359],[-16.598785,12.664008],[-16.614613,12.660102],[-16.634674,12.669379],[-16.637929,12.69359],[-16.590728,12.76203],[-16.596913,12.797309],[-16.603749,12.762519],[-16.638417,12.728502],[-16.651031,12.705268],[-16.647206,12.632229],[-16.677317,12.619574],[-16.721059,12.583726],[-16.754628,12.572211],[-16.773101,12.582953],[-16.780873,12.608832],[-16.777089,12.678046],[-16.76122,12.713202],[-16.735463,12.732896],[-16.700551,12.721584],[-16.698964,12.736396],[-16.733957,12.75137],[-16.751536,12.745429],[-16.783559,12.712592],[-16.796213,12.715318],[-16.788238,12.732082],[-16.796213,12.748847],[-16.770131,12.793362],[-16.775054,12.81094],[-16.794057,12.794989],[-16.802968,12.814032],[-16.755238,12.903469],[-16.762074,12.951158],[-16.747792,13.040269],[-16.752125,13.088039],[-16.708407,13.156692],[-16.673525,13.164314],[-15.833318,13.156847],[-15.8266,13.161678],[-15.818694,13.333528],[-15.6925,13.360348],[-15.596123,13.355827],[-15.519539,13.3866],[-15.379237,13.362519],[-15.342392,13.36257],[-15.277073,13.380296],[-15.248341,13.398977],[-15.227774,13.425176],[-15.217955,13.51468],[-15.203951,13.536901],[-15.160491,13.580981],[-15.13765,13.589973],[-15.01559,13.496051],[-14.949703,13.463081],[-14.862576,13.447061],[-14.829142,13.427011],[-14.790333,13.417348],[-14.731577,13.359005],[-14.698142,13.345181],[-14.661607,13.340918],[-14.592154,13.35314],[-14.529574,13.307277],[-14.470326,13.298259],[-14.43144,13.26144],[-14.368834,13.235705],[-14.284911,13.238547],[-14.201687,13.229555],[-14.116808,13.282162],[-14.056579,13.297174],[-13.900568,13.314563],[-13.851036,13.33575],[-13.822562,13.378203],[-13.818713,13.429362],[-13.84269,13.476646],[-13.882504,13.503782],[-13.901343,13.541629],[-13.94209,13.566925],[-13.988495,13.579146],[-14.034022,13.560207],[-14.092882,13.554729],[-14.139132,13.531552],[-14.196829,13.518788],[-14.271217,13.476956],[-14.329947,13.456441],[-14.365553,13.454839],[-14.470275,13.522354],[-14.486863,13.546539],[-14.50973,13.609093],[-14.542596,13.640822],[-14.585539,13.660459],[-14.626674,13.663508],[-14.667188,13.652889],[-14.74093,13.615449],[-14.802942,13.65232],[-14.831312,13.735623],[-14.879268,13.780581],[-14.915803,13.792441],[-15.016779,13.796885],[-15.07631,13.818951],[-15.097704,13.819984],[-15.17062,13.793784],[-15.245964,13.746733],[-15.267255,13.741798],[-15.304462,13.781873],[-15.347766,13.788643],[-15.394069,13.771512],[-15.467501,13.708286],[-15.496801,13.648341],[-15.502486,13.588267],[-15.518195,13.5831],[-16.561399,13.586914],[-16.576405,13.61225],[-16.575754,13.640326],[-16.508168,13.687974],[-16.529286,13.700995],[-16.507232,13.728095],[-16.508901,13.74022],[-16.529286,13.742621],[-16.531484,13.707261],[-16.542104,13.693671],[-16.556549,13.69477],[-16.56371,13.673774],[-16.598866,13.654202],[-16.618031,13.660061],[-16.635569,13.678046],[-16.640004,13.696479],[-16.62975,13.760484],[-16.576405,13.838813],[-16.549143,13.82453],[-16.556549,13.845649],[-16.52184,13.851793],[-16.512929,13.8133],[-16.501576,13.801988],[-16.48705,13.804633],[-16.5006,13.872707],[-16.515696,13.879788],[-16.48705,14.002631],[-16.518056,13.95185],[-16.52595,13.910468],[-16.549428,13.869289],[-16.570221,13.872952],[-16.58023,13.859524],[-16.637929,13.845649],[-16.659006,13.810858],[-16.682525,13.794094],[-16.700063,13.769029],[-16.710194,13.773627],[-16.715321,13.806342],[-16.737213,13.819648],[-16.742421,13.839423],[-16.73412,13.872952],[-16.744456,13.902167],[-16.746816,13.951361],[-16.737213,13.967678],[-16.702504,13.989976],[-16.646311,13.982978],[-16.63679,13.974921],[-16.637929,13.961656],[-16.598988,13.996812],[-16.576405,13.988959],[-16.576772,14.010972],[-16.542348,14.03734],[-16.568349,14.030341],[-16.590728,14.043606],[-16.545522,14.07099],[-16.489125,14.128241],[-16.457021,14.137356],[-16.441477,14.156562],[-16.429351,14.160956],[-16.404693,14.145413],[-16.364735,14.167792],[-16.427724,14.170111],[-16.454742,14.180162],[-16.452952,14.20185],[-16.468739,14.193834],[-16.471506,14.164252],[-16.460357,14.15412],[-16.472768,14.147366],[-16.513173,14.151028],[-16.556549,14.071519],[-16.600331,14.054185],[-16.631703,14.010077],[-16.654164,14.002753],[-16.721059,14.016303],[-16.696848,14.064683],[-16.680002,14.069403],[-16.652252,14.099514],[-16.665639,14.095649],[-16.678578,14.076117],[-16.727895,14.064683],[-16.717112,14.042385],[-16.76887,13.961656],[-16.76887,13.838813],[-16.775054,13.838813],[-16.786,14.059719],[-16.82079,14.143459],[-16.829701,14.15412],[-16.878733,14.174547],[-16.898915,14.259955],[-16.925893,14.291246],[-16.945465,14.301418],[-16.939565,14.355862],[-16.956532,14.390123],[-16.987945,14.421047],[-17.070465,14.465399],[-17.11148,14.530219],[-17.137847,14.599026],[-17.178212,14.653144],[-17.22411,14.690416],[-17.281646,14.707261],[-17.330556,14.736314],[-17.417388,14.737698],[-17.439809,14.722073],[-17.419342,14.70897],[-17.439809,14.688463],[-17.430247,14.678046],[-17.439809,14.653754],[-17.536041,14.757392],[-17.370961,14.800279],[-17.322133,14.839016],[-17.172963,14.900824],[-17.138661,14.92772],[-16.878245,15.2331],[-16.739166,15.472398],[-16.669667,15.561835],[-16.534291,15.784369],[-16.542348,15.808824],[-16.519736,15.846372],[-16.509918,15.901511],[-16.507541,16.010393],[-16.470437,16.106357],[-16.465993,16.174053],[-16.458758,16.194155],[-16.444185,16.206299],[-16.407288,16.214825],[-16.385378,16.234927],[-16.334941,16.455793],[-16.295099,16.510621],[-16.251019,16.527623],[-16.195363,16.522714],[-16.132266,16.554753],[-16.110459,16.54695],[-16.074027,16.504885],[-16.05377,16.495428],[-16.007313,16.496152],[-15.985609,16.505867],[-15.958065,16.498426],[-15.896932,16.518424],[-15.861999,16.51026],[-15.812958,16.513773],[-15.672191,16.481372],[-15.609663,16.521318],[-15.551475,16.515117],[-15.52481,16.522197],[-15.49091,16.56452],[-15.463987,16.58147],[-15.448846,16.580178],[-15.414532,16.548035],[-15.328026,16.571961],[-15.232476,16.56638],[-15.125093,16.58271],[-15.093208,16.600176],[-15.118271,16.642603],[-15.107574,16.665392],[-15.078894,16.664979],[-15.051557,16.63418],[-15.036933,16.632578],[-15.018743,16.646117],[-15.006909,16.675831],[-14.974301,16.691385],[-14.949858,16.672317],[-14.930944,16.643378],[-14.912496,16.640639],[-14.882007,16.647667],[-14.711216,16.635782],[-14.655974,16.64591],[-14.60807,16.628805],[-14.555128,16.640587],[-14.49309,16.632474],[-14.406635,16.660793],[-14.335529,16.631544],[-14.335322,16.586482],[-14.277961,16.581263],[-14.268065,16.54788],[-14.214166,16.534961],[-14.073038,16.400654],[-14.039836,16.382102],[-14.0156,16.35585],[-13.97785,16.33797],[-13.971158,16.324224],[-13.979323,16.30035],[-13.963045,16.272393],[-13.964078,16.23007],[-13.883825,16.193741],[-13.859072,16.142272],[-13.835766,16.120568],[-13.819203,16.119276],[-13.794941,16.131213],[-13.746701,16.182373],[-13.729416,16.189504],[-13.71058,16.188884],[-13.719571,16.135605],[-13.668954,16.105736],[-13.635029,16.121601],[-13.484934,16.154984],[-13.4831,16.141031],[-13.501703,16.095143],[-13.491549,16.088425],[-13.440028,16.101861],[-13.422096,16.077211],[-13.388558,16.052096],[-13.369774,15.985485],[-13.315927,15.93045],[-13.31603,15.881771],[-13.293654,15.855312],[-13.27996,15.82286],[-13.286135,15.769633],[-13.250659,15.742761],[-13.228258,15.71129],[-13.248747,15.65672],[-13.237844,15.62344],[-13.178235,15.628194],[-13.109712,15.596413],[-13.091806,15.575123],[-13.094958,15.514713],[-13.083845,15.49275],[-13.038889,15.486885],[-12.995843,15.514222],[-12.96432,15.509158],[-12.95091,15.465414],[-12.933056,15.438284],[-12.931015,15.397046],[-12.918974,15.365368],[-12.847273,15.313278],[-12.828049,15.283874],[-12.83345,15.269999],[-12.884196,15.270826],[-12.894376,15.263359],[-12.888356,15.250879],[-12.856782,15.221992],[-12.806397,15.223077],[-12.787225,15.214163],[-12.779474,15.199616],[-12.780921,15.149076],[-12.754566,15.13856],[-12.717049,15.10342],[-12.690306,15.092387],[-12.622946,15.102258],[-12.602146,15.078771],[-12.518973,15.028283],[-12.484892,15.017276],[-12.471508,14.998],[-12.447633,14.907437],[-12.382495,14.84602],[-12.319579,14.817185],[-12.26413,14.774939]]]}}