{"type":"Feature","properties":{"iso3":"SGS","name":"South Georgia and the Islands","continent":"Americas"},"geometry":{"type":"MultiPolygon","coordinates":[[[[-27.252919,-59.458266],[-27.249989,-59.44671],[-27.231313,-59.438246],[-27.13683,-59.437188],[-27.152943,-59.470798],[-27.214223,-59.471856],[-27.252919,-59.458266]]],[[[-27.328603,-59.437188],[-27.316477,-59.466567],[-27.30134,-59.471938],[-27.371409,-59.455824],[-27.399241,-59.443617],[-27.407216,-59.431736],[-27.377065,-59.423517],[-27.330922,-59.424574],[-27.328603,-59.437188]]],[[[-26.62975,-59.005955],[-26.595041,-59.001886],[-26.562652,-59.007908],[-26.499379,-59.033136],[-26.569447,-59.064142],[-26.629791,-59.062758],[-26.653676,-59.045587],[-26.657053,-59.023696],[-26.62975,-59.005955]]],[[[-26.259836,-58.4367],[-26.239329,-58.467706],[-26.246205,-58.498712],[-26.301015,-58.477227],[-26.430287,-58.452407],[-26.457834,-58.42669],[-26.430898,-58.385024],[-26.312367,-58.382094],[-26.276845,-58.386895],[-26.246205,-58.40252],[-26.259836,-58.4367]]],[[[-26.424306,-57.812758],[-26.478749,-57.802667],[-26.513051,-57.772556],[-26.45873,-57.738458],[-26.437978,-57.744561],[-26.41686,-57.778741],[-26.356028,-57.786228],[-26.424306,-57.812758]]],[[[-26.732818,-57.05934],[-26.713206,-57.048435],[-26.690338,-57.050551],[-26.650258,-57.079767],[-26.663889,-57.086684],[-26.732818,-57.05934]]],[[[-27.150502,-56.675714],[-27.112213,-56.685968],[-27.094228,-56.695896],[-27.092437,-56.706476],[-27.164174,-56.724216],[-27.20759,-56.713149],[-27.211985,-56.69964],[-27.204579,-56.690199],[-27.150502,-56.675714]]],[[[-27.609771,-56.292169],[-27.593332,-56.277276],[-27.572499,-56.272556],[-27.527903,-56.284763],[-27.527903,-56.292169],[-27.569,-56.320571],[-27.609771,-56.292169]]],[[[-37.083079,-54.465916],[-37.068267,-54.464288],[-37.048736,-54.474542],[-37.018178,-54.503351],[-37.063059,-54.51393],[-37.086497,-54.510837],[-37.086497,-54.503351],[-37.06664,-54.503351],[-37.107574,-54.489679],[-37.109975,-54.476983],[-37.083079,-54.465916]]],[[[-38.087026,-54.003676],[-38.077992,-53.991957],[-38.062367,-53.988051],[-38.026194,-53.989435],[-38.087026,-54.003676]]],[[[-35.908803,-54.68727],[-35.93578,-54.68906],[-35.914784,-54.715265],[-35.87149,-54.736912],[-35.784291,-54.757257],[-35.784291,-54.764744],[-35.810943,-54.772068],[-35.835113,-54.790704],[-35.887318,-54.784438],[-35.907338,-54.80462],[-35.937367,-54.809991],[-35.997182,-54.79811],[-36.075551,-54.766697],[-36.106435,-54.764744],[-36.083974,-54.78338],[-36.04308,-54.794122],[-36.010854,-54.818617],[-35.953481,-54.827813],[-35.922027,-54.852227],[-35.963043,-54.845961],[-35.958079,-54.861912],[-35.985178,-54.866957],[-36.004018,-54.852227],[-36.004018,-54.87949],[-36.04898,-54.873305],[-36.072621,-54.887302],[-36.115956,-54.884535],[-36.134389,-54.866469],[-36.106435,-54.859063],[-36.147369,-54.845961],[-36.192372,-54.811212],[-36.271555,-54.770929],[-36.273061,-54.756606],[-36.283437,-54.758477],[-36.298818,-54.743585],[-36.294993,-54.728448],[-36.312327,-54.690362],[-36.346425,-54.654229],[-36.421742,-54.593357],[-36.478017,-54.576349],[-36.480458,-54.55755],[-36.463287,-54.53753],[-36.499013,-54.510512],[-36.541819,-54.496515],[-36.570139,-54.496677],[-36.600819,-54.513767],[-36.62914,-54.514907],[-36.684316,-54.476983],[-36.785512,-54.448663],[-36.809967,-54.448989],[-36.800282,-54.403253],[-36.847279,-54.383559],[-36.888499,-54.379815],[-36.881012,-54.372979],[-36.901479,-54.366795],[-36.89566,-54.356622],[-36.860504,-54.352634],[-36.884511,-54.336358],[-37.014475,-54.343438],[-37.082428,-54.315688],[-37.08023,-54.287286],[-37.153391,-54.257501],[-37.172271,-54.261651],[-37.241567,-54.250421],[-37.368276,-54.277439],[-37.382558,-54.266534],[-37.402455,-54.269952],[-37.413686,-54.255304],[-37.409657,-54.248468],[-37.319203,-54.229099],[-37.33849,-54.2138],[-37.394399,-54.200942],[-37.40925,-54.181817],[-37.321197,-54.173761],[-37.237294,-54.147719],[-37.262115,-54.141046],[-37.388092,-54.147719],[-37.436269,-54.133477],[-37.529042,-54.133477],[-37.553212,-54.137628],[-37.562001,-54.146905],[-37.555165,-54.156427],[-37.532704,-54.16131],[-37.629709,-54.17547],[-37.689809,-54.174412],[-37.676137,-54.16131],[-37.724517,-54.133477],[-37.655629,-54.099298],[-37.724517,-54.092462],[-37.631581,-54.059015],[-37.614654,-54.037856],[-37.792836,-54.044041],[-37.840647,-54.03045],[-37.927724,-54.045587],[-37.973215,-54.02809],[-38.012278,-54.052016],[-38.032379,-54.051446],[-38.025217,-54.032892],[-38.005116,-54.023614],[-38.014556,-54.011163],[-38.032379,-54.009942],[-37.891835,-53.989435],[-37.83727,-54.006768],[-37.79894,-54.007908],[-37.755849,-53.993748],[-37.738189,-53.982599],[-37.738271,-53.97324],[-37.669911,-53.982599],[-37.684234,-53.98797],[-37.689809,-54.003676],[-37.492421,-54.000421],[-37.381947,-53.982599],[-37.381947,-53.989435],[-37.443349,-54.009942],[-37.436513,-54.017348],[-37.443349,-54.03045],[-37.463857,-54.03045],[-37.408844,-54.051365],[-37.292551,-54.044041],[-37.223622,-54.068536],[-37.217397,-54.052423],[-37.169667,-54.044041],[-37.171376,-54.034112],[-37.121205,-54.03045],[-37.139719,-54.045994],[-37.107574,-54.051446],[-37.108144,-54.062188],[-37.141713,-54.07879],[-37.138539,-54.096775],[-37.149159,-54.113539],[-37.122426,-54.111912],[-37.059804,-54.065118],[-37.005238,-54.052016],[-36.978139,-54.054783],[-36.970367,-54.071954],[-37.031484,-54.110528],[-37.018178,-54.119806],[-36.915761,-54.085626],[-36.936269,-54.071954],[-36.914784,-54.067966],[-36.840077,-54.07879],[-36.805979,-54.092462],[-36.818227,-54.135349],[-36.802968,-54.143487],[-36.791656,-54.140313],[-36.778635,-54.099298],[-36.753529,-54.093927],[-36.6551,-54.106134],[-36.662587,-54.113539],[-36.621571,-54.119806],[-36.635243,-54.147719],[-36.652089,-54.14129],[-36.687734,-54.144464],[-36.703481,-54.153904],[-36.664133,-54.161798],[-36.668772,-54.168227],[-36.717152,-54.174412],[-36.691558,-54.184177],[-36.659169,-54.182061],[-36.541819,-54.16131],[-36.513051,-54.182712],[-36.497467,-54.174412],[-36.492665,-54.188572],[-36.497467,-54.195489],[-36.528879,-54.187758],[-36.558949,-54.195489],[-36.669993,-54.243585],[-36.675649,-54.249444],[-36.667063,-54.267673],[-36.675649,-54.277439],[-36.630849,-54.277765],[-36.545074,-54.237726],[-36.519032,-54.231866],[-36.504262,-54.242771],[-36.491851,-54.234633],[-36.468861,-54.250909],[-36.473866,-54.266534],[-36.500559,-54.272149],[-36.504262,-54.280532],[-36.492096,-54.293878],[-36.497467,-54.304783],[-36.485829,-54.324884],[-36.497467,-54.345798],[-36.436635,-54.310154],[-36.418935,-54.31463],[-36.375071,-54.356052],[-36.354075,-54.359308],[-36.336537,-54.351495],[-36.33849,-54.338149],[-36.357493,-54.293552],[-36.391916,-54.262872],[-36.394439,-54.242771],[-36.298899,-54.268162],[-36.291982,-54.283624],[-36.26061,-54.285414],[-36.253041,-54.312921],[-36.264719,-54.325291],[-36.23469,-54.3388],[-36.257232,-54.369887],[-36.161692,-54.372979],[-36.17101,-54.409763],[-36.188954,-54.414646],[-36.183949,-54.423923],[-36.154856,-54.435154],[-36.146352,-54.449802],[-36.120717,-54.455662],[-36.100209,-54.448663],[-36.076039,-54.462498],[-36.041982,-54.463962],[-36.035064,-54.484063],[-36.016225,-54.495375],[-36.100209,-54.545017],[-36.069814,-54.566664],[-36.043284,-54.5735],[-35.950592,-54.570571],[-35.910146,-54.552016],[-35.887318,-54.551202],[-35.908437,-54.592706],[-35.931793,-54.617608],[-35.908803,-54.68727]]],[[[-28.213287,-56.713962],[-28.193105,-56.704034],[-28.171457,-56.704848],[-28.168568,-56.715997],[-28.187123,-56.726251],[-28.210113,-56.72503],[-28.213287,-56.713962]]]]}}