{"type":"Feature","properties":{"iso3":"SHN","name":"Saint Helena","continent":"Africa"},"geometry":{"type":"MultiPolygon","coordinates":[[[[-9.926381,-40.34881],[-9.906361,-40.36419],[-9.895375,-40.386407],[-9.92516,-40.397882],[-9.965077,-40.382745],[-10.039377,-40.338637],[-10.039377,-40.331801],[-10.022206,-40.307224],[-9.962758,-40.301853],[-9.943105,-40.31227],[-9.926381,-40.34881]]],[[[-12.307362,-37.070082],[-12.2919,-37.055759],[-12.244985,-37.059177],[-12.191274,-37.090509],[-12.244781,-37.137872],[-12.276601,-37.149184],[-12.335317,-37.104262],[-12.307362,-37.070082]]],[[[-5.721832,-15.908949],[-5.666656,-15.902114],[-5.65038,-15.948907],[-5.66275,-15.979587],[-5.701975,-16.005141],[-5.715647,-15.990899],[-5.74649,-16.013849],[-5.780181,-16.008233],[-5.78954,-15.995294],[-5.770131,-15.945245],[-5.721832,-15.908949]]],[[[-14.356272,-7.884698],[-14.294789,-7.945489],[-14.350331,-7.974705],[-14.391021,-7.979669],[-14.406402,-7.973891],[-14.417714,-7.939223],[-14.390614,-7.889337],[-14.376698,-7.877862],[-14.369985,-7.889337],[-14.356272,-7.884698]]]]}}