{"type":"Feature","properties":{"iso3":"SLB","name":"Solomon Islands","continent":"Oceania"},"geometry":{"type":"MultiPolygon","coordinates":[[[[160.503673,-11.736017],[160.564464,-11.773045],[160.582205,-11.794854],[160.558849,-11.811212],[160.517833,-11.811212],[160.497325,-11.84588],[160.483165,-11.844985],[160.449555,-11.804376],[160.428477,-11.811212],[160.385265,-11.783787],[160.360118,-11.716892],[160.339692,-11.701349],[160.285818,-11.686944],[160.284841,-11.649509],[160.270763,-11.632989],[160.230479,-11.626153],[160.209972,-11.653497],[160.168468,-11.653497],[160.092621,-11.619399],[160.100759,-11.605076],[160.08253,-11.592218],[160.041352,-11.605076],[160.023692,-11.600681],[159.965505,-11.525811],[159.969249,-11.503188],[160.003266,-11.461114],[160.052419,-11.495212],[160.087169,-11.494806],[160.287446,-11.617364],[160.393891,-11.65781],[160.503673,-11.736017]]],[[[159.804698,-11.29046],[159.839366,-11.297621],[159.851085,-11.307712],[159.853201,-11.324477],[159.793305,-11.302423],[159.777354,-11.283624],[159.804698,-11.29046]]],[[[161.740977,-10.272556],[161.74586,-10.263279],[161.717296,-10.231378],[161.717052,-10.218194],[161.730642,-10.20672],[161.752452,-10.224216],[161.768809,-10.252211],[161.770518,-10.278416],[161.740733,-10.288507],[161.740977,-10.272556]]],[[[162.374848,-10.823663],[162.385509,-10.81878],[162.391612,-10.8388],[162.378266,-10.844822],[162.341156,-10.838149],[162.327159,-10.844822],[162.278656,-10.835545],[162.207042,-10.808038],[162.18393,-10.810968],[162.161957,-10.83115],[162.11085,-10.823663],[162.011241,-10.769627],[161.969412,-10.781345],[161.908865,-10.76214],[161.891775,-10.769627],[161.861501,-10.752618],[161.846853,-10.728123],[161.840505,-10.7492],[161.818614,-10.733168],[161.792166,-10.734959],[161.778494,-10.71502],[161.769216,-10.718845],[161.760997,-10.712335],[161.748709,-10.682794],[161.710216,-10.680271],[161.694835,-10.649998],[161.679454,-10.646173],[161.647472,-10.618585],[161.636567,-10.631036],[161.625824,-10.624444],[161.603038,-10.591241],[161.586681,-10.584649],[161.586681,-10.570001],[161.573009,-10.556817],[161.552745,-10.570001],[161.524669,-10.564223],[161.545177,-10.50213],[161.53419,-10.495212],[161.528331,-10.464532],[161.490408,-10.46795],[161.507498,-10.440037],[161.506684,-10.425714],[161.490408,-10.42018],[161.507498,-10.383477],[161.52003,-10.376397],[161.510997,-10.364923],[161.483653,-10.364923],[161.465994,-10.346938],[161.413748,-10.341567],[161.402843,-10.330011],[161.367524,-10.330824],[161.344005,-10.344496],[161.284923,-10.323907],[161.284923,-10.276137],[161.299327,-10.263116],[161.29184,-10.225763],[161.300059,-10.207127],[161.319102,-10.200453],[161.340831,-10.214044],[161.396007,-10.204034],[161.502208,-10.250746],[161.609548,-10.316827],[161.66863,-10.364923],[161.687266,-10.357599],[161.700206,-10.365492],[161.735118,-10.405369],[161.778494,-10.406508],[161.820567,-10.429783],[161.835704,-10.446954],[161.880544,-10.442804],[161.895193,-10.43377],[161.932465,-10.445977],[161.963552,-10.440606],[161.987071,-10.467218],[162.009288,-10.478448],[162.058849,-10.478285],[162.068533,-10.454767],[162.084239,-10.447686],[162.113617,-10.456476],[162.140391,-10.493748],[162.163097,-10.508722],[162.191742,-10.577895],[162.215343,-10.596775],[162.228852,-10.644627],[162.287771,-10.69199],[162.292003,-10.764744],[162.264985,-10.789483],[162.271739,-10.814386],[162.374848,-10.823663]]],[[[167.17335,-9.886407],[167.165782,-9.868341],[167.170177,-9.859145],[167.180837,-9.860121],[167.195974,-9.885919],[167.185313,-9.894627],[167.17335,-9.886407]]],[[[167.091807,-9.803318],[167.104503,-9.801853],[167.108246,-9.80462],[167.091807,-9.803318]]],[[[161.977794,-9.851007],[161.950043,-9.816827],[161.928477,-9.720147],[161.940196,-9.692153],[161.977794,-9.686619],[161.963552,-9.720636],[161.982432,-9.81756],[161.977794,-9.851007]]],[[[161.394786,-9.412774],[161.379242,-9.417657],[161.368419,-9.379571],[161.347016,-9.343927],[161.35434,-9.338556],[161.415212,-9.386],[161.545177,-9.604669],[161.553966,-9.640313],[161.552501,-9.676365],[161.573009,-9.74863],[161.558604,-9.788995],[161.549164,-9.792576],[161.545177,-9.772231],[161.50408,-9.727472],[161.488292,-9.692071],[161.466482,-9.689874],[161.448904,-9.734959],[161.400727,-9.670017],[161.392345,-9.507582],[161.40919,-9.465997],[161.394786,-9.412774]]],[[[160.826345,-9.837335],[160.824718,-9.867283],[160.798513,-9.884047],[160.684255,-9.911879],[160.644786,-9.937107],[160.57252,-9.919203],[160.508637,-9.889255],[160.432872,-9.889093],[160.40797,-9.858494],[160.391938,-9.859308],[160.37379,-9.837335],[160.320323,-9.815118],[160.208263,-9.810154],[160.123871,-9.823175],[160.031261,-9.823826],[159.937266,-9.805597],[159.887218,-9.78281],[159.835623,-9.793878],[159.768728,-9.732192],[159.723399,-9.706964],[159.723969,-9.691095],[159.705903,-9.676365],[159.699067,-9.649102],[159.675304,-9.643243],[159.674978,-9.617608],[159.653982,-9.574802],[159.601817,-9.521905],[159.599132,-9.512384],[159.627208,-9.48797],[159.6067,-9.447524],[159.612478,-9.398858],[159.6067,-9.374933],[159.596039,-9.364435],[159.6067,-9.343927],[159.609548,-9.309828],[159.615977,-9.295343],[159.708995,-9.247735],[159.743663,-9.259535],[159.873302,-9.35947],[159.908214,-9.415623],[159.939708,-9.432875],[160.010265,-9.431817],[160.043468,-9.414158],[160.109874,-9.433526],[160.157725,-9.412774],[160.230479,-9.426446],[160.250987,-9.412774],[160.270763,-9.41961],[160.345958,-9.41961],[160.366384,-9.412774],[160.398448,-9.432875],[160.4192,-9.461114],[160.459321,-9.47503],[160.503673,-9.53631],[160.540782,-9.531427],[160.586436,-9.551365],[160.628429,-9.582289],[160.661469,-9.627618],[160.673025,-9.698012],[160.712657,-9.695408],[160.785411,-9.727472],[160.789561,-9.763849],[160.805512,-9.774021],[160.808279,-9.816013],[160.826345,-9.837335]]],[[[159.828868,-9.172621],[159.814708,-9.166192],[159.804454,-9.130141],[159.811534,-9.111098],[159.832693,-9.103692],[159.844737,-9.14544],[159.84254,-9.164646],[159.828868,-9.172621]]],[[[160.25408,-9.158949],[160.292003,-9.131606],[160.314952,-9.0617],[160.332286,-9.063409],[160.359223,-9.110935],[160.414236,-9.131606],[160.387218,-9.170831],[160.366384,-9.186212],[160.304942,-9.159845],[160.285167,-9.165785],[160.289317,-9.177992],[160.274425,-9.186456],[160.230479,-9.193048],[160.23463,-9.178806],[160.216156,-9.172621],[160.221934,-9.162774],[160.25408,-9.158949]]],[[[159.19516,-9.056573],[159.205333,-9.055108],[159.236095,-9.023045],[159.229259,-9.056573],[159.217133,-9.075128],[159.236095,-9.076349],[159.233246,-9.101007],[159.218761,-9.117364],[159.174083,-9.138442],[159.178396,-9.092706],[159.19516,-9.056573]]],[[[160.09669,-9.056573],[160.083751,-9.052016],[160.079112,-9.039483],[160.123871,-9.029392],[160.134288,-9.015558],[160.141124,-9.023045],[160.14503,-8.990004],[160.172537,-9.002211],[160.208507,-9.002699],[160.222992,-9.023045],[160.230479,-9.023045],[160.240245,-9.00628],[160.257986,-9.009047],[160.295095,-9.039483],[160.301443,-9.061619],[160.294688,-9.089939],[160.264496,-9.131606],[160.261078,-9.123956],[160.244151,-9.1242],[160.242931,-9.1124],[160.228201,-9.098321],[160.216156,-9.097589],[160.222992,-9.117934],[160.216156,-9.117934],[160.187511,-9.081801],[160.156749,-9.094008],[160.119965,-9.09059],[160.106293,-9.083754],[160.09669,-9.056573]]],[[[159.167166,-9.017999],[159.19516,-9.023045],[159.161632,-9.09002],[159.147309,-9.103692],[159.09962,-9.117934],[159.076182,-9.095961],[159.064789,-9.103692],[159.039317,-9.068536],[159.041026,-9.057306],[159.072276,-9.056573],[159.069347,-9.033787],[159.092133,-9.036065],[159.092133,-9.023045],[159.112559,-9.029229],[159.10727,-9.009535],[159.092133,-8.994399],[159.124034,-8.999933],[159.133637,-8.988377],[159.144379,-9.020929],[159.159353,-9.029067],[159.167166,-9.017999]]],[[[160.079112,-9.023045],[160.066661,-9.013604],[160.079112,-8.977716],[160.074392,-8.951349],[160.077647,-8.943129],[160.092621,-8.940525],[160.11378,-8.974298],[160.113129,-8.994399],[160.099132,-8.988458],[160.079112,-9.023045]]],[[[157.615489,-8.73447],[157.635509,-8.744073],[157.649913,-8.765232],[157.648936,-8.786228],[157.622325,-8.795831],[157.476736,-8.739516],[157.452403,-8.721856],[157.455333,-8.706476],[157.5088,-8.712579],[157.523692,-8.706476],[157.529796,-8.713962],[157.549653,-8.692153],[157.590587,-8.71087],[157.615489,-8.73447]]],[[[158.22877,-8.774672],[158.256684,-8.785577],[158.252208,-8.802667],[158.187185,-8.836847],[158.153656,-8.796563],[158.160492,-8.758396],[158.194591,-8.726983],[158.208263,-8.679132],[158.215099,-8.679132],[158.215099,-8.700291],[158.230235,-8.73797],[158.22877,-8.774672]]],[[[158.056895,-8.528253],[158.102794,-8.523614],[158.12379,-8.530369],[158.132498,-8.545505],[158.13502,-8.566827],[158.125743,-8.58294],[158.095551,-8.585545],[158.064952,-8.610935],[158.098399,-8.624607],[158.118907,-8.617771],[158.091563,-8.645115],[158.114268,-8.667739],[158.105724,-8.691095],[158.038585,-8.756768],[157.999034,-8.767267],[157.957042,-8.755955],[157.879242,-8.68255],[157.879242,-8.631443],[157.89975,-8.562433],[157.937673,-8.57936],[157.941417,-8.562433],[157.948253,-8.563409],[157.955089,-8.576755],[157.963145,-8.563735],[157.955089,-8.528253],[158.009613,-8.501072],[158.0171,-8.507908],[158.005219,-8.528497],[158.013357,-8.545505],[158.026378,-8.550958],[158.056895,-8.528253]]],[[[157.354259,-8.576755],[157.338064,-8.576755],[157.329356,-8.649102],[157.37086,-8.70086],[157.413829,-8.720798],[157.413829,-8.726983],[157.361664,-8.725274],[157.312266,-8.696222],[157.310802,-8.666192],[157.277843,-8.618585],[157.228363,-8.593438],[157.200938,-8.565851],[157.218923,-8.529229],[157.27003,-8.496515],[157.289073,-8.459161],[157.347504,-8.41253],[157.365977,-8.412856],[157.399262,-8.444024],[157.413829,-8.497979],[157.395844,-8.521173],[157.378184,-8.569268],[157.369802,-8.577895],[157.354259,-8.576755]]],[[[159.68865,-8.507908],[159.699474,-8.524998],[159.679535,-8.540134],[159.659923,-8.539646],[159.62794,-8.522638],[159.60141,-8.488865],[159.593028,-8.485284],[159.579356,-8.494806],[159.549815,-8.470798],[159.538829,-8.458917],[159.537852,-8.432794],[159.558279,-8.389418],[159.6067,-8.377537],[159.635916,-8.38421],[159.644054,-8.400323],[159.64088,-8.447035],[159.646983,-8.468438],[159.68865,-8.507908]]],[[[162.738617,-8.38836],[162.730479,-8.378188],[162.734874,-8.373793],[162.757579,-8.378513],[162.738617,-8.38836]]],[[[161.360688,-9.617608],[161.299327,-9.580743],[161.289399,-9.548598],[161.24464,-9.48797],[161.237153,-9.447524],[161.17921,-9.381768],[161.110688,-9.347263],[161.086762,-9.319594],[161.04005,-9.313246],[161.045421,-9.296075],[161.017426,-9.264744],[161.003917,-9.255141],[160.973155,-9.251397],[160.969737,-9.220392],[160.946462,-9.200128],[160.889903,-9.174981],[160.867931,-9.152114],[160.795258,-9.019301],[160.764334,-8.94671],[160.771332,-8.933364],[160.74822,-8.855157],[160.693126,-8.751235],[160.68686,-8.674574],[160.65447,-8.604099],[160.701508,-8.567153],[160.7199,-8.562433],[160.719981,-8.553399],[160.695974,-8.501072],[160.651378,-8.43963],[160.593516,-8.384942],[160.581065,-8.340509],[160.601329,-8.325453],[160.675548,-8.343357],[160.70281,-8.364516],[160.730235,-8.349054],[160.695974,-8.320082],[160.70574,-8.306248],[160.723318,-8.302992],[160.723318,-8.309259],[160.758962,-8.316664],[160.777843,-8.343357],[160.809825,-8.367283],[160.829112,-8.420831],[160.847423,-8.432794],[160.881033,-8.483982],[160.996837,-8.603774],[161.01059,-8.641534],[161.002696,-8.662367],[160.942393,-8.692153],[160.95338,-8.71852],[160.937022,-8.758884],[160.946625,-8.813735],[160.975922,-8.850274],[161.014008,-8.836847],[161.02296,-8.840753],[161.059093,-8.871026],[161.053071,-8.889744],[161.059093,-8.898858],[161.103038,-8.909845],[161.151134,-8.94964],[161.168956,-8.974542],[161.155935,-8.969496],[161.142833,-8.988702],[161.175141,-9.011651],[161.180919,-9.02752],[161.175792,-9.042901],[161.188487,-9.054132],[161.191254,-9.083429],[161.228689,-9.103692],[161.22755,-9.119073],[161.202485,-9.138442],[161.230968,-9.158949],[161.255707,-9.156915],[161.258311,-9.179376],[161.284923,-9.186212],[161.284923,-9.193048],[161.244314,-9.205255],[161.249278,-9.228692],[161.260997,-9.241876],[161.266856,-9.278009],[161.278819,-9.289239],[161.26531,-9.296563],[161.254161,-9.280369],[161.24464,-9.275649],[161.235362,-9.281183],[161.24586,-9.303888],[161.296641,-9.360284],[161.328136,-9.438572],[161.347667,-9.455824],[161.381114,-9.509047],[161.392589,-9.609063],[161.386404,-9.621759],[161.375662,-9.624933],[161.360688,-9.617608]]],[[[157.125173,-8.275079],[157.130626,-8.308282],[157.152517,-8.337172],[157.123546,-8.320408],[157.090587,-8.249119],[157.050059,-8.240899],[157.060069,-8.230564],[157.022634,-8.192804],[157.036388,-8.185724],[157.049978,-8.19671],[157.100841,-8.203546],[157.125173,-8.275079]]],[[[157.207693,-8.288751],[157.200938,-8.288751],[157.198985,-8.274591],[157.173025,-8.268813],[157.150401,-8.215916],[157.104666,-8.178888],[157.112071,-8.172621],[157.097179,-8.169122],[157.09783,-8.158949],[157.122325,-8.167413],[157.167328,-8.167413],[157.187266,-8.185724],[157.204112,-8.232843],[157.207693,-8.288751]]],[[[156.810557,-8.055352],[156.81422,-8.072035],[156.824718,-8.069594],[156.841319,-8.11297],[156.81544,-8.111993],[156.785655,-8.086196],[156.789887,-8.055352],[156.810557,-8.055352]]],[[[157.797374,-8.562433],[157.820486,-8.583185],[157.817882,-8.617771],[157.811046,-8.617771],[157.808849,-8.601332],[157.755707,-8.528253],[157.72934,-8.51393],[157.674815,-8.50921],[157.649669,-8.497979],[157.605642,-8.467462],[157.577647,-8.436212],[157.564626,-8.384942],[157.564626,-8.3235],[157.583018,-8.386489],[157.606456,-8.392999],[157.615001,-8.412367],[157.632335,-8.38836],[157.603363,-8.355727],[157.582693,-8.299412],[157.549653,-8.261407],[157.502615,-8.268813],[157.481781,-8.255955],[157.475841,-8.268813],[157.456554,-8.262302],[157.43214,-8.273614],[157.3449,-8.275079],[157.318858,-8.32586],[157.29713,-8.337172],[157.245372,-8.313653],[157.228201,-8.316664],[157.224864,-8.217706],[157.245372,-8.193129],[157.271251,-8.191664],[157.290294,-8.178888],[157.302013,-8.195733],[157.316905,-8.185724],[157.326508,-8.119399],[157.382823,-8.031508],[157.441091,-7.979669],[157.502615,-7.959731],[157.578868,-8.005548],[157.605642,-8.007582],[157.598643,-8.025567],[157.611827,-8.066176],[157.610525,-8.104181],[157.619314,-8.137953],[157.609874,-8.156345],[157.644705,-8.205173],[157.639659,-8.240899],[157.646495,-8.233657],[157.667003,-8.240899],[157.713878,-8.223565],[157.74586,-8.228692],[157.778494,-8.253351],[157.789887,-8.288751],[157.83839,-8.337172],[157.83839,-8.37127],[157.865571,-8.398614],[157.886078,-8.467462],[157.903331,-8.473565],[157.906912,-8.490899],[157.881114,-8.537774],[157.886078,-8.58294],[157.824474,-8.558852],[157.797374,-8.556329],[157.797374,-8.562433]]],[[[156.611176,-8.072686],[156.615977,-8.170668],[156.604666,-8.191013],[156.587413,-8.199395],[156.538422,-8.091485],[156.542979,-8.021173],[156.5324,-7.948907],[156.549815,-7.939223],[156.577159,-7.966567],[156.601085,-8.02337],[156.611176,-8.072686]]],[[[157.104666,-8.124933],[157.05421,-8.129083],[157.002289,-8.086847],[156.962169,-8.027439],[156.947032,-7.979669],[156.961274,-7.93255],[157.001964,-7.875177],[157.091075,-7.850518],[157.137543,-7.87477],[157.170421,-7.909926],[157.191254,-7.952895],[157.200938,-8.000746],[157.199474,-8.065199],[157.167247,-8.135512],[157.146251,-8.148614],[157.125173,-8.124933],[157.104666,-8.124933]]],[[[156.80714,-7.720147],[156.814708,-7.734552],[156.79949,-7.766534],[156.762706,-7.816502],[156.719737,-7.857029],[156.704112,-7.885024],[156.720714,-7.931817],[156.700694,-7.945489],[156.678071,-7.932306],[156.659679,-7.939223],[156.658946,-7.883966],[156.611827,-7.871189],[156.614757,-7.805108],[156.590831,-7.788507],[156.570974,-7.754327],[156.545177,-7.746515],[156.534841,-7.716567],[156.515636,-7.720147],[156.497081,-7.674981],[156.504161,-7.63006],[156.530772,-7.592462],[156.570974,-7.569431],[156.601573,-7.577569],[156.611176,-7.569431],[156.633962,-7.609308],[156.649587,-7.611261],[156.652843,-7.627374],[156.676443,-7.642267],[156.684825,-7.665704],[156.714854,-7.678643],[156.70753,-7.68613],[156.721039,-7.700372],[156.743663,-7.691827],[156.80714,-7.720147]]],[[[155.570323,-7.322931],[155.618175,-7.363946],[155.597423,-7.382908],[155.525238,-7.383884],[155.507986,-7.375746],[155.542328,-7.322931],[155.570323,-7.322931]]],[[[155.816742,-7.020685],[155.854259,-7.031508],[155.868012,-7.048517],[155.850922,-7.099298],[155.803071,-7.103204],[155.786632,-7.117852],[155.75294,-7.115492],[155.734874,-7.124282],[155.672862,-7.089532],[155.700694,-7.020685],[155.708832,-7.025486],[155.717947,-6.992446],[155.734874,-6.986505],[155.734874,-6.966078],[155.816742,-7.020685]]],[[[156.118419,-6.918227],[156.152599,-6.931329],[156.132091,-6.938735],[156.111583,-6.931329],[156.10434,-6.962091],[156.083669,-6.986505],[156.076834,-6.966078],[156.062266,-6.979099],[156.042735,-6.980401],[156.073416,-6.955743],[156.076671,-6.947524],[156.063731,-6.925063],[156.067149,-6.910903],[156.087169,-6.901625],[156.046886,-6.851658],[156.049653,-6.83172],[156.076834,-6.815199],[156.097911,-6.815199],[156.097911,-6.822035],[156.073416,-6.833185],[156.063731,-6.859633],[156.10255,-6.878188],[156.097911,-6.890883],[156.118419,-6.918227]]],[[[166.92392,-11.640972],[166.924016,-11.674289],[166.978448,-11.670487],[166.984149,-11.709863],[166.888241,-11.717422],[166.843021,-11.713316],[166.767248,-11.63349],[166.767203,-11.61712],[166.805532,-11.591568],[166.869884,-11.588962],[166.93556,-11.608813],[166.92392,-11.640972]]],[[[166.557252,-11.283644],[166.534163,-11.308094],[166.508827,-11.309319],[166.500207,-11.297914],[166.509127,-11.260915],[166.483449,-11.278662],[166.47976,-11.247422],[166.511856,-11.213424],[166.540424,-11.214564],[166.5639,-11.241026],[166.557252,-11.283644]]],[[[166.147905,-10.694046],[166.132986,-10.724786],[166.054501,-10.766732],[166.028168,-10.767267],[166.002376,-10.757216],[165.980805,-10.77337],[165.93422,-10.775741],[165.861965,-10.86854],[165.849358,-10.856151],[165.852392,-10.828618],[165.840418,-10.814568],[165.82837,-10.812301],[165.80008,-10.837543],[165.770235,-10.835823],[165.756474,-10.812161],[165.75303,-10.751888],[165.792634,-10.709137],[165.801813,-10.708588],[165.797417,-10.743065],[165.82195,-10.762165],[165.831218,-10.707651],[165.878062,-10.656847],[165.994527,-10.661139],[166.026664,-10.647016],[166.061174,-10.654033],[166.084972,-10.672052],[166.142757,-10.669251],[166.147905,-10.694046]]],[[[158.486095,-7.610284],[158.516612,-7.630955],[158.526541,-7.647068],[158.523611,-7.658136],[158.507823,-7.659845],[158.492931,-7.651056],[158.475108,-7.623956],[158.46461,-7.637384],[158.406912,-7.610284],[158.421153,-7.643813],[158.362153,-7.637628],[158.359386,-7.61712],[158.347911,-7.603123],[158.327973,-7.596775],[158.316905,-7.57936],[158.362478,-7.586196],[158.368175,-7.583673],[158.362153,-7.567071],[158.378754,-7.562677],[158.422618,-7.579685],[158.45102,-7.603123],[158.486095,-7.610284]]],[[[159.859386,-8.511326],[159.900401,-8.550714],[159.887218,-8.562433],[159.820079,-8.536798],[159.814708,-8.524021],[159.797374,-8.517267],[159.785492,-8.498956],[159.764822,-8.492283],[159.712413,-8.443129],[159.702891,-8.432794],[159.700369,-8.407892],[159.673839,-8.398696],[159.627208,-8.357599],[159.543956,-8.34002],[159.444835,-8.281183],[159.414317,-8.281915],[159.362315,-8.25628],[159.345388,-8.261407],[159.326182,-8.225844],[159.287608,-8.214939],[159.27711,-8.193129],[159.255382,-8.200372],[159.233897,-8.196222],[159.119965,-8.117446],[159.092133,-8.117446],[159.08725,-8.093927],[159.077973,-8.088149],[159.064789,-8.096938],[159.037446,-8.083266],[159.010102,-8.083266],[159.005544,-8.066827],[158.978038,-8.049574],[158.976085,-8.034926],[158.94809,-8.049086],[158.937348,-8.01393],[158.845714,-7.973403],[158.832042,-7.917901],[158.814952,-7.92254],[158.769867,-7.905857],[158.777354,-7.891534],[158.756358,-7.871026],[158.739024,-7.884535],[158.703624,-7.822931],[158.671153,-7.805108],[158.653982,-7.809666],[158.644298,-7.791762],[158.584972,-7.754327],[158.584972,-7.668634],[158.506847,-7.603611],[158.455333,-7.576267],[158.445079,-7.543552],[158.451996,-7.531996],[158.595958,-7.58587],[158.605724,-7.586196],[158.625255,-7.564142],[158.639659,-7.569431],[158.649262,-7.562433],[158.675792,-7.593845],[158.714854,-7.610284],[158.733084,-7.591567],[158.75172,-7.593438],[158.766612,-7.627374],[158.808116,-7.658136],[158.830251,-7.69378],[158.872325,-7.733819],[158.920746,-7.754327],[158.989757,-7.802179],[158.979503,-7.821954],[158.987071,-7.839614],[159.056895,-7.859959],[159.068614,-7.867608],[159.085704,-7.903578],[159.09962,-7.89837],[159.126801,-7.919529],[159.167979,-7.90488],[159.208263,-7.911879],[159.195567,-7.917657],[159.209239,-7.935479],[159.245128,-7.945571],[159.25587,-7.966567],[159.27296,-7.954034],[159.30128,-7.987074],[159.333832,-7.989841],[159.347179,-7.986098],[159.352794,-7.973403],[159.386974,-7.99391],[159.402599,-7.982354],[159.431651,-8.031508],[159.503673,-8.07586],[159.556407,-8.126397],[159.648936,-8.181248],[159.842052,-8.325616],[159.846446,-8.335382],[159.80421,-8.386163],[159.796641,-8.391778],[159.765391,-8.385349],[159.756847,-8.391778],[159.781586,-8.425388],[159.808604,-8.411798],[159.817882,-8.420099],[159.855968,-8.476658],[159.859386,-8.511326]]],[[[158.365245,-7.548272],[158.337657,-7.518324],[158.265798,-7.488214],[158.268565,-7.466974],[158.296641,-7.476821],[158.31129,-7.493748],[158.336111,-7.494561],[158.35906,-7.514093],[158.371349,-7.504164],[158.393077,-7.505792],[158.434825,-7.527765],[158.418468,-7.539727],[158.421153,-7.561293],[158.365245,-7.548272]]],[[[157.611583,-7.404229],[157.618988,-7.411798],[157.610606,-7.429783],[157.618988,-7.452081],[157.591645,-7.432224],[157.590587,-7.447198],[157.580414,-7.452813],[157.54949,-7.452081],[157.569998,-7.432224],[157.519379,-7.414809],[157.475597,-7.411798],[157.509125,-7.390558],[157.588878,-7.393324],[157.605235,-7.411798],[157.611583,-7.404229]]],[[[158.283214,-7.411798],[158.276215,-7.452081],[158.256358,-7.438409],[158.249034,-7.47324],[158.215343,-7.439142],[158.194347,-7.438409],[158.208018,-7.417901],[158.224294,-7.41961],[158.250255,-7.394952],[158.269379,-7.390558],[158.269379,-7.417901],[158.283214,-7.411798]]],[[[157.776215,-7.407973],[157.797374,-7.47324],[157.756033,-7.473891],[157.739268,-7.466892],[157.718272,-7.47324],[157.678559,-7.448175],[157.688975,-7.423028],[157.72169,-7.383884],[157.776215,-7.407973]]],[[[157.529796,-7.333185],[157.526378,-7.370864],[157.473481,-7.384698],[157.447927,-7.432224],[157.441742,-7.414239],[157.427501,-7.417901],[157.414399,-7.407485],[157.32545,-7.391778],[157.312022,-7.378839],[157.307953,-7.360284],[157.316905,-7.336602],[157.290294,-7.35711],[157.278005,-7.356541],[157.276622,-7.370782],[157.200938,-7.336602],[157.14796,-7.332289],[157.132498,-7.34295],[157.118337,-7.342462],[157.104259,-7.332208],[157.082693,-7.28753],[157.056895,-7.268324],[157.014659,-7.282647],[157.022797,-7.268324],[157.01352,-7.251886],[156.998546,-7.238702],[156.943858,-7.221612],[156.927745,-7.208754],[156.834321,-7.099786],[156.823253,-7.067071],[156.793224,-7.050226],[156.743907,-6.973891],[156.722016,-6.956476],[156.687022,-6.897149],[156.596202,-6.850763],[156.461111,-6.733331],[156.446625,-6.664972],[156.454438,-6.630792],[156.487804,-6.60296],[156.504893,-6.599867],[156.548025,-6.610528],[156.573985,-6.631931],[156.581554,-6.649672],[156.600841,-6.646254],[156.643077,-6.655043],[156.721039,-6.733331],[156.780284,-6.775811],[156.82309,-6.787286],[156.927257,-6.849379],[156.992849,-6.868829],[157.01238,-6.894627],[157.042654,-6.897149],[157.120453,-6.980727],[157.136241,-7.086114],[157.187266,-7.178888],[157.207693,-7.164727],[157.22877,-7.195245],[157.279633,-7.212498],[157.302745,-7.266371],[157.356212,-7.288507],[157.386485,-7.322931],[157.392751,-7.322931],[157.395193,-7.306329],[157.445567,-7.316176],[157.511404,-7.300226],[157.524913,-7.309991],[157.529796,-7.333185]]],[[[168.812266,-12.26629],[168.822927,-12.267267],[168.825857,-12.281508],[168.802419,-12.290623],[168.797862,-12.281915],[168.812266,-12.26629]]],[[[165.745291,-10.421645],[165.727794,-10.422459],[165.722911,-10.412856],[165.732188,-10.389907],[165.746349,-10.393487],[165.755056,-10.406915],[165.745291,-10.421645]]],[[[160.635753,-7.891046],[160.64796,-7.926853],[160.632009,-7.927016],[160.607595,-7.888849],[160.612071,-7.876723],[160.623302,-7.874444],[160.635753,-7.891046]]],[[[166.984874,-11.614353],[166.979666,-11.638604],[166.945649,-11.653253],[166.938975,-11.642022],[166.944347,-11.625421],[166.957693,-11.612563],[166.984874,-11.614353]]],[[[166.252452,-10.264907],[166.279959,-10.273045],[166.251475,-10.309177],[166.237315,-10.31113],[166.238048,-10.283461],[166.228689,-10.276056],[166.238536,-10.21502],[166.242442,-10.268976],[166.252452,-10.264907]]],[[[156.545421,-7.791681],[156.559418,-7.802423],[156.555431,-7.817315],[156.534841,-7.827407],[156.516856,-7.818129],[156.52589,-7.799412],[156.545421,-7.791681]]]]}}