{"type":"Feature","properties":{"iso3":"SLE","name":"Sierra Leone","continent":"Africa"},"geometry":{"type":"MultiPolygon","coordinates":[[[[-10.282236,8.484625],[-10.282908,8.432949],[-10.313655,8.310347],[-10.331277,8.272287],[-10.320942,8.183119],[-10.34554,8.159348],[-10.384555,8.142114],[-10.485738,8.138858],[-10.529249,8.124286],[-10.56718,8.063204],[-10.612138,8.031862],[-10.617668,8.010778],[-10.615187,7.769036],[-10.645418,7.763041],[-10.692598,7.737565],[-10.730581,7.705474],[-10.874603,7.530859],[-10.977904,7.484919],[-11.126319,7.368027],[-11.217889,7.25408],[-11.317211,7.213566],[-11.370128,7.142614],[-11.355142,7.084065],[-11.389714,7.073523],[-11.397723,7.012803],[-11.407283,6.99637],[-11.434672,6.980815],[-11.436739,6.938544],[-11.476186,6.91942],[-11.492787,6.932766],[-11.553944,6.952541],[-11.588002,6.978949],[-11.567494,6.992621],[-11.622141,6.985785],[-11.631215,7.008246],[-11.69815,7.067043],[-11.839589,7.148993],[-12.314849,7.329006],[-12.506581,7.389838],[-12.476186,7.415107],[-12.439605,7.41649],[-12.369456,7.389838],[-12.375885,7.405015],[-12.401031,7.412543],[-12.417226,7.430813],[-12.446523,7.439114],[-12.464263,7.429633],[-12.489247,7.445054],[-12.492421,7.453599],[-12.470774,7.491156],[-12.428334,7.533596],[-12.41039,7.527655],[-12.338735,7.540676],[-12.319325,7.529527],[-12.295074,7.533108],[-12.25886,7.552395],[-12.232249,7.553697],[-12.236562,7.564521],[-12.1881,7.583075],[-12.183827,7.602729],[-12.218007,7.595893],[-12.223866,7.604967],[-12.256256,7.60517],[-12.269276,7.586371],[-12.403554,7.547512],[-12.463735,7.561998],[-12.476308,7.6022],[-12.492991,7.6164],[-12.485504,7.650539],[-12.500356,7.639106],[-12.519643,7.644273],[-12.519643,7.630072],[-12.543935,7.653551],[-12.531402,7.687079],[-12.492991,7.739936],[-12.471262,7.726264],[-12.464996,7.7331],[-12.471791,7.759955],[-12.465932,7.770575],[-12.451975,7.774075],[-12.472157,7.787665],[-12.519643,7.726264],[-12.601877,7.683783],[-12.616444,7.695217],[-12.711415,7.711982],[-12.778066,7.755805],[-12.78718,7.774075],[-12.787506,7.804592],[-12.759836,7.821845],[-12.828725,7.798285],[-12.875885,7.828681],[-12.89859,7.865709],[-12.937856,7.886379],[-12.959096,7.9112],[-12.905507,7.934149],[-12.871002,7.93651],[-12.821278,7.917426],[-12.888417,7.975287],[-12.911773,8.030666],[-12.895172,8.079576],[-12.875885,8.103013],[-12.90807,8.107408],[-12.944814,8.164496],[-12.981068,8.186225],[-12.985097,8.216702],[-12.972076,8.253852],[-12.99942,8.24018],[-13.090443,8.224595],[-13.16393,8.171291],[-13.16393,8.274359],[-13.210276,8.339057],[-13.223866,8.345649],[-13.274159,8.420885],[-13.286773,8.424506],[-13.266957,8.462714],[-13.286773,8.50023],[-13.252675,8.497545],[-13.245839,8.486558],[-13.228912,8.49372],[-13.192983,8.487779],[-13.164866,8.464993],[-13.144399,8.43122],[-13.060374,8.372707],[-13.033559,8.376695],[-13.033559,8.383531],[-13.063832,8.399156],[-13.067698,8.410875],[-13.054067,8.410875],[-13.054067,8.41767],[-13.110951,8.433824],[-13.1256,8.449042],[-13.116119,8.472968],[-13.061513,8.50023],[-13.039947,8.52676],[-13.026723,8.520697],[-13.013051,8.561713],[-12.907216,8.548041],[-12.8697,8.569159],[-12.92809,8.57217],[-12.930328,8.583441],[-12.911936,8.606838],[-12.875885,8.685207],[-12.936431,8.607001],[-12.972076,8.596422],[-13.018056,8.600165],[-13.043935,8.584703],[-13.061838,8.583197],[-13.078481,8.589016],[-13.088775,8.602688],[-13.066274,8.606838],[-13.026723,8.651068],[-13.054067,8.66474],[-13.063547,8.633938],[-13.081939,8.616929],[-13.098012,8.621894],[-13.13036,8.657904],[-13.148427,8.653388],[-13.157704,8.670966],[-13.162587,8.653998],[-13.154286,8.643052],[-13.122914,8.630561],[-13.136586,8.623765],[-13.109039,8.603339],[-13.107493,8.581],[-13.143422,8.541815],[-13.144114,8.517401],[-13.162424,8.517646],[-13.195058,8.569159],[-13.216908,8.632554],[-13.2412,8.672187],[-13.235219,8.719916],[-13.240224,8.825832],[-13.21227,8.857123],[-13.200917,8.859809],[-13.184967,8.843492],[-13.108144,8.844062],[-13.04308,8.858344],[-12.985707,8.857123],[-13.026967,8.869696],[-13.041086,8.861233],[-13.088775,8.870185],[-13.13036,8.864081],[-13.13976,8.881415],[-13.15392,8.883287],[-13.158437,8.892279],[-13.142649,8.916734],[-13.075103,8.931627],[-13.075103,8.939114],[-13.092519,8.944648],[-13.180979,8.923041],[-13.206125,8.928371],[-13.225738,8.942532],[-13.232818,8.966376],[-13.240224,8.952094],[-13.254872,8.966376],[-13.266957,8.952094],[-13.288442,8.969468],[-13.285024,9.017035],[-13.301096,9.04149],[-13.277376,9.058595],[-13.207535,9.076708],[-13.153844,9.04932],[-13.115913,9.043945],[-13.028864,9.095983],[-12.984164,9.172309],[-12.962796,9.176702],[-12.960212,9.186081],[-12.97835,9.21285],[-12.957912,9.272433],[-12.937009,9.287083],[-12.917527,9.267007],[-12.895642,9.278505],[-12.835827,9.281967],[-12.795261,9.33509],[-12.764152,9.347673],[-12.767795,9.372323],[-12.759759,9.382839],[-12.737228,9.397231],[-12.72294,9.392089],[-12.701597,9.420227],[-12.668628,9.542364],[-12.649921,9.552105],[-12.633849,9.597865],[-12.606823,9.600707],[-12.601552,9.651712],[-12.582251,9.683364],[-12.537473,9.715713],[-12.53569,9.732792],[-12.525561,9.732069],[-12.514322,9.851312],[-12.472335,9.881258],[-12.426989,9.897614],[-12.276739,9.929266],[-12.253588,9.928413],[-12.193644,9.886064],[-12.141347,9.874876],[-11.921774,9.922212],[-11.914953,9.931488],[-11.910095,9.992518],[-11.247293,9.993396],[-11.199596,9.982157],[-11.188537,9.972597],[-11.16027,9.872758],[-11.085959,9.826171],[-11.044928,9.78713],[-11.010098,9.74274],[-10.968499,9.654244],[-10.940129,9.639697],[-10.92168,9.595901],[-10.886333,9.568409],[-10.877703,9.532675],[-10.852589,9.512082],[-10.854862,9.455264],[-10.811454,9.408264],[-10.831763,9.392141],[-10.765462,9.385216],[-10.741536,9.357053],[-10.675132,9.306461],[-10.688051,9.259281],[-10.685209,9.224503],[-10.724741,9.194504],[-10.74257,9.163292],[-10.753473,9.120116],[-10.746342,9.083814],[-10.710427,9.072987],[-10.629346,9.070352],[-10.594103,9.0541],[-10.61188,8.94514],[-10.600201,8.819024],[-10.481862,8.672469],[-10.503308,8.631567],[-10.522118,8.618571],[-10.565423,8.612783],[-10.631879,8.532013],[-10.643868,8.486873],[-10.654668,8.485504],[-10.669086,8.399075],[-10.725,8.319855],[-10.735283,8.287299],[-10.715181,8.2696],[-10.707895,8.303138],[-10.688154,8.324067],[-10.659784,8.333265],[-10.626711,8.331508],[-10.572657,8.304585],[-10.554364,8.311845],[-10.519276,8.33479],[-10.46021,8.39215],[-10.414062,8.470182],[-10.389775,8.489095],[-10.344299,8.499069],[-10.282236,8.484625]]],[[[-12.492991,7.56802],[-12.504384,7.561021],[-12.50182,7.502387],[-12.526438,7.465562],[-12.519643,7.40412],[-12.549672,7.389635],[-12.565785,7.395657],[-12.574859,7.410346],[-12.554433,7.410346],[-12.60554,7.478664],[-12.731801,7.511298],[-12.764394,7.527981],[-12.849233,7.540676],[-12.95165,7.56802],[-12.95165,7.575426],[-12.914296,7.584418],[-12.898061,7.610745],[-12.88329,7.6164],[-12.735666,7.622545],[-12.621409,7.639716],[-12.581125,7.630072],[-12.595855,7.612738],[-12.586049,7.607611],[-12.529652,7.603827],[-12.492991,7.56802]]]]}}