{"type":"Feature","properties":{"iso3":"SLV","name":"El Salvador","continent":"Americas"},"geometry":{"type":"MultiPolygon","coordinates":[[[[-90.098307,13.731404],[-90.114314,13.796265],[-90.106976,13.844066],[-90.08708,13.870472],[-90.047367,13.894295],[-90.022976,13.936954],[-89.890788,14.035889],[-89.835855,14.059091],[-89.802963,14.055474],[-89.762268,14.029997],[-89.747644,14.037646],[-89.752605,14.07524],[-89.689844,14.170015],[-89.638322,14.200556],[-89.524505,14.231768],[-89.52466,14.247374],[-89.544917,14.261818],[-89.555692,14.299025],[-89.571272,14.311143],[-89.592175,14.31383],[-89.598351,14.32799],[-89.576078,14.35313],[-89.590573,14.385971],[-89.584062,14.401809],[-89.569877,14.412015],[-89.555175,14.410827],[-89.544245,14.400052],[-89.541351,14.381526],[-89.503033,14.420051],[-89.485283,14.427389],[-89.446835,14.415529],[-89.4311,14.418708],[-89.398182,14.445373],[-89.396864,14.426046],[-89.391697,14.43372],[-89.361822,14.415506],[-89.225531,14.382147],[-89.200158,14.36468],[-89.153985,14.351296],[-89.122178,14.394678],[-89.107476,14.39597],[-89.091844,14.374834],[-89.09448,14.344862],[-89.083085,14.335328],[-89.032985,14.323675],[-89.018128,14.271688],[-88.98353,14.242129],[-88.965986,14.191383],[-88.957175,14.185182],[-88.906016,14.199574],[-88.881263,14.1842],[-88.860334,14.158517],[-88.838759,14.100407],[-88.777341,14.099735],[-88.746387,14.111336],[-88.73923,14.099942],[-88.746645,14.052477],[-88.697656,14.032013],[-88.690812,14.01179],[-88.633862,14.014469],[-88.558104,13.990904],[-88.504361,13.983695],[-88.49542,13.975143],[-88.502293,13.968942],[-88.496092,13.955687],[-88.502293,13.91711],[-88.488677,13.88135],[-88.496816,13.851197],[-88.470151,13.852489],[-88.433228,13.871067],[-88.392946,13.879774],[-88.360106,13.872384],[-88.358194,13.887396],[-88.326206,13.885071],[-88.319256,13.897602],[-88.285433,13.905974],[-88.2636,13.933104],[-88.236367,13.938143],[-88.231586,13.951811],[-88.242309,13.962534],[-88.245358,13.985892],[-88.235075,13.992868],[-88.177533,13.985194],[-88.125391,13.991266],[-88.099036,13.989819],[-88.087538,13.980543],[-88.072888,13.943414],[-88.023641,13.891169],[-88.015321,13.866364],[-87.954782,13.892461],[-87.925326,13.879619],[-87.900108,13.89414],[-87.860911,13.890187],[-87.832903,13.91525],[-87.817891,13.91587],[-87.790606,13.870472],[-87.703608,13.814998],[-87.737844,13.738775],[-87.731359,13.722213],[-87.755026,13.689915],[-87.760091,13.616948],[-87.789934,13.532819],[-87.779469,13.509978],[-87.733426,13.507704],[-87.720584,13.486982],[-87.721153,13.460833],[-87.738412,13.441687],[-87.817169,13.406562],[-87.838287,13.440945],[-87.866444,13.393337],[-87.873769,13.365261],[-87.791534,13.304958],[-87.789906,13.287014],[-87.798085,13.265652],[-87.817983,13.250393],[-87.912465,13.198188],[-87.916005,13.182196],[-87.892934,13.166571],[-87.928212,13.158637],[-88.098378,13.174018],[-88.208282,13.160427],[-88.300893,13.174221],[-88.324941,13.166571],[-88.352284,13.174018],[-88.352284,13.180243],[-88.329701,13.181708],[-88.328114,13.197089],[-88.358429,13.228664],[-88.337921,13.194525],[-88.391754,13.193915],[-88.40685,13.18769],[-88.365875,13.18769],[-88.365875,13.180243],[-88.38915,13.170844],[-88.414825,13.171576],[-88.434845,13.183661],[-88.441029,13.208197],[-88.431182,13.203884],[-88.413686,13.221218],[-88.430776,13.228787],[-88.449574,13.254584],[-88.462148,13.262234],[-88.450185,13.225369],[-88.454701,13.215033],[-88.529775,13.242947],[-88.553985,13.276435],[-88.598663,13.283881],[-88.722768,13.269599],[-88.70873,13.260525],[-88.666615,13.255764],[-88.577382,13.262844],[-88.53661,13.228664],[-88.53661,13.221218],[-88.598663,13.2355],[-88.598663,13.228664],[-88.473907,13.198635],[-88.454701,13.180243],[-88.4617,13.16828],[-88.527455,13.198432],[-88.785675,13.245266],[-89.064809,13.372016],[-89.183502,13.443061],[-89.251454,13.472317],[-89.384999,13.495307],[-89.527067,13.494173],[-89.679766,13.534732],[-89.808048,13.526858],[-89.823297,13.53714],[-89.837148,13.596829],[-89.849662,13.606876],[-89.951318,13.66411],[-90.098307,13.731404]]],[[[-87.726293,13.198387],[-87.727187,13.211115],[-87.719913,13.216191],[-87.706087,13.211726],[-87.693194,13.167862],[-87.723111,13.164078],[-87.726293,13.198387]]],[[[-87.765782,13.248011],[-87.751387,13.228925],[-87.763805,13.214287],[-87.77689,13.225736],[-87.780169,13.241643],[-87.765782,13.248011]]]]}}