{"type":"Feature","properties":{"iso3":"SOM","name":"Somalia","continent":"Africa"},"geometry":{"type":"Polygon","coordinates":[[[46.466963,6.538292],[47.979169,7.996567],[48.939111,9.451233],[48.939112,11.24913],[49.435069,11.35106],[49.521739,11.393785],[49.558604,11.453518],[49.851248,11.464911],[49.934418,11.512885],[50.053884,11.511379],[50.268321,11.589301],[50.437022,11.690619],[50.512706,11.771226],[50.561209,11.907904],[50.647146,11.954047],[50.797864,11.989119],[51.048839,11.878648],[51.292698,11.833108],[51.247801,11.652391],[51.124766,11.511786],[51.086192,11.357164],[51.085948,11.187974],[51.189504,11.138306],[51.115082,10.993354],[51.160655,10.598456],[51.107432,10.576565],[51.102224,10.494696],[51.018321,10.452094],[51.018403,10.41942],[51.211925,10.44184],[51.176117,10.562812],[51.280556,10.48733],[51.377856,10.48169],[51.410965,10.429814],[51.397509,10.395793],[51.300831,10.372566],[51.256602,10.420315],[51.090099,10.407313],[50.927389,10.327844],[50.8838,10.101264],[50.89975,10.000718],[50.806163,9.624457],[50.830333,9.419623],[50.646983,9.211371],[50.633637,9.073188],[50.439708,8.88817],[50.326508,8.641099],[50.303477,8.504584],[50.166026,8.33336],[50.091075,8.161038],[49.929373,8.051744],[49.824229,7.933905],[49.803233,7.82689],[49.825043,7.757758],[49.748302,7.606635],[49.247325,6.810614],[49.074718,6.415269],[49.085623,6.307359],[49.036143,6.144232],[48.646739,5.480048],[48.202403,4.908922],[47.948497,4.457099],[46.834239,3.232489],[46.351573,2.788642],[46.047618,2.455064],[45.232188,1.967678],[45.001475,1.86636],[44.550059,1.559068],[44.157888,1.24079],[44.138031,1.191596],[43.932628,1.009833],[43.658946,0.804918],[42.580333,-0.29754],[42.47283,-0.469903],[42.465994,-0.449395],[42.412608,-0.490981],[42.166515,-0.802667],[42.062511,-0.839288],[42.071951,-0.884454],[41.983165,-0.994073],[41.95281,-0.894464],[41.973155,-1.011163],[41.873871,-1.176039],[41.885427,-1.209649],[41.835297,-1.168878],[41.836599,-1.262302],[41.65211,-1.565118],[41.535085,-1.696303],[41.522871,-1.572771],[40.979751,-0.870798],[40.979751,2.841895],[41.342727,3.201149],[41.917472,4.020453],[41.923466,4.070554],[42.068367,4.174553],[42.831628,4.302322],[42.899634,4.361104],[42.960406,4.517374],[43.119259,4.647702],[43.528485,4.841566],[43.932284,4.945203],[44.941525,4.911484],[46.466963,6.538292]]]}}