{"type":"Feature","properties":{"iso3":"SPM","name":"Saint Pierre and Miquelon","continent":"Americas"},"geometry":{"type":"MultiPolygon","coordinates":[[[[-56.15095,46.793647],[-56.165191,46.772528],[-56.144765,46.765692],[-56.16808,46.75727],[-56.221913,46.754625],[-56.240305,46.765692],[-56.191884,46.806627],[-56.147532,46.807847],[-56.15095,46.793647]]],[[[-56.273793,46.895453],[-56.235504,46.872016],[-56.249257,46.842271],[-56.346262,46.783596],[-56.370676,46.7862],[-56.377919,46.799018],[-56.375111,46.813951],[-56.396352,46.836371],[-56.342763,46.875556],[-56.328277,46.914944],[-56.336781,46.95425],[-56.388173,47.051825],[-56.395904,47.113593],[-56.366282,47.140204],[-56.342763,47.135647],[-56.371693,47.116156],[-56.371165,47.105902],[-56.357004,47.094672],[-56.304799,47.083157],[-56.253326,47.053697],[-56.256012,47.018012],[-56.280344,46.989691],[-56.29186,46.985419],[-56.312164,46.998358],[-56.350209,46.994615],[-56.345774,46.979926],[-56.308583,46.971747],[-56.311757,46.900133],[-56.273793,46.895453]]]]}}