{"type":"Feature","properties":{"iso3":"SRB","name":"Republic of Serbia","continent":"Europe"},"geometry":{"type":"Polygon","coordinates":[[[20.242826,46.108091],[20.305665,46.053572],[20.35393,45.976678],[20.429068,45.946706],[20.481674,45.912703],[20.538002,45.903711],[20.572108,45.887691],[20.605284,45.846143],[20.636704,45.827023],[20.645902,45.788731],[20.68807,45.7431],[20.700059,45.735401],[20.726827,45.736176],[20.765171,45.766768],[20.785739,45.752557],[20.777264,45.657524],[20.754423,45.605589],[20.75804,45.58926],[20.800208,45.530504],[20.797624,45.516499],[20.760727,45.493348],[20.767135,45.479344],[20.816021,45.462859],[20.863047,45.418728],[20.981489,45.33279],[21.063964,45.30628],[21.09156,45.288089],[21.103342,45.286074],[21.139412,45.303696],[21.206075,45.245922],[21.239251,45.229385],[21.405546,45.199671],[21.459393,45.17404],[21.493292,45.145101],[21.494119,45.119314],[21.458566,45.107325],[21.442443,45.092908],[21.444406,45.07787],[21.421875,45.031413],[21.363378,45.01653],[21.351389,44.998236],[21.353456,44.989813],[21.383945,44.986661],[21.385185,44.969504],[21.40844,44.958342],[21.51634,44.933899],[21.539078,44.908474],[21.536287,44.889302],[21.48151,44.872611],[21.395314,44.871629],[21.355523,44.856591],[21.342811,44.831942],[21.378571,44.816645],[21.395934,44.790239],[21.49722,44.778043],[21.578042,44.777681],[21.595612,44.765951],[21.619693,44.713913],[21.65628,44.687661],[21.705166,44.677067],[21.756842,44.677274],[21.855441,44.698461],[21.962411,44.662288],[21.994347,44.658567],[22.032174,44.603325],[22.045197,44.569219],[22.076306,44.550718],[22.086951,44.52178],[22.126639,44.502659],[22.172114,44.505347],[22.185136,44.515113],[22.304922,44.677377],[22.38068,44.700528],[22.426052,44.733653],[22.483723,44.72399],[22.587489,44.649369],[22.621182,44.637432],[22.700144,44.63061],[22.765153,44.58281],[22.759262,44.564671],[22.741692,44.551855],[22.700144,44.54183],[22.621182,44.569219],[22.580461,44.565498],[22.565578,44.555421],[22.548422,44.511703],[22.484136,44.499766],[22.477005,44.463954],[22.505427,44.435015],[22.505117,44.404061],[22.522687,44.37507],[22.582838,44.328406],[22.68154,44.305307],[22.689498,44.291716],[22.685364,44.243657],[22.690739,44.228878],[22.648777,44.213995],[22.608573,44.175858],[22.597101,44.119065],[22.604749,44.079378],[22.592967,44.063926],[22.534159,44.057157],[22.50367,44.019898],[22.43432,44.013955],[22.411789,44.006927],[22.399594,43.993336],[22.394529,43.936337],[22.379026,43.913496],[22.377063,43.883524],[22.349467,43.807921],[22.362593,43.780843],[22.388535,43.758286],[22.386054,43.725498],[22.404865,43.687179],[22.466256,43.64912],[22.481449,43.600647],[22.478452,43.559229],[22.518863,43.474247],[22.565785,43.453344],[22.596274,43.429159],[22.637822,43.426369],[22.664694,43.396732],[22.702934,43.394045],[22.73301,43.381513],[22.80453,43.328984],[22.817139,43.315497],[22.826958,43.28139],[22.883802,43.230592],[22.915531,43.212247],[22.981367,43.198992],[22.984571,43.174627],[22.955632,43.108274],[22.935271,43.085562],[22.901682,43.069749],[22.884215,43.036651],[22.829025,42.993656],[22.776418,42.979729],[22.739579,42.898858],[22.727015,42.886892],[22.666244,42.871932],[22.5909,42.886892],[22.563615,42.884283],[22.53757,42.868341],[22.506047,42.870123],[22.481449,42.84674],[22.430446,42.817077],[22.425845,42.809843],[22.45313,42.763592],[22.482896,42.733775],[22.442072,42.681685],[22.449203,42.667965],[22.425328,42.572855],[22.512145,42.519189],[22.536536,42.47839],[22.508838,42.404932],[22.46977,42.391703],[22.423985,42.325893],[22.345023,42.313439],[22.307609,42.31933],[22.276914,42.341241],[22.268852,42.370335],[22.233402,42.348889],[22.095529,42.305817],[22.027627,42.303956],[21.929028,42.335117],[21.88438,42.309512],[21.8172,42.305145],[21.676886,42.234945],[21.575044,42.242022],[21.564066,42.246289],[21.553857,42.273984],[21.514893,42.317832],[21.51603,42.341939],[21.537321,42.35863],[21.596645,42.372092],[21.617419,42.386639],[21.618969,42.449245],[21.667855,42.490095],[21.717671,42.551151],[21.727697,42.574147],[21.720152,42.593887],[21.730074,42.601018],[21.735551,42.621276],[21.772758,42.647501],[21.764387,42.669619],[21.708886,42.687189],[21.629408,42.672203],[21.565226,42.720184],[21.405546,42.7353],[21.378674,42.744136],[21.404099,42.803978],[21.40844,42.846998],[21.398931,42.854569],[21.346738,42.860847],[21.306327,42.882448],[21.260542,42.886556],[21.23243,42.910896],[21.225298,42.973554],[21.209795,42.995878],[21.193052,42.997893],[21.165354,42.985103],[21.147887,42.992622],[21.124012,43.058277],[21.10851,43.081558],[21.092593,43.090678],[21.005157,43.099128],[20.838552,43.170467],[20.832041,43.178606],[20.839999,43.212092],[20.8616,43.217518],[20.848474,43.238137],[20.819432,43.257412],[20.769512,43.260849],[20.666986,43.209663],[20.604044,43.197959],[20.600117,43.173826],[20.626058,43.123725],[20.669157,43.109799],[20.664919,43.085407],[20.643835,43.052257],[20.596396,43.007092],[20.562393,43.009495],[20.530457,42.975156],[20.476403,42.966371],[20.459454,42.950015],[20.450979,42.922032],[20.488909,42.899191],[20.498831,42.877875],[20.4763,42.855525],[20.345352,42.827439],[20.35362,42.890975],[20.337084,42.906969],[20.19456,42.966836],[20.116942,42.976654],[20.019894,43.047348],[19.959742,43.07856],[19.92915,43.113907],[19.907136,43.113261],[19.872203,43.090368],[19.805127,43.089955],[19.761202,43.108739],[19.713556,43.165609],[19.663016,43.158504],[19.598111,43.176203],[19.512431,43.240643],[19.473054,43.293276],[19.414039,43.338389],[19.372285,43.384226],[19.218392,43.438202],[19.192244,43.454532],[19.175914,43.480887],[19.175191,43.509619],[19.195345,43.532796],[19.217462,43.532796],[19.252706,43.588633],[19.300868,43.588297],[19.34655,43.608838],[19.38045,43.585584],[19.410732,43.540754],[19.431816,43.57114],[19.48959,43.564448],[19.476878,43.588684],[19.477498,43.616977],[19.481735,43.628914],[19.507367,43.647182],[19.505713,43.67364],[19.461685,43.762136],[19.359469,43.842209],[19.275443,43.933263],[19.229348,43.95768],[19.240717,43.965741],[19.243507,44.002018],[19.287329,44.013025],[19.364637,43.973286],[19.528554,43.977213],[19.593357,44.005584],[19.618885,44.035711],[19.611443,44.054521],[19.598938,44.062583],[19.583848,44.054315],[19.570929,44.056898],[19.522043,44.08501],[19.476361,44.127023],[19.465716,44.15281],[19.442565,44.143198],[19.362363,44.191206],[19.353991,44.22433],[19.324329,44.263966],[19.307379,44.274198],[19.249502,44.270736],[19.157001,44.293577],[19.116693,44.343703],[19.107185,44.382718],[19.115763,44.403596],[19.141394,44.430829],[19.143358,44.458218],[19.127339,44.502556],[19.129922,44.518317],[19.165269,44.526689],[19.179635,44.538264],[19.188317,44.57604],[19.208677,44.588391],[19.255703,44.645648],[19.277614,44.684871],[19.318025,44.715463],[19.375695,44.873128],[19.356982,44.895877],[19.33022,44.898708],[19.31017,44.91235],[19.283815,44.908371],[19.239476,44.915141],[19.201856,44.908371],[19.18687,44.927543],[19.08455,44.878967],[19.015821,44.865635],[18.994323,44.894832],[18.991429,44.914934],[19.018405,44.925683],[19.06667,44.905684],[19.131679,44.953175],[19.118554,44.97555],[19.09809,44.970021],[19.087238,44.977101],[19.095402,45.020922],[19.082277,45.084949],[19.044863,45.137246],[19.060056,45.146858],[19.137674,45.146031],[19.141705,45.162154],[19.121861,45.195795],[19.143875,45.199516],[19.185319,45.168045],[19.225937,45.161947],[19.267795,45.165823],[19.286709,45.179517],[19.304279,45.166547],[19.390682,45.169337],[19.405358,45.179672],[19.407838,45.203133],[19.397296,45.223287],[19.378073,45.229592],[19.28975,45.23631],[19.158482,45.276171],[19.104147,45.298726],[19.096229,45.329121],[19.082956,45.339224],[19.03024,45.345137],[18.977491,45.371209],[18.975527,45.39113],[19.02262,45.402392],[19.031319,45.416201],[18.997144,45.455517],[18.99639,45.473815],[19.00962,45.498671],[19.077212,45.491643],[19.106255,45.511642],[19.095092,45.526059],[19.040936,45.545025],[19.018095,45.567401],[18.960217,45.539134],[18.941717,45.538927],[18.90358,45.573085],[18.912365,45.619232],[18.968485,45.668738],[18.962697,45.683052],[18.917325,45.706565],[18.900169,45.764908],[18.844978,45.815706],[18.855314,45.857357],[18.90699,45.867951],[18.872884,45.895236],[18.90699,45.9157],[18.901306,45.931203],[18.987502,45.923813],[18.978717,45.947171],[19.005589,45.96257],[19.048584,45.963449],[19.049721,45.993111],[19.06543,46.012025],[19.088478,46.018846],[19.111009,46.012955],[19.125788,45.993266],[19.148009,45.984068],[19.263454,45.981432],[19.286915,46.016159],[19.306966,46.026649],[19.378899,46.033677],[19.404738,46.060239],[19.453727,46.07755],[19.47295,46.098686],[19.499305,46.108608],[19.487523,46.134239],[19.549948,46.16416],[19.669321,46.1731],[19.79045,46.129072],[19.92915,46.16354],[19.993125,46.159406],[20.034983,46.142973],[20.098442,46.154962],[20.138026,46.136461],[20.170479,46.145505],[20.188462,46.140389],[20.242826,46.108091]]]}}