{"type":"Feature","properties":{"iso3":"SSD","name":"South Sudan","continent":"Africa"},"geometry":{"type":"Polygon","coordinates":[[[35.920835,4.619332],[35.781222,4.619922],[35.778439,4.678338],[35.739402,4.681127],[35.700365,4.589111],[35.61214,4.619497],[35.52218,4.780461],[35.570836,4.904313],[35.396117,4.926429],[35.433715,5.003836],[35.411598,5.030376],[35.263419,4.948545],[35.245726,4.98172],[34.666277,4.76498],[34.381188,4.620158],[33.490648,3.749746],[33.164466,3.763053],[32.997241,3.885526],[32.756429,3.769022],[32.371801,3.731065],[32.187782,3.61916],[32.155846,3.511776],[32.093007,3.524463],[32.041537,3.57986],[31.943662,3.591255],[31.901908,3.704297],[31.780985,3.815815],[31.668537,3.70502],[31.505446,3.659855],[31.29502,3.774189],[31.141489,3.785119],[30.955505,3.689001],[30.843781,3.505911],[30.837683,3.562678],[30.746939,3.674867],[30.693351,3.63195],[30.543024,3.612907],[30.562248,3.675332],[30.525247,3.867543],[30.182116,3.965521],[30.122688,4.102464],[30.057782,4.123651],[29.989363,4.21778],[29.924147,4.245582],[29.930348,4.308653],[29.787825,4.368804],[29.784621,4.563288],[29.546392,4.657365],[29.449241,4.657055],[29.390226,4.493758],[29.303927,4.387149],[29.242845,4.387356],[29.19613,4.337075],[28.994075,4.487453],[28.825713,4.478384],[28.746855,4.54931],[28.557306,4.373533],[28.496844,4.369011],[28.404137,4.277828],[28.357421,4.282866],[28.303161,4.352242],[28.177587,4.347229],[28.101726,4.442133],[28.059765,4.420067],[28.009587,4.488383],[28.014031,4.550033],[27.856935,4.552462],[27.776888,4.595741],[27.7526,4.777668],[27.685938,4.797899],[27.640979,4.890943],[27.514578,4.92244],[27.385801,5.143847],[27.280898,5.23056],[27.220126,5.413082],[27.261054,5.577593],[27.210669,5.601623],[27.182351,5.707456],[27.123801,5.768745],[27.045356,5.784919],[26.99182,5.847706],[26.916475,5.849644],[26.894255,5.889667],[26.81891,5.894628],[26.776329,5.981884],[26.543578,6.030847],[26.498827,6.099836],[26.421312,6.09366],[26.500067,6.167971],[26.495829,6.221146],[26.28964,6.387208],[26.27021,6.465653],[26.378007,6.65329],[26.091203,6.830334],[26.026091,6.99668],[25.888735,7.05187],[25.786209,7.142666],[25.360033,7.335574],[25.3097,7.422029],[25.190431,7.501197],[25.165213,7.5799],[25.274974,7.641964],[25.264535,7.777718],[25.216889,7.864069],[25.059173,7.896108],[24.958094,7.989178],[24.927811,8.070956],[24.800171,8.180277],[24.51285,8.207149],[24.431097,8.271408],[24.332085,8.245725],[24.152872,8.317891],[24.125173,8.404889],[24.245579,8.591802],[24.218397,8.613041],[24.233487,8.667767],[24.180467,8.690711],[24.182999,8.717919],[24.380093,8.844216],[24.542874,8.874653],[24.565353,9.014851],[24.655993,9.167297],[24.680178,9.373357],[24.792522,9.520402],[24.796398,9.818859],[24.976284,9.967351],[25.027754,10.086155],[25.014421,10.157366],[25.084081,10.293223],[25.82848,10.419546],[25.894884,10.34583],[25.911937,10.174212],[26.016685,10.114862],[26.102313,9.988163],[26.179466,9.95898],[26.556859,9.520454],[26.625744,9.480663],[27.080393,9.606831],[27.895072,9.59541],[28.04511,9.331407],[28.84255,9.324556],[28.828745,9.427474],[28.913833,9.529031],[29.132258,9.667731],[29.483089,9.761679],[29.613882,9.914461],[29.615432,10.058147],[30.012979,10.270485],[30.484578,9.972028],[30.779082,9.719873],[30.824092,9.746176],[31.164382,9.764005],[31.234817,9.792323],[31.664816,10.214236],[31.864184,10.472127],[31.942887,10.655552],[32.430713,11.082193],[32.348754,11.30758],[32.34834,11.703163],[32.082207,11.999811],[32.746662,12.002731],[32.728524,12.206853],[33.209218,12.210367],[33.144984,11.934673],[33.132427,11.686213],[33.082921,11.584565],[33.182088,10.843241],[33.140023,10.739036],[33.389827,10.639248],[33.916978,10.174522],[33.961782,10.064038],[33.973254,9.861776],[33.904886,9.7107],[33.881425,9.499215],[33.888711,9.470818],[34.070698,9.454592],[34.11185,8.626555],[34.090249,8.556507],[33.970774,8.445377],[33.808096,8.412614],[33.756213,8.370136],[33.695545,8.372875],[33.620407,8.460699],[33.505117,8.474884],[33.370862,8.437393],[33.25273,8.458167],[33.206427,8.430572],[33.163329,8.352954],[33.171391,8.283113],[33.208288,8.253683],[33.169944,8.205495],[33.185137,8.14108],[33.031141,7.996309],[32.993572,7.928148],[33.015018,7.850633],[33.051295,7.801127],[33.233919,7.783195],[33.29159,7.733069],[33.462329,7.749502],[33.572297,7.685217],[33.706552,7.661859],[34.006534,7.409936],[34.031132,7.255372],[34.132417,7.163388],[34.167764,7.175377],[34.198253,7.064376],[34.280729,6.980092],[34.503661,6.89002],[34.524745,6.752871],[34.703545,6.684916],[34.832633,6.353541],[34.844725,6.248689],[34.959447,6.061724],[34.984355,5.841014],[35.098663,5.622474],[35.261961,5.511887],[35.254623,5.425923],[35.287489,5.374092],[35.344953,5.352362],[35.469287,5.430755],[35.80415,5.318023],[35.775315,5.24658],[35.807354,5.144674],[35.760949,5.076332],[35.751647,4.854356],[35.784513,4.764181],[35.920835,4.619332]]]}}