{"type":"Feature","properties":{"iso3":"STP","name":"São Tomé and Principe","continent":"Africa"},"geometry":{"type":"MultiPolygon","coordinates":[[[[6.681407,0.407131],[6.703868,0.391832],[6.746104,0.33808],[6.760916,0.284166],[6.756521,0.250067],[6.674571,0.133368],[6.653331,0.124579],[6.660004,0.107327],[6.633637,0.098578],[6.618175,0.081204],[6.582856,0.077338],[6.557302,0.028266],[6.5442,0.043931],[6.536957,0.026435],[6.526622,0.024115],[6.510102,0.051418],[6.513682,0.088284],[6.502696,0.098578],[6.461681,0.222154],[6.470876,0.26789],[6.497813,0.31269],[6.533051,0.348131],[6.578298,0.364569],[6.641856,0.410793],[6.681407,0.407131]]],[[[7.462738,1.674547],[7.428722,1.647854],[7.461762,1.630805],[7.438243,1.623928],[7.430512,1.57274],[7.425548,1.56273],[7.405772,1.556464],[7.401378,1.531195],[7.395681,1.542385],[7.381033,1.537991],[7.372244,1.554145],[7.33253,1.565334],[7.330089,1.614651],[7.355968,1.620022],[7.364024,1.629381],[7.371837,1.677191],[7.385265,1.692328],[7.403005,1.699774],[7.448741,1.693183],[7.459727,1.6883],[7.462738,1.674547]]]]}}