{"type":"Feature","properties":{"iso3":"SUR","name":"Suriname","continent":"Americas"},"geometry":{"type":"Polygon","coordinates":[[[-54.080805,3.309314],[-54.114289,3.285382],[-54.176559,3.200581],[-54.211182,3.127407],[-54.18798,3.130973],[-54.177076,3.116555],[-54.177024,3.072785],[-54.190667,3.059143],[-54.179195,3.051598],[-54.169169,3.010722],[-54.185137,2.997803],[-54.163433,2.969742],[-54.162968,2.955996],[-54.191339,2.877345],[-54.170203,2.853057],[-54.18891,2.838277],[-54.212526,2.776421],[-54.285338,2.677977],[-54.375617,2.483777],[-54.423469,2.435925],[-54.472613,2.42869],[-54.493387,2.417063],[-54.520311,2.348902],[-54.531576,2.340168],[-54.551162,2.338101],[-54.584751,2.348333],[-54.634128,2.320118],[-54.67286,2.315984],[-54.704124,2.32482],[-54.715699,2.375928],[-54.709963,2.39479],[-54.695597,2.403524],[-54.703194,2.445847],[-54.743036,2.466517],[-54.841919,2.433496],[-54.880289,2.447345],[-54.978577,2.54305],[-54.979559,2.566098],[-54.953669,2.599067],[-54.959095,2.608989],[-55.017748,2.590592],[-55.076298,2.54522],[-55.120894,2.524808],[-55.136604,2.5338],[-55.137793,2.56217],[-55.171951,2.559328],[-55.25192,2.497885],[-55.275252,2.499332],[-55.302795,2.519692],[-55.32052,2.518297],[-55.354523,2.494888],[-55.37106,2.442539],[-55.399585,2.430189],[-55.608306,2.433961],[-55.645384,2.416649],[-55.724294,2.396909],[-55.754602,2.409415],[-55.773568,2.440059],[-55.853769,2.462642],[-55.925031,2.515662],[-55.9472,2.528167],[-55.971023,2.530338],[-55.989239,2.520829],[-55.996913,2.503259],[-56.013346,2.398821],[-56.050243,2.347041],[-56.062155,2.341564],[-56.10378,2.349057],[-56.131995,2.304357],[-56.146775,2.256194],[-56.135251,2.248546],[-56.072929,2.241518],[-56.054016,2.224051],[-56.044843,2.184726],[-56.03133,2.163487],[-55.995776,2.13739],[-55.918262,2.050393],[-55.922034,1.886217],[-55.953815,1.853273],[-56.019651,1.833507],[-56.209768,1.888542],[-56.273796,1.887509],[-56.347951,1.926602],[-56.429807,1.9227],[-56.481819,1.941614],[-56.499983,1.969984],[-56.579772,2.016803],[-56.677802,2.018405],[-56.70519,2.029645],[-56.801464,2.165967],[-56.826191,2.261672],[-56.838877,2.281102],[-56.880141,2.294796],[-56.883887,2.339755],[-56.938458,2.41143],[-56.930241,2.436183],[-56.951635,2.461246],[-56.959593,2.483777],[-56.951274,2.515455],[-56.959593,2.524705],[-56.994113,2.504861],[-57.000573,2.514163],[-56.997111,2.555142],[-57.027238,2.59359],[-57.020468,2.635447],[-57.027238,2.648212],[-57.048012,2.636481],[-57.05597,2.642372],[-57.061964,2.68175],[-57.102944,2.740454],[-57.08987,2.773889],[-57.133743,2.773424],[-57.143665,2.790012],[-57.126405,2.82603],[-57.133381,2.832593],[-57.174619,2.818951],[-57.186608,2.82324],[-57.202266,2.846236],[-57.219629,2.908299],[-57.183818,2.944679],[-57.188623,2.95951],[-57.234615,2.970362],[-57.22118,2.992583],[-57.226451,3.021264],[-57.205987,3.028137],[-57.222213,3.078263],[-57.248568,3.112369],[-57.233324,3.14167],[-57.264898,3.132626],[-57.286033,3.142393],[-57.274923,3.169007],[-57.287946,3.203113],[-57.280452,3.247813],[-57.292493,3.276287],[-57.282778,3.295045],[-57.280452,3.329772],[-57.308409,3.39491],[-57.340035,3.370157],[-57.366752,3.36561],[-57.425043,3.387495],[-57.430934,3.360623],[-57.459201,3.353336],[-57.476254,3.338945],[-57.482042,3.348556],[-57.522401,3.365248],[-57.535269,3.36778],[-57.545036,3.348143],[-57.554234,3.346748],[-57.613249,3.376643],[-57.649939,3.385944],[-57.664615,3.417544],[-57.660688,3.469505],[-57.644048,3.51666],[-57.660429,3.535186],[-57.702856,3.555676],[-57.72611,3.607197],[-57.829773,3.662439],[-57.846929,3.702101],[-57.853854,3.76667],[-57.875145,3.812197],[-57.942117,3.905447],[-58.007902,3.957279],[-58.032138,3.987716],[-58.067691,4.151143],[-58.065934,4.171839],[-57.953848,4.299015],[-57.94527,4.343922],[-57.956639,4.391438],[-57.952659,4.409732],[-57.92186,4.450944],[-57.863311,4.60773],[-57.837421,4.65088],[-57.836026,4.669845],[-57.871166,4.721728],[-57.88455,4.762863],[-57.91783,4.782371],[-57.925374,4.796142],[-57.918501,4.829758],[-57.842795,4.929881],[-57.773962,4.926445],[-57.720477,4.9898],[-57.686939,5.006259],[-57.64937,5.008429],[-57.610096,4.99135],[-57.566223,5.007086],[-57.517596,5.012434],[-57.490259,4.99135],[-57.381377,5.005742],[-57.329442,5.024087],[-57.290478,5.020289],[-57.280452,5.026103],[-57.321432,5.070157],[-57.288979,5.171029],[-57.277714,5.17692],[-57.247276,5.172373],[-57.233324,5.142116],[-57.202008,5.157619],[-57.184903,5.183147],[-57.237613,5.268723],[-57.26743,5.266295],[-57.269187,5.256709],[-57.253787,5.234927],[-57.263037,5.223997],[-57.280452,5.225341],[-57.287274,5.238699],[-57.288824,5.30854],[-57.308409,5.313475],[-57.331715,5.30761],[-57.332284,5.327867],[-57.265208,5.403366],[-57.24767,5.484931],[-57.225087,5.507514],[-57.179514,5.530585],[-57.163686,5.557074],[-57.139638,5.665107],[-57.12577,5.818145],[-57.102283,5.886416],[-57.066029,5.9501],[-57.03482,5.959906],[-56.994496,5.992662],[-56.956537,6.011574],[-56.830356,5.985557],[-56.659512,5.979716],[-56.57395,5.940756],[-56.526859,5.936549],[-56.355024,5.89467],[-56.303807,5.892508],[-55.999182,5.810713],[-55.936006,5.804661],[-55.897694,5.763007],[-55.897694,5.676703],[-55.890248,5.676703],[-55.884999,5.69245],[-55.884023,5.741929],[-55.915362,5.821771],[-55.899963,5.841964],[-55.910003,5.850918],[-55.933959,5.849827],[-55.947872,5.861521],[-55.951169,5.881511],[-55.946669,5.896493],[-55.900654,5.951945],[-55.844382,5.975962],[-55.637318,5.985907],[-55.394988,5.973876],[-55.335967,5.962708],[-55.2329,5.903266],[-55.188361,5.897395],[-55.14784,5.908177],[-55.110829,5.881171],[-55.103107,5.866412],[-55.129872,5.820746],[-55.101039,5.830499],[-55.08552,5.882799],[-55.063423,5.882883],[-55.030385,5.859768],[-55.010121,5.855536],[-54.981191,5.865465],[-54.950307,5.850287],[-54.900258,5.875393],[-54.863026,5.855536],[-54.882192,5.878363],[-54.903472,5.885403],[-54.933319,5.869672],[-54.956207,5.867575],[-54.985634,5.880387],[-55.016591,5.871975],[-55.047271,5.892279],[-55.12564,5.918647],[-55.142974,5.930121],[-55.159966,5.958114],[-55.1445,5.974248],[-55.116851,5.985256],[-55.044799,5.993105],[-54.77359,5.985256],[-54.471781,5.94097],[-54.252699,5.894808],[-54.097396,5.847339],[-54.036731,5.842351],[-54.014687,5.820148],[-54.016307,5.809704],[-53.986357,5.745665],[-54.031148,5.66931],[-54.061106,5.512885],[-54.118479,5.442776],[-54.128529,5.414293],[-54.170969,5.348375],[-54.19046,5.325748],[-54.269163,5.269085],[-54.332002,5.196196],[-54.343577,5.156379],[-54.365437,5.138757],[-54.375617,5.114883],[-54.448636,5.024294],[-54.457576,4.99135],[-54.450806,4.936728],[-54.486721,4.902958],[-54.47866,4.87867],[-54.47866,4.755189],[-54.475404,4.741727],[-54.447344,4.727852],[-54.435458,4.709404],[-54.437732,4.648735],[-54.423469,4.604345],[-54.423469,4.563392],[-54.447964,4.509545],[-54.450806,4.484224],[-54.433443,4.376375],[-54.402954,4.312942],[-54.394117,4.269818],[-54.393187,4.244393],[-54.41055,4.208581],[-54.394892,4.177911],[-54.338565,4.152332],[-54.334689,4.131713],[-54.355153,4.066523],[-54.353861,4.041718],[-54.310194,3.994202],[-54.293141,3.949812],[-54.18736,3.814678],[-54.125503,3.788736],[-54.094445,3.747059],[-54.074033,3.676107],[-54.050107,3.634534],[-54.017861,3.641458],[-53.988819,3.610995],[-54.006285,3.531026],[-54.00303,3.455397],[-54.019359,3.415374],[-54.055688,3.377676],[-54.080805,3.309314]]]}}