{"type":"Feature","properties":{"iso3":"SVK","name":"Slovakia","continent":"Europe"},"geometry":{"type":"Polygon","coordinates":[[[22.539637,49.0722],[22.524754,49.032874],[22.520516,48.992928],[22.448996,48.971431],[22.41489,48.911693],[22.411789,48.887766],[22.378406,48.865442],[22.362283,48.844255],[22.365694,48.794387],[22.356495,48.776145],[22.330761,48.756405],[22.3289,48.721575],[22.310297,48.681681],[22.294277,48.667625],[22.243221,48.651192],[22.219036,48.620935],[22.153717,48.585873],[22.138731,48.569595],[22.136664,48.549337],[22.148343,48.508823],[22.13377,48.476835],[22.13284,48.404798],[22.09646,48.379425],[21.929338,48.372914],[21.789398,48.335526],[21.727697,48.340901],[21.67757,48.372346],[21.621553,48.429655],[21.591684,48.49301],[21.521818,48.50009],[21.49939,48.535075],[21.424563,48.561275],[21.32183,48.54758],[21.302296,48.539907],[21.276561,48.50872],[21.261782,48.50319],[21.219924,48.518719],[21.109336,48.489109],[21.035956,48.514637],[20.945832,48.518978],[20.891365,48.541095],[20.845477,48.545823],[20.800311,48.569233],[20.51051,48.533783],[20.481674,48.526083],[20.481674,48.478747],[20.420593,48.429241],[20.370157,48.334338],[20.324268,48.279948],[20.272385,48.252456],[20.22908,48.270905],[20.170892,48.244033],[20.134512,48.246669],[20.105263,48.202795],[19.99695,48.167914],[19.928633,48.130087],[19.905069,48.124299],[19.884295,48.129621],[19.846261,48.152669],[19.821663,48.157914],[19.776084,48.149517],[19.766679,48.159],[19.774327,48.185897],[19.756551,48.200315],[19.686994,48.196904],[19.643896,48.224809],[19.623226,48.227006],[19.513982,48.203958],[19.481735,48.134892],[19.481735,48.111328],[19.428199,48.085852],[19.29322,48.087764],[19.222526,48.060582],[19.098503,48.070736],[18.996494,48.066214],[18.838467,48.040015],[18.821001,48.030454],[18.794232,47.993144],[18.743176,47.971052],[18.754751,47.951803],[18.742246,47.889455],[18.748757,47.870723],[18.816453,47.83256],[18.767671,47.822302],[18.692843,47.777963],[18.663698,47.775896],[18.552593,47.792846],[18.347851,47.776775],[18.273024,47.756259],[18.23592,47.753882],[18.11262,47.762486],[17.825713,47.750006],[17.741997,47.76538],[17.676678,47.789177],[17.61911,47.829226],[17.572601,47.829536],[17.526609,47.872118],[17.472039,47.888809],[17.36941,47.981207],[17.337887,47.998725],[17.184821,48.020274],[17.148338,48.005443],[17.069686,48.035674],[17.075061,48.052081],[17.063072,48.058773],[17.064829,48.07903],[17.080228,48.097608],[17.047465,48.130991],[17.007158,48.142799],[16.98194,48.161299],[16.950624,48.276589],[16.916621,48.2908],[16.898431,48.316173],[16.901945,48.339402],[16.84448,48.365602],[16.864944,48.458077],[16.913934,48.519339],[16.946903,48.539726],[16.954345,48.557399],[16.947523,48.623157],[16.974808,48.649874],[17.025348,48.746328],[17.049946,48.774027],[17.098728,48.805756],[17.113715,48.83392],[17.167458,48.859758],[17.21221,48.866062],[17.260269,48.857794],[17.374371,48.819605],[17.453332,48.842756],[17.498497,48.816763],[17.535084,48.812991],[17.727217,48.86291],[17.795533,48.920581],[17.860336,48.921718],[17.878733,48.933552],[17.914079,49.010498],[17.959244,49.021867],[18.012885,49.019128],[18.075516,49.047188],[18.09629,49.070288],[18.102905,49.09225],[18.105075,49.169765],[18.117788,49.202579],[18.160576,49.2587],[18.190031,49.276942],[18.324597,49.311255],[18.385162,49.342261],[18.387642,49.389751],[18.416788,49.385462],[18.481797,49.429077],[18.514663,49.440601],[18.527995,49.454864],[18.535643,49.481684],[18.556211,49.490159],[18.600446,49.485973],[18.635896,49.496721],[18.704522,49.479255],[18.732531,49.480288],[18.792269,49.509537],[18.932208,49.504318],[18.961147,49.492794],[18.952362,49.475948],[18.962284,49.389183],[19.007139,49.388098],[19.067601,49.406133],[19.106255,49.391405],[19.141705,49.394195],[19.179738,49.410267],[19.18935,49.442203],[19.204543,49.442823],[19.211364,49.45166],[19.20444,49.460548],[19.234102,49.507212],[19.265005,49.521475],[19.339522,49.528761],[19.443392,49.60178],[19.505197,49.563384],[19.55677,49.453882],[19.594804,49.441583],[19.634801,49.441324],[19.627097,49.402165],[19.706321,49.387529],[19.760065,49.397658],[19.769056,49.393213],[19.783629,49.357557],[19.78952,49.309188],[19.780322,49.297612],[19.808641,49.270895],[19.789624,49.259475],[19.747766,49.205887],[19.760685,49.194208],[19.785903,49.188162],[19.854219,49.191262],[19.905896,49.222785],[19.937935,49.22511],[20.050486,49.173227],[20.07002,49.183097],[20.08604,49.243042],[20.135856,49.308878],[20.16035,49.305622],[20.207169,49.334199],[20.284374,49.338643],[20.307422,49.386599],[20.317653,49.391612],[20.370467,49.38169],[20.422143,49.382982],[20.421936,49.40019],[20.437543,49.402515],[20.543996,49.370838],[20.567664,49.376367],[20.605284,49.400035],[20.689517,49.4005],[20.778297,49.331202],[20.79411,49.323657],[20.849301,49.320505],[20.900564,49.2926],[20.91896,49.290326],[20.964022,49.308103],[21.017249,49.352441],[21.072543,49.357195],[21.080708,49.366342],[21.068512,49.381431],[21.033269,49.399673],[21.053526,49.414453],[21.124943,49.423651],[21.172588,49.398278],[21.194086,49.400603],[21.260542,49.449438],[21.42787,49.409802],[21.6199,49.423341],[21.65876,49.402464],[21.69173,49.402154],[21.757566,49.348927],[21.799423,49.374817],[21.819577,49.377246],[21.964478,49.308568],[21.99321,49.278182],[22.012434,49.211054],[22.040752,49.197463],[22.111549,49.188627],[22.155681,49.171522],[22.197952,49.171987],[22.208908,49.163977],[22.20622,49.150489],[22.215936,49.139999],[22.339442,49.12646],[22.390085,49.093025],[22.505013,49.083413],[22.539637,49.0722]]]}}