{"type":"Feature","properties":{"iso3":"SVN","name":"Slovenia","continent":"Europe"},"geometry":{"type":"Polygon","coordinates":[[[13.64292,45.45943],[13.624107,45.462745],[13.589529,45.488837],[13.595958,45.518134],[13.578624,45.523383],[13.568614,45.539252],[13.75294,45.552883],[13.711762,45.593207],[13.761051,45.596236],[13.800532,45.58125],[13.847764,45.584661],[13.894686,45.631841],[13.858409,45.649359],[13.778724,45.743411],[13.709478,45.765321],[13.660334,45.792038],[13.581269,45.809246],[13.565973,45.83033],[13.56928,45.86454],[13.608244,45.926552],[13.622817,45.966394],[13.605867,45.985411],[13.509439,45.967428],[13.461793,46.006392],[13.490008,46.025564],[13.490318,46.038948],[13.482257,46.044839],[13.505098,46.066027],[13.616409,46.125041],[13.645037,46.161731],[13.637389,46.180386],[13.559048,46.184107],[13.510162,46.213976],[13.468304,46.223433],[13.422829,46.228601],[13.437402,46.210927],[13.410116,46.207982],[13.384898,46.243122],[13.365261,46.290302],[13.391306,46.301568],[13.434094,46.353864],[13.530006,46.388332],[13.600182,46.442644],[13.67749,46.452075],[13.700951,46.519746],[13.782135,46.507782],[13.860683,46.51525],[13.98233,46.481918],[14.050026,46.484399],[14.147933,46.440425],[14.40649,46.439337],[14.420029,46.424351],[14.450931,46.414481],[14.502194,46.418356],[14.540332,46.378643],[14.557695,46.38394],[14.590148,46.434428],[14.631696,46.440577],[14.662081,46.459698],[14.679961,46.458871],[14.709727,46.492512],[14.760887,46.496284],[14.788585,46.506646],[14.822278,46.567546],[14.85039,46.601136],[14.894063,46.605215],[14.933589,46.621135],[14.947955,46.619274],[14.967179,46.600257],[15.004386,46.636844],[15.061954,46.649557],[15.204891,46.638963],[15.388135,46.645578],[15.462653,46.614649],[15.511228,46.628369],[15.530659,46.663845],[15.545955,46.671881],[15.603729,46.673018],[15.626984,46.680873],[15.635975,46.717563],[15.728683,46.70299],[15.850743,46.724488],[15.986962,46.69219],[16.016593,46.670757],[16.014557,46.693714],[16.003291,46.709191],[15.982001,46.718545],[15.970529,46.743014],[15.978177,46.809134],[15.971976,46.820632],[16.094035,46.862774],[16.135376,46.855849],[16.272009,46.863962],[16.301878,46.843214],[16.325339,46.839442],[16.327509,46.825463],[16.29949,46.77951],[16.314177,46.743324],[16.343426,46.714178],[16.357275,46.715832],[16.357585,46.699011],[16.405024,46.687255],[16.410502,46.668367],[16.368437,46.642994],[16.376395,46.629093],[16.430242,46.604392],[16.467139,46.564704],[16.500832,46.544809],[16.515302,46.501711],[16.481298,46.519022],[16.440371,46.519022],[16.406264,46.539486],[16.357895,46.546979],[16.351694,46.539486],[16.344149,46.546979],[16.32999,46.535455],[16.263947,46.515922],[16.234905,46.493339],[16.233665,46.47874],[16.249375,46.437528],[16.250925,46.404998],[16.278727,46.387351],[16.275626,46.373165],[16.191807,46.369781],[16.143851,46.394714],[16.106024,46.373734],[16.057965,46.377532],[16.059619,46.332315],[16.052384,46.318595],[16.019208,46.298829],[15.948721,46.284204],[15.883712,46.2594],[15.81829,46.255524],[15.789144,46.24307],[15.768887,46.21935],[15.749767,46.210772],[15.661297,46.21532],[15.639799,46.207672],[15.604349,46.167002],[15.589983,46.138684],[15.58988,46.113517],[15.603833,46.090986],[15.631531,46.070574],[15.683931,46.051144],[15.697987,46.036209],[15.674319,45.993318],[15.67556,45.925157],[15.659436,45.888828],[15.676076,45.841699],[15.666051,45.831674],[15.626054,45.820202],[15.523527,45.826816],[15.48539,45.810176],[15.451284,45.815137],[15.440328,45.811468],[15.441052,45.782168],[15.429755,45.775691],[15.303799,45.746149],[15.255017,45.723463],[15.250883,45.70765],[15.283025,45.680107],[15.304936,45.672149],[15.333875,45.682639],[15.373769,45.640213],[15.297391,45.625692],[15.287883,45.610344],[15.268556,45.601662],[15.296668,45.522959],[15.311034,45.505906],[15.361367,45.482031],[15.325193,45.452834],[15.281578,45.450974],[15.18422,45.4256],[15.139262,45.430045],[15.056166,45.479912],[15.007383,45.480843],[14.962631,45.493142],[14.922634,45.514949],[14.904444,45.514432],[14.900826,45.493142],[14.881603,45.469784],[14.838815,45.458983],[14.797164,45.465185],[14.781454,45.493142],[14.668489,45.533966],[14.669833,45.564558],[14.603067,45.603574],[14.593868,45.616183],[14.591905,45.663364],[14.580949,45.667808],[14.556145,45.656697],[14.498577,45.596184],[14.482144,45.542441],[14.468915,45.525594],[14.372797,45.477845],[14.326805,45.4749],[14.218698,45.497172],[14.145524,45.476243],[14.092917,45.473918],[14.013956,45.507973],[13.971891,45.514226],[13.961452,45.493142],[13.98264,45.475313],[13.969824,45.462963],[13.923005,45.448958],[13.889002,45.423637],[13.819859,45.432628],[13.759294,45.463169],[13.64292,45.45943]]]}}