{"type":"Feature","properties":{"iso3":"SWE","name":"Sweden","continent":"Europe"},"geometry":{"type":"MultiPolygon","coordinates":[[[[20.623165,69.036356],[20.911209,68.9807],[20.934567,68.966954],[20.887644,68.92706],[20.905731,68.894607],[21.072129,68.869441],[21.300953,68.759215],[21.406373,68.74888],[21.451538,68.69648],[21.716845,68.619224],[21.737102,68.587908],[21.919209,68.568219],[22.072172,68.47701],[22.303062,68.476131],[22.808251,68.394896],[23.140013,68.234182],[23.151692,68.130261],[23.306515,68.145609],[23.382996,68.051248],[23.662152,67.950427],[23.636107,67.913478],[23.481285,67.864644],[23.484592,67.737159],[23.553528,67.587038],[23.47343,67.554999],[23.431262,67.48552],[23.477151,67.443817],[23.752586,67.427307],[23.751449,67.346226],[23.785659,67.337519],[23.735429,67.289692],[23.602724,67.260263],[23.61492,67.213986],[23.58133,67.153137],[24.001253,66.812435],[23.892422,66.750914],[23.88188,66.563535],[23.652437,66.458839],[23.665976,66.305463],[23.750002,66.189656],[23.911439,66.148625],[24.163414,65.840788],[24.14031,65.804511],[24.032725,65.809719],[24.053233,65.796047],[23.918142,65.76317],[23.739431,65.829291],[23.623302,65.79621],[23.470063,65.833319],[23.428966,65.808783],[23.428477,65.765326],[23.374278,65.790432],[23.374278,65.822699],[23.289724,65.795844],[23.195974,65.826972],[23.182384,65.802232],[23.237641,65.768704],[23.103038,65.704657],[23.058116,65.755072],[22.837169,65.807685],[22.785167,65.864325],[22.673025,65.905707],[22.653005,65.908393],[22.696462,65.78913],[22.648123,65.755072],[22.62794,65.790351],[22.522716,65.776435],[22.503591,65.831],[22.370128,65.861721],[22.325938,65.836982],[22.367442,65.809719],[22.319102,65.802232],[22.345551,65.771308],[22.32602,65.7355],[22.209239,65.761217],[22.361827,65.716254],[22.38795,65.672512],[22.281505,65.701483],[22.257579,65.69302],[22.284923,65.631537],[22.18922,65.624091],[22.300629,65.611518],[22.308604,65.669379],[22.380382,65.634019],[22.340099,65.61286],[22.404959,65.583157],[22.428966,65.548977],[22.405284,65.541938],[22.05128,65.617336],[21.778168,65.719468],[21.847911,65.660956],[22.202973,65.548977],[22.075694,65.51789],[21.853526,65.535346],[22.031586,65.467027],[21.997569,65.426093],[21.942231,65.453355],[21.942231,65.411811],[21.906993,65.402777],[21.586681,65.418199],[21.448904,65.357164],[21.687022,65.29682],[21.699229,65.271552],[21.622813,65.24079],[21.544444,65.247301],[21.345551,65.372789],[21.277843,65.350043],[21.42213,65.308783],[21.609874,65.16885],[21.618826,65.148017],[21.544444,65.137437],[21.543793,65.083075],[21.585948,65.069159],[21.479259,65.062323],[21.494884,65.026313],[21.383149,64.986558],[21.394216,64.966783],[21.256114,64.956732],[21.165294,64.82982],[21.042003,64.846869],[21.097179,64.785305],[21.305837,64.768297],[21.246267,64.730862],[21.312266,64.699286],[21.304942,64.671942],[21.119884,64.729682],[21.140391,64.671942],[21.231944,64.661078],[21.232188,64.633002],[21.343923,64.572699],[21.368337,64.604234],[21.455577,64.562486],[21.489757,64.579169],[21.551931,64.534735],[21.349864,64.538153],[21.386078,64.510321],[21.463227,64.516995],[21.491954,64.454332],[21.597667,64.475165],[21.606456,64.452216],[21.37322,64.33039],[21.333507,64.35578],[21.332774,64.315009],[21.256358,64.305121],[20.966563,64.1494],[20.899913,63.993964],[20.786469,63.878607],[20.684744,63.848456],[20.687511,63.798733],[20.612641,63.822211],[20.553559,63.777045],[20.50766,63.821031],[20.413585,63.767564],[20.420584,63.718451],[20.383067,63.677639],[20.32545,63.753974],[20.307953,63.654364],[20.266938,63.681342],[20.284434,63.732856],[20.242849,63.650865],[20.053477,63.663398],[20.011078,63.634101],[20.030528,63.602484],[19.886974,63.603095],[19.753184,63.524319],[19.772472,63.464586],[19.699474,63.433743],[19.639496,63.444892],[19.578624,63.521186],[19.4463,63.560858],[19.420421,63.548529],[19.468761,63.534247],[19.4546,63.508938],[19.523448,63.485826],[19.465099,63.472805],[19.507986,63.411851],[19.346202,63.485907],[19.372569,63.444892],[19.280772,63.459418],[19.269542,63.342475],[19.133067,63.308295],[19.153494,63.294013],[19.11671,63.23664],[19.057384,63.260484],[19.056407,63.226508],[19.11199,63.21955],[19.058604,63.183905],[18.906749,63.267076],[18.769054,63.262152],[18.735199,63.253079],[18.913341,63.212063],[18.787283,63.168036],[18.75294,63.207668],[18.823904,63.212063],[18.70045,63.225775],[18.750173,63.166083],[18.564464,63.177924],[18.629161,63.156724],[18.654633,63.113715],[18.556977,63.116523],[18.52296,63.075507],[18.556977,63.075507],[18.486583,63.025702],[18.403819,63.05565],[18.372081,63.047553],[18.434093,63.014106],[18.351573,63.037055],[18.24171,62.999823],[18.570649,62.97309],[18.504893,62.949205],[18.418142,62.969306],[18.392589,62.945217],[18.52296,62.92475],[18.400076,62.911078],[18.471365,62.867743],[18.400076,62.841539],[18.324229,62.841539],[18.248546,62.883734],[18.207042,62.869452],[18.207042,62.835354],[18.282725,62.841539],[18.205577,62.781968],[18.195567,62.804429],[18.120372,62.770575],[18.008962,62.794379],[18.146169,62.822252],[18.054698,62.852851],[17.935313,62.817043],[17.926443,62.900539],[17.809744,62.979315],[17.830821,62.999823],[17.710785,62.998236],[17.847667,62.921291],[17.901866,62.839301],[17.885509,62.822252],[17.952891,62.785956],[18.002696,62.70897],[17.993419,62.659898],[17.871837,62.670844],[18.047699,62.606635],[17.968272,62.560492],[17.930675,62.612372],[17.861664,62.5008],[17.671235,62.489447],[17.659679,62.461371],[17.696056,62.450588],[17.549978,62.44831],[17.437999,62.53677],[17.330821,62.487738],[17.375011,62.437445],[17.337413,62.403957],[17.368012,62.343085],[17.454112,62.321438],[17.488292,62.286607],[17.460216,62.273017],[17.65268,62.232001],[17.544444,62.201606],[17.569509,62.232001],[17.508637,62.218411],[17.508637,62.163764],[17.447276,62.068183],[17.469005,62.062161],[17.426117,62.026557],[17.452647,62.012274],[17.344574,61.936672],[17.342621,61.83393],[17.40561,61.821112],[17.371593,61.800605],[17.391124,61.727729],[17.501964,61.725531],[17.502452,61.649848],[17.446137,61.63288],[17.330577,61.718085],[17.350922,61.677151],[17.266612,61.721625],[17.138031,61.725531],[17.268565,61.690823],[17.166189,61.656684],[17.19337,61.64232],[17.097179,61.636135],[17.247895,61.608832],[17.083507,61.615668],[17.145681,61.595201],[17.056326,61.58218],[17.186534,61.561021],[17.090343,61.556057],[17.155528,61.529527],[17.124522,61.519477],[17.177013,61.486884],[17.151866,61.46483],[17.169281,61.441107],[17.213552,61.451158],[17.108409,61.409369],[17.138031,61.369289],[17.276052,61.314032],[17.151866,61.328315],[17.247895,61.287299],[17.205089,61.28852],[17.097179,61.320868],[17.212738,61.235297],[17.151866,61.204169],[17.186534,61.191107],[17.171397,61.115058],[17.145681,61.114732],[17.19988,61.095893],[17.158702,61.019843],[17.23585,61.022284],[17.158702,60.964545],[17.24171,60.902533],[17.296397,60.772773],[17.330821,60.770331],[17.191173,60.701728],[17.364594,60.649237],[17.323741,60.635647],[17.339529,60.622992],[17.574962,60.647895],[17.645518,60.618598],[17.611095,60.588528],[17.670584,60.504096],[17.741466,60.49844],[17.727061,60.534735],[17.816091,60.585273],[17.974864,60.587836],[17.995372,60.553046],[17.967459,60.518948],[18.098399,60.464911],[18.143321,60.41356],[18.262218,60.382392],[18.207042,60.347602],[18.227875,60.333808],[18.427989,60.348782],[18.474457,60.299791],[18.426768,60.2862],[18.604828,60.238349],[18.400564,60.259589],[18.316905,60.32095],[18.447765,60.211086],[18.392589,60.232164],[18.419932,60.193508],[18.544119,60.164252],[18.573416,60.088202],[18.599376,60.148261],[18.720714,60.126044],[18.788829,60.017564],[18.753103,60.08218],[18.803477,60.121649],[18.903087,59.947211],[19.024425,59.884508],[19.071625,59.896308],[19.066661,59.841946],[19.034679,59.835028],[18.885997,59.929877],[18.930675,59.885484],[18.924083,59.852281],[18.733897,59.768785],[19.042003,59.78498],[19.085216,59.772203],[19.074474,59.749701],[18.975271,59.719062],[18.920909,59.746405],[18.781261,59.701565],[18.719981,59.675727],[18.723806,59.63227],[18.660004,59.635688],[18.679698,59.616767],[18.639985,59.583645],[18.379649,59.476386],[18.269054,59.477444],[18.303233,59.456977],[18.262218,59.45246],[18.293142,59.414049],[18.337901,59.408515],[18.307302,59.396796],[18.188487,59.407416],[18.15919,59.422187],[18.207042,59.422187],[18.199474,59.450873],[18.118826,59.456977],[18.084483,59.427802],[18.098399,59.408515],[18.020681,59.406073],[18.146169,59.340237],[18.110525,59.336005],[18.214366,59.31977],[18.318126,59.375922],[18.456798,59.335354],[18.481944,59.347724],[18.454926,59.381578],[18.495616,59.395453],[18.426768,59.436428],[18.48463,59.434231],[18.646495,59.330268],[18.535655,59.300116],[18.364431,59.306586],[18.344737,59.334052],[18.27589,59.312934],[18.316905,59.28559],[18.283051,59.278998],[18.426768,59.196845],[18.313731,59.234076],[18.329438,59.214667],[18.431407,59.15351],[18.200857,59.080756],[18.255382,59.114325],[18.223643,59.119534],[18.002696,59.03856],[18.018565,59.022895],[17.961192,58.963446],[17.961192,58.922512],[17.899669,58.915717],[17.892833,58.861029],[17.861176,58.919094],[17.786143,58.953559],[17.792003,58.890855],[17.749278,58.923814],[17.769054,59.108954],[17.732758,59.114447],[17.71046,59.052802],[17.665782,59.080756],[17.688813,59.117987],[17.669688,59.162299],[17.673106,59.134752],[17.611095,59.093817],[17.631602,59.018134],[17.586436,58.964993],[17.617931,58.902045],[17.535981,58.902045],[17.590668,58.867255],[17.569509,58.861029],[17.447276,58.895209],[17.449962,58.815863],[17.488292,58.799628],[17.337413,58.806464],[17.371593,58.778998],[17.357758,58.751166],[17.162364,58.732001],[17.075369,58.762681],[17.046153,58.753323],[17.077403,58.720364],[17.145681,58.702786],[17.069835,58.661811],[16.974946,58.68537],[16.953868,58.669257],[17.035818,58.641303],[16.924164,58.625434],[16.233735,58.669257],[16.257091,58.65176],[16.239919,58.63227],[16.17921,58.628323],[16.333995,58.639146],[16.400238,58.592353],[16.453868,58.645982],[16.776866,58.607652],[16.785981,58.57274],[16.940196,58.491116],[16.753591,58.431464],[16.412608,58.477484],[16.692556,58.412746],[16.709646,58.369127],[16.766612,58.368598],[16.775076,58.339667],[16.631684,58.353949],[16.721853,58.299872],[16.779307,58.325588],[16.789317,58.305569],[16.706798,58.278266],[16.802989,58.244696],[16.824067,58.192857],[16.788259,58.179267],[16.809825,58.162095],[16.777192,58.13052],[16.617442,58.203111],[16.736095,58.084784],[16.68629,58.058539],[16.754568,58.02497],[16.631196,58.027899],[16.773936,57.923407],[16.727306,57.928778],[16.758149,57.877021],[16.691173,57.916205],[16.610606,57.89468],[16.63559,57.925482],[16.51531,57.998847],[16.494477,57.984036],[16.532074,57.950263],[16.590099,57.935614],[16.576996,57.901923],[16.460297,57.902086],[16.706798,57.750637],[16.419444,57.89468],[16.704845,57.716783],[16.639171,57.692328],[16.576996,57.709662],[16.619965,57.666653],[16.583263,57.661933],[16.616547,57.622382],[16.569998,57.595689],[16.529796,57.622382],[16.542247,57.579291],[16.514985,57.572496],[16.629161,57.556871],[16.680349,57.489651],[16.633311,57.437079],[16.653005,57.419013],[16.631684,57.380764],[16.547618,57.382514],[16.534841,57.360256],[16.569591,57.346584],[16.469086,57.275377],[16.494477,57.242906],[16.465017,57.177314],[16.574474,57.056098],[16.452403,57.051418],[16.461436,56.95661],[16.408946,56.808417],[16.47169,56.777411],[16.356619,56.75845],[16.371593,56.661322],[16.255219,56.650377],[16.213227,56.548407],[16.095225,56.419379],[16.038259,56.255072],[15.851736,56.086371],[15.788748,56.106431],[15.826508,56.159369],[15.731212,56.157213],[15.648204,56.194566],[15.592133,56.160549],[15.572765,56.206285],[15.484874,56.155666],[15.403982,56.179755],[15.365571,56.141099],[15.295258,56.147406],[15.295258,56.188381],[15.192393,56.152899],[15.081716,56.182074],[14.830251,56.142646],[14.724946,56.167629],[14.681,56.127427],[14.767751,56.030707],[14.621837,56.010159],[14.603282,56.058051],[14.497406,56.040473],[14.234711,55.862698],[14.198497,55.779975],[14.205903,55.708564],[14.367524,55.545396],[14.181163,55.390815],[13.897227,55.434882],[13.647309,55.42121],[13.381358,55.346015],[12.979177,55.403266],[12.847423,55.382025],[12.828787,55.400092],[12.859386,55.434882],[12.929698,55.418769],[12.985688,55.447903],[12.917491,55.547187],[13.04949,55.647121],[13.054861,55.694037],[12.911306,55.763861],[12.93865,55.790473],[12.926036,55.834052],[12.8213,55.886705],[12.464854,56.291693],[12.696625,56.224595],[12.814464,56.236151],[12.833507,56.265692],[12.621593,56.419338],[12.713715,56.467353],[12.890147,56.455268],[12.934418,56.547065],[12.886078,56.637152],[12.746837,56.644232],[12.679861,56.679592],[12.600352,56.809882],[12.356456,56.923814],[12.333263,57.020901],[12.218598,57.092719],[12.237641,57.108059],[12.197927,57.175767],[12.160981,57.184149],[12.180512,57.204169],[12.101329,57.236721],[12.156505,57.242906],[12.095063,57.250393],[12.144054,57.310126],[12.049815,57.351142],[12.108735,57.394355],[12.060313,57.394355],[12.089854,57.423041],[12.059255,57.458808],[12.006602,57.434149],[11.979015,57.346584],[11.903331,57.394355],[11.903331,57.448961],[11.944835,57.489936],[11.910167,57.503607],[11.931163,57.511054],[11.91684,57.620917],[11.879649,57.606187],[11.834972,57.661933],[11.923676,57.702826],[11.705414,57.698432],[11.801524,57.774237],[11.656261,57.839423],[11.759288,57.902086],[11.736583,57.938666],[11.800141,58.022284],[11.78297,58.069159],[11.837413,58.187161],[11.8838,58.205268],[11.80893,58.302191],[11.882823,58.332831],[11.726736,58.327094],[11.50587,58.243069],[11.541759,58.333564],[11.669932,58.422187],[11.588634,58.401109],[11.559255,58.44831],[11.522472,58.336249],[11.396169,58.264594],[11.44337,58.305569],[11.3838,58.318183],[11.448578,58.341742],[11.424083,58.388129],[11.355317,58.343899],[11.424083,58.442694],[11.334158,58.367621],[11.2317,58.339667],[11.204356,58.401109],[11.278575,58.459052],[11.240733,58.502183],[11.273285,58.56623],[11.259044,58.634508],[11.178559,58.736477],[11.2317,58.843695],[11.190115,58.908271],[11.119884,58.940863],[11.117442,58.968817],[11.183849,58.9914],[11.115001,59.008205],[11.129405,59.031195],[11.220063,59.090155],[11.320974,59.099514],[11.437511,58.9914],[11.451993,58.896044],[11.547078,58.884727],[11.664383,58.920074],[11.811661,59.270905],[11.674925,59.607112],[11.891656,59.705762],[11.903542,59.769996],[11.849592,59.872419],[11.942196,59.90203],[12.143734,59.898412],[12.483248,60.081243],[12.524692,60.161704],[12.487279,60.295907],[12.605308,60.419156],[12.594352,60.514938],[12.377001,60.754096],[12.253288,61.001704],[12.511773,61.049117],[12.703803,61.046197],[12.746694,61.151462],[12.839815,61.226987],[12.888184,61.349616],[12.613783,61.547045],[12.416482,61.582289],[12.175566,61.711531],[12.315149,62.271761],[12.091231,62.58631],[12.156239,62.733691],[12.093298,62.907427],[12.222695,63.001479],[11.992425,63.288903],[12.219801,63.474266],[12.170295,63.598135],[12.755273,63.991392],[13.234106,64.090869],[13.964243,64.009531],[14.147797,64.169004],[14.096948,64.465317],[13.642764,64.584018],[14.310682,65.084142],[14.380238,65.240282],[14.514287,65.318081],[14.510359,65.464739],[14.560692,65.701055],[14.648852,65.802393],[14.540538,66.125448],[15.053375,66.153276],[15.481876,66.274871],[15.426272,66.491214],[15.669462,66.599424],[16.038845,66.887546],[16.39965,67.035961],[16.443781,67.182619],[16.127108,67.422759],[16.180748,67.496398],[16.482952,67.557841],[16.608733,67.647293],[16.782882,67.896994],[17.220065,68.040086],[17.321454,68.105301],[17.921004,67.972855],[18.188584,68.198732],[18.135668,68.395723],[18.171841,68.535921],[18.436218,68.573852],[18.644577,68.501246],[19.038145,68.505639],[19.93101,68.350196],[20.010282,68.36389],[20.245927,68.477372],[19.962223,68.541192],[20.236625,68.659066],[20.352173,68.785673],[20.348763,68.893109],[20.102266,69.022145],[20.623165,69.036356]]],[[[17.124522,57.319281],[17.042003,57.270901],[17.050466,57.201158],[16.960623,57.063218],[16.898611,57.038072],[16.93393,57.017564],[16.871267,56.969184],[16.884532,56.935614],[16.841807,56.844062],[16.764415,56.787421],[16.68629,56.602362],[16.636974,56.559719],[16.541189,56.306138],[16.490896,56.239569],[16.428477,56.217963],[16.398936,56.298245],[16.419444,56.585639],[16.62086,56.87226],[16.716807,56.891832],[16.888357,57.118232],[16.988536,57.317572],[17.054861,57.358222],[17.124522,57.319281]]],[[[19.040212,57.867906],[19.078787,57.834784],[18.986583,57.80744],[18.93214,57.74079],[18.80714,57.734442],[18.764659,57.626899],[18.810313,57.607327],[18.773204,57.472235],[18.913829,57.43594],[18.92628,57.392646],[18.801524,57.376207],[18.680431,57.310492],[18.673676,57.277655],[18.714122,57.242906],[18.406423,57.143012],[18.385753,57.127427],[18.4546,57.127427],[18.359874,57.096137],[18.337901,57.031236],[18.400076,57.003974],[18.344737,57.003974],[18.311534,56.948065],[18.138682,56.922024],[18.281993,57.081041],[18.200857,57.065375],[18.223806,57.128607],[18.185313,57.144843],[18.159841,57.229804],[18.099376,57.258979],[18.17921,57.379543],[18.113455,57.487982],[18.128184,57.548163],[18.325043,57.672593],[18.463064,57.803168],[18.608653,57.83633],[18.677745,57.913886],[18.757172,57.906155],[18.803477,57.825751],[18.851899,57.891262],[18.837413,57.912177],[18.913341,57.921332],[18.917247,57.888129],[19.009532,57.908271],[19.040212,57.867906]]],[[[19.27296,57.976549],[19.338552,57.963568],[19.161957,57.925971],[19.131114,57.8522],[19.036794,57.905219],[19.098318,57.976549],[19.27296,57.976549]]],[[[11.73878,58.058539],[11.735606,58.003404],[11.695079,58.015082],[11.659434,57.963284],[11.581065,57.935858],[11.533702,57.95067],[11.512462,57.992621],[11.554861,58.002387],[11.497895,58.028062],[11.73878,58.058539]]],[[[11.806977,58.230414],[11.804698,58.125718],[11.708181,58.098212],[11.585297,58.123114],[11.519867,58.089545],[11.463878,58.106879],[11.463878,58.07217],[11.408865,58.145697],[11.527843,58.212795],[11.64796,58.234036],[11.686371,58.291205],[11.806977,58.230414]]],[[[19.331716,58.367621],[19.250336,58.342841],[19.187755,58.394965],[19.331716,58.367621]]],[[[18.430431,59.258287],[18.344737,59.299262],[18.612315,59.258287],[18.516124,59.271308],[18.517263,59.24901],[18.578136,59.244615],[18.551606,59.225898],[18.430431,59.258287]]],[[[18.550141,60.327094],[18.570649,60.317206],[18.402192,60.369818],[18.375173,60.500393],[18.422374,60.490912],[18.494314,60.356594],[18.529796,60.368109],[18.550141,60.327094]]],[[[20.839203,63.767564],[20.864919,63.79682],[20.920421,63.773749],[20.839203,63.767564]]],[[[18.485362,59.097561],[18.405284,59.008612],[18.341319,59.033433],[18.433767,59.104153],[18.485362,59.097561]]],[[[18.715831,59.208808],[18.743826,59.206692],[18.668468,59.174262],[18.715831,59.208808]]],[[[18.797048,59.294867],[18.77768,59.257025],[18.731619,59.25849],[18.738455,59.285224],[18.797048,59.294867]]],[[[18.676036,59.340277],[18.638031,59.367987],[18.715017,59.366889],[18.747081,59.331855],[18.682791,59.300279],[18.676036,59.340277]]],[[[18.1067,59.384955],[18.237478,59.372789],[18.165538,59.340644],[18.1067,59.384955]]],[[[18.854259,59.402533],[18.869477,59.393459],[18.855724,59.385932],[18.854259,59.402533]]],[[[18.942393,59.393622],[18.937673,59.373236],[18.908458,59.388373],[18.942393,59.393622]]],[[[18.925792,59.434027],[18.872325,59.408637],[18.873546,59.439765],[18.925792,59.434027]]],[[[18.656586,59.506741],[18.608409,59.493638],[18.556407,59.422309],[18.517751,59.474066],[18.609711,59.54564],[18.739106,59.540432],[18.656586,59.506741]]],[[[18.977712,59.633857],[18.863455,59.58397],[18.937755,59.649075],[18.977712,59.633857]]],[[[18.854259,59.601142],[18.756847,59.572659],[18.924327,59.656928],[18.854259,59.601142]]],[[[18.996349,59.80976],[18.891287,59.78559],[18.959158,59.863715],[18.996349,59.80976]]],[[[18.723969,60.196601],[18.718516,60.216457],[18.753103,60.209174],[18.806163,60.168036],[18.736339,60.152899],[18.723969,60.196601]]],[[[15.705333,56.1164],[15.726899,56.118354],[15.703624,56.080715],[15.651134,56.089993],[15.654959,56.119452],[15.705333,56.1164]]],[[[16.86671,58.304592],[16.855805,58.271877],[16.836436,58.290513],[16.86671,58.304592]]],[[[16.891612,58.333726],[16.918956,58.336371],[16.827403,58.327541],[16.807791,58.394232],[16.85377,58.402004],[16.827485,58.363593],[16.891612,58.333726]]],[[[18.321462,58.969143],[18.350841,58.979682],[18.293468,58.946275],[18.314789,58.930976],[18.193614,58.911322],[18.321462,58.969143]]],[[[18.198253,59.00967],[18.148123,59.005276],[18.131114,58.964748],[18.050629,58.960924],[18.092784,59.017768],[18.216563,59.024482],[18.198253,59.00967]]],[[[17.707286,58.993354],[17.691173,58.901801],[17.639171,58.930976],[17.643891,59.061347],[17.694102,59.038967],[17.707286,58.993354]]],[[[18.124685,62.687934],[18.006114,62.705552],[18.041026,62.754543],[18.149425,62.749823],[18.124685,62.687934]]],[[[20.87086,63.669379],[20.825938,63.643622],[20.864594,63.676744],[20.87086,63.669379]]],[[[20.898123,63.754096],[20.938243,63.772854],[20.936697,63.727525],[20.864757,63.683092],[20.898123,63.754096]]],[[[22.408051,65.455268],[22.294932,65.428168],[22.29477,65.452867],[22.408051,65.455268]]],[[[22.153575,65.430365],[22.156586,65.474351],[22.210216,65.465806],[22.233165,65.423896],[22.153575,65.430365]]],[[[22.5949,65.528266],[22.617198,65.517483],[22.55893,65.538275],[22.5949,65.528266]]],[[[22.218761,65.506781],[22.193207,65.525784],[22.211436,65.545111],[22.358735,65.503974],[22.218761,65.506781]]],[[[22.577973,65.58275],[22.625824,65.593411],[22.597423,65.553941],[22.539317,65.563666],[22.577973,65.58275]]],[[[22.57016,65.594794],[22.554454,65.605373],[22.595063,65.612982],[22.57016,65.594794]]],[[[22.962657,65.716295],[22.971934,65.66706],[22.882172,65.720445],[22.930024,65.741889],[22.962657,65.716295]]],[[[23.797211,65.75373],[23.738292,65.696723],[23.681488,65.721666],[23.681651,65.743069],[23.797211,65.75373]]],[[[22.741059,65.713609],[22.746837,65.770413],[22.811371,65.714097],[22.741059,65.713609]]]]}}