{"type":"Feature","properties":{"iso3":"SWZ","name":"eSwatini","continent":"Africa"},"geometry":{"type":"Polygon","coordinates":[[[31.949243,-25.958104],[32.00402,-25.994381],[32.070579,-26.009781],[32.057454,-26.0412],[32.081432,-26.14879],[32.039884,-26.283666],[32.052338,-26.386812],[32.059831,-26.414821],[32.107063,-26.500293],[32.117398,-26.582252],[32.113884,-26.840014],[32.073163,-26.811386],[31.990068,-26.808285],[31.992238,-26.838257],[31.942112,-27.10067],[31.947383,-27.255493],[31.96826,-27.316264],[31.52653,-27.31089],[31.459454,-27.298694],[31.141954,-27.196478],[31.078754,-27.11824],[30.976073,-27.035041],[30.953645,-27.000315],[30.949408,-26.975407],[30.960983,-26.911224],[30.955092,-26.891381],[30.902589,-26.831333],[30.880213,-26.772215],[30.836443,-26.805081],[30.80244,-26.808905],[30.785697,-26.716921],[30.782906,-26.472388],[30.804559,-26.397457],[30.969871,-26.209148],[31.037774,-26.100111],[31.119836,-25.910045],[31.309282,-25.757393],[31.372017,-25.736412],[31.401473,-25.735999],[31.426898,-25.743647],[31.834573,-25.982082],[31.863357,-25.989937],[31.949243,-25.958104]]]}}