{"type":"Feature","properties":{"iso3":"SYC","name":"Seychelles","continent":"Africa"},"geometry":{"type":"MultiPolygon","coordinates":[[[[46.509776,-9.719985],[46.500662,-9.746515],[46.490489,-9.755548],[46.479666,-9.751072],[46.48699,-9.730157],[46.509776,-9.719985]]],[[[47.507335,-9.713067],[47.51295,-9.694431],[47.515798,-9.700128],[47.507335,-9.713067]]],[[[53.333995,-5.42018],[53.341645,-5.429946],[53.344737,-5.441013],[53.333995,-5.42018]]],[[[55.659679,-3.791111],[55.665863,-3.811782],[55.651866,-3.801202],[55.659679,-3.791111]]],[[[46.495453,-9.357599],[46.525157,-9.38128],[46.4546,-9.426446],[46.380707,-9.424574],[46.299815,-9.449314],[46.234386,-9.452325],[46.207367,-9.385512],[46.230479,-9.41367],[46.274099,-9.426365],[46.320486,-9.423761],[46.434581,-9.378106],[46.440766,-9.385512],[46.447765,-9.378106],[46.468761,-9.385512],[46.45281,-9.3624],[46.447765,-9.33766],[46.495453,-9.357599]]],[[[46.283865,-9.351332],[46.278005,-9.338474],[46.315196,-9.32643],[46.427094,-9.33766],[46.410655,-9.353285],[46.379405,-9.357029],[46.331065,-9.343927],[46.283865,-9.351332]]],[[[56.247081,-7.192641],[56.2588,-7.140232],[56.269379,-7.119806],[56.287446,-7.11004],[56.272472,-7.153578],[56.247081,-7.192641]]],[[[55.401702,-4.660534],[55.389504,-4.647288],[55.365617,-4.64273],[55.38841,-4.619572],[55.417618,-4.611384],[55.431651,-4.591567],[55.433698,-4.562545],[55.454897,-4.562234],[55.467221,-4.583427],[55.456682,-4.625802],[55.528555,-4.680193],[55.521533,-4.707811],[55.528087,-4.736832],[55.516852,-4.750407],[55.537916,-4.803769],[55.504214,-4.795811],[55.486895,-4.762109],[55.46349,-4.759768],[55.468171,-4.741513],[55.491576,-4.736364],[55.478001,-4.706406],[55.468171,-4.70547],[55.448979,-4.677853],[55.401702,-4.660534]]],[[[55.260265,-4.500095],[55.241954,-4.504002],[55.228038,-4.487481],[55.221446,-4.463474],[55.225434,-4.44492],[55.259939,-4.462986],[55.269216,-4.480157],[55.260265,-4.500095]]],[[[55.717635,-4.330116],[55.692008,-4.326297],[55.677175,-4.296413],[55.704437,-4.290228],[55.754479,-4.321092],[55.777162,-4.318489],[55.787038,-4.330592],[55.770925,-4.331325],[55.759125,-4.358425],[55.732757,-4.35224],[55.717635,-4.330116]]],[[[52.741873,-6.994317],[52.747244,-7.00506],[52.743419,-7.004083],[52.741873,-6.994317]]],[[[55.382823,-5.853936],[55.381847,-5.865492],[55.380056,-5.869073],[55.382823,-5.853936]]],[[[55.3627,-4.659323],[55.373822,-4.666434],[55.364888,-4.665887],[55.3627,-4.659323]]],[[[55.398986,-4.668622],[55.406826,-4.675004],[55.405368,-4.679927],[55.398986,-4.668622]]],[[[55.501589,-4.628853],[55.502611,-4.63994],[55.49167,-4.629875],[55.501589,-4.628853]]],[[[55.504215,-4.621414],[55.512822,-4.627249],[55.50509,-4.626228],[55.504215,-4.621414]]],[[[55.497943,-4.600846],[55.51253,-4.599387],[55.51253,-4.604638],[55.496776,-4.614704],[55.497943,-4.600846]]],[[[55.712087,-4.280369],[55.741464,-4.283163],[55.72073,-4.288271],[55.712087,-4.280369]]],[[[55.663004,-4.328157],[55.665607,-4.334106],[55.660401,-4.33485],[55.663004,-4.328157]]],[[[55.647014,-4.346749],[55.651105,-4.353442],[55.643668,-4.349352],[55.647014,-4.346749]]],[[[55.666722,-4.209909],[55.675275,-4.21214],[55.659285,-4.212883],[55.666722,-4.209909]]],[[[55.831823,-4.337453],[55.844094,-4.342659],[55.857109,-4.36497],[55.841491,-4.382819],[55.825502,-4.372035],[55.831823,-4.337453]]],[[[55.868636,-4.317373],[55.884626,-4.336709],[55.873471,-4.332619],[55.868636,-4.317373]]],[[[55.866405,-4.283163],[55.873842,-4.296178],[55.870124,-4.296549],[55.866405,-4.283163]]],[[[55.919952,-4.334106],[55.924786,-4.337081],[55.922555,-4.349724],[55.919952,-4.334106]]],[[[55.940074,-4.578657],[55.949389,-4.586461],[55.944857,-4.592755],[55.933025,-4.58621],[55.940074,-4.578657]]]]}}