{"type":"Feature","properties":{"iso3":"SYR","name":"Syria","continent":"Asia"},"geometry":{"type":"Polygon","coordinates":[[[35.75759,32.744347],[35.834226,32.827946],[35.849729,32.895823],[35.888073,32.944941],[35.85903,32.99021],[35.848902,33.098678],[35.811488,33.111908],[35.811488,33.126765],[35.833399,33.161129],[35.830195,33.189991],[35.807664,33.201721],[35.803633,33.248463],[35.768597,33.272699],[35.802083,33.31249],[35.763842,33.334401],[35.809938,33.360032],[35.8211,33.406722],[35.919492,33.462351],[35.935408,33.494262],[35.921869,33.51457],[35.933238,33.527825],[35.99928,33.541261],[36.035247,33.567797],[36.038451,33.586349],[36.029666,33.59764],[35.921559,33.640299],[35.925383,33.661667],[35.94719,33.673088],[35.948431,33.70921],[35.994009,33.760705],[36.027082,33.784296],[36.05044,33.816438],[36.13829,33.850622],[36.165678,33.829797],[36.186556,33.83021],[36.231824,33.852534],[36.300554,33.828686],[36.357501,33.823776],[36.369594,33.837006],[36.36763,33.857547],[36.311096,33.87199],[36.268928,33.906769],[36.288565,33.946508],[36.391091,34.044719],[36.412175,34.053633],[36.445144,34.04614],[36.47522,34.053504],[36.488449,34.088644],[36.552735,34.140992],[36.604101,34.199102],[36.574026,34.229746],[36.56276,34.262949],[36.581984,34.299897],[36.576816,34.307674],[36.555835,34.311085],[36.518628,34.353641],[36.516768,34.369867],[36.52979,34.403095],[36.52514,34.422939],[36.449795,34.464538],[36.433466,34.494175],[36.392331,34.500143],[36.332697,34.494175],[36.319881,34.514122],[36.383546,34.553809],[36.388921,34.596236],[36.4037,34.603832],[36.429125,34.593187],[36.436256,34.597838],[36.440184,34.62936],[36.391194,34.622487],[36.367526,34.629205],[36.308925,34.687548],[36.288151,34.675559],[36.28071,34.639127],[36.26159,34.627242],[36.201232,34.624451],[36.178287,34.635303],[36.160201,34.628068],[36.037934,34.62843],[35.9699,34.649849],[35.931163,34.740953],[35.928966,34.790717],[35.908458,34.821763],[35.866873,34.924221],[35.881358,34.944973],[35.873546,34.978827],[35.900564,35.021918],[35.887869,35.061347],[35.887869,35.109198],[35.941254,35.180569],[35.962413,35.197943],[35.915294,35.287909],[35.928966,35.321479],[35.918956,35.41767],[35.860606,35.479071],[35.830089,35.493476],[35.81837,35.508938],[35.781261,35.499579],[35.770518,35.504218],[35.778087,35.541164],[35.737071,35.561672],[35.743337,35.582099],[35.723399,35.575914],[35.723399,35.582099],[35.763357,35.598293],[35.778494,35.612738],[35.784353,35.630561],[35.771169,35.667792],[35.800059,35.681464],[35.840343,35.747463],[35.835948,35.789984],[35.798595,35.849677],[35.87086,35.851793],[35.885265,35.885972],[35.911305,35.91775],[35.980263,35.926852],[35.992769,35.915277],[35.992356,35.877346],[36.003931,35.869181],[36.05075,35.865409],[36.138497,35.819779],[36.155308,35.822232],[36.168779,35.852076],[36.174877,35.922666],[36.196891,35.951708],[36.229034,35.961165],[36.269031,35.958736],[36.277403,35.994031],[36.29735,36.000749],[36.336727,35.988244],[36.358018,35.99398],[36.358638,36.166992],[36.375795,36.20451],[36.361429,36.218152],[36.373004,36.227609],[36.398119,36.20823],[36.450726,36.19991],[36.468916,36.22239],[36.480181,36.225542],[36.593456,36.2181],[36.664253,36.229004],[36.66911,36.259855],[36.648761,36.305719],[36.637071,36.316802],[36.587771,36.324812],[36.577643,36.332874],[36.594283,36.35711],[36.593352,36.373492],[36.585704,36.387031],[36.552735,36.408166],[36.531237,36.479015],[36.565344,36.5325],[36.569271,36.620143],[36.594696,36.685824],[36.603274,36.746957],[36.643272,36.803646],[36.639861,36.828089],[36.843673,36.775844],[36.925942,36.768971],[36.964699,36.75383],[37.018443,36.706649],[37.014515,36.642261],[37.053066,36.619936],[37.104432,36.650994],[37.156109,36.643914],[37.241892,36.65859],[37.446117,36.634199],[37.593395,36.710525],[37.654063,36.732126],[37.819738,36.760548],[38.007943,36.825764],[38.122975,36.884623],[38.190051,36.905526],[38.224261,36.908394],[38.28989,36.901702],[38.479956,36.855736],[38.529358,36.833722],[38.66413,36.719517],[38.725005,36.693937],[38.795389,36.686651],[39.03217,36.701172],[39.185856,36.659521],[39.239599,36.661278],[39.765252,36.742151],[39.979812,36.806953],[40.079238,36.854857],[40.190136,36.884416],[40.413894,37.004022],[40.525722,37.025881],[40.708967,37.100476],[40.896449,37.122696],[41.135091,37.084249],[41.20134,37.064974],[41.479773,37.075568],[42.009249,37.175613],[42.052968,37.196645],[42.128312,37.253283],[42.178541,37.306303],[42.211201,37.324906],[42.22257,37.313951],[42.222156,37.292402],[42.267218,37.274522],[42.292023,37.285064],[42.305769,37.264548],[42.346696,37.239769],[42.353208,37.227031],[42.335328,37.171169],[42.354551,37.15241],[42.357238,37.109984],[42.376875,37.076756],[42.377186,37.062235],[42.281894,36.994125],[41.843781,36.617869],[41.789935,36.589292],[41.414867,36.527384],[41.385411,36.516377],[41.276994,36.354785],[41.236687,36.060332],[41.354509,35.825566],[41.363501,35.655241],[41.358023,35.623925],[41.34221,35.593694],[41.261285,35.49432],[41.25188,35.46409],[41.243095,35.366525],[41.20134,35.243018],[41.191521,35.182143],[41.204234,34.793123],[41.195656,34.768473],[40.98802,34.42852],[40.965282,34.401855],[40.936033,34.386068],[40.690467,34.331497],[38.774511,33.371685],[38.056726,32.994344],[37.133371,32.494581],[36.819385,32.316788],[36.792513,32.313533],[36.706937,32.328338],[36.689574,32.319656],[36.653504,32.342859],[36.480181,32.360791],[36.463955,32.369395],[36.387887,32.379317],[36.177357,32.527318],[36.15586,32.5152],[36.06987,32.516595],[36.005998,32.607907],[36.003621,32.655088],[35.955355,32.657439],[35.937475,32.674002],[35.9444,32.677619],[35.944193,32.690771],[35.922489,32.693768],[35.895721,32.713276],[35.788234,32.734411],[35.774901,32.747279],[35.75759,32.744347]]]}}