{"type":"Feature","properties":{"iso3":"TCA","name":"Turks and Caicos Islands","continent":"Americas"},"geometry":{"type":"MultiPolygon","coordinates":[[[[-72.460764,21.70539],[-72.43342,21.709215],[-72.433258,21.680121],[-72.452016,21.644965],[-72.481313,21.630316],[-72.463368,21.664944],[-72.460764,21.70539]]],[[[-71.507965,21.70539],[-71.573232,21.735297],[-71.590566,21.753811],[-71.576283,21.766832],[-71.54308,21.746527],[-71.480946,21.725491],[-71.461781,21.710842],[-71.451894,21.690172],[-71.459584,21.664455],[-71.471262,21.662177],[-71.507965,21.70539]]],[[[-71.802846,21.787909],[-71.83552,21.79149],[-71.848012,21.819403],[-71.850657,21.856269],[-71.809397,21.839993],[-71.720326,21.835761],[-71.678782,21.841864],[-71.655181,21.823228],[-71.63093,21.774319],[-71.648061,21.779608],[-71.679311,21.822089],[-71.645172,21.746405],[-71.668528,21.750434],[-71.686147,21.774319],[-71.699818,21.759996],[-71.715443,21.787299],[-71.741119,21.794908],[-71.802846,21.787909]]],[[[-72.337229,21.800971],[-72.330434,21.862454],[-72.23176,21.793362],[-72.179596,21.800971],[-72.146311,21.827135],[-72.124379,21.815253],[-72.159088,21.774319],[-72.165273,21.794827],[-72.193267,21.781155],[-72.179596,21.774319],[-72.194447,21.766913],[-72.234242,21.766832],[-72.234242,21.781155],[-72.273834,21.75141],[-72.29186,21.748928],[-72.30309,21.774319],[-72.281239,21.761542],[-72.274241,21.763617],[-72.275136,21.774319],[-72.316151,21.794827],[-72.315419,21.770819],[-72.337229,21.759996],[-72.339508,21.766669],[-72.309926,21.822089],[-72.337229,21.800971]]],[[[-72.021962,21.904608],[-72.025014,21.932563],[-72.036244,21.938788],[-72.017445,21.956936],[-71.949941,21.959215],[-71.911041,21.948432],[-71.903391,21.866523],[-71.88858,21.846177],[-71.857411,21.843166],[-71.877309,21.828315],[-71.894643,21.83218],[-71.954254,21.866929],[-71.959218,21.889797],[-71.940012,21.925116],[-71.947581,21.94245],[-71.991933,21.899888],[-72.021962,21.904608]]],[[[-71.138092,21.513617],[-71.128896,21.472235],[-71.133616,21.446479],[-71.144887,21.431627],[-71.15099,21.472846],[-71.138092,21.513617]]],[[[-71.687815,21.299791],[-71.674062,21.306545],[-71.695872,21.290107],[-71.687815,21.299791]]],[[[-71.634348,21.318793],[-71.628814,21.324368],[-71.634674,21.294501],[-71.640859,21.302965],[-71.634348,21.318793]]],[[[-71.209828,21.341376],[-71.192494,21.335028],[-71.213694,21.310614],[-71.219228,21.314358],[-71.209828,21.341376]]],[[[-71.49828,21.569403],[-71.496327,21.507392],[-71.504262,21.494045],[-71.520985,21.489325],[-71.537587,21.499457],[-71.539703,21.516547],[-71.508941,21.527818],[-71.508778,21.551663],[-71.49828,21.569403]]],[[[-72.124908,21.854641],[-72.116282,21.853746],[-72.133046,21.847642],[-72.124908,21.854641]]],[[[-72.094797,21.882514],[-72.089508,21.885443],[-72.087066,21.872748],[-72.09968,21.864569],[-72.094797,21.882514]]]]}}