{"type":"Feature","properties":{"iso3":"TCD","name":"Chad","continent":"Africa"},"geometry":{"type":"Polygon","coordinates":[[[14.064908,13.077988],[13.607314,13.7041],[13.449494,14.439042],[13.482257,14.483587],[13.657853,14.548725],[13.646278,14.639056],[13.764358,14.719077],[13.75516,14.847209],[13.833915,15.019601],[14.368973,15.749634],[15.465547,16.89468],[15.736021,19.903541],[15.968151,20.352816],[15.570243,20.751913],[15.544301,20.890302],[15.60931,20.95066],[15.301009,21.40133],[15.18453,21.491196],[15.16448,22.033695],[14.979909,22.995664],[15.985101,23.44472],[23.981306,19.496124],[23.984406,15.72116],[23.945546,15.692222],[23.592699,15.749014],[23.320571,15.681318],[23.094642,15.704262],[22.906746,15.541404],[22.906849,15.481408],[22.976406,15.373636],[22.958009,15.201631],[22.658906,14.857415],[22.676579,14.688975],[22.465429,14.629289],[22.363523,14.543532],[22.417164,14.484104],[22.45096,14.345792],[22.418094,14.30595],[22.429049,14.264608],[22.531885,14.220632],[22.546355,14.139707],[22.214695,13.956617],[22.074962,13.780323],[22.132116,13.638652],[22.195885,13.580464],[22.267612,13.334562],[22.139971,13.193511],[21.964065,13.098349],[21.811826,12.799969],[21.880142,12.676282],[21.935953,12.63954],[22.105865,12.650392],[22.204877,12.743358],[22.43246,12.62383],[22.372825,12.463116],[22.481449,12.176674],[22.458091,12.03043],[22.607333,12.077714],[22.613534,12.05725],[22.541704,11.632986],[22.592347,11.543663],[22.743035,11.466097],[22.771871,11.403181],[22.900442,11.408245],[22.953668,11.250942],[22.925143,11.097954],[22.861064,10.919154],[22.460468,11.000828],[22.24012,10.905899],[22.176351,10.816214],[22.048607,10.836988],[22.014604,10.754564],[21.722632,10.636716],[21.705476,10.53202],[21.742786,10.425773],[21.708886,10.293533],[21.65628,10.233666],[21.513239,10.200515],[21.374333,9.973113],[21.256924,9.975749],[21.131971,9.849426],[21.105202,9.77403],[21.017352,9.743592],[20.983143,9.603678],[20.841446,9.484409],[20.82615,9.418083],[20.654894,9.342971],[20.667916,9.302017],[20.550921,9.320259],[20.435166,9.138126],[20.256985,9.116421],[20.117149,9.145748],[19.902175,9.0518],[19.352234,9.002061],[19.253429,9.027951],[19.021919,8.985215],[18.86968,8.864111],[19.124135,8.675079],[18.813042,8.276421],[18.638583,8.177642],[18.589283,8.047882],[18.070452,8.019202],[17.858785,7.960445],[17.639884,7.985043],[17.478344,7.891819],[17.419122,7.898227],[17.250864,7.822831],[17.116298,7.68687],[17.059351,7.696534],[16.880654,7.632869],[16.853886,7.567498],[16.782365,7.541143],[16.709812,7.627753],[16.624546,7.66868],[16.613073,7.74821],[16.54486,7.813013],[16.548685,7.870012],[16.392208,7.783609],[16.370814,7.672504],[16.042979,7.583931],[15.94314,7.495306],[15.758345,7.455567],[15.668532,7.516287],[15.481049,7.523263],[15.548952,7.630801],[15.562905,7.792445],[15.440742,7.839419],[15.345347,8.13599],[15.183703,8.479148],[15.051928,8.643789],[14.951469,8.68283],[14.908268,8.764841],[14.809876,8.808611],[14.349542,9.168356],[14.321327,9.243158],[13.947603,9.637759],[14.196341,9.979147],[14.440493,9.995308],[14.772566,9.921747],[14.898139,9.960478],[15.033015,9.942857],[15.155488,9.986523],[15.439398,9.931695],[15.663777,9.98611],[15.301422,10.311749],[15.227215,10.470137],[15.131717,10.540701],[15.142259,10.647207],[15.065881,10.793115],[15.079007,10.898147],[15.035185,10.994627],[15.021233,11.182549],[15.06061,11.416126],[15.135644,11.530822],[15.066501,11.680632],[15.105362,11.772719],[15.042006,11.902375],[15.048311,11.962785],[15.081177,11.971673],[15.030431,12.100916],[14.976791,12.094147],[14.9031,12.145875],[14.906304,12.317957],[14.85101,12.455158],[14.830753,12.618249],[14.734118,12.680416],[14.713654,12.65251],[14.694017,12.723721],[14.55108,12.771573],[14.490619,12.886346],[14.496303,12.983808],[14.418169,13.081141],[14.064908,13.077988]]]}}