{"type":"Feature","properties":{"iso3":"TGO","name":"Togo","continent":"Africa"},"geometry":{"type":"Polygon","coordinates":[[[-0.166109,11.13498],[0.486616,11.003205],[0.483619,10.979693],[0.499742,10.975688],[0.487649,10.933236],[0.612603,10.976566],[0.675338,10.988529],[0.901474,10.992741],[0.875843,10.931169],[0.872949,10.911299],[0.885144,10.869389],[0.869538,10.839908],[0.862924,10.796086],[0.795641,10.726478],[0.781275,10.693044],[0.78851,10.563852],[0.773833,10.508145],[0.760708,10.382158],[0.768769,10.367094],[1.331009,9.996471],[1.343825,9.962442],[1.348165,9.694164],[1.35602,9.647474],[1.351266,9.595074],[1.323154,9.542313],[1.326358,9.521952],[1.351266,9.482549],[1.368422,9.490843],[1.379895,9.462473],[1.386716,9.361135],[1.401185,9.321267],[1.425267,9.284499],[1.567273,9.13673],[1.595799,9.076811],[1.607581,8.558755],[1.614092,8.535785],[1.644168,8.493488],[1.607581,8.421864],[1.60107,8.371635],[1.614919,8.356261],[1.625564,8.270478],[1.625668,6.996783],[1.531927,6.991926],[1.551357,6.920871],[1.588047,6.881235],[1.590114,6.867334],[1.58319,6.808268],[1.60107,6.746437],[1.566033,6.678146],[1.596316,6.636418],[1.597349,6.600813],[1.627425,6.573347],[1.653883,6.570659],[1.657811,6.552263],[1.680755,6.530068],[1.681685,6.489838],[1.718375,6.466997],[1.74411,6.425733],[1.782351,6.277267],[1.633109,6.245692],[1.612439,6.234763],[1.61964,6.213894],[1.429535,6.181952],[1.185395,6.100491],[1.187968,6.135647],[1.176186,6.151512],[1.093401,6.160917],[1.079655,6.167919],[1.048132,6.20939],[1.025188,6.222334],[1.009685,6.244452],[0.983536,6.324602],[0.886798,6.33039],[0.841323,6.379224],[0.766805,6.419351],[0.745721,6.4409],[0.711718,6.513376],[0.713475,6.53999],[0.727428,6.571435],[0.714612,6.583914],[0.668207,6.585827],[0.63224,6.62399],[0.626659,6.644893],[0.635341,6.695381],[0.625832,6.727756],[0.593793,6.751114],[0.576636,6.754731],[0.541083,6.817182],[0.519275,6.832246],[0.522789,6.862838],[0.54625,6.914773],[0.534468,6.935909],[0.494574,6.973116],[0.57891,6.996783],[0.59803,7.0312],[0.59772,7.158892],[0.621801,7.218837],[0.645676,7.323585],[0.623042,7.397896],[0.566404,7.380791],[0.548214,7.383271],[0.516692,7.411022],[0.500568,7.45505],[0.495608,7.504298],[0.499432,7.562382],[0.50925,7.585378],[0.562063,7.612301],[0.570538,7.683925],[0.583354,7.704285],[0.612293,7.699428],[0.593173,8.015739],[0.574983,8.124621],[0.593276,8.150666],[0.572709,8.191],[0.573846,8.203945],[0.645056,8.253425],[0.705207,8.282751],[0.712752,8.29797],[0.708825,8.322568],[0.689187,8.331301],[0.685053,8.382564],[0.646709,8.414165],[0.616324,8.488759],[0.550798,8.519326],[0.443518,8.606866],[0.403727,8.662082],[0.374426,8.724766],[0.365874,8.774272],[0.385278,8.78608],[0.397112,8.781532],[0.407809,8.759053],[0.424966,8.78732],[0.419592,8.791247],[0.47349,8.793547],[0.483515,8.834811],[0.505633,8.866333],[0.493127,8.915219],[0.43127,9.02759],[0.458478,9.08924],[0.463646,9.137092],[0.504703,9.187166],[0.49292,9.258609],[0.522479,9.285067],[0.526613,9.297651],[0.537569,9.377646],[0.531368,9.401107],[0.513281,9.416791],[0.483515,9.426842],[0.49168,9.451285],[0.483515,9.470017],[0.411659,9.492238],[0.333783,9.479474],[0.32182,9.442836],[0.26849,9.420641],[0.23136,9.418961],[0.226813,9.432345],[0.234977,9.443766],[0.228053,9.473971],[0.28531,9.488363],[0.301924,9.507457],[0.293139,9.518283],[0.253503,9.514252],[0.225908,9.531926],[0.230197,9.575747],[0.30456,9.571562],[0.32244,9.583137],[0.354608,9.571096],[0.370809,9.575644],[0.377734,9.589416],[0.369155,9.610138],[0.349363,9.61391],[0.308797,9.603678],[0.277636,9.606986],[0.261694,9.627941],[0.260971,9.657164],[0.275285,9.685586],[0.318719,9.648611],[0.336651,9.650833],[0.347089,9.663158],[0.347606,9.698841],[0.323887,9.742068],[0.32244,9.760671],[0.343886,9.838393],[0.341715,9.903789],[0.369569,9.938826],[0.349777,9.997169],[0.355719,10.018976],[0.349777,10.02882],[0.393908,10.03249],[0.398146,10.052127],[0.395149,10.072358],[0.363393,10.089669],[0.353601,10.115508],[0.357192,10.219997],[0.372049,10.265137],[0.396596,10.283224],[0.366597,10.304488],[0.308797,10.297099],[0.317582,10.31733],[0.278825,10.366629],[0.283114,10.396808],[0.273244,10.406601],[0.23322,10.398617],[0.197073,10.41027],[0.179865,10.394173],[0.126018,10.491609],[0.057262,10.541115],[0.029434,10.582533],[-0.088129,10.633486],[-0.098336,10.654157],[-0.09769,10.675008],[-0.082807,10.756218],[-0.061103,10.791358],[-0.032061,10.813165],[-0.036091,10.853137],[-0.014439,10.953596],[0.01419,10.983672],[0.016205,11.062582],[0.001116,11.085991],[-0.032267,11.098574],[-0.103348,11.087541],[-0.121745,11.092192],[-0.158668,11.118444],[-0.166109,11.13498]]]}}