{"type":"Feature","properties":{"iso3":"THA","name":"Thailand","continent":"Asia"},"geometry":{"type":"MultiPolygon","coordinates":[[[[102.913585,11.645901],[102.893321,11.76968],[102.783458,11.892279],[102.766938,12.011786],[102.631847,12.152045],[102.641368,12.175482],[102.573904,12.208726],[102.557302,12.183743],[102.573985,12.049262],[102.473643,12.148993],[102.295909,12.190009],[102.265391,12.27147],[102.351899,12.323676],[102.352061,12.367255],[102.324474,12.365302],[102.342459,12.351304],[102.310232,12.31623],[102.283539,12.341376],[102.304047,12.427395],[102.276703,12.392564],[102.27003,12.440375],[102.20102,12.433539],[102.273448,12.326158],[102.228282,12.323676],[102.087169,12.464748],[102.078136,12.509263],[102.098643,12.495592],[102.105642,12.522895],[102.047862,12.542304],[102.064464,12.570746],[102.022227,12.568549],[102.064464,12.522935],[102.056977,12.468329],[102.022472,12.519517],[101.960785,12.537258],[101.954356,12.601304],[101.947276,12.540717],[101.80836,12.687934],[101.704438,12.707913],[101.659841,12.660102],[101.465099,12.63231],[101.428884,12.596869],[101.087738,12.680609],[100.988617,12.649359],[100.974457,12.598049],[100.926117,12.619127],[100.917654,12.662584],[100.857921,12.652655],[100.87143,12.673774],[100.837413,12.707913],[100.919932,12.81094],[100.868175,12.929023],[100.933604,13.002753],[100.882823,13.087836],[100.944509,13.220038],[100.919281,13.310777],[100.985362,13.373033],[100.970876,13.437201],[100.995779,13.489325],[100.888927,13.468248],[100.679861,13.509223],[100.58961,13.561957],[100.59783,13.61225],[100.555919,13.510891],[100.264985,13.497545],[100.038829,13.402737],[99.962738,13.309882],[99.967133,13.259019],[100.073985,13.152777],[100.10434,13.057318],[99.96046,12.667914],[100.010997,12.383246],[99.9817,12.279934],[100.015636,12.180325],[99.855317,11.968411],[99.811046,11.753079],[99.751801,11.709866],[99.641856,11.523261],[99.573741,11.344062],[99.586192,11.213853],[99.496349,11.13288],[99.51531,10.881537],[99.451671,10.875312],[99.37672,10.685492],[99.313162,10.647366],[99.288259,10.562934],[99.24464,10.535142],[99.268321,10.508205],[99.240408,10.456977],[99.290538,10.399237],[99.285004,10.364488],[99.151622,10.357367],[99.158458,10.30272],[99.254649,10.234442],[99.201345,10.210639],[99.151622,10.103461],[99.178884,10.025295],[99.144786,9.788235],[99.181407,9.643256],[99.323578,9.391547],[99.235525,9.33633],[99.255056,9.232489],[99.443858,9.19599],[99.50172,9.220282],[99.535818,9.281684],[99.752778,9.31977],[99.853526,9.294664],[99.919444,9.086493],[99.967133,8.605658],[100.157563,8.385728],[100.18629,8.397203],[100.175059,8.466457],[100.131114,8.514553],[100.22047,8.448717],[100.271495,8.317084],[100.440196,7.476996],[100.5746,7.209153],[100.548139,7.19705],[100.425548,7.267564],[100.406016,7.527655],[100.358927,7.57861],[100.272634,7.531073],[100.275564,7.576972],[100.323497,7.6164],[100.320567,7.707953],[100.288748,7.788316],[100.210623,7.780911],[100.142914,7.700019],[100.17921,7.531195],[100.278819,7.362209],[100.370128,7.332709],[100.384939,7.266303],[100.426872,7.245309],[100.395518,7.21133],[100.424436,7.171206],[100.519988,7.135553],[100.580821,7.167629],[100.585701,7.207171],[100.765147,6.98314],[100.849946,6.962063],[100.997573,6.856675],[101.191417,6.861884],[101.244267,6.902029],[101.351329,6.875922],[101.262543,6.94477],[101.291731,6.954572],[101.557384,6.841783],[101.771658,6.500718],[102.072765,6.257758],[102.060002,6.094797],[101.934739,5.981729],[101.912931,5.859308],[101.812266,5.752544],[101.784154,5.7381],[101.726793,5.78647],[101.665918,5.765592],[101.634085,5.855587],[101.557914,5.911346],[101.248993,5.786986],[101.212302,5.681515],[101.122179,5.62989],[100.967201,5.781018],[101.015312,5.898349],[101.07877,5.938166],[101.094273,6.085754],[101.052519,6.134562],[101.088279,6.233522],[100.974281,6.272616],[100.928909,6.240628],[100.842816,6.243935],[100.805609,6.414803],[100.731505,6.487021],[100.612649,6.449168],[100.387391,6.522084],[100.329204,6.557766],[100.263316,6.700006],[100.173296,6.703416],[100.135572,6.457721],[100.093516,6.540107],[100.063324,6.506578],[99.867524,6.7626],[99.685802,6.877346],[99.712901,6.951646],[99.68214,6.992662],[99.695486,7.059882],[99.748057,7.126044],[99.677582,7.123277],[99.672374,7.170722],[99.621104,7.13703],[99.557872,7.197455],[99.545421,7.266303],[99.603526,7.376166],[99.549571,7.301825],[99.508149,7.384955],[99.470714,7.279975],[99.365896,7.336371],[99.292735,7.620673],[99.249766,7.627753],[99.255707,7.657375],[99.130544,7.767239],[99.091482,7.69184],[99.033214,7.722805],[99.014415,7.815009],[99.070323,7.907904],[99.028087,7.903754],[98.917979,8.051337],[98.857921,8.00845],[98.800304,8.052436],[98.770274,8.023668],[98.744151,8.214911],[98.727061,8.253852],[98.712738,8.225898],[98.703136,8.298529],[98.624034,8.281155],[98.6421,8.385932],[98.422211,8.306342],[98.453136,8.294013],[98.462901,8.216132],[98.424978,8.148424],[98.391287,8.136542],[98.286876,8.219916],[98.199474,8.534369],[98.209727,8.581488],[98.247325,8.514553],[98.253103,8.534654],[98.219493,8.575629],[98.22283,8.712388],[98.261567,8.850653],[98.391287,9.035305],[98.332693,9.026068],[98.370779,9.103583],[98.322276,9.209377],[98.370779,9.226467],[98.352306,9.235907],[98.457205,9.548529],[98.486827,9.528062],[98.528494,9.575873],[98.46339,9.604438],[98.511974,9.650214],[98.493663,9.71369],[98.543956,9.706488],[98.565766,9.742621],[98.5088,9.770819],[98.574962,9.824652],[98.549001,9.809272],[98.512706,9.836859],[98.622081,9.947821],[98.603526,9.993598],[98.72047,10.227932],[98.790383,10.500265],[98.756793,10.666068],[98.83007,10.763556],[98.986133,10.840321],[99.001533,10.957627],[99.063648,10.95742],[99.206172,11.100021],[99.428173,11.496896],[99.440576,11.597278],[99.5307,11.630919],[99.606871,11.725694],[99.630022,11.815766],[99.554057,11.895037],[99.574004,11.976324],[99.518401,12.025934],[99.53287,12.144531],[99.466311,12.126031],[99.448844,12.147218],[99.473752,12.187268],[99.387039,12.465907],[99.403265,12.575926],[99.21413,12.73465],[99.155322,12.904485],[99.16483,12.975514],[99.093207,13.038327],[99.114084,13.188085],[99.190152,13.229504],[99.188808,13.407917],[99.152531,13.714875],[99.108813,13.762701],[99.084835,13.878534],[98.917714,14.096376],[98.54771,14.377676],[98.418209,14.607559],[98.243336,14.805118],[98.198998,15.051382],[98.160447,15.106366],[98.17719,15.220597],[98.232898,15.226798],[98.283024,15.289972],[98.392268,15.258243],[98.396195,15.347617],[98.474537,15.383481],[98.533551,15.325965],[98.559906,15.355317],[98.540269,15.711962],[98.58068,15.95913],[98.555875,16.055507],[98.630186,16.060003],[98.679589,16.126149],[98.798444,16.104444],[98.883711,16.25875],[98.903348,16.363447],[98.839579,16.472432],[98.788626,16.374557],[98.698399,16.28495],[98.663259,16.286656],[98.631633,16.463131],[98.456657,16.723218],[98.520529,16.814117],[98.49004,16.843211],[98.524559,16.850445],[98.515981,16.878971],[98.417899,17.029039],[98.299664,17.064748],[98.221012,17.20076],[98.100606,17.302614],[98.08872,17.372791],[98.035494,17.405037],[97.982784,17.505444],[97.768947,17.67918],[97.683991,17.816536],[97.685541,17.880718],[97.75179,17.980764],[97.617948,18.241678],[97.643786,18.291314],[97.573816,18.333094],[97.528341,18.26532],[97.486483,18.29214],[97.357602,18.539903],[97.427469,18.489519],[97.509531,18.491276],[97.617948,18.553158],[97.737941,18.570496],[97.759748,18.622792],[97.723368,18.851977],[97.661873,18.913782],[97.727812,19.037082],[97.804087,19.097957],[97.815145,19.190561],[97.76967,19.257275],[97.806154,19.301097],[97.767706,19.390368],[97.848735,19.493979],[97.848632,19.567644],[98.013583,19.651747],[98.017924,19.789388],[98.045622,19.807629],[98.205922,19.721485],[98.237548,19.664692],[98.474537,19.70531],[98.536548,19.677095],[98.80785,19.806544],[98.883711,19.745463],[99.000913,19.821013],[99.016829,20.041],[99.073466,20.101229],[99.158422,20.123553],[99.321203,20.06627],[99.441403,20.101617],[99.520571,20.170966],[99.439956,20.382168],[99.671259,20.310131],[99.7696,20.328424],[99.855693,20.428057],[99.932484,20.442733],[100.099295,20.317805],[100.134642,20.239102],[100.240372,20.372814],[100.344345,20.389971],[100.45731,20.196391],[100.536685,20.153474],[100.550586,20.106526],[100.474259,19.865352],[100.383516,19.763859],[100.46196,19.537103],[100.549294,19.494548],[100.633268,19.542167],[100.762614,19.495478],[100.879816,19.613584],[101.002548,19.610613],[101.095824,19.567282],[101.225015,19.585214],[101.254884,19.547154],[101.251731,19.494444],[101.192872,19.452793],[101.172356,19.376389],[101.210907,19.320631],[101.229149,19.143587],[101.326404,19.020546],[101.223309,18.855491],[101.209202,18.746325],[101.23473,18.658449],[101.030298,18.427791],[101.152409,18.316377],[101.12838,18.245735],[101.159282,18.204058],[101.157525,18.04045],[101.008284,17.89524],[100.886017,17.57376],[101.14719,17.472475],[101.247029,17.592157],[101.401593,17.706672],[101.381904,17.720728],[101.449807,17.749254],[101.468307,17.720367],[101.556261,17.792145],[101.53404,17.80956],[101.577551,17.868109],[101.729067,17.912189],[101.790407,18.073575],[101.904301,18.037117],[102.071268,18.208502],[102.171934,18.200286],[102.306706,18.051457],[102.445509,17.977767],[102.599608,17.955184],[102.595577,17.850074],[102.68291,17.810077],[102.672988,17.865371],[102.852719,17.972031],[102.938605,18.008928],[103.037927,17.990686],[103.073067,18.035515],[103.07131,18.125561],[103.138593,18.166722],[103.168204,18.249766],[103.295379,18.287774],[103.233678,18.349269],[103.244065,18.380068],[103.38664,18.441459],[103.801395,18.338262],[103.873949,18.283226],[103.929294,18.32759],[104.000039,18.318444],[104.264312,17.884646],[104.352627,17.819327],[104.452001,17.665951],[104.702632,17.527303],[104.788932,17.428963],[104.818335,17.240241],[104.740356,17.002581],[104.778338,16.715828],[104.754515,16.528915],[105.007419,16.283555],[105.058114,16.121188],[105.423232,16.00504],[105.362488,15.95479],[105.412046,15.79976],[105.568522,15.749376],[105.640921,15.68199],[105.61038,15.457171],[105.477468,15.352811],[105.558032,15.325138],[105.563975,15.272531],[105.463102,15.189436],[105.443775,15.133806],[105.593068,14.990792],[105.534157,14.934025],[105.550642,14.902296],[105.489147,14.786334],[105.507544,14.564048],[105.420314,14.435218],[105.155007,14.33047],[105.101419,14.230528],[105.047314,14.214069],[104.975949,14.301118],[104.97383,14.380648],[104.78826,14.438215],[104.594628,14.41],[104.542848,14.360391],[104.247466,14.401086],[104.189175,14.382302],[104.185661,14.40398],[104.148454,14.369615],[104.001383,14.345069],[103.919837,14.364577],[103.885162,14.340418],[103.682229,14.3838],[103.637064,14.44328],[103.596136,14.404342],[103.533401,14.419069],[103.457023,14.374421],[103.138231,14.319747],[102.918606,14.185492],[102.869772,14.020618],[102.772827,13.936076],[102.702651,13.771202],[102.54235,13.669709],[102.597747,13.60545],[102.513205,13.567157],[102.332234,13.5646],[102.328203,13.27516],[102.38205,13.136615],[102.490157,12.996081],[102.466283,12.937919],[102.505557,12.777774],[102.479253,12.677108],[102.588549,12.609826],[102.763751,12.425261],[102.720066,12.36121],[102.692212,12.178483],[102.9138,11.765536],[102.913585,11.645901]]],[[[97.871837,9.379584],[97.843598,9.424954],[97.868419,9.420396],[97.871837,9.379584]]],[[[99.698741,9.542222],[99.703461,9.521308],[99.668142,9.519192],[99.698741,9.542222]]],[[[99.684255,9.620022],[99.678071,9.610419],[99.675304,9.624457],[99.684255,9.620022]]],[[[99.247813,6.574856],[99.217296,6.536933],[99.158458,6.554389],[99.247813,6.574856]]],[[[99.672374,6.516547],[99.646821,6.50967],[99.600271,6.583441],[99.656993,6.723822],[99.704438,6.558295],[99.672374,6.516547]]],[[[99.405447,7.266303],[99.445811,7.250922],[99.394298,7.205471],[99.377778,7.252346],[99.405447,7.266303]]],[[[99.034923,7.644273],[99.117442,7.479193],[99.099946,7.467231],[99.031261,7.561916],[99.034923,7.644273]]],[[[99.124278,7.657375],[99.117442,7.595893],[99.044607,7.663398],[99.124278,7.657375]]],[[[98.540538,8.104926],[98.602387,8.063463],[98.603526,7.903754],[98.570811,7.939358],[98.583018,8.006781],[98.540538,8.104926]]],[[[98.41863,7.903754],[98.439626,7.901923],[98.398123,7.815009],[98.362315,7.832424],[98.309093,7.767727],[98.257986,7.926418],[98.281423,8.191799],[98.320811,8.179104],[98.343516,8.109198],[98.439138,8.082506],[98.397472,7.955024],[98.41863,7.903754]]],[[[98.637543,8.171291],[98.62143,8.102525],[98.587657,8.101752],[98.570079,8.118883],[98.637543,8.171291]]],[[[98.295665,9.145168],[98.323009,9.076239],[98.274181,9.035956],[98.240489,9.048977],[98.248383,9.143378],[98.295665,9.145168]]],[[[100.07016,9.586412],[100.090668,9.56094],[100.060883,9.463813],[99.956309,9.421617],[99.92628,9.493964],[99.93629,9.577704],[100.043712,9.564154],[100.07016,9.586412]]],[[[98.411632,9.768297],[98.398123,9.706244],[98.384939,9.727932],[98.411632,9.768297]]],[[[100.035411,9.7956],[100.067231,9.775621],[100.090099,9.665269],[99.999197,9.710354],[99.970551,9.764594],[100.035411,9.7956]]],[[[102.564138,11.707953],[102.605968,11.684516],[102.598318,11.563381],[102.53004,11.604926],[102.549815,11.752346],[102.564138,11.707953]]],[[[102.399669,12.043158],[102.441173,11.967434],[102.379161,12.002834],[102.37794,11.979641],[102.29949,11.97248],[102.249522,12.153022],[102.342784,12.123603],[102.399669,12.043158]]],[[[97.869965,9.425238],[97.84962,9.442125],[97.895274,9.467353],[97.869965,9.425238]]],[[[98.288422,9.004462],[98.310883,8.978176],[98.270518,8.877183],[98.252208,8.997016],[98.288422,9.004462]]]]}}