{"type":"Feature","properties":{"iso3":"TJK","name":"Tajikistan","continent":"Asia"},"geometry":{"type":"MultiPolygon","coordinates":[[[[70.565904,41.018376],[70.61665,40.99352],[70.643419,40.952282],[70.645072,40.935177],[70.625229,40.938691],[70.562494,40.993778],[70.549781,41.015224],[70.565904,41.018376]]],[[[70.958955,40.238372],[70.979522,40.214084],[70.962883,40.189693],[70.929293,40.170624],[70.898545,40.162614],[70.845164,40.171813],[70.806716,40.156155],[70.792144,40.161374],[70.729822,40.120705],[70.66595,40.104168],[70.63944,40.084945],[70.635977,40.028514],[70.627399,39.993891],[70.613963,39.975752],[70.576601,39.952239],[70.500895,39.940561],[70.477227,39.900925],[70.455627,39.906816],[70.44803,39.919993],[70.450872,39.937408],[70.473197,39.97012],[70.520946,39.993736],[70.535622,40.015957],[70.525493,40.033682],[70.477227,40.052027],[70.324265,40.077503],[70.306282,40.08479],[70.263494,40.12427],[70.241531,40.132745],[70.14717,40.136983],[70.004595,40.208761],[69.969558,40.211603],[69.575474,40.1036],[69.543021,40.103083],[69.518009,40.125097],[69.506331,40.096933],[69.46964,40.050993],[69.463129,40.025413],[69.477288,39.968156],[69.500439,39.935703],[69.501576,39.922474],[69.405355,39.896119],[69.357296,39.959474],[69.32784,39.984744],[69.313991,39.986914],[69.240714,39.82894],[69.226296,39.751011],[69.233324,39.732666],[69.280091,39.694271],[69.287533,39.677786],[69.286189,39.539707],[69.300348,39.515625],[69.339726,39.528079],[69.352025,39.549628],[69.361637,39.552884],[69.391454,39.530508],[69.412176,39.52503],[69.477288,39.530405],[69.514392,39.537588],[69.582295,39.573555],[69.669421,39.577792],[69.710349,39.574071],[69.830445,39.536244],[69.907753,39.548492],[69.978757,39.534436],[70.019684,39.568594],[70.040355,39.573606],[70.08273,39.569782],[70.132442,39.550042],[70.148979,39.554279],[70.185204,39.610348],[70.200655,39.619495],[70.214814,39.591125],[70.20603,39.5241],[70.223289,39.519088],[70.241066,39.522395],[70.33026,39.573089],[70.384313,39.570867],[70.40147,39.584768],[70.477227,39.601201],[70.526113,39.575622],[70.59784,39.577792],[70.622128,39.563529],[70.655598,39.494664],[70.699746,39.472165],[70.705431,39.458523],[70.698092,39.41899],[70.713285,39.398423],[70.770129,39.382093],[70.840099,39.40142],[70.864181,39.400594],[70.903351,39.420851],[70.977145,39.394909],[71.009288,39.407622],[71.062928,39.495627],[71.095898,39.51237],[71.179975,39.523015],[71.249273,39.514385],[71.291958,39.548957],[71.368543,39.591486],[71.459545,39.612105],[71.509654,39.584998],[71.531375,39.553091],[71.492101,39.493663],[71.512875,39.458833],[71.554319,39.444157],[71.602792,39.442348],[71.704594,39.458988],[71.724438,39.459401],[71.740251,39.448343],[71.749243,39.425502],[71.748106,39.379561],[71.712966,39.341527],[71.710899,39.32096],[71.71834,39.301065],[71.751207,39.274245],[71.807017,39.272849],[71.959152,39.345868],[72.049793,39.368864],[72.06695,39.358477],[72.078112,39.336618],[72.094751,39.275072],[72.158623,39.262617],[72.203272,39.24081],[72.209163,39.217297],[72.228668,39.189502],[72.240272,39.189909],[72.31634,39.328815],[72.393234,39.350829],[72.476744,39.346127],[72.519015,39.375686],[72.575756,39.359304],[72.616373,39.390413],[72.633737,39.394496],[72.835275,39.356204],[72.893669,39.363903],[73.009321,39.348607],[73.071126,39.370725],[73.136032,39.353465],[73.167864,39.355377],[73.326408,39.390878],[73.343151,39.430669],[73.367645,39.443795],[73.512236,39.467411],[73.604323,39.459608],[73.632642,39.448343],[73.643804,39.351294],[73.602256,39.235772],[73.607837,39.207324],[73.631402,39.175103],[73.673776,39.142625],[73.70933,39.065472],[73.768654,39.029919],[73.81599,38.993771],[73.826119,38.976898],[73.823948,38.944937],[73.809582,38.932663],[73.717185,38.918582],[73.680804,38.872977],[73.683698,38.854942],[73.735892,38.800423],[73.736408,38.721669],[73.772272,38.674617],[73.797387,38.602839],[73.816403,38.586586],[73.887097,38.559043],[73.932882,38.529665],[74.028897,38.527236],[74.045537,38.530414],[74.058766,38.547028],[74.038095,38.579223],[74.037269,38.598472],[74.084397,38.614027],[74.095043,38.645756],[74.123361,38.669475],[74.221443,38.649709],[74.313427,38.669217],[74.334201,38.666995],[74.476622,38.612063],[74.64612,38.56111],[74.696453,38.52398],[74.760325,38.519975],[74.832879,38.463648],[74.844351,38.417243],[74.838253,38.379416],[74.784303,38.325672],[74.771074,38.29154],[74.771281,38.196274],[74.790711,38.081449],[74.809935,38.053208],[74.880421,38.02166],[74.892824,37.994013],[74.890756,37.897714],[74.913701,37.880841],[74.883212,37.843867],[74.886106,37.83056],[74.898405,37.817589],[74.949254,37.795317],[74.96145,37.785473],[74.965171,37.767463],[74.931891,37.721575],[74.923623,37.695323],[74.886106,37.653465],[74.882178,37.634422],[74.891893,37.599205],[74.945223,37.548562],[75.053434,37.493837],[75.103973,37.44061],[75.164125,37.400638],[75.091778,37.378443],[75.079582,37.361235],[75.077102,37.324209],[75.06842,37.312142],[74.951528,37.281291],[74.932924,37.272506],[74.912667,37.238994],[74.892307,37.231114],[74.862644,37.244601],[74.816859,37.306923],[74.78854,37.331159],[74.660383,37.393972],[74.631444,37.381079],[74.521167,37.375601],[74.454814,37.393636],[74.378126,37.393765],[74.343813,37.420999],[74.320869,37.413893],[74.315598,37.426916],[74.303816,37.400173],[74.223924,37.403351],[74.207697,37.389915],[74.206044,37.355654],[74.187647,37.338394],[74.052151,37.312246],[73.899292,37.265478],[73.836247,37.256745],[73.798213,37.22853],[73.746123,37.230545],[73.709227,37.217006],[73.680494,37.242457],[73.617656,37.233181],[73.601636,37.24088],[73.597295,37.261809],[73.630988,37.295993],[73.690416,37.305218],[73.739096,37.338342],[73.753462,37.428388],[73.6745,37.43105],[73.485261,37.480969],[73.440612,37.479936],[73.378394,37.452547],[73.345011,37.464484],[73.296332,37.464949],[73.260262,37.450041],[73.211479,37.40826],[73.170241,37.40826],[73.132104,37.384386],[73.087766,37.326069],[73.067509,37.315062],[72.995575,37.3093],[72.924262,37.274832],[72.902247,37.2538],[72.83052,37.239769],[72.79073,37.220262],[72.760964,37.187499],[72.657714,37.028826],[72.50868,37.011075],[72.474987,36.997484],[72.405947,37.007665],[72.259806,36.967305],[72.220325,36.94555],[72.186839,36.911392],[72.152836,36.895708],[72.126687,36.872738],[71.836576,36.699156],[71.748519,36.678641],[71.653021,36.687012],[71.61106,36.704841],[71.577367,36.733263],[71.552872,36.769591],[71.528481,36.856149],[71.463059,36.948082],[71.459958,37.010739],[71.431123,37.066989],[71.43319,37.127347],[71.453757,37.192615],[71.45014,37.21667],[71.487037,37.267055],[71.493858,37.307543],[71.48714,37.409087],[71.511221,37.485878],[71.497165,37.566545],[71.501506,37.610341],[71.522073,37.637626],[71.542537,37.719559],[71.529515,37.761133],[71.537783,37.779039],[71.57468,37.798004],[71.590286,37.815729],[71.590286,37.891435],[71.597727,37.89836],[71.567342,37.928074],[71.537059,37.944455],[71.501196,37.946212],[71.379188,37.912932],[71.341154,37.893295],[71.281829,37.924999],[71.258265,37.926472],[71.255785,37.949881],[71.272631,37.997992],[71.302397,38.04233],[71.359086,38.184105],[71.364512,38.206816],[71.358156,38.251258],[71.334384,38.280662],[71.217699,38.325827],[71.117395,38.398639],[71.076984,38.412178],[71.049802,38.408664],[70.998229,38.465664],[70.950739,38.473053],[70.943452,38.465948],[70.946759,38.443236],[70.936217,38.433004],[70.871002,38.45321],[70.843045,38.440161],[70.777261,38.446466],[70.761086,38.44352],[70.741811,38.419439],[70.683313,38.414581],[70.664865,38.405409],[70.68476,38.38665],[70.641352,38.354197],[70.600011,38.347066],[70.5966,38.309187],[70.583061,38.275081],[70.547197,38.262653],[70.470303,38.120517],[70.415371,38.094523],[70.326281,38.011273],[70.293776,37.996106],[70.283751,37.981869],[70.253934,37.973394],[70.250161,37.955617],[70.26153,37.939287],[70.214711,37.929262],[70.17213,37.946083],[70.160503,37.920658],[70.165205,37.889911],[70.196004,37.839914],[70.240343,37.827563],[70.247164,37.819166],[70.256517,37.791803],[70.275121,37.774181],[70.269592,37.762632],[70.283079,37.704831],[70.275121,37.675479],[70.253572,37.654576],[70.248301,37.623338],[70.218432,37.617447],[70.199415,37.579284],[70.157867,37.541431],[70.129135,37.532284],[70.007592,37.548846],[69.989505,37.56732],[69.955399,37.575485],[69.918812,37.617137],[69.895247,37.61817],[69.80223,37.581506],[69.754274,37.596673],[69.664977,37.576157],[69.528655,37.586027],[69.508656,37.578973],[69.491448,37.536986],[69.425405,37.49425],[69.411711,37.47252],[69.384478,37.453271],[69.37838,37.437406],[69.377036,37.380665],[69.391196,37.370692],[69.386441,37.34152],[69.417912,37.267675],[69.409851,37.245661],[69.445197,37.23641],[69.442148,37.223621],[69.407732,37.177473],[69.323913,37.120991],[69.245675,37.103886],[69.123615,37.169205],[69.096433,37.213027],[69.035765,37.251577],[69.021037,37.287958],[68.985225,37.320359],[68.965433,37.329144],[68.887867,37.338135],[68.890296,37.322943],[68.917633,37.302427],[68.915824,37.279069],[68.890296,37.281963],[68.856758,37.324906],[68.835829,37.329144],[68.813815,37.323408],[68.810197,37.312091],[68.822031,37.281963],[68.820378,37.250906],[68.759606,37.275245],[68.668862,37.278294],[68.657545,37.267675],[68.671239,37.247185],[68.648605,37.244369],[68.626901,37.206257],[68.551453,37.192615],[68.523858,37.164658],[68.403711,37.151635],[68.418025,37.128277],[68.411462,37.113369],[68.391877,37.105437],[68.307282,37.114221],[68.288317,37.103214],[68.280772,37.086652],[68.288317,37.024408],[68.277775,37.010068],[68.212559,37.021256],[68.186411,37.01831],[68.032725,36.925241],[68.011125,36.930874],[67.961825,36.98994],[67.918417,37.013814],[67.87811,37.064431],[67.832893,37.073087],[67.78535,37.096548],[67.773051,37.109984],[67.771966,37.12497],[67.780544,37.188868],[67.803954,37.233439],[67.820645,37.303306],[67.797339,37.424435],[67.801215,37.466448],[67.829224,37.527943],[67.871857,37.586802],[67.977328,37.679743],[68.050192,37.760409],[68.079648,37.806272],[68.122229,37.908333],[68.139954,37.922699],[68.217727,37.936083],[68.248733,37.948951],[68.280566,38.013236],[68.31953,38.06021],[68.344334,38.115452],[68.360664,38.174053],[68.35622,38.212604],[68.332035,38.24299],[68.25266,38.298749],[68.183724,38.335491],[68.146724,38.388743],[68.098044,38.432436],[68.086882,38.494034],[68.055153,38.536305],[68.053706,38.635937],[68.037635,38.691645],[68.04549,38.706708],[68.075927,38.726862],[68.063318,38.766317],[68.066729,38.787969],[68.135975,38.804506],[68.172562,38.845279],[68.173699,38.867319],[68.163725,38.887472],[68.134683,38.920985],[68.100938,38.979276],[68.085642,38.993771],[68.069106,38.996096],[68.019806,38.979689],[68.003373,38.982118],[67.963272,39.00191],[67.845243,38.973772],[67.690524,38.989611],[67.673254,39.002978],[67.667218,39.028368],[67.678587,39.105935],[67.66758,39.131773],[67.637711,39.13154],[67.619831,39.151255],[67.58035,39.163605],[67.499011,39.165983],[67.378192,39.199495],[67.35008,39.219829],[67.34269,39.259569],[67.346462,39.280808],[67.360622,39.291763],[67.386873,39.294192],[67.407079,39.361009],[67.414779,39.438111],[67.427284,39.47661],[67.436483,39.485705],[67.491156,39.490097],[67.487642,39.538001],[67.507435,39.552936],[67.587378,39.562651],[67.680447,39.614121],[67.717603,39.623371],[67.764525,39.622596],[68.106209,39.554124],[68.255864,39.550559],[68.337565,39.527924],[68.436267,39.528803],[68.51745,39.54844],[68.506702,39.56756],[68.520241,39.582546],[68.562926,39.603579],[68.600339,39.642853],[68.615842,39.828113],[68.626178,39.84961],[68.651086,39.844701],[68.685089,39.868007],[68.741623,39.819638],[68.757539,39.857517],[68.77144,39.860514],[68.787356,39.881701],[68.787615,39.895757],[68.755575,39.954048],[68.75201,39.972755],[68.758883,39.980558],[68.77976,39.969448],[68.815365,39.891881],[68.838258,39.864648],[68.880787,39.878342],[68.877428,39.900563],[68.789372,39.993994],[68.785031,40.03394],[68.761725,40.061483],[68.774696,40.07988],[68.813143,40.038901],[68.881769,40.070837],[68.977267,40.064894],[68.986982,40.091714],[68.977267,40.121015],[68.930655,40.146801],[68.687052,40.110318],[68.606954,40.142305],[68.581116,40.164216],[68.601993,40.17543],[68.698318,40.194964],[68.801877,40.19114],[68.856551,40.21274],[69.019229,40.232067],[69.197926,40.182975],[69.24769,40.181735],[69.285259,40.194964],[69.285259,40.218631],[69.212498,40.268758],[69.208364,40.298317],[69.234616,40.300849],[69.273115,40.289583],[69.305309,40.293821],[69.312699,40.34281],[69.306343,40.364979],[69.259731,40.437636],[69.238337,40.493964],[69.198029,40.545847],[69.198442,40.566517],[69.234254,40.585276],[69.30934,40.595818],[69.30717,40.699326],[69.314198,40.729298],[69.355074,40.780354],[69.417757,40.804229],[69.435844,40.802679],[69.477288,40.777047],[69.509224,40.77467],[69.66012,40.638709],[69.690919,40.630028],[69.717687,40.63628],[69.803315,40.70563],[70.009659,40.75803],[70.104227,40.813324],[70.207993,40.844588],[70.280392,40.877713],[70.335892,40.92696],[70.363539,41.032432],[70.40116,41.039977],[70.445705,41.025921],[70.70512,40.807433],[70.703157,40.788933],[70.64869,40.81751],[70.628743,40.815856],[70.619338,40.803195],[70.621766,40.785987],[70.637424,40.770587],[70.728892,40.754464],[70.767132,40.737618],[70.756293,40.695578],[70.732096,40.674986],[70.707239,40.668992],[70.617167,40.611941],[70.569315,40.570445],[70.525493,40.557112],[70.477796,40.505487],[70.399351,40.490191],[70.369637,40.475515],[70.353824,40.456136],[70.358785,40.427714],[70.384933,40.399706],[70.371394,40.364927],[70.442191,40.343327],[70.501929,40.35082],[70.524046,40.34374],[70.550608,40.310461],[70.581821,40.221732],[70.622128,40.199563],[70.707188,40.200183],[70.849711,40.233773],[70.958955,40.238372]]],[[[70.498725,39.881908],[70.619906,39.850695],[70.698919,39.858447],[70.70481,39.822067],[70.63298,39.79845],[70.581614,39.766566],[70.537379,39.817312],[70.490147,39.850179],[70.483739,39.882218],[70.498725,39.881908]]]]}}