{"type":"Feature","properties":{"iso3":"TKM","name":"Turkmenistan","continent":"Asia"},"geometry":{"type":"MultiPolygon","coordinates":[[[[61.269676,35.618499],[61.229161,35.698597],[61.247352,35.876209],[61.205804,35.940495],[61.143585,35.965506],[61.222754,36.117538],[61.146686,36.357265],[61.186167,36.552809],[61.165806,36.636318],[60.34229,36.637145],[60.019209,37.025803],[59.653237,37.149672],[59.591535,37.132334],[59.555982,37.197782],[59.461724,37.207601],[59.444671,37.264187],[59.382039,37.305683],[59.356304,37.480633],[59.312276,37.530346],[59.211714,37.516316],[59.045625,37.619617],[58.801093,37.694651],[58.76926,37.656798],[58.68172,37.642716],[58.529791,37.700387],[58.479665,37.644112],[58.371765,37.630366],[58.206814,37.678735],[58.156687,37.788186],[57.785031,37.872573],[57.691186,37.92027],[57.496263,37.922312],[57.352395,37.967529],[57.327074,37.994116],[57.344334,38.081062],[57.185894,38.276476],[57.038409,38.187283],[56.738996,38.269603],[56.60133,38.236866],[56.436482,38.255082],[56.303364,38.179428],[56.325481,38.10522],[56.299747,38.080235],[56.214067,38.06884],[55.978422,38.065895],[55.738437,38.118605],[55.447395,38.083671],[55.130309,37.95231],[54.85663,37.761133],[54.787281,37.651863],[54.808158,37.579284],[54.783663,37.517453],[54.653956,37.438905],[54.533343,37.440817],[54.186594,37.323744],[53.913748,37.34276],[53.82488,37.744859],[53.80714,38.031968],[53.866466,38.265082],[53.836111,38.606147],[53.926931,38.773668],[53.971365,38.934272],[53.89975,38.972846],[53.870942,39.028388],[53.772146,39.033108],[53.728038,39.101386],[53.701508,39.078518],[53.72462,39.241685],[53.660004,39.200385],[53.683767,39.083441],[53.598318,39.241685],[53.576671,39.203437],[53.564952,39.34516],[53.389415,39.310614],[53.403168,39.337877],[53.170177,39.352484],[53.149913,39.344143],[53.185883,39.326361],[53.184093,39.213813],[53.161469,39.179592],[53.094737,39.419867],[53.27589,39.664862],[53.313731,39.65884],[53.248546,39.607896],[53.21697,39.525051],[53.426768,39.535956],[53.492198,39.48078],[53.577159,39.467841],[53.573741,39.527289],[53.615408,39.49494],[53.736176,39.51789],[53.629161,39.570705],[53.646495,39.607896],[53.571625,39.6164],[53.533458,39.680487],[53.539724,39.646308],[53.444102,39.701077],[53.449229,39.648586],[53.416759,39.64997],[53.429861,39.762519],[53.382009,39.762519],[53.574474,39.967922],[53.419607,40.006496],[53.282725,39.940009],[53.172374,39.997463],[53.053559,39.967922],[53.072439,39.989814],[52.974864,39.974311],[52.896007,40.008857],[52.930186,39.895941],[53.046886,39.748236],[53.008067,39.766343],[52.905284,39.874579],[52.892833,39.934231],[52.738455,40.053616],[52.768321,40.153795],[52.698985,40.273871],[52.736583,40.484565],[52.863129,40.658108],[52.868175,40.694159],[52.833181,40.704901],[52.931326,40.975653],[52.916515,41.08515],[52.965505,41.049384],[53.031749,40.899807],[53.121918,40.87226],[53.070811,40.827867],[53.107432,40.773912],[53.2046,40.776068],[53.249766,40.812567],[53.256033,40.768948],[53.330821,40.776068],[53.382009,40.831285],[53.398692,40.762763],[53.483084,40.737047],[53.541677,40.761623],[53.587413,40.891588],[53.614757,40.891547],[53.652843,40.867865],[53.721039,40.625678],[53.862641,40.626166],[53.937755,40.671617],[54.010753,40.657864],[54.080333,40.676093],[54.095225,40.697821],[54.063243,40.708482],[54.171072,40.729682],[54.232188,40.728339],[54.220714,40.69538],[54.252696,40.676581],[54.403575,40.673651],[54.362641,40.687934],[54.430431,40.721422],[54.310557,40.730658],[54.273285,40.87226],[54.248302,40.874986],[54.331716,40.926907],[54.465831,40.865953],[54.437836,40.817043],[54.62436,40.836493],[54.699555,40.879096],[54.76002,40.965033],[54.690115,41.059231],[54.767426,41.03677],[54.600434,41.192328],[54.073985,41.487982],[54.030284,41.569485],[54.008556,41.764838],[53.901622,41.914618],[53.906912,42.062934],[53.818696,42.124416],[53.681814,42.143948],[53.296723,42.078843],[53.163829,42.103705],[52.960297,41.984361],[52.769216,41.675605],[52.880544,41.697903],[52.916515,41.674221],[52.815684,41.388739],[52.844005,41.24018],[52.903982,41.140204],[52.882335,41.050442],[52.760997,41.37759],[52.562185,41.519477],[52.595551,41.640041],[52.450206,41.734809],[52.478843,41.780345],[52.978709,42.126629],[53.412274,42.258171],[54.122618,42.337598],[54.738291,42.04821],[54.907067,41.932144],[54.950682,41.795564],[55.228391,41.472819],[55.478298,41.266785],[55.635498,41.264356],[55.910106,41.326626],[57.010194,41.254124],[57.161399,41.367967],[57.07417,41.394994],[57.019599,41.465946],[57.012054,41.557826],[56.960481,41.647201],[56.950146,41.86605],[56.978361,41.895118],[57.115511,41.952092],[57.207805,42.07056],[57.382264,42.163629],[57.619769,42.148178],[57.850453,42.191431],[57.835467,42.240446],[57.873707,42.249644],[57.937476,42.354238],[57.908641,42.430434],[57.997731,42.493428],[58.060879,42.502265],[58.117207,42.461518],[58.225727,42.466582],[58.325049,42.431856],[58.384684,42.387827],[58.397603,42.287859],[58.478218,42.291993],[58.494135,42.305713],[58.306239,42.528671],[58.121341,42.624247],[58.282675,42.68892],[58.534546,42.654503],[58.587876,42.791188],[58.89442,42.547843],[59.146084,42.526759],[59.223806,42.460872],[59.258429,42.347545],[59.426481,42.286774],[59.866351,42.304215],[60.028201,42.199518],[60.036986,42.169701],[59.974458,42.09924],[59.997195,42.010615],[59.908002,41.979816],[59.91751,41.952427],[60.088766,41.919355],[60.252684,41.780061],[60.102408,41.795279],[60.049182,41.753499],[60.16473,41.584956],[60.071713,41.514366],[60.059207,41.434165],[60.094244,41.389516],[60.478096,41.212111],[60.860295,41.252987],[60.978014,41.202809],[61.004318,41.229533],[61.081884,41.224513],[61.281355,41.157282],[61.43318,41.300323],[61.654355,41.249421],[61.877907,41.124984],[61.970822,41.01543],[62.044771,40.714984],[62.134171,40.577834],[62.213442,40.486574],[62.343615,40.439393],[62.435754,40.194189],[62.421595,40.115072],[62.452808,40.009239],[62.593161,39.890228],[63.477551,39.402919],[63.709268,39.190891],[64.150585,38.949458],[64.337344,38.970956],[64.634897,38.744148],[64.977718,38.61227],[65.205301,38.449644],[65.60414,38.237409],[65.740204,38.224076],[65.876681,38.272962],[66.231078,38.148784],[66.408328,38.042847],[66.590385,38.012978],[66.645782,37.945902],[66.518813,37.782708],[66.493491,37.522207],[66.542687,37.466758],[66.497005,37.397744],[66.519588,37.36418],[66.469927,37.329764],[66.294434,37.331211],[66.142918,37.385058],[66.079666,37.440868],[65.855184,37.507944],[65.776532,37.572902],[65.648323,37.494147],[65.624087,37.345138],[65.536857,37.257107],[65.063088,37.233232],[64.807909,37.135512],[64.76016,37.092621],[64.765225,36.904622],[64.592005,36.621073],[64.594382,36.424186],[64.477697,36.271637],[64.303651,36.211538],[64.276056,36.159241],[64.123352,36.146064],[64.036225,36.076404],[64.045579,36.011291],[63.889826,36.029637],[63.765906,35.977288],[63.582093,35.959047],[63.430216,35.871042],[63.104086,35.856469],[63.105688,35.782882],[63.207697,35.683198],[63.076646,35.6247],[63.097213,35.535455],[63.066827,35.425591],[62.918206,35.388177],[62.708606,35.25604],[62.595641,35.22059],[62.431879,35.280638],[62.275713,35.151034],[62.219023,35.30627],[62.00746,35.438923],[61.604746,35.430603],[61.401244,35.549821],[61.344193,35.630901],[61.269676,35.618499]]],[[[53.029959,39.061347],[53.081716,39.097724],[53.053966,39.026801],[53.102061,38.755072],[53.038422,38.916938],[53.029959,39.061347]]],[[[53.468516,39.584947],[53.508637,39.585517],[53.539724,39.539618],[53.521983,39.516099],[53.491873,39.508612],[53.468516,39.584947]]]]}}