{"type":"Feature","properties":{"iso3":"TLS","name":"East Timor","continent":"Asia"},"geometry":{"type":"MultiPolygon","coordinates":[[[[124.450531,-9.18019],[124.427939,-9.299483],[124.401688,-9.331832],[124.347893,-9.37462],[124.345412,-9.404179],[124.328617,-9.433015],[124.332338,-9.466605],[124.310066,-9.488722],[124.257511,-9.501228],[124.253997,-9.438699],[124.23715,-9.405213],[124.210692,-9.378858],[124.197463,-9.373174],[124.167232,-9.380615],[124.121085,-9.426917],[124.090286,-9.421543],[124.06269,-9.397875],[124.03004,-9.341974],[124.159353,-9.296482],[124.190766,-9.255141],[124.221202,-9.241143],[124.385753,-9.202325],[124.405284,-9.185317],[124.450531,-9.18019]]],[[[124.919507,-8.962016],[124.974783,-8.922133],[125.036876,-8.824802],[125.096446,-8.795831],[125.106456,-8.688735],[125.12794,-8.645603],[125.144298,-8.631443],[125.237315,-8.605564],[125.273936,-8.610935],[125.314789,-8.590427],[125.381033,-8.571466],[125.46697,-8.573663],[125.541515,-8.545017],[125.603526,-8.548923],[125.63087,-8.52158],[125.678884,-8.530369],[125.733165,-8.52158],[125.850597,-8.483819],[125.897716,-8.481134],[126.002208,-8.499444],[126.042247,-8.518813],[126.069102,-8.52158],[126.133474,-8.504002],[126.240245,-8.494806],[126.305024,-8.453546],[126.370128,-8.425958],[126.411632,-8.419122],[126.450938,-8.440688],[126.511974,-8.452081],[126.548839,-8.486749],[126.720225,-8.412856],[126.755544,-8.419122],[126.799327,-8.410089],[126.842133,-8.391046],[126.967052,-8.309015],[127.088878,-8.362726],[127.13795,-8.362726],[127.18629,-8.332452],[127.206065,-8.332615],[127.220388,-8.357599],[127.306,-8.395196],[127.313243,-8.415216],[127.303233,-8.432306],[127.092621,-8.603123],[127.021169,-8.675714],[126.93922,-8.692153],[126.846202,-8.752537],[126.694184,-8.763442],[126.660655,-8.774184],[126.624034,-8.799005],[126.583263,-8.805841],[126.544119,-8.850274],[126.507823,-8.911879],[126.472423,-8.942804],[126.430186,-8.954685],[126.165863,-8.988377],[126.121918,-9.006524],[125.947113,-9.125746],[125.928477,-9.131606],[125.849864,-9.1242],[125.816905,-9.148207],[125.742686,-9.157322],[125.678559,-9.193048],[125.593028,-9.18963],[125.552094,-9.217218],[125.378754,-9.28102],[125.29127,-9.345473],[125.263682,-9.357354],[125.211111,-9.41961],[125.130544,-9.43377],[125.061615,-9.485772],[125.0463,-9.409864],[125.023769,-9.374724],[125.023407,-9.345578],[124.965995,-9.293385],[124.954109,-9.241502],[124.957933,-9.211943],[124.974469,-9.191893],[125.007232,-9.186105],[125.034517,-9.188172],[125.059684,-9.210496],[125.073947,-9.211323],[125.106968,-9.188482],[125.150634,-9.185381],[125.145002,-9.145177],[125.162365,-9.060634],[125.139421,-9.024771],[125.086814,-8.98622],[125.076479,-8.990768],[125.065317,-9.023221],[125.051829,-9.035003],[124.965891,-9.077274],[124.933025,-9.074484],[124.90791,-9.037483],[124.922483,-8.986324],[124.919507,-8.962016]]],[[[125.569347,-8.196384],[125.605154,-8.153009],[125.632498,-8.135024],[125.650645,-8.142836],[125.59669,-8.299249],[125.573578,-8.317315],[125.517589,-8.292169],[125.503673,-8.270766],[125.514171,-8.247735],[125.569347,-8.196384]]]]}}