{"type":"Feature","properties":{"iso3":"TON","name":"Tonga","continent":"Oceania"},"geometry":{"type":"MultiPolygon","coordinates":[[[[-173.95637,-18.567315],[-173.915395,-18.59531],[-173.915151,-18.626886],[-173.922963,-18.636977],[-173.942087,-18.615818],[-173.952952,-18.620701],[-173.957631,-18.63421],[-173.948964,-18.643162],[-173.962595,-18.663507],[-173.976633,-18.660577],[-173.985951,-18.670994],[-173.990549,-18.705173],[-174.003041,-18.6985],[-174.017201,-18.663507],[-174.001169,-18.657403],[-174.010976,-18.62949],[-174.022328,-18.638849],[-174.030141,-18.663344],[-174.045155,-18.656834],[-174.059438,-18.663507],[-174.072499,-18.633966],[-174.025461,-18.604913],[-174.00414,-18.570977],[-173.95637,-18.567315]]],[[[-174.914744,-21.292169],[-174.908518,-21.32936],[-174.91393,-21.444106],[-174.920277,-21.454197],[-174.983632,-21.390883],[-174.96996,-21.383966],[-174.976877,-21.359552],[-174.97175,-21.347914],[-174.951853,-21.339776],[-174.918406,-21.284438],[-174.914744,-21.292169]]],[[[-175.065541,-21.123956],[-175.050893,-21.139337],[-175.051869,-21.154962],[-175.11738,-21.203058],[-175.117624,-21.255955],[-175.148752,-21.267999],[-175.180491,-21.25506],[-175.209665,-21.214451],[-175.257314,-21.192153],[-175.264841,-21.19964],[-175.325754,-21.173598],[-175.364817,-21.113946],[-175.355295,-21.089614],[-175.332143,-21.071222],[-175.305776,-21.062595],[-175.34081,-21.102634],[-175.315419,-21.121352],[-175.24059,-21.113702],[-175.218861,-21.13006],[-175.216379,-21.141046],[-175.23823,-21.15838],[-175.223582,-21.17254],[-175.193105,-21.158136],[-175.154978,-21.171808],[-175.140126,-21.16839],[-175.113962,-21.130792],[-175.065541,-21.123956]]],[[[-174.361073,-19.801365],[-174.336985,-19.787774],[-174.325673,-19.759698],[-174.309804,-19.764744],[-174.32018,-19.819268],[-174.339345,-19.821873],[-174.361073,-19.801365]]],[[[-175.069285,-19.712009],[-175.053334,-19.72381],[-175.04601,-19.751153],[-175.047841,-19.781183],[-175.059316,-19.801365],[-175.059316,-19.793878],[-175.065541,-19.801365],[-175.08727,-19.787693],[-175.099477,-19.74977],[-175.090647,-19.71266],[-175.069285,-19.712009]]],[[[-174.305816,-19.733005],[-174.288197,-19.723728],[-174.257436,-19.684666],[-174.252187,-19.699314],[-174.271677,-19.749119],[-174.302195,-19.744073],[-174.305816,-19.733005]]],[[[-174.260854,-19.630548],[-174.247996,-19.635919],[-174.249257,-19.653741],[-174.264272,-19.650486],[-174.275217,-19.635675],[-174.29304,-19.592706],[-174.277903,-19.59588],[-174.260854,-19.630548]]],[[[-175.631337,-15.559503],[-175.61262,-15.573337],[-175.617787,-15.601495],[-175.63915,-15.624282],[-175.668894,-15.621515],[-175.686269,-15.602309],[-175.683339,-15.582127],[-175.663767,-15.566013],[-175.631337,-15.559503]]],[[[-176.21349,-22.323907],[-176.19811,-22.331964],[-176.207021,-22.3388],[-176.215891,-22.335138],[-176.21349,-22.323907]]],[[[-174.653798,-18.817478],[-174.664133,-18.801365],[-174.661244,-18.786879],[-174.649607,-18.779555],[-174.63386,-18.785333],[-174.62682,-18.79754],[-174.640452,-18.816583],[-174.653798,-18.817478]]]]}}