{"type":"Feature","properties":{"iso3":"TTO","name":"Trinidad and Tobago","continent":"Americas"},"geometry":{"type":"MultiPolygon","coordinates":[[[[-61.002268,10.699368],[-61.020863,10.702704],[-61.032704,10.683539],[-61.036977,10.624905],[-61.013539,10.534491],[-61.04247,10.509955],[-61.02302,10.394843],[-60.998443,10.355943],[-60.961293,10.330024],[-60.990224,10.299262],[-61.002797,10.247545],[-60.996002,10.138251],[-61.017486,10.14289],[-61.041575,10.135647],[-61.09968,10.095201],[-61.19164,10.073798],[-61.253,10.083645],[-61.338694,10.069322],[-61.41747,10.076158],[-61.503082,10.069322],[-61.544097,10.076158],[-61.622914,10.05565],[-61.686187,10.08161],[-61.793324,10.084133],[-61.817047,10.081366],[-61.88976,10.042304],[-61.907216,10.04206],[-61.9287,10.056464],[-61.918935,10.070014],[-61.881947,10.090481],[-61.838531,10.09984],[-61.805898,10.13288],[-61.669057,10.184027],[-61.639312,10.210069],[-61.639638,10.240668],[-61.626943,10.24726],[-61.506581,10.240668],[-61.481923,10.255683],[-61.462148,10.282213],[-61.459625,10.309719],[-61.470815,10.359361],[-61.482655,10.370998],[-61.476186,10.389309],[-61.487945,10.430121],[-61.468984,10.480862],[-61.462148,10.558173],[-61.472279,10.594875],[-61.496246,10.624905],[-61.488881,10.631049],[-61.577626,10.679918],[-61.656361,10.689765],[-61.667592,10.706773],[-61.602122,10.747748],[-61.561147,10.74433],[-61.490102,10.754625],[-61.460439,10.774359],[-61.455312,10.76203],[-61.447865,10.76203],[-61.447865,10.775702],[-61.437001,10.765855],[-61.441721,10.754584],[-61.43342,10.756537],[-61.391835,10.775621],[-61.366567,10.802965],[-61.180084,10.797553],[-61.154856,10.816474],[-61.078521,10.830959],[-60.948842,10.845282],[-60.907297,10.837144],[-60.949778,10.763495],[-61.002268,10.699368]]],[[[-60.530507,11.35106],[-60.523061,11.343655],[-60.522084,11.318834],[-60.53303,11.266506],[-60.550364,11.26911],[-60.556508,11.254096],[-60.585113,11.25552],[-60.60204,11.231431],[-60.647125,11.204169],[-60.681304,11.207099],[-60.759511,11.172919],[-60.803334,11.143256],[-60.810414,11.159247],[-60.825429,11.151801],[-60.847524,11.163967],[-60.845204,11.179145],[-60.809926,11.19066],[-60.794342,11.21662],[-60.681304,11.296454],[-60.595815,11.327297],[-60.560374,11.321194],[-60.530507,11.35106]]]]}}