{"type":"Feature","properties":{"iso3":"TUN","name":"Tunisia","continent":"Africa"},"geometry":{"type":"MultiPolygon","coordinates":[[[[11.505112,33.181225],[11.506047,33.136376],[11.477418,33.041214],[11.474421,32.969875],[11.456541,32.902101],[11.463775,32.798464],[11.449203,32.693018],[11.449926,32.637957],[11.47039,32.599277],[11.537363,32.543519],[11.560617,32.507578],[11.564131,32.465487],[11.546354,32.434275],[11.444035,32.36849],[10.873217,32.136696],[10.845932,32.111788],[10.805624,32.032361],[10.772861,32.004508],[10.703098,31.962185],[10.683564,31.957017],[10.628477,31.974122],[10.605946,31.953606],[10.597575,31.873508],[10.584552,31.84028],[10.542384,31.806638],[10.525538,31.772067],[10.498873,31.744317],[10.427766,31.714603],[10.315422,31.715843],[10.263952,31.680496],[10.196462,31.57859],[10.116881,31.494409],[10.106235,31.429194],[10.182717,31.240782],[10.213206,31.135362],[10.244832,31.078156],[10.245038,30.985707],[10.270153,30.915633],[10.26974,30.882147],[10.253927,30.841788],[10.192225,30.731252],[10.101171,30.641697],[9.995648,30.494522],[9.871314,30.355151],[9.845786,30.342283],[9.743467,30.331328],[9.519708,30.228905],[9.045008,32.071842],[9.019893,32.104863],[8.482665,32.434791],[8.359985,32.501015],[8.332627,32.526355],[8.319574,32.560598],[8.296423,32.804407],[8.282884,32.836369],[8.086824,33.094286],[8.0645,33.105784],[8.002178,33.108368],[7.871953,33.184125],[7.75072,33.207664],[7.724985,33.231409],[7.709689,33.278151],[7.708286,33.410704],[7.693153,33.454109],[7.553006,33.658748],[7.534196,33.736236],[7.505464,33.782849],[7.484897,33.855015],[7.479832,33.893901],[7.500606,33.994257],[7.503707,34.067973],[7.517453,34.095026],[7.631451,34.199102],[7.670312,34.215303],[7.733874,34.223778],[7.765293,34.244707],[7.811905,34.379272],[7.831542,34.414386],[7.87061,34.437899],[8.094058,34.530142],[8.167232,34.578562],[8.192864,34.617733],[8.236479,34.647654],[8.210641,34.681192],[8.225213,34.711681],[8.266554,34.750283],[8.248881,34.901953],[8.282884,34.994041],[8.300454,35.06768],[8.313683,35.103078],[8.360916,35.145918],[8.431299,35.241726],[8.396882,35.263688],[8.317404,35.289475],[8.294356,35.32508],[8.290016,35.402595],[8.336731,35.508376],[8.337041,35.537935],[8.323605,35.652192],[8.257666,35.750325],[8.24144,35.827737],[8.247227,35.907318],[8.272446,35.981732],[8.275649,36.03682],[8.296733,36.110407],[8.317094,36.145909],[8.302314,36.202339],[8.307069,36.243629],[8.354404,36.350909],[8.357712,36.430387],[8.349237,36.448784],[8.295597,36.46868],[8.20878,36.477826],[8.167852,36.491365],[8.169919,36.525834],[8.193484,36.548985],[8.286915,36.583401],[8.407941,36.642622],[8.430369,36.662621],[8.45321,36.697658],[8.461788,36.732798],[8.441634,36.75321],[8.406701,36.767989],[8.413109,36.783906],[8.444011,36.796205],[8.554495,36.803646],[8.641725,36.836357],[8.642552,36.848501],[8.608239,36.890721],[8.60251,36.939511],[8.692149,36.969387],[8.824392,36.979478],[8.925792,37.038886],[8.956879,37.069281],[8.987641,37.116848],[9.038748,37.151842],[9.15919,37.192816],[9.192393,37.226142],[9.210704,37.233832],[9.34254,37.235338],[9.380707,37.247463],[9.419119,37.275824],[9.453868,37.268297],[9.517345,37.286689],[9.552745,37.309516],[9.57309,37.300238],[9.591482,37.302924],[9.649262,37.331855],[9.74464,37.345201],[9.773448,37.330512],[9.858897,37.328803],[9.861664,37.271186],[9.792735,37.238023],[9.771821,37.213324],[9.790701,37.178412],[9.815929,37.151842],[9.879893,37.150092],[9.914317,37.17829],[9.925304,37.196763],[9.924978,37.213121],[9.861176,37.233832],[9.819591,37.227607],[9.819591,37.233832],[9.882498,37.263577],[9.979828,37.246039],[10.059825,37.264838],[10.075857,37.24494],[10.146251,37.236518],[10.178722,37.212714],[10.253103,37.191392],[10.272146,37.178534],[10.211274,37.158677],[10.205821,37.175116],[10.177989,37.177965],[10.146007,37.17121],[10.128103,37.158677],[10.135427,37.14232],[10.161632,37.134345],[10.211274,37.1376],[10.227061,37.117662],[10.224376,37.095933],[10.21754,37.110297],[10.174327,37.076239],[10.182384,37.027045],[10.220063,36.97663],[10.26588,36.93891],[10.313731,36.918443],[10.347179,36.880276],[10.298839,36.821763],[10.285167,36.819973],[10.272146,36.829088],[10.279552,36.844306],[10.25294,36.84634],[10.210704,36.831855],[10.188487,36.797593],[10.247244,36.786282],[10.272146,36.816067],[10.320079,36.748765],[10.355317,36.731187],[10.436995,36.728839],[10.518713,36.755797],[10.538233,36.772026],[10.566905,36.863227],[10.584972,36.876166],[10.652599,36.876899],[10.733466,36.895812],[10.783205,36.924418],[10.82309,36.953925],[10.830089,36.968248],[10.887543,37.006008],[10.898448,37.025214],[10.892914,37.038642],[10.90211,37.048814],[10.974132,37.061265],[11.012706,37.084784],[11.033376,37.08747],[11.051036,37.080308],[11.060313,37.062486],[11.048595,37.041978],[11.04835,37.020331],[11.087738,36.959418],[11.094493,36.918443],[11.136227,36.87053],[11.130545,36.854039],[11.116767,36.838412],[11.076735,36.825188],[11.02214,36.788276],[10.879519,36.588475],[10.825662,36.479811],[10.799929,36.451885],[10.717154,36.434551],[10.620441,36.39028],[10.585564,36.398132],[10.550928,36.377256],[10.519085,36.337472],[10.491068,36.258066],[10.479267,36.216962],[10.474695,36.112486],[10.479528,36.079327],[10.518565,35.979967],[10.556488,35.937974],[10.582286,35.92182],[10.608572,35.855862],[10.622081,35.842597],[10.691335,35.789618],[10.74362,35.769672],[10.803722,35.786933],[10.82309,35.780463],[10.84142,35.766548],[10.824522,35.733389],[10.841156,35.698798],[10.971816,35.654138],[11.011974,35.657904],[11.040998,35.63773],[11.055022,35.614476],[11.0171,35.602281],[11.014903,35.555162],[11.039236,35.5185],[11.085057,35.506785],[11.05769,35.486733],[11.050666,35.459782],[11.049412,35.391255],[11.037188,35.370821],[11.042233,35.334435],[11.101329,35.266832],[11.160782,35.238232],[11.15916,35.218757],[11.131352,35.217959],[11.111578,35.205595],[11.092316,35.173939],[11.062912,35.153639],[11.03499,35.107056],[11.01588,35.092841],[11.022453,35.064502],[11.018105,35.034191],[10.984366,34.999414],[10.945863,34.983531],[10.917654,34.957424],[10.924951,34.934122],[10.916515,34.913316],[10.916336,34.873569],[10.856293,34.830878],[10.871421,34.797367],[10.811262,34.76888],[10.717296,34.66474],[10.625255,34.633246],[10.597023,34.544713],[10.559376,34.52349],[10.465994,34.511949],[10.431895,34.496324],[10.378724,34.42308],[10.330414,34.412584],[10.288097,34.414008],[10.247244,34.372138],[10.12672,34.325629],[10.102161,34.304075],[10.032777,34.184655],[10.005219,34.17064],[10.018403,34.13349],[10.021495,34.07331],[10.048839,33.983466],[10.0713,33.946234],[10.163097,33.836249],[10.330251,33.702826],[10.446056,33.655422],[10.489268,33.647121],[10.634072,33.673628],[10.716645,33.706936],[10.739992,33.671578],[10.736924,33.60285],[10.691417,33.576117],[10.674083,33.5456],[10.703624,33.496039],[10.738129,33.478013],[10.780528,33.485745],[10.856212,33.524319],[10.909434,33.539618],[10.932791,33.574042],[10.906505,33.616441],[10.936209,33.636298],[10.960623,33.627672],[10.98463,33.643134],[11.042817,33.617865],[11.073578,33.594468],[11.111583,33.540025],[11.116621,33.489973],[11.089929,33.454149],[11.110783,33.39297],[11.102074,33.364081],[11.131114,33.371527],[11.170665,33.331773],[11.293712,33.286811],[11.28004,33.280015],[11.181895,33.306789],[11.133637,33.311428],[11.121837,33.280015],[11.163341,33.242621],[11.179535,33.211086],[11.245372,33.217922],[11.372244,33.183783],[11.416759,33.183783],[11.433116,33.193549],[11.427582,33.207017],[11.381358,33.230699],[11.351899,33.258857],[11.442393,33.204657],[11.505112,33.181225]]],[[[10.991466,33.841702],[11.048513,33.814765],[11.060313,33.800727],[10.971039,33.738715],[10.956716,33.69774],[10.95045,33.69774],[10.956716,33.732489],[10.941091,33.728217],[10.928484,33.69663],[10.893709,33.658247],[10.887786,33.640142],[10.871056,33.654333],[10.876921,33.688218],[10.858995,33.711061],[10.826182,33.729804],[10.80893,33.73432],[10.781922,33.703696],[10.76342,33.700163],[10.740154,33.715478],[10.727804,33.758181],[10.728314,33.784568],[10.747593,33.812748],[10.735479,33.853754],[10.736013,33.884752],[10.77296,33.896308],[10.897797,33.87934],[10.929942,33.896308],[10.991466,33.841702]]],[[[10.964122,34.656684],[10.987153,34.67178],[11.101329,34.670966],[11.110842,34.659506],[11.055708,34.620962],[10.964122,34.656684]]],[[[11.265798,34.773383],[11.304796,34.742294],[11.297035,34.728693],[11.130746,34.663291],[11.122306,34.680426],[11.170647,34.728592],[11.173025,34.758002],[11.180948,34.761782],[11.183116,34.752183],[11.198189,34.74402],[11.222111,34.747645],[11.224303,34.770057],[11.217502,34.781615],[11.25427,34.825822],[11.299484,34.814179],[11.304171,34.805289],[11.278087,34.797675],[11.265798,34.773383]]]]}}