{"type":"Feature","properties":{"iso3":"TUR","name":"Turkey","continent":"Asia"},"geometry":{"type":"MultiPolygon","coordinates":[[[[43.440428,41.106588],[43.460479,41.022872],[43.636178,40.933523],[43.720618,40.762888],[43.707182,40.611941],[43.652508,40.529414],[43.559491,40.477892],[43.625326,40.42017],[43.594217,40.345445],[43.714933,40.180649],[43.666357,40.14892],[43.665427,40.110163],[44.032433,40.008618],[44.10447,40.035955],[44.325645,40.034663],[44.522171,39.933533],[44.594466,39.836794],[44.759107,39.723106],[44.795746,39.652361],[44.565734,39.765894],[44.459487,39.698457],[44.387967,39.414495],[44.29495,39.381215],[44.076978,39.400594],[44.020961,39.361991],[44.069434,39.287009],[44.076565,39.208693],[44.194801,39.120533],[44.179143,39.034931],[44.139197,38.993952],[44.151961,38.964625],[44.205756,38.875664],[44.275002,38.843573],[44.248648,38.721824],[44.297017,38.622321],[44.286578,38.390991],[44.424657,38.377038],[44.459177,38.322416],[44.372413,38.249501],[44.36709,38.162478],[44.227564,37.98099],[44.206376,37.908333],[44.219605,37.875312],[44.367142,37.860222],[44.450496,37.766636],[44.506461,37.779349],[44.59612,37.716381],[44.540878,37.632717],[44.583511,37.601091],[44.565941,37.447173],[44.801585,37.292686],[44.753526,37.215326],[44.766135,37.14192],[44.733786,37.167242],[44.57824,37.166415],[44.454423,37.076343],[44.343112,37.042443],[44.297223,36.969941],[44.243273,36.97777],[44.180021,37.087608],[44.248337,37.16967],[44.235005,37.236772],[44.088037,37.31116],[43.990369,37.312504],[43.89363,37.224912],[43.822007,37.202381],[43.463269,37.248684],[43.336145,37.32023],[43.263385,37.310695],[43.131971,37.367255],[42.937048,37.320152],[42.780468,37.375498],[42.722177,37.358909],[42.545237,37.140887],[42.357238,37.109984],[42.353208,37.227031],[42.211201,37.324906],[42.009249,37.175613],[41.479773,37.075568],[41.20134,37.064974],[40.896449,37.122696],[40.708967,37.100476],[39.765252,36.742151],[39.239599,36.661278],[39.03217,36.701172],[38.725005,36.693937],[38.479956,36.855736],[38.224261,36.908394],[37.819738,36.760548],[37.654063,36.732126],[37.446117,36.634199],[37.241892,36.65859],[37.053066,36.619936],[37.014515,36.642261],[37.018443,36.706649],[36.945889,36.762667],[36.659563,36.827243],[36.603274,36.746957],[36.533821,36.462478],[36.67004,36.237324],[36.439253,36.201409],[36.361429,36.218152],[36.358018,35.99398],[36.29735,36.000749],[36.269031,35.958736],[36.196891,35.951708],[36.157617,35.822569],[35.992356,35.877346],[35.980263,35.926852],[35.920835,35.915122],[35.975434,36.0185],[35.787364,36.304267],[35.918712,36.448188],[36.211192,36.642401],[36.188975,36.801744],[36.09547,36.897121],[36.020274,36.926337],[35.820649,36.785142],[35.6067,36.740383],[35.579438,36.685126],[35.634044,36.726711],[35.709158,36.719875],[35.6067,36.657782],[35.695567,36.706204],[35.631358,36.607164],[35.55714,36.58747],[35.490001,36.613918],[35.531016,36.582709],[35.445486,36.59634],[35.347992,36.544379],[34.98227,36.720771],[34.900401,36.719875],[34.907888,36.740383],[34.770763,36.816067],[34.692882,36.81387],[34.554698,36.767646],[34.276215,36.586982],[34.177745,36.473375],[34.077322,36.413886],[34.077891,36.328843],[33.999766,36.302924],[33.941417,36.213365],[33.945974,36.265204],[33.883149,36.312486],[33.705251,36.181708],[33.693858,36.14411],[33.647227,36.192572],[33.552257,36.127509],[33.458263,36.158149],[33.134044,36.131781],[33.087738,36.082831],[32.96046,36.102688],[32.803722,36.027167],[32.670665,36.046698],[32.381521,36.170152],[32.026052,36.543443],[31.769054,36.610012],[31.378591,36.767646],[31.340831,36.80858],[30.77589,36.849555],[30.686534,36.891181],[30.574474,36.789537],[30.567231,36.539862],[30.47462,36.401597],[30.519867,36.341864],[30.398611,36.205959],[30.384288,36.274237],[30.233735,36.308905],[30.158539,36.298651],[30.110606,36.240058],[30.048188,36.258775],[29.988455,36.21776],[29.844005,36.191392],[29.795258,36.145209],[29.719249,36.162665],[29.672374,36.123358],[29.623871,36.177965],[29.6421,36.186957],[29.583507,36.185452],[29.623871,36.199123],[29.494477,36.211005],[29.411632,36.267401],[29.34962,36.232611],[29.096365,36.390937],[29.130382,36.411363],[29.120291,36.535631],[29.084321,36.560248],[29.014415,36.547919],[29.035004,36.614691],[29.116873,36.634223],[29.102387,36.659613],[28.938975,36.751288],[28.87086,36.696234],[28.866873,36.634914],[28.884044,36.671454],[28.901703,36.658271],[28.841563,36.600165],[28.818614,36.611721],[28.84254,36.63052],[28.746349,36.697699],[28.616222,36.705959],[28.610362,36.816067],[28.486827,36.801744],[28.456716,36.877509],[28.387218,36.857001],[28.414724,36.837104],[28.396007,36.789496],[28.288585,36.793687],[28.278331,36.814154],[28.314952,36.822252],[28.257172,36.846177],[28.248871,36.766832],[28.295095,36.719875],[28.181895,36.684638],[28.111501,36.604193],[28.02589,36.563707],[27.970876,36.586412],[28.053966,36.609605],[28.075938,36.657782],[28.056651,36.643012],[28.048025,36.685126],[27.980154,36.675849],[28.100597,36.709621],[28.103282,36.767646],[28.130544,36.753974],[28.1067,36.802965],[27.959239,36.747138],[27.719412,36.756252],[27.671153,36.657782],[27.404307,36.665229],[27.364024,36.702582],[27.414317,36.709296],[27.449555,36.753974],[27.592459,36.76081],[27.645356,36.806464],[28.027517,36.781317],[28.055431,36.80858],[28.007009,36.829088],[28.007009,36.857001],[28.055431,36.870673],[28.027517,36.92593],[28.120128,36.93769],[28.165294,36.911607],[28.206879,36.99018],[28.3296,37.030463],[27.986583,37.035142],[27.780447,36.993598],[27.567149,36.996649],[27.562022,36.97309],[27.423513,37.027167],[27.383311,36.993598],[27.340994,37.018459],[27.299001,36.961493],[27.263194,36.963365],[27.22877,37.061835],[27.281912,37.098334],[27.27003,37.116034],[27.3213,37.13109],[27.321788,37.158677],[27.475108,37.092515],[27.565115,37.125637],[27.527843,37.18537],[27.609874,37.199652],[27.588552,37.211127],[27.614024,37.267524],[27.564789,37.275539],[27.514659,37.229315],[27.519867,37.259101],[27.463634,37.252021],[27.491384,37.327338],[27.396821,37.323147],[27.396739,37.365627],[27.438487,37.390815],[27.407237,37.412746],[27.321788,37.370917],[27.336436,37.355699],[27.204112,37.352932],[27.222504,37.476752],[27.177745,37.466539],[27.212169,37.585598],[27.011485,37.665717],[27.249522,37.74433],[27.237153,37.845445],[27.27475,37.929023],[27.239106,37.987942],[27.141124,37.986029],[26.975434,38.065253],[26.881521,38.038398],[26.835216,38.131293],[26.74464,38.215644],[26.645763,38.206732],[26.594981,38.103949],[26.390147,38.223822],[26.394867,38.251654],[26.354015,38.228258],[26.23463,38.27383],[26.307628,38.323065],[26.294119,38.369859],[26.38502,38.318427],[26.383311,38.343573],[26.475922,38.366889],[26.451508,38.426093],[26.497895,38.407294],[26.513031,38.432929],[26.431,38.473944],[26.387869,38.45425],[26.403819,38.487535],[26.348643,38.621324],[26.403005,38.677314],[26.505626,38.652655],[26.630382,38.519232],[26.643321,38.467719],[26.599294,38.466376],[26.588145,38.418687],[26.673106,38.307196],[26.694591,38.313178],[26.687266,38.419745],[26.809825,38.360053],[27.013357,38.412502],[27.088634,38.402248],[27.164236,38.446601],[27.022309,38.46247],[26.93865,38.434231],[26.814708,38.542792],[26.874197,38.507473],[26.835216,38.549018],[26.834239,38.608222],[26.79363,38.597398],[26.719086,38.652655],[26.742442,38.666246],[26.719086,38.720933],[26.818207,38.755439],[26.903494,38.734565],[26.935069,38.770453],[26.90447,38.80976],[27.055024,38.87108],[27.04127,38.94009],[26.879161,38.916205],[26.806488,38.950141],[26.79363,39.021959],[26.875255,39.090888],[26.751638,39.184638],[26.701427,39.268988],[26.609223,39.275214],[26.814708,39.399359],[26.802582,39.419176],[26.867931,39.471503],[26.925955,39.485826],[26.943858,39.560981],[26.893403,39.584377],[26.152843,39.459215],[26.069998,39.496283],[26.156749,39.649237],[26.136404,39.837592],[26.18865,40.001776],[26.25115,39.994859],[26.353201,40.052151],[26.40797,40.193671],[26.500743,40.212958],[26.735606,40.403551],[26.991466,40.388617],[27.096365,40.452297],[27.271495,40.467841],[27.303396,40.458441],[27.337576,40.370307],[27.452322,40.322008],[27.789806,40.320461],[27.883556,40.386298],[27.791759,40.39289],[27.693207,40.486274],[27.722423,40.526272],[28.014171,40.491156],[28.016775,40.451077],[27.903982,40.399888],[27.944672,40.366034],[28.347992,40.404039],[28.637706,40.36518],[28.771983,40.402533],[29.033946,40.364447],[29.133556,40.450751],[29.065684,40.481879],[28.916677,40.470893],[28.774181,40.522773],[28.792654,40.55329],[28.970063,40.639472],[29.281586,40.66592],[29.490571,40.72724],[29.559906,40.691067],[29.939301,40.735053],[29.92921,40.758043],[29.786632,40.748847],[29.666189,40.783515],[29.356944,40.762397],[29.31544,40.824449],[29.254568,40.810777],[29.294932,40.838772],[29.263927,40.869778],[29.028087,40.982123],[29.007579,41.030504],[29.062348,41.076321],[29.090587,41.140937],[29.069102,41.152777],[29.169688,41.2331],[30.136892,41.143785],[30.271251,41.211168],[30.833263,41.079901],[31.231212,41.091986],[31.401052,41.202094],[31.403575,41.316474],[32.161876,41.612006],[32.263357,41.72016],[32.417247,41.748928],[32.612559,41.839545],[32.926117,41.881822],[33.324474,42.019029],[34.694184,41.94595],[34.889008,42.007799],[34.94809,42.098782],[35.016124,42.09219],[35.081554,42.029202],[35.216319,42.023627],[35.11671,42.006903],[35.093028,41.946682],[35.224783,41.761868],[35.48585,41.645087],[35.619802,41.632636],[35.956798,41.736274],[35.911632,41.662787],[35.972911,41.728583],[36.120453,41.627753],[36.134451,41.4619],[36.390147,41.260321],[36.45102,41.240424],[36.517914,41.262641],[36.633556,41.374091],[36.758067,41.366278],[36.984874,41.294501],[37.056407,41.174506],[37.135509,41.146633],[37.299327,41.140367],[37.52475,41.037177],[37.607921,41.050442],[37.672048,41.131252],[37.783865,41.122626],[37.785167,41.060004],[37.895763,40.982123],[38.268321,40.950385],[38.330903,40.917873],[38.539399,40.926907],[38.637055,40.97602],[38.707042,40.952867],[38.908376,41.037665],[39.156505,41.077704],[39.273204,41.050442],[39.430186,41.112494],[39.630056,41.00849],[39.790212,41.002631],[39.895681,40.954779],[39.99936,40.982123],[40.125987,40.92064],[40.464854,41.050442],[40.529145,41.036282],[40.698253,41.098131],[40.827485,41.197943],[40.922048,41.190619],[41.042735,41.232489],[41.408946,41.390326],[41.520763,41.514228],[41.694953,41.489097],[41.800787,41.42569],[41.947961,41.505581],[42.143195,41.500259],[42.463072,41.431839],[42.585235,41.578755],[42.660992,41.588264],[42.819949,41.572347],[42.774887,41.514263],[42.811164,41.477159],[42.87514,41.493696],[42.987588,41.394684],[43.18401,41.298979],[43.103136,41.248801],[43.192226,41.224978],[43.216204,41.180537],[43.383274,41.187203],[43.437586,41.156197],[43.440428,41.106588]]],[[[28.016775,41.972561],[28.042328,41.904853],[27.97755,41.887356],[27.972016,41.822252],[28.097179,41.626695],[28.232758,41.518988],[28.908458,41.266547],[29.093923,41.246405],[29.099864,41.210395],[29.040782,41.164293],[29.058604,41.099595],[28.981944,41.001654],[28.797618,40.962551],[28.625255,40.968411],[28.551931,41.080512],[28.527843,41.08515],[28.553559,40.998358],[28.512462,40.992662],[28.435313,41.042914],[28.244965,41.082953],[28.013031,41.040717],[27.959239,40.975287],[27.737804,41.012641],[27.524181,40.989203],[27.424815,40.831285],[27.287934,40.703559],[27.182302,40.636379],[27.047537,40.612209],[27.001475,40.570299],[26.68336,40.455471],[26.601573,40.346137],[26.359141,40.208157],[26.327973,40.11872],[26.157481,40.055325],[26.271983,40.230414],[26.21811,40.296861],[26.232188,40.340033],[26.828949,40.601996],[26.79835,40.651557],[26.609223,40.639472],[26.505626,40.598578],[26.117361,40.601996],[26.053722,40.66059],[26.033214,40.735053],[26.112287,40.746971],[26.260391,40.920449],[26.304006,40.909029],[26.359093,40.964684],[26.336046,40.981892],[26.374183,41.03114],[26.32509,41.074083],[26.320543,41.246217],[26.39506,41.258981],[26.540168,41.351792],[26.622643,41.340372],[26.636596,41.378457],[26.596288,41.59754],[26.46441,41.648518],[26.476192,41.675726],[26.333359,41.713036],[26.334185,41.789543],[26.526112,41.824244],[26.544715,41.916435],[26.589467,41.958758],[26.930221,41.994518],[27.046545,42.082936],[27.173824,42.057072],[27.273353,42.091747],[27.533182,41.908063],[27.687074,41.968602],[27.80283,41.943074],[27.807997,41.993484],[28.016775,41.972561]]],[[[26.060557,39.837592],[26.083018,39.834947],[26.059093,39.786078],[25.978038,39.834174],[26.060557,39.837592]]],[[[26.012218,40.166571],[25.990245,40.136908],[25.765961,40.097154],[25.663259,40.126166],[25.759044,40.206732],[25.913341,40.241278],[25.969249,40.206],[25.963064,40.157131],[26.012218,40.166571]]],[[[27.657563,40.653144],[27.727794,40.642646],[27.604747,40.576809],[27.551768,40.591051],[27.526378,40.639106],[27.657563,40.653144]]],[[[27.645193,40.459866],[27.582042,40.465522],[27.60727,40.505439],[27.645193,40.459866]]]]}}