{"type":"Feature","properties":{"iso3":"TUV","name":"Tuvalu","continent":"Oceania"},"geometry":{"type":"MultiPolygon","coordinates":[[[[179.191254,-8.542087],[179.204112,-8.518976],[179.199392,-8.460626],[179.21754,-8.520603],[179.191254,-8.542087]]],[[[178.380544,-8.070001],[178.373302,-8.069024],[178.375499,-8.056085],[178.390636,-8.026544],[178.380544,-8.070001]]],[[[177.152599,-7.197361],[177.150076,-7.188165],[177.153331,-7.199151],[177.152599,-7.197361]]],[[[176.314301,-6.302341],[176.319184,-6.289239],[176.322439,-6.295099],[176.314301,-6.302341]]],[[[177.344086,-6.121026],[177.337169,-6.108168],[177.356619,-6.114516],[177.344086,-6.121026]]],[[[176.135265,-5.692804],[176.125255,-5.679132],[176.140391,-5.687188],[176.148448,-5.70672],[176.135265,-5.692804]]],[[[179.906749,-9.399347],[179.906098,-9.418634],[179.898611,-9.386814],[179.906749,-9.399347]]],[[[179.867849,-9.343194],[179.873302,-9.346856],[179.878429,-9.360772],[179.867849,-9.343194]]],[[[178.682791,-7.491469],[178.665212,-7.454034],[178.69337,-7.483982],[178.691417,-7.49863],[178.682791,-7.491469]]]]}}