{"type":"Feature","properties":{"iso3":"TZA","name":"United Republic of Tanzania","continent":"Africa"},"geometry":{"type":"MultiPolygon","coordinates":[[[[32.920863,-9.4079],[32.759633,-9.339997],[32.725837,-9.292558],[32.518046,-9.258245],[32.423426,-9.143834],[32.231448,-9.133808],[32.134141,-9.064148],[32.057247,-9.049576],[31.938081,-9.061771],[31.936634,-8.93258],[31.787599,-8.892169],[31.689621,-8.919558],[31.55335,-8.809074],[31.539036,-8.70355],[31.38597,-8.632547],[31.362199,-8.592343],[31.248046,-8.621902],[31.182675,-8.580767],[31.077824,-8.61632],[30.959536,-8.550485],[30.828278,-8.388117],[30.654955,-7.92737],[30.441635,-7.596331],[30.369598,-7.31025],[30.29446,-7.149433],[30.090855,-6.890018],[29.707003,-6.619336],[29.525515,-6.273104],[29.476113,-6.002113],[29.60303,-5.781661],[29.612435,-5.704354],[29.32377,-4.920164],[29.40728,-4.462621],[29.728293,-4.461587],[29.80033,-4.363919],[29.847356,-4.370533],[30.003005,-4.271935],[30.149766,-4.08683],[30.208781,-3.930457],[30.31172,-3.789897],[30.381587,-3.788346],[30.371975,-3.722924],[30.426856,-3.563864],[30.639142,-3.41948],[30.61025,-3.376359],[30.640538,-3.33287],[30.721463,-3.280987],[30.799753,-3.274579],[30.832205,-3.172777],[30.783216,-3.062086],[30.80213,-2.97837],[30.650925,-2.977337],[30.547003,-2.900339],[30.49326,-2.941266],[30.415797,-2.851659],[30.458585,-2.72867],[30.516101,-2.668311],[30.412128,-2.670172],[30.508091,-2.463466],[30.573927,-2.389259],[30.834376,-2.345334],[30.887809,-2.082507],[30.835461,-2.014708],[30.826934,-1.934093],[30.796962,-1.929338],[30.83789,-1.836838],[30.831017,-1.594165],[30.807246,-1.60326],[30.738878,-1.489469],[30.737534,-1.406683],[30.549949,-1.3024],[30.511191,-1.170418],[30.467266,-1.155329],[30.456156,-1.086082],[30.493415,-1.060244],[30.638626,-1.07337],[30.777118,-0.98583],[33.980385,-1.002573],[37.644865,-3.045963],[37.700055,-3.31437],[37.590294,-3.404081],[37.596185,-3.499682],[37.708323,-3.527174],[37.770955,-3.655435],[39.215099,-4.688653],[39.216075,-4.749119],[39.170177,-4.779962],[39.215994,-4.795668],[39.207042,-4.872328],[39.175141,-4.926446],[39.163341,-4.848321],[39.108653,-4.916599],[39.132172,-5.010186],[39.084483,-5.047784],[39.129161,-5.04754],[39.14088,-5.086602],[39.04363,-5.232192],[39.074555,-5.218845],[39.037283,-5.356541],[38.978282,-5.431085],[38.985362,-5.504978],[38.888927,-5.63714],[38.895193,-5.710545],[38.83253,-5.815606],[38.779063,-6.054864],[38.856781,-6.16367],[38.852224,-6.348728],[38.923106,-6.445245],[39.040863,-6.470147],[39.219412,-6.65309],[39.24586,-6.731052],[39.28004,-6.727146],[39.280284,-6.830499],[39.464529,-6.85768],[39.550548,-6.993829],[39.547537,-7.118259],[39.497895,-7.177179],[39.477875,-7.151056],[39.435883,-7.180271],[39.375662,-7.295587],[39.32781,-7.309259],[39.35434,-7.370782],[39.303966,-7.4485],[39.27475,-7.596449],[39.302013,-7.754083],[39.252615,-7.823337],[39.305024,-7.791762],[39.32781,-7.726332],[39.355235,-7.752537],[39.340831,-7.781671],[39.440278,-7.818536],[39.422211,-7.889744],[39.454356,-8.010431],[39.340831,-8.206801],[39.345551,-8.25742],[39.294932,-8.303806],[39.303071,-8.505466],[39.357677,-8.588311],[39.35434,-8.713962],[39.433116,-8.749607],[39.547699,-8.913181],[39.430186,-8.861261],[39.388682,-8.898858],[39.464203,-8.898858],[39.502696,-9.106622],[39.583669,-9.106215],[39.643809,-9.18906],[39.646251,-9.356622],[39.563975,-9.414239],[39.567393,-9.447524],[39.650727,-9.444757],[39.740896,-9.666762],[39.746593,-9.706476],[39.701427,-9.736423],[39.744802,-9.747735],[39.807302,-9.852227],[39.752289,-9.879002],[39.789236,-9.914239],[39.714203,-9.952081],[39.726329,-9.988865],[39.690766,-10.04339],[39.763194,-9.982843],[39.826915,-9.99033],[39.914317,-10.033868],[39.974946,-10.133396],[39.985118,-10.220961],[39.986583,-10.139744],[40.019786,-10.132908],[40.124766,-10.169366],[40.115408,-10.263116],[40.2588,-10.273696],[40.198009,-10.24212],[40.232107,-10.200453],[40.338715,-10.34881],[40.42213,-10.355645],[40.397227,-10.323907],[40.417735,-10.296645],[40.449392,-10.345392],[40.410899,-10.392267],[40.43686,-10.392267],[40.43686,-10.474786],[40.008131,-10.811122],[39.760498,-10.943104],[39.482685,-10.999224],[39.263267,-11.166759],[39.126221,-11.139681],[38.896261,-11.167689],[38.759732,-11.263187],[38.654209,-11.275796],[38.492255,-11.413462],[38.347664,-11.358789],[38.25661,-11.27714],[38.155014,-11.280551],[38.117187,-11.252025],[37.954613,-11.280034],[37.875238,-11.319101],[37.816947,-11.533558],[37.450665,-11.722591],[37.331395,-11.68156],[37.141639,-11.674738],[37.032395,-11.564874],[36.905892,-11.59278],[36.837059,-11.567975],[36.726574,-11.680733],[36.562967,-11.731272],[36.502712,-11.686314],[36.199681,-11.701507],[36.151932,-11.571076],[35.969825,-11.502449],[35.953082,-11.440644],[35.826371,-11.413462],[35.69563,-11.494594],[35.66483,-11.572006],[35.576257,-11.605182],[35.423501,-11.576553],[34.964615,-11.573556],[34.955726,-11.48674],[34.886583,-11.375429],[34.772172,-11.344423],[34.716568,-11.211718],[34.62107,-11.119734],[34.592958,-11.016174],[34.67502,-10.752418],[34.660034,-10.665498],[34.581072,-10.539717],[34.583449,-10.277614],[34.524745,-10.094783],[34.536424,-10.043003],[34.317936,-9.719199],[34.012735,-9.477457],[33.945866,-9.55001],[33.951343,-9.67362],[33.911862,-9.717959],[33.734612,-9.584117],[33.438971,-9.62153],[33.300272,-9.492236],[33.172941,-9.511046],[32.97471,-9.381235],[32.920863,-9.4079]]],[[[39.895681,-7.637628],[39.893403,-7.754083],[39.823253,-7.913995],[39.754649,-7.915297],[39.686778,-7.988865],[39.629731,-7.985772],[39.587169,-7.945489],[39.693044,-7.870294],[39.703868,-7.819431],[39.797211,-7.791925],[39.773448,-7.781671],[39.835704,-7.745538],[39.895681,-7.637628]]],[[[39.543468,-6.321222],[39.569509,-6.420831],[39.508474,-6.462823],[39.47169,-6.452081],[39.414236,-6.316339],[39.394054,-6.308201],[39.408458,-6.368259],[39.375662,-6.363377],[39.300466,-6.239353],[39.258474,-6.294529],[39.177013,-6.157892],[39.212901,-6.11419],[39.19044,-5.914239],[39.28004,-5.841974],[39.313487,-5.718438],[39.355724,-5.803806],[39.372569,-5.970798],[39.430186,-6.054864],[39.419932,-6.180759],[39.482432,-6.198337],[39.498546,-6.123793],[39.543468,-6.321222]]],[[[39.643077,-5.413995],[39.656749,-5.349216],[39.698253,-5.34238],[39.669281,-5.302667],[39.726329,-5.280369],[39.690766,-5.259861],[39.780935,-5.239353],[39.649913,-5.190851],[39.72755,-5.205743],[39.746267,-5.178318],[39.690766,-5.137465],[39.720063,-5.083917],[39.677257,-5.044366],[39.675792,-5.001723],[39.712087,-4.992852],[39.682872,-4.905532],[39.814952,-4.980157],[39.855968,-4.897231],[39.878184,-4.987726],[39.831309,-5.083185],[39.837738,-5.132094],[39.862804,-5.132094],[39.855968,-5.253025],[39.796072,-5.406834],[39.786388,-5.383233],[39.729015,-5.454197],[39.738617,-5.431085],[39.643077,-5.413995]]],[[[39.74204,-7.994825],[39.796737,-7.992453],[39.719439,-8.092572],[39.7028,-8.049004],[39.74204,-7.994825]]],[[[39.226104,-5.769169],[39.237862,-5.856047],[39.21447,-5.858106],[39.226104,-5.769169]]],[[[39.575458,-5.394548],[39.659811,-5.47597],[39.615331,-5.463799],[39.575458,-5.394548]]]]}}