{"type":"Feature","properties":{"iso3":"UGA","name":"Uganda","continent":"Africa"},"geometry":{"type":"Polygon","coordinates":[[[30.471786,-1.066837],[30.352752,-1.060761],[30.256685,-1.217237],[30.165579,-1.277492],[30.136331,-1.355213],[29.938462,-1.472932],[29.880739,-1.453605],[29.864203,-1.370303],[29.816143,-1.322554],[29.783174,-1.361414],[29.577915,-1.38839],[29.555281,-0.938495],[29.610781,-0.863977],[29.618843,-0.599394],[29.653053,-0.565597],[29.629385,-0.442401],[29.701628,0.055243],[29.755785,0.16087],[29.800641,0.172445],[29.839605,0.358481],[29.940477,0.498317],[29.919496,0.618103],[29.947298,0.824602],[30.165683,0.921444],[30.269346,1.167268],[30.323813,1.155848],[30.364947,1.202047],[30.478274,1.238634],[30.681724,1.500349],[31.025837,1.778239],[31.271455,2.102999],[31.280096,2.151441],[31.190116,2.221519],[31.177559,2.30291],[31.055241,2.290249],[30.968011,2.405436],[30.930907,2.405591],[30.87179,2.332055],[30.80492,2.434374],[30.707665,2.46228],[30.853393,2.853367],[30.843988,2.932794],[30.757068,3.02147],[30.74787,3.076713],[30.822129,3.281403],[30.91003,3.393412],[30.896388,3.519967],[30.839543,3.490202],[30.939382,3.668408],[31.141489,3.785119],[31.214818,3.792354],[31.505446,3.659855],[31.668537,3.70502],[31.775714,3.810699],[31.901908,3.704297],[31.943662,3.591255],[32.041537,3.57986],[32.076161,3.53317],[32.155846,3.511776],[32.187782,3.61916],[32.371801,3.731065],[32.756429,3.769022],[32.979568,3.879196],[33.164466,3.763053],[33.490648,3.749746],[33.977078,4.219692],[34.006017,4.205713],[34.109576,3.943352],[34.086219,3.894673],[34.108026,3.868938],[34.204971,3.874545],[34.148954,3.822688],[34.159082,3.783362],[34.230396,3.782742],[34.278868,3.709723],[34.337056,3.734579],[34.439686,3.667736],[34.434518,3.52622],[34.382118,3.466043],[34.434001,3.182029],[34.53384,3.118467],[34.58469,2.928711],[34.631405,2.869542],[34.688869,2.879154],[34.740959,2.835539],[34.81868,2.597982],[34.875628,2.591212],[34.920896,2.454632],[34.867876,2.411482],[34.865603,2.347506],[34.967509,2.101914],[34.957897,1.997838],[35.002752,1.906138],[34.972676,1.654241],[34.778993,1.388547],[34.797907,1.231916],[34.683805,1.209075],[34.580452,1.152541],[34.561228,1.093371],[34.487021,1.082467],[34.388009,0.815817],[34.30667,0.768068],[34.2521,0.655],[34.149574,0.603634],[34.080121,0.431344],[34.085185,0.347008],[33.893569,0.109814],[33.953514,-0.154356],[33.894809,-0.662749],[33.904214,-1.002573],[30.777118,-0.98583],[30.651338,-1.062828],[30.471786,-1.066837]]]}}