{"type":"Feature","properties":{"iso3":"UKR","name":"Ukraine","continent":"Europe"},"geometry":{"type":"MultiPolygon","coordinates":[[[[31.764345,52.100568],[31.858706,52.09987],[31.910383,52.029073],[32.233309,52.080853],[32.277699,52.102661],[32.366995,52.2472],[32.35356,52.321588],[32.394281,52.326807],[32.890788,52.242316],[33.196506,52.368949],[33.465326,52.352749],[33.499433,52.340992],[33.510078,52.287533],[33.687948,52.355823],[33.804065,52.354609],[34.05573,52.170331],[34.096657,51.960576],[34.294578,51.873889],[34.41271,51.777693],[34.414157,51.736456],[34.37633,51.708602],[34.089113,51.666615],[34.079501,51.643102],[34.14451,51.613776],[34.223678,51.514764],[34.195979,51.385624],[34.300159,51.36839],[34.308737,51.33462],[34.185954,51.248914],[34.608357,51.234006],[34.674917,51.167679],[34.946115,51.214291],[35.091325,51.197677],[35.143622,51.058487],[35.355082,51.025595],[35.278084,50.992651],[35.282218,50.954255],[35.341749,50.91586],[35.37906,50.797211],[35.438488,50.762381],[35.468873,50.668536],[35.377716,50.621821],[35.425258,50.500485],[35.540807,50.450048],[35.611397,50.351708],[35.69687,50.345145],[35.83743,50.423228],[36.105837,50.42111],[36.269031,50.281376],[36.410005,50.304579],[36.536405,50.267527],[36.549531,50.212182],[36.594386,50.20443],[36.848634,50.323699],[37.197037,50.362405],[37.285197,50.41527],[37.415214,50.431858],[37.480017,50.340029],[37.599183,50.290885],[37.590294,50.20381],[37.72765,50.078701],[37.915856,50.003306],[38.000398,49.899798],[38.166176,49.94057],[38.173928,50.06015],[38.281208,50.062423],[38.376293,49.974935],[38.497526,49.948167],[38.662167,49.962585],[38.680977,49.918298],[38.852233,49.865795],[38.937395,49.803473],[39.032273,49.807349],[39.15578,49.873598],[39.26089,49.74451],[39.557513,49.723994],[39.622935,49.613459],[39.801529,49.542197],[39.998106,49.608239],[40.115515,49.590566],[40.126057,49.559095],[40.0349,49.487058],[40.148071,49.349599],[40.141663,49.245781],[39.952114,49.124548],[39.907259,49.042589],[39.698279,49.028378],[39.673991,48.970139],[39.782305,48.888438],[39.937644,48.856244],[40.034279,48.885596],[40.038724,48.829992],[39.975265,48.789685],[39.779411,48.80772],[39.711405,48.754803],[39.63172,48.586906],[39.809177,48.583754],[39.855066,48.556107],[39.854342,48.47544],[39.924105,48.376118],[39.815895,48.308164],[39.884831,48.278992],[39.978882,48.290077],[39.977642,48.235455],[39.843077,48.119751],[39.844317,48.045673],[39.759878,48.014951],[39.793984,47.945705],[39.775587,47.85801],[39.733833,47.815997],[38.877244,47.86124],[38.796215,47.819925],[38.713016,47.675722],[38.319035,47.591308],[38.260331,47.492942],[38.257954,47.393232],[38.190568,47.316906],[38.201006,47.290629],[38.291853,47.287037],[38.298158,47.256031],[38.203487,47.192314],[38.216645,47.103258],[38.142263,47.037665],[38.108084,47.026353],[38.130382,47.058417],[38.071544,47.099799],[37.546397,47.08161],[37.335216,46.882473],[37.227061,46.936998],[36.853689,46.800482],[36.769298,46.637397],[36.743826,46.642157],[36.790294,46.671291],[36.794281,46.729193],[36.633962,46.779975],[36.400157,46.723944],[36.303477,46.659247],[36.278331,46.607408],[36.189464,46.669013],[35.901622,46.652737],[35.491466,46.447984],[35.184744,46.145494],[35.000011,46.073635],[35.0171,46.112779],[35.20045,46.18301],[35.342133,46.335761],[35.346039,46.361029],[35.267589,46.35106],[35.284516,46.437405],[35.166677,46.49315],[35.209483,46.39643],[35.108409,46.297756],[35.030772,46.251776],[34.893565,46.251776],[34.81129,46.166246],[34.87436,45.926093],[35.001891,45.729003],[34.975667,45.717322],[34.788981,45.803664],[34.784314,45.899341],[34.688637,45.974015],[34.529954,45.981016],[34.464614,45.955347],[34.333934,46.069692],[34.067906,46.104696],[33.846216,46.195705],[33.67028,46.218106],[33.660449,46.148184],[33.549815,46.13642],[33.557872,46.094713],[33.505626,46.080268],[33.516287,46.046332],[33.423839,46.05329],[33.357758,46.103827],[33.290294,46.094713],[33.315684,46.131008],[33.21461,46.128241],[33.235118,46.223822],[33.122895,46.135891],[33.023448,46.169867],[33.032481,46.141018],[32.913097,46.11518],[32.766287,46.135688],[32.503429,46.076117],[32.260509,46.132148],[32.260916,46.188625],[32.115408,46.214545],[31.885753,46.320014],[31.88795,46.295152],[31.785899,46.292385],[31.767345,46.318183],[31.799815,46.342231],[31.968272,46.35106],[32.055186,46.39057],[32.007823,46.448961],[31.748546,46.499945],[31.695974,46.484117],[31.686534,46.429877],[31.508311,46.587592],[31.566661,46.55036],[31.756358,46.554267],[32.317556,46.464342],[32.399669,46.478339],[32.43572,46.543158],[32.645518,46.649604],[32.335785,46.562161],[32.253754,46.604722],[32.146332,46.560248],[32.117931,46.606879],[32.008962,46.639797],[31.936209,46.80036],[32.007498,46.915229],[31.946056,46.946682],[31.968923,46.998684],[31.943696,47.018948],[31.865245,47.026353],[31.896821,47.092719],[31.753266,47.248521],[31.723806,47.237494],[31.742442,47.209174],[31.806163,47.192694],[31.815603,47.122626],[31.861827,47.101508],[31.837413,47.00845],[31.947113,46.999091],[31.907725,46.926459],[31.968272,46.936998],[31.945079,46.859524],[31.864757,46.806586],[31.902843,46.745185],[31.899425,46.649604],[31.814708,46.623033],[31.674083,46.653225],[31.556814,46.614895],[31.504161,46.627997],[31.480968,46.64643],[31.618175,46.813463],[31.495616,46.750718],[31.440684,46.800482],[31.502126,46.727729],[31.428559,46.637641],[31.323904,46.606147],[31.159516,46.628974],[30.790701,46.552924],[30.758311,46.50259],[30.77475,46.400621],[30.731293,46.358588],[30.660655,46.350898],[30.686778,46.309027],[30.653494,46.259589],[30.503429,46.094387],[30.138438,45.81977],[30.135265,45.889146],[30.094574,45.814846],[29.968516,45.838935],[29.952891,45.771959],[29.935069,45.816148],[29.918712,45.799872],[29.932384,45.724189],[29.881684,45.763007],[29.802419,45.737494],[29.865001,45.672349],[29.745942,45.622626],[29.682628,45.696845],[29.680431,45.798285],[29.633556,45.821357],[29.637543,45.709906],[29.603201,45.691311],[29.589692,45.559068],[29.648448,45.545396],[29.707042,45.57331],[29.605154,45.487006],[29.640798,45.441799],[29.672374,45.477118],[29.713227,45.436225],[29.747406,45.463446],[29.75587,45.427883],[29.727712,45.415676],[29.756196,45.321234],[29.729747,45.237738],[29.67449,45.213568],[29.650262,45.346122],[29.430637,45.430406],[29.228169,45.42374],[28.929893,45.279098],[28.789746,45.321421],[28.761531,45.281837],[28.802665,45.244165],[28.710061,45.226956],[28.330239,45.322919],[28.286418,45.421725],[28.201565,45.468854],[28.270423,45.521471],[28.502012,45.508748],[28.500048,45.554585],[28.536893,45.579803],[28.482891,45.650755],[28.504182,45.693698],[28.56144,45.71659],[28.576684,45.761911],[28.669753,45.77731],[28.677298,45.816584],[28.725564,45.82878],[28.74024,45.953217],[28.956868,46.001379],[28.938781,46.089281],[29.015365,46.182609],[28.93351,46.258986],[28.919247,46.404662],[28.945809,46.454788],[29.183059,46.538042],[29.206775,46.502511],[29.200677,46.35712],[29.283256,46.397427],[29.306717,46.471997],[29.362114,46.415928],[29.456724,46.484366],[29.480867,46.482048],[29.473322,46.439802],[29.598586,46.363063],[29.702869,46.42833],[29.714134,46.47117],[29.828132,46.339395],[29.918669,46.373656],[30.08114,46.374199],[30.131576,46.422826],[30.077006,46.422826],[30.009413,46.488068],[29.916086,46.518815],[29.898826,46.553129],[29.949675,46.578863],[29.930658,46.803087],[29.573161,46.933725],[29.6021,47.061005],[29.480867,47.10524],[29.55063,47.160172],[29.544015,47.23425],[29.580189,47.26045],[29.556573,47.324038],[29.480867,47.338274],[29.409553,47.279751],[29.232613,47.44633],[29.163884,47.439379],[29.117426,47.533327],[29.182074,47.613219],[29.234732,47.766801],[29.177733,47.800701],[29.232768,47.85708],[29.110037,47.979656],[29.017226,47.931081],[28.914803,47.953146],[28.771246,48.124454],[28.541596,48.155951],[28.490023,48.065491],[28.459379,48.074457],[28.419019,48.122232],[28.427288,48.163366],[28.328586,48.127012],[28.357731,48.238607],[28.216965,48.208144],[28.178517,48.258864],[28.093251,48.237444],[28.076405,48.314933],[27.92644,48.339428],[27.78526,48.441566],[27.627026,48.451256],[27.582998,48.486034],[27.420217,48.417149],[27.306012,48.42366],[27.208551,48.360615],[27.02634,48.397099],[27.004635,48.358755],[26.943244,48.351262],[26.842785,48.39374],[26.778189,48.357204],[26.785734,48.294108],[26.679797,48.330178],[26.5874,48.249356],[26.311758,48.20972],[26.255327,48.072338],[26.125723,47.978416],[25.261744,47.898576],[25.080257,47.743133],[24.896599,47.710061],[24.793659,47.804473],[24.679144,47.84013],[24.633669,47.908291],[24.542098,47.943819],[24.428514,47.952526],[24.231006,47.897026],[23.977275,47.962293],[23.855215,47.934233],[23.796511,47.981982],[23.646132,47.996606],[23.525623,48.00118],[23.460821,47.971337],[23.139083,48.098125],[23.063119,48.007458],[23.020331,47.984721],[22.924109,48.004823],[22.924213,47.972732],[22.877601,47.946739],[22.840807,47.966789],[22.85476,48.047301],[22.801429,48.090968],[22.745722,48.116289],[22.600098,48.101122],[22.481449,48.242586],[22.357116,48.243103],[22.284355,48.358393],[22.25676,48.357282],[22.271849,48.403455],[22.13284,48.404798],[22.138731,48.569595],[22.310297,48.681681],[22.368898,48.856451],[22.448996,48.971431],[22.505013,48.984246],[22.560721,49.085532],[22.642886,49.043157],[22.744482,49.045535],[22.855276,48.994013],[22.865014,49.013237],[22.841324,49.094886],[22.692496,49.157931],[22.73394,49.26087],[22.724225,49.367065],[22.640922,49.528761],[22.665831,49.567363],[23.101463,49.957107],[23.644169,50.312692],[23.695742,50.376771],[23.981306,50.40478],[24.010658,50.492785],[24.09396,50.52715],[24.10843,50.629882],[24.081041,50.712978],[24.026884,50.728016],[24.025851,50.76083],[23.957638,50.808011],[24.143156,50.856432],[23.979342,50.937512],[23.854492,51.121532],[23.874749,51.13613],[23.628666,51.325964],[23.697602,51.404435],[23.648716,51.453966],[23.662772,51.480192],[23.608099,51.511224],[23.628666,51.531223],[23.599107,51.588971],[23.628976,51.629046],[23.749692,51.644472],[23.981306,51.586],[24.244132,51.718214],[24.311518,51.827561],[24.39079,51.880013],[24.721829,51.882338],[25.138031,51.948949],[25.351971,51.921483],[25.767915,51.928511],[26.080764,51.900657],[26.175332,51.856707],[26.407773,51.850609],[26.431544,51.810224],[26.665741,51.801387],[26.854774,51.749349],[27.151086,51.756764],[27.177855,51.747075],[27.189017,51.663773],[27.277487,51.651138],[27.267462,51.587498],[27.512305,51.623129],[27.676842,51.59481],[27.705161,51.568352],[27.66413,51.492853],[27.714256,51.463707],[27.787327,51.510914],[27.831252,51.612923],[27.973155,51.55781],[28.070824,51.557629],[28.21004,51.651965],[28.346879,51.525151],[28.461239,51.571659],[28.603918,51.553547],[28.647016,51.439006],[28.703963,51.442623],[28.718226,51.411618],[28.746751,51.413995],[28.799875,51.532618],[28.980846,51.569463],[29.063218,51.630596],[29.147967,51.615636],[29.226515,51.519053],[29.221038,51.466963],[29.319946,51.365574],[29.446399,51.384901],[29.637756,51.490889],[29.828649,51.429963],[29.896552,51.464198],[30.14863,51.48443],[30.32619,51.395262],[30.319885,51.341596],[30.355129,51.305267],[30.539613,51.235168],[30.638315,51.33586],[30.622606,51.412108],[30.584004,51.439213],[30.618162,51.459651],[30.584004,51.542256],[30.534136,51.553263],[30.515119,51.596257],[30.630564,51.715604],[30.618162,51.761338],[30.741668,51.897919],[30.779495,51.897919],[30.888739,51.994347],[30.941243,51.993804],[30.91127,52.022562],[30.934421,52.069717],[31.134823,52.076667],[31.228977,52.03822],[31.383076,52.117492],[31.764345,52.100568]]],[[[29.918712,45.69066],[30.125987,45.811469],[29.908051,45.666449],[29.730968,45.591376],[29.918712,45.69066]]],[[[32.989268,46.042629],[33.045095,46.037909],[33.04005,46.012152],[32.619395,46.060004],[32.989268,46.042629]]],[[[31.940278,46.204576],[32.153087,46.155992],[31.580333,46.262763],[31.505056,46.354926],[31.521983,46.368476],[31.554373,46.296332],[31.618175,46.259223],[31.940278,46.204576]]]]}}