{"type":"Feature","properties":{"iso3":"UMI","name":"United States Minor Outlying Islands","continent":"Oceania"},"geometry":{"type":"MultiPolygon","coordinates":[[[[-169.530263,16.760199],[-169.520823,16.7626],[-169.539174,16.754462],[-169.530263,16.760199]]],[[[-160.029978,-0.376153],[-160.008901,-0.372491],[-160.02477,-0.388767],[-160.029978,-0.376153]]],[[[-176.485829,0.196519],[-176.47529,0.193101],[-176.479319,0.190334],[-176.485829,0.196519]]],[[[-176.459543,0.225898],[-176.459177,0.219224],[-176.463938,0.221869],[-176.459543,0.225898]]],[[[-176.636179,0.790188],[-176.639638,0.804958],[-176.636098,0.803412],[-176.636179,0.790188]]],[[[166.619395,19.281643],[166.638194,19.286444],[166.634776,19.305732],[166.648123,19.297756],[166.652354,19.284247],[166.644216,19.27558],[166.619395,19.281643]]],[[[-177.328928,28.211086],[-177.322865,28.207668],[-177.335276,28.204291],[-177.328928,28.211086]]],[[[-177.357655,28.214423],[-177.389597,28.197659],[-177.378,28.212836],[-177.357655,28.214423]]],[[[-169.532338,16.733059],[-169.52241,16.732164],[-169.547353,16.721015],[-169.547678,16.727362],[-169.532338,16.733059]]],[[[-169.513661,16.743964],[-169.513661,16.745592],[-169.512766,16.74433],[-169.513661,16.743964]]],[[[-75.024322,18.417263],[-75.003733,18.410793],[-75.003163,18.397732],[-75.020497,18.400417],[-75.030832,18.413479],[-75.024322,18.417263]]],[[[-162.060862,5.887193],[-162.061106,5.87344],[-162.073069,5.869371],[-162.091135,5.871649],[-162.075063,5.885525],[-162.10029,5.88642],[-162.060862,5.887193]]],[[[-162.400177,6.445136],[-162.385284,6.445136],[-162.385284,6.430243],[-162.400177,6.430243],[-162.400177,6.445136]]]]}}