{"type":"Feature","properties":{"iso3":"URY","name":"Uruguay","continent":"Americas"},"geometry":{"type":"Polygon","coordinates":[[[-57.602793,-30.190517],[-57.586842,-30.204047],[-57.567463,-30.256343],[-57.535992,-30.27443],[-57.44313,-30.269469],[-57.414811,-30.295721],[-57.399257,-30.299131],[-57.353833,-30.27195],[-57.334299,-30.272673],[-57.296472,-30.293344],[-57.270376,-30.275154],[-57.245054,-30.293344],[-57.212601,-30.287349],[-57.183714,-30.267505],[-57.163819,-30.23929],[-57.150848,-30.182343],[-57.129557,-30.149993],[-57.077106,-30.106068],[-57.037883,-30.114647],[-56.97458,-30.09749],[-56.906367,-30.108549],[-56.831281,-30.102037],[-56.795159,-30.123845],[-56.766995,-30.161362],[-56.641783,-30.233916],[-56.632585,-30.247455],[-56.631345,-30.284662],[-56.575017,-30.302439],[-56.523754,-30.357319],[-56.424639,-30.423568],[-56.385985,-30.475761],[-56.215091,-30.581905],[-56.183517,-30.614564],[-56.170804,-30.645777],[-56.131685,-30.671925],[-56.076857,-30.752334],[-56.011357,-30.798222],[-55.989004,-30.855559],[-56.015517,-30.934338],[-56.022183,-31.067147],[-56.011357,-31.082133],[-55.854596,-31.074588],[-55.832479,-31.051747],[-55.763594,-31.008442],[-55.744887,-30.958626],[-55.731891,-30.945397],[-55.665822,-30.949324],[-55.652748,-30.938989],[-55.649673,-30.860958],[-55.634041,-30.847625],[-55.591873,-30.848348],[-55.563865,-30.87646],[-55.51131,-30.906123],[-55.368579,-31.037381],[-55.353852,-31.056294],[-55.338039,-31.125644],[-55.2937,-31.153653],[-55.259981,-31.228687],[-55.244349,-31.244603],[-55.18828,-31.266514],[-55.122238,-31.31354],[-55.087253,-31.326769],[-55.061105,-31.304858],[-55.042346,-31.272612],[-55.029375,-31.268788],[-54.969637,-31.340825],[-54.940802,-31.36563],[-54.900288,-31.382063],[-54.849903,-31.425057],[-54.819776,-31.435289],[-54.604543,-31.459784],[-54.562375,-31.515905],[-54.495041,-31.565617],[-54.483155,-31.583911],[-54.477368,-31.642098],[-54.463725,-31.671864],[-54.274228,-31.823379],[-54.146277,-31.909886],[-54.088451,-31.878156],[-54.049745,-31.887148],[-54.008714,-31.926526],[-53.948769,-31.936964],[-53.905826,-31.959288],[-53.881435,-32.00125],[-53.858077,-32.021197],[-53.83043,-32.036441],[-53.757308,-32.055045],[-53.750022,-32.104034],[-53.721445,-32.162428],[-53.670595,-32.226404],[-53.658555,-32.254309],[-53.643879,-32.355595],[-53.5613,-32.449543],[-53.474638,-32.508247],[-53.415624,-32.564161],[-53.35909,-32.580284],[-53.316043,-32.602712],[-53.266899,-32.607363],[-53.201477,-32.637232],[-53.119776,-32.707408],[-53.110836,-32.722394],[-53.11404,-32.740584],[-53.126856,-32.754847],[-53.163081,-32.778722],[-53.203854,-32.82244],[-53.298835,-32.889102],[-53.316302,-32.96269],[-53.44911,-33.042065],[-53.511535,-33.099219],[-53.536857,-33.170842],[-53.536133,-33.244636],[-53.514016,-33.394911],[-53.536805,-33.559863],[-53.539647,-33.649263],[-53.511535,-33.690294],[-53.456707,-33.687503],[-53.440428,-33.697115],[-53.411283,-33.74228],[-53.379095,-33.740676],[-53.414784,-33.764418],[-53.473053,-33.834568],[-53.524648,-34.002374],[-53.529937,-34.04811],[-53.539459,-34.062433],[-53.591217,-34.095473],[-53.639963,-34.147638],[-53.693593,-34.181736],[-53.755971,-34.267673],[-53.779897,-34.336033],[-53.763661,-34.372491],[-53.764882,-34.390395],[-53.805776,-34.400974],[-53.898305,-34.443943],[-53.972239,-34.487237],[-54.124623,-34.610447],[-54.13679,-34.623956],[-54.145904,-34.667576],[-54.259674,-34.685968],[-54.23233,-34.658136],[-54.252838,-34.630792],[-54.241078,-34.594008],[-54.253285,-34.577569],[-54.328603,-34.561782],[-54.280141,-34.582289],[-54.304433,-34.608575],[-54.344635,-34.630629],[-54.337392,-34.654718],[-54.321156,-34.65252],[-54.322581,-34.644708],[-54.289215,-34.660252],[-54.280141,-34.682306],[-54.306467,-34.707696],[-54.542063,-34.811782],[-54.604156,-34.82643],[-54.636464,-34.84881],[-54.913726,-34.945245],[-54.93932,-34.969903],[-54.958608,-34.973403],[-54.951812,-34.956964],[-54.975738,-34.928481],[-55.03307,-34.916762],[-55.041127,-34.897638],[-55.060374,-34.887791],[-55.129791,-34.885919],[-55.22175,-34.903741],[-55.260243,-34.897638],[-55.338287,-34.81878],[-55.376943,-34.801446],[-55.509636,-34.799065],[-55.601794,-34.772415],[-55.646731,-34.7811],[-55.693448,-34.764741],[-55.756503,-34.782666],[-55.792051,-34.774134],[-55.889101,-34.803475],[-56.069634,-34.901003],[-56.105198,-34.898416],[-56.135633,-34.912829],[-56.149892,-34.920343],[-56.156088,-34.941188],[-56.17729,-34.916325],[-56.213002,-34.907693],[-56.203455,-34.887503],[-56.214589,-34.879588],[-56.230551,-34.87775],[-56.236508,-34.892884],[-56.256337,-34.906183],[-56.311269,-34.906183],[-56.402943,-34.85475],[-56.418446,-34.843032],[-56.420766,-34.82822],[-56.386848,-34.80187],[-56.361282,-34.796636],[-56.37612,-34.782729],[-56.485088,-34.75355],[-56.558013,-34.765069],[-56.646362,-34.722642],[-56.795289,-34.698492],[-56.873891,-34.67018],[-56.919749,-34.623224],[-57.057425,-34.527127],[-57.062408,-34.506524],[-57.120025,-34.462986],[-57.151964,-34.450932],[-57.203198,-34.442073],[-57.346942,-34.443459],[-57.3652,-34.43044],[-57.411428,-34.431506],[-57.436974,-34.444576],[-57.44913,-34.431538],[-57.474663,-34.429541],[-57.537914,-34.453614],[-57.569475,-34.426504],[-57.594997,-34.425473],[-57.7203,-34.463373],[-57.738535,-34.461318],[-57.764115,-34.474295],[-57.855354,-34.470967],[-57.845585,-34.462979],[-57.854048,-34.447882],[-57.882019,-34.440724],[-57.90019,-34.416525],[-57.8976,-34.376339],[-58.016916,-34.253106],[-58.049794,-34.240004],[-58.076975,-34.19199],[-58.119374,-34.169203],[-58.196197,-34.159438],[-58.20873,-34.147638],[-58.231842,-34.0888],[-58.316518,-33.986505],[-58.372426,-33.95436],[-58.402699,-33.922784],[-58.434641,-33.784926],[-58.439361,-33.6985],[-58.425771,-33.612888],[-58.438344,-33.551446],[-58.433217,-33.527765],[-58.385365,-33.47031],[-58.37857,-33.448663],[-58.384877,-33.429132],[-58.412587,-33.409601],[-58.418935,-33.389907],[-58.412587,-33.371677],[-58.361195,-33.325779],[-58.350738,-33.305759],[-58.366933,-33.153741],[-58.351389,-33.121677],[-58.310292,-33.108819],[-58.174428,-33.110447],[-58.137766,-33.095147],[-58.08373,-33.04754],[-58.048492,-32.911716],[-58.057118,-32.881768],[-58.130767,-32.802667],[-58.137685,-32.695571],[-58.145172,-32.678155],[-58.137766,-32.670668],[-58.157216,-32.575128],[-58.177113,-32.545017],[-58.197418,-32.469822],[-58.200124,-32.447201],[-58.164946,-32.389495],[-58.101591,-32.31136],[-58.096527,-32.280974],[-58.106914,-32.251829],[-58.186547,-32.15292],[-58.158797,-32.101554],[-58.145309,-32.01789],[-58.158797,-31.943889],[-58.202618,-31.893143],[-58.196004,-31.872575],[-58.152854,-31.835988],[-58.059268,-31.811494],[-58.048881,-31.797128],[-57.988626,-31.642822],[-57.979583,-31.598794],[-57.986818,-31.554145],[-58.075236,-31.475184],[-58.062575,-31.444281],[-57.990228,-31.399323],[-57.966354,-31.314573],[-57.935606,-31.290285],[-57.905117,-31.240986],[-57.911732,-31.170603],[-57.899019,-31.126471],[-57.855249,-31.058982],[-57.863311,-31.012266],[-57.911732,-30.947361],[-57.90398,-30.929687],[-57.885325,-30.918835],[-57.807242,-30.90757],[-57.796132,-30.868399],[-57.801868,-30.773314],[-57.817887,-30.712026],[-57.88579,-30.589863],[-57.889769,-30.550796],[-57.877109,-30.514829],[-57.849617,-30.48527],[-57.652729,-30.329104],[-57.631077,-30.297064],[-57.623739,-30.2581],[-57.642466,-30.193092],[-57.602793,-30.190517]]]}}