{"type":"Feature","properties":{"iso3":"USA","name":"United States of America","continent":"Americas"},"geometry":{"type":"MultiPolygon","coordinates":[[[[-122.753017,48.992515],[-95.177106,48.99267],[-95.160569,49.369494],[-94.856195,49.318283],[-94.710907,48.807513],[-94.592852,48.726433],[-93.874885,48.636206],[-93.756779,48.516549],[-92.97972,48.61768],[-92.648604,48.536263],[-92.677129,48.441747],[-92.490629,48.433117],[-92.38464,48.232406],[-92.281598,48.33178],[-92.070499,48.346714],[-91.574845,48.048205],[-91.276362,48.064768],[-90.923153,48.227109],[-90.750347,48.083991],[-90.120386,48.115359],[-89.92045,47.98746],[-89.387097,47.980535],[-88.347264,48.298655],[-84.911169,46.912486],[-84.787456,46.657179],[-84.541295,46.452825],[-84.147676,46.541346],[-84.086801,46.201212],[-83.9473,46.0606],[-83.613884,46.115636],[-83.462808,46.007787],[-83.636867,45.773944],[-83.483974,45.771937],[-82.54829,45.334598],[-82.147565,43.611344],[-82.549246,42.590941],[-83.040353,42.331862],[-83.135929,42.200268],[-83.097378,41.875765],[-82.711122,41.680248],[-82.451319,41.671902],[-81.276662,42.208665],[-80.246596,42.365477],[-79.019384,42.802686],[-78.915256,42.947612],[-79.031967,43.013422],[-79.053775,43.260358],[-79.17431,43.464532],[-78.750821,43.617055],[-76.841532,43.625504],[-76.454631,44.084235],[-75.270233,44.863774],[-74.88651,45.009398],[-71.505848,45.013731],[-71.449045,45.226905],[-71.3521,45.278323],[-71.141725,45.252329],[-70.968118,45.34452],[-70.906908,45.246232],[-70.794873,45.430406],[-70.65359,45.395473],[-70.730329,45.507973],[-70.686792,45.572723],[-70.407351,45.731525],[-70.262528,45.923038],[-70.253407,46.251493],[-70.074323,46.419545],[-69.989961,46.721697],[-69.267628,47.439844],[-69.069655,47.431886],[-69.057486,47.269467],[-68.906229,47.190221],[-68.24645,47.360573],[-67.808699,47.075138],[-67.807045,45.71287],[-67.422107,45.568796],[-67.493214,45.493142],[-67.428825,45.38705],[-67.471303,45.266282],[-67.31922,45.153886],[-67.219071,45.192126],[-67.10029,45.069363],[-67.040069,44.973171],[-67.184763,44.916775],[-67.148671,44.815538],[-67.074737,44.870795],[-66.979482,44.818793],[-67.224395,44.644232],[-67.332021,44.709499],[-67.454335,44.6046],[-67.554392,44.64407],[-67.589792,44.533189],[-67.714141,44.500759],[-67.740468,44.588243],[-67.837148,44.577745],[-67.899607,44.422105],[-67.902211,44.486558],[-68.015818,44.472927],[-67.973988,44.41352],[-68.060536,44.328315],[-68.193634,44.520006],[-68.308136,44.529039],[-68.269805,44.48607],[-68.386464,44.424343],[-68.47822,44.493394],[-68.53364,44.256374],[-68.791778,44.316392],[-68.7353,44.414659],[-68.795847,44.561998],[-68.965443,44.431912],[-69.053578,44.089301],[-69.22704,43.935248],[-69.370147,44.021511],[-69.547637,43.834906],[-69.529042,44.004381],[-69.592397,43.807725],[-69.636423,44.003689],[-69.749705,43.900662],[-69.730743,43.775906],[-69.781239,44.036526],[-69.882802,43.97663],[-69.802235,43.860541],[-69.828155,43.698269],[-69.860219,43.856228],[-69.992665,43.725613],[-69.9263,43.828559],[-69.993438,43.751817],[-69.962636,43.821031],[-70.074656,43.814399],[-70.286855,43.650499],[-70.198232,43.59866],[-70.561879,43.301052],[-70.863759,42.826239],[-70.700063,42.640611],[-70.607859,42.667955],[-70.631744,42.612738],[-70.861399,42.546942],[-71.046783,42.321519],[-70.716298,42.211859],[-70.592193,42.020087],[-70.714833,42.002672],[-70.544993,41.940619],[-70.533111,41.81623],[-70.439198,41.75609],[-70.274729,41.715155],[-70.036448,41.785834],[-70.07979,41.995006],[-70.24009,42.059227],[-70.051123,42.039753],[-69.938873,41.674221],[-70.658682,41.521349],[-70.631907,41.711127],[-70.689809,41.739691],[-70.905385,41.640041],[-70.959706,41.531195],[-71.185902,41.468736],[-71.135569,41.75552],[-71.260406,41.651109],[-71.378814,41.804999],[-71.497711,41.366278],[-72.287953,41.282945],[-72.358225,41.357978],[-72.364573,41.297431],[-72.892427,41.244975],[-72.905832,41.300523],[-73.108485,41.148709],[-73.6417,41.001774],[-73.797685,40.813194],[-73.926829,40.804796],[-73.871571,41.115546],[-73.945139,41.291002],[-73.91808,40.931464],[-74.26955,40.483059],[-73.979156,40.449286],[-74.093013,39.776337],[-74.051325,40.035394],[-74.16114,39.720869],[-74.32971,39.562178],[-74.290191,39.523139],[-74.406484,39.520087],[-74.502838,39.318183],[-74.48176,39.364651],[-74.660471,39.289496],[-74.550649,39.289496],[-74.803293,38.987616],[-74.933095,38.926337],[-74.906321,39.179633],[-75.146474,39.187079],[-75.531606,39.477973],[-75.461822,39.748236],[-75.129384,39.883857],[-75.039418,40.002631],[-75.592152,39.649237],[-75.587938,39.462771],[-75.407704,39.27025],[-75.39379,39.055551],[-75.066123,38.678025],[-75.190053,38.606676],[-75.075185,38.586493],[-75.044749,38.425035],[-75.067009,38.35352],[-75.059234,38.422797],[-75.165368,38.416875],[-75.094228,38.335354],[-75.818707,37.454238],[-75.93504,37.158417],[-76.016957,37.257799],[-75.921742,37.610541],[-75.694569,37.802314],[-75.670969,37.892564],[-75.742991,37.905992],[-75.633127,37.960028],[-75.838124,37.94123],[-75.756581,38.092597],[-75.914296,38.151801],[-75.818674,38.23371],[-75.902415,38.293769],[-75.858062,38.358588],[-75.955678,38.257799],[-75.955312,38.35102],[-76.01891,38.334784],[-76.037913,38.232489],[-76.304026,38.463284],[-76.171986,38.56623],[-76.286041,38.562812],[-76.256256,38.604234],[-75.970204,38.606594],[-75.959381,38.655707],[-75.999927,38.602595],[-76.154449,38.652655],[-76.106068,38.679389],[-76.221878,38.750932],[-76.326516,38.718243],[-76.277252,38.840888],[-76.131459,38.772895],[-76.194376,38.813918],[-76.106068,38.877997],[-76.243276,38.950629],[-76.374748,38.841573],[-76.322092,39.006415],[-76.167877,38.996324],[-76.077219,39.128363],[-76.212461,39.051791],[-76.234092,39.230449],[-76.105362,39.372048],[-75.860093,39.361785],[-76.006597,39.380548],[-75.839182,39.460761],[-75.851308,39.538398],[-75.966052,39.481732],[-75.934722,39.604193],[-76.092397,39.550198],[-76.122426,39.411038],[-76.222768,39.440334],[-76.284169,39.310614],[-76.311513,39.402777],[-76.401479,39.392524],[-76.336659,39.369208],[-76.449178,39.194957],[-76.581166,39.26732],[-76.430227,39.106334],[-76.45557,38.988735],[-76.539591,39.064069],[-76.469929,38.95374],[-76.551666,38.77558],[-76.419359,38.321706],[-76.602456,38.444335],[-76.671783,38.654446],[-76.675917,38.509433],[-76.385783,38.306303],[-76.328048,38.076149],[-76.456125,38.207017],[-76.510121,38.140082],[-76.80421,38.253623],[-76.848988,38.382514],[-76.839216,38.257217],[-76.895726,38.282406],[-77.01402,38.441629],[-77.231931,38.374068],[-77.267041,38.49408],[-77.018422,38.743964],[-77.060084,38.899068],[-77.042527,38.728908],[-77.239369,38.62641],[-77.323379,38.390188],[-77.058461,38.394192],[-76.912868,38.199168],[-76.607168,38.143452],[-76.530629,38.025133],[-76.242453,37.881595],[-76.321116,37.62401],[-76.504994,37.656928],[-77.107167,38.174954],[-76.551982,37.626758],[-76.270062,37.517356],[-76.25764,37.33551],[-76.396596,37.429592],[-76.442494,37.390815],[-76.376861,37.301215],[-76.45743,37.261053],[-76.781077,37.535468],[-76.606224,37.295789],[-76.402984,37.233832],[-76.274526,37.048041],[-76.415435,36.972561],[-76.634023,37.220689],[-77.277943,37.329332],[-76.689117,37.188625],[-76.659743,37.04331],[-76.494722,36.953986],[-76.524403,36.870673],[-76.291656,36.849555],[-76.330426,36.949787],[-76.268901,36.961415],[-76.004592,36.932358],[-75.523834,35.794379],[-75.730784,36.074897],[-75.957834,36.719428],[-75.968251,36.551663],[-75.90807,36.521226],[-76.044586,36.589504],[-76.029042,36.480292],[-75.94872,36.37519],[-75.931304,36.428697],[-75.790354,36.09927],[-75.961741,36.306952],[-75.937164,36.185045],[-76.20226,36.3015],[-76.068512,36.17182],[-76.269887,36.199123],[-76.213857,36.123236],[-76.445424,36.196194],[-76.311513,36.096096],[-76.57726,36.012397],[-76.724517,36.155341],[-76.729848,36.322659],[-76.729848,35.952704],[-76.048329,35.98371],[-76.072743,35.666734],[-75.994862,35.730292],[-75.98998,35.886908],[-75.852854,35.979967],[-75.722035,35.810736],[-75.773346,35.602607],[-75.878041,35.614732],[-76.218129,35.348863],[-76.410268,35.364325],[-76.394032,35.44123],[-76.498362,35.391343],[-76.557932,35.548041],[-76.647328,35.520697],[-76.596303,35.421129],[-76.650014,35.415351],[-77.01415,35.507758],[-76.472646,35.277411],[-76.64859,35.187161],[-76.613149,35.096137],[-76.725942,35.000556],[-76.873647,35.008694],[-77.043365,35.143622],[-76.940256,34.979804],[-76.761952,34.912421],[-76.555328,34.936713],[-76.476959,35.041083],[-76.396108,34.950141],[-76.353139,35.027248],[-76.269887,34.965155],[-76.346262,34.883246],[-76.512766,34.734361],[-76.709788,34.796576],[-76.708079,34.738267],[-77.107249,34.732408],[-77.318023,34.564276],[-77.413726,34.73786],[-77.387196,34.53384],[-77.832672,34.207017],[-77.911122,33.958157],[-77.940663,34.14765],[-78.008941,33.90469],[-78.367258,33.950914],[-78.763336,33.778551],[-79.133127,33.417426],[-79.182607,33.241278],[-79.268463,33.306708],[-79.200999,33.422105],[-79.277089,33.359117],[-79.22289,33.157945],[-79.319895,33.153876],[-79.379791,33.029731],[-79.570139,33.019273],[-79.573842,32.936754],[-79.798655,32.773098],[-79.9381,32.854071],[-79.887318,32.688137],[-80.177113,32.567043],[-80.23233,32.612982],[-80.303456,32.497952],[-80.677968,32.511461],[-80.516103,32.495429],[-80.563547,32.465644],[-80.46349,32.40412],[-80.530385,32.373521],[-80.437245,32.409817],[-80.553293,32.278795],[-80.626047,32.2626],[-80.651194,32.445543],[-80.66747,32.305365],[-80.759348,32.360785],[-80.822499,32.518134],[-80.704701,32.19066],[-80.82079,32.10814],[-80.777211,32.207261],[-80.823476,32.165758],[-80.980458,31.865383],[-81.095326,31.916002],[-81.10554,31.742662],[-81.228627,31.75495],[-81.33523,31.366906],[-81.47997,31.374213],[-81.274648,31.235541],[-81.495839,31.126207],[-81.403676,31.121283],[-81.424143,31.025051],[-81.513539,31.093329],[-81.459137,31.038642],[-81.513539,30.805976],[-81.430531,30.66474],[-81.500315,30.551256],[-81.414947,30.465725],[-81.184641,29.603746],[-80.567616,28.557807],[-80.592193,28.207913],[-80.451894,27.90941],[-80.610666,28.164944],[-80.594309,28.58511],[-80.747792,28.604926],[-80.752349,28.741929],[-80.828928,28.783026],[-80.738271,28.373481],[-80.197825,27.19599],[-80.301015,27.243354],[-80.142405,27.122138],[-80.038238,26.811184],[-80.128774,25.775295],[-80.128774,25.862128],[-80.310414,25.598944],[-80.401967,25.195543],[-80.580637,25.241441],[-80.710927,25.14525],[-81.101959,25.124742],[-81.177113,25.227769],[-81.129954,25.344468],[-80.927235,25.224066],[-81.141347,25.384752],[-81.348459,25.81684],[-81.711497,25.906887],[-81.742543,25.957465],[-81.664377,25.98135],[-81.754384,26.04206],[-81.843861,26.414211],[-81.978383,26.482164],[-81.797678,26.686754],[-81.947743,26.548896],[-82.0631,26.560981],[-82.064565,26.874945],[-81.978383,26.996161],[-82.155181,26.927639],[-82.242014,26.99551],[-82.15095,26.81802],[-82.313832,26.849351],[-82.58788,27.408189],[-82.729156,27.514716],[-82.668365,27.471625],[-82.389963,27.811103],[-82.433746,27.929145],[-82.527089,27.824774],[-82.534535,27.917222],[-82.690989,28.037665],[-82.718861,27.927802],[-82.561879,27.886176],[-82.672475,27.695054],[-82.853912,27.870347],[-82.664215,28.447943],[-82.631093,28.872992],[-82.800852,29.17475],[-83.040679,29.180121],[-83.724477,29.950141],[-84.024037,30.106594],[-84.250396,30.097602],[-84.364369,30.048529],[-84.343861,29.974026],[-84.419057,29.989976],[-84.348988,29.902045],[-85.365834,29.686347],[-85.413482,29.851386],[-85.343984,29.689114],[-85.302154,29.797919],[-85.370839,29.906968],[-85.670888,30.122952],[-85.42634,30.028225],[-85.513499,30.13935],[-85.697377,30.173651],[-85.579213,30.286119],[-85.85436,30.264838],[-85.741363,30.178371],[-86.484975,30.392768],[-86.135121,30.391303],[-86.243316,30.490953],[-86.426259,30.463324],[-86.412668,30.517971],[-86.602284,30.41828],[-87.194081,30.360297],[-86.940175,30.456488],[-87.008453,30.596422],[-87.067535,30.460598],[-87.166127,30.586819],[-87.156809,30.474514],[-87.299916,30.349677],[-87.529205,30.277737],[-87.345611,30.42768],[-87.387074,30.463284],[-87.522532,30.335639],[-87.60558,30.360297],[-87.65453,30.252102],[-87.998402,30.223619],[-87.776235,30.313137],[-87.916575,30.423326],[-88.015981,30.735338],[-88.120107,30.338324],[-88.335439,30.403876],[-88.487701,30.329983],[-88.742055,30.354071],[-88.927642,30.442206],[-88.982289,30.428534],[-88.859364,30.408108],[-89.354807,30.358588],[-89.437815,30.205756],[-89.5655,30.163479],[-90.222401,30.38758],[-90.405019,30.22016],[-90.379994,30.08039],[-90.168365,30.024482],[-89.880442,30.154853],[-89.688466,30.13524],[-89.718617,30.042222],[-89.835113,30.026313],[-89.641591,29.875149],[-89.488271,30.057807],[-89.372548,30.054674],[-89.442209,29.983059],[-89.331695,29.879869],[-89.345326,29.791693],[-89.585561,29.7508],[-89.482533,29.640855],[-89.672515,29.701483],[-89.694814,29.572008],[-89.528798,29.411566],[-89.211049,29.335273],[-89.010162,29.17475],[-89.153432,29.029934],[-89.232411,29.099677],[-89.374013,28.947455],[-89.276194,29.160102],[-89.360992,29.091702],[-89.482533,29.243069],[-89.794998,29.312684],[-89.749787,29.355809],[-89.816314,29.474351],[-90.182037,29.579495],[-90.023752,29.428616],[-90.08023,29.174709],[-90.198476,29.098293],[-90.250356,29.236802],[-90.337514,29.293606],[-90.393707,29.243069],[-90.425038,29.346096],[-90.562001,29.300727],[-90.640736,29.140611],[-90.79308,29.126207],[-91.327992,29.294867],[-91.246571,29.378119],[-91.122222,29.263007],[-91.262563,29.469062],[-91.2412,29.612982],[-91.294423,29.49433],[-91.559316,29.538479],[-91.637929,29.742092],[-91.833079,29.723456],[-91.893951,29.837633],[-92.202382,29.76439],[-92.06017,29.636949],[-92.314307,29.534369],[-93.199593,29.772811],[-93.821376,29.709451],[-93.888238,29.807175],[-93.781941,29.856515],[-93.818646,29.986755],[-93.938112,29.805903],[-93.887318,29.674547],[-94.101959,29.6706],[-94.742421,29.374661],[-94.485951,29.566107],[-94.755235,29.524271],[-94.719494,29.776551],[-94.82649,29.768144],[-94.876076,29.665842],[-95.015502,29.7203],[-95.015981,29.568915],[-94.907798,29.49631],[-94.942942,29.422024],[-94.821116,29.373969],[-95.115875,29.17475],[-95.170522,29.20893],[-95.150014,29.089097],[-95.231516,28.99551],[-95.601918,28.763861],[-95.951975,28.688707],[-95.954945,28.636379],[-95.719228,28.715481],[-96.188222,28.501654],[-95.987782,28.644843],[-96.226471,28.587144],[-96.158925,28.615139],[-96.19225,28.680894],[-96.308095,28.651068],[-96.435048,28.755683],[-96.3697,28.626654],[-96.493235,28.578925],[-96.444814,28.597357],[-96.617502,28.722073],[-96.608632,28.578925],[-96.493235,28.510647],[-96.545522,28.487738],[-96.406809,28.458726],[-96.653717,28.319485],[-96.801666,28.475246],[-96.782338,28.241604],[-96.928212,28.133246],[-96.908803,28.248765],[-96.95934,28.153754],[-97.007436,28.194525],[-97.198598,28.096829],[-97.149078,28.00552],[-97.026275,28.047675],[-97.184071,27.836615],[-97.473378,27.861029],[-97.267201,27.708075],[-97.408315,27.357367],[-97.541575,27.290351],[-97.4912,27.381496],[-97.603017,27.317694],[-97.774281,27.468492],[-97.672231,27.321357],[-97.774281,27.297797],[-97.426096,27.263658],[-97.559967,26.950751],[-97.481313,26.877631],[-97.562489,26.851386],[-97.457631,26.667222],[-97.447987,26.433336],[-97.223866,26.095893],[-97.259836,26.02912],[-97.236236,25.984198],[-97.175364,26.070868],[-97.139272,25.965806],[-97.397823,25.865812],[-97.659874,26.03066],[-98.222656,26.075412],[-98.36934,26.19401],[-99.108907,26.434253],[-99.248278,26.827097],[-99.461728,27.056954],[-99.515006,27.588601],[-99.83292,27.776755],[-100.048901,28.115959],[-100.257932,28.260524],[-100.322631,28.510406],[-100.783172,29.243074],[-101.446103,29.771052],[-102.109344,29.80211],[-102.302175,29.889391],[-102.406096,29.777279],[-102.676054,29.74449],[-102.885498,29.314801],[-102.858781,29.229147],[-103.147989,28.985105],[-103.301545,29.002365],[-103.774229,29.267517],[-104.01915,29.32033],[-104.516639,29.654315],[-104.676526,29.93683],[-104.67867,30.170356],[-104.93434,30.610536],[-105.496682,30.95651],[-105.948515,31.361239],[-106.209249,31.477305],[-106.428951,31.758476],[-108.189283,31.7777],[-108.214863,31.334471],[-111.006269,31.327185],[-114.780147,32.487243],[-114.739477,32.669066],[-114.838076,32.704206],[-117.125121,32.531669],[-117.188385,32.682685],[-117.115089,32.600262],[-117.119892,32.652634],[-117.224244,32.718641],[-117.236562,32.669623],[-117.322161,33.108501],[-117.508844,33.335205],[-118.090536,33.730977],[-118.385001,33.740116],[-118.544057,34.038886],[-119.00808,34.06612],[-119.581791,34.412701],[-120.425201,34.451321],[-120.644437,34.574131],[-120.644887,35.13939],[-120.849793,35.202913],[-120.908184,35.448244],[-121.288313,35.66483],[-121.506678,36.00326],[-121.873606,36.290025],[-121.978002,36.574767],[-121.837929,36.635612],[-121.789812,36.806199],[-121.905601,36.969126],[-122.134991,36.965726],[-122.404457,37.194526],[-122.517565,37.545266],[-122.515172,37.781126],[-122.408637,37.810392],[-122.354142,37.613507],[-122.038645,37.451402],[-122.410173,37.931922],[-122.27557,38.039101],[-121.722971,38.011135],[-121.582054,38.092],[-121.627713,38.050833],[-121.459013,38.004781],[-121.627187,38.105618],[-121.778709,38.036019],[-121.702992,38.105618],[-121.882527,38.0569],[-122.055165,38.133734],[-122.13029,38.042142],[-122.39652,38.153231],[-122.502317,38.113521],[-122.459009,37.862485],[-122.522586,37.82197],[-122.948476,38.060736],[-123.027453,37.994489],[-122.949648,38.143991],[-122.996297,38.24273],[-122.843373,38.091986],[-123.124579,38.437479],[-123.742607,38.955624],[-123.691314,39.03856],[-123.824924,39.347296],[-123.769768,39.544646],[-123.854019,39.833514],[-124.36351,40.261481],[-124.409202,40.443818],[-124.252553,40.734768],[-124.22576,40.686123],[-124.087398,40.825156],[-124.223288,40.757096],[-124.067809,41.398921],[-124.159459,41.736675],[-124.232361,41.762363],[-124.202219,41.960395],[-124.430653,42.349555],[-124.408534,42.644964],[-124.532053,42.803941],[-124.385375,43.330158],[-124.316514,43.299832],[-124.232874,43.424081],[-124.151845,43.369452],[-124.208698,43.45219],[-124.325283,43.362537],[-124.215688,43.627387],[-124.072499,43.704739],[-124.171515,43.697603],[-124.176018,43.762477],[-124.063194,44.60952],[-124.01202,44.599835],[-124.073374,44.777653],[-123.918446,45.41767],[-123.944581,45.621341],[-123.871083,45.697903],[-123.963929,45.743869],[-123.990549,45.937934],[-123.923329,46.013983],[-123.990468,46.200507],[-123.798736,46.102444],[-123.860798,46.180942],[-123.497141,46.232815],[-123.325961,46.138886],[-123.20554,46.164614],[-123.701925,46.30335],[-124.052103,46.273612],[-124.062876,46.654941],[-123.977701,46.382444],[-123.87589,46.41912],[-123.95641,46.623114],[-123.776479,46.667182],[-124.070325,46.734813],[-124.130483,46.885972],[-124.028391,46.83397],[-124.046928,46.891136],[-123.813059,46.95897],[-124.11687,47.042917],[-124.153428,46.930124],[-124.42276,47.741889],[-124.671986,47.990709],[-124.722971,48.150092],[-124.661488,48.319525],[-124.718251,48.357367],[-123.943948,48.165543],[-123.287461,48.118217],[-123.108251,48.183838],[-123.161285,48.151923],[-123.007883,48.03856],[-122.94107,48.097886],[-122.857289,48.029527],[-122.770172,48.141099],[-122.62621,47.889553],[-122.789296,47.684516],[-122.805653,47.843451],[-123.158437,47.372056],[-122.839182,47.431952],[-123.113515,47.391018],[-122.528066,47.905504],[-122.484527,47.782131],[-122.579701,47.698188],[-122.651601,47.732571],[-122.592152,47.597073],[-122.681508,47.651679],[-122.690012,47.596625],[-122.675933,47.537665],[-122.553131,47.583401],[-122.560658,47.301337],[-122.661041,47.287909],[-122.633127,47.404608],[-122.727935,47.330634],[-122.742991,47.191718],[-122.798695,47.204983],[-122.798085,47.371487],[-123.078765,47.096137],[-122.930247,47.174465],[-122.979075,47.101508],[-122.925649,47.078315],[-122.852854,47.165025],[-122.685902,47.104397],[-122.537099,47.278551],[-122.433095,47.264879],[-122.323598,47.372545],[-122.399485,47.813951],[-122.207346,48.01439],[-122.41686,48.225531],[-122.448069,48.134182],[-122.348012,48.054267],[-122.489654,48.130439],[-122.53395,48.249677],[-122.375315,48.280748],[-122.683461,48.430162],[-122.633046,48.516262],[-122.527211,48.460354],[-122.488393,48.512926],[-122.567006,48.585354],[-122.444325,48.603258],[-122.554677,48.77733],[-122.65038,48.718166],[-122.808095,48.934516],[-122.753017,48.992515]]],[[[-141.005564,69.650946],[-141.001156,60.321074],[-140.01579,60.187387],[-139.679816,60.32681],[-139.101608,60.346602],[-139.183231,60.100157],[-139.112305,60.031376],[-138.692098,59.886888],[-138.59921,59.753822],[-137.611363,59.239331],[-137.453466,58.899145],[-136.840816,59.148174],[-136.613491,59.15422],[-136.484791,59.2538],[-136.467557,59.461643],[-136.244728,59.528202],[-136.350329,59.592384],[-135.482759,59.792475],[-135.259879,59.698218],[-135.032942,59.573109],[-135.078598,59.438337],[-134.979973,59.297415],[-134.477575,59.114946],[-134.22219,58.842714],[-133.87123,58.735899],[-133.392241,58.403878],[-133.41503,58.330549],[-132.230994,57.19682],[-132.34122,57.080393],[-132.031859,57.028406],[-132.107384,56.858753],[-131.871558,56.79346],[-131.832103,56.603368],[-131.536437,56.585229],[-130.760334,56.345192],[-130.427926,56.143964],[-130.071539,56.084123],[-130.019618,55.907952],[-130.173655,55.749498],[-129.989247,55.284003],[-130.365387,54.907294],[-130.671457,54.77204],[-130.74356,54.966295],[-130.734039,54.843085],[-130.831899,54.765367],[-130.918324,54.802924],[-130.986969,55.043524],[-130.744211,55.083157],[-130.473459,55.310126],[-130.759918,55.096991],[-131.038238,55.108385],[-131.065297,55.186225],[-130.938303,55.287095],[-130.632151,55.291002],[-130.873158,55.342027],[-130.889882,55.715277],[-131.176829,55.951972],[-131.009674,56.112616],[-131.341868,55.960924],[-131.900624,55.865465],[-131.765859,55.816881],[-131.887318,55.619208],[-132.004018,55.667629],[-131.934071,55.526597],[-132.134633,55.565172],[-132.261545,55.739651],[-132.073598,55.802802],[-131.955637,55.961859],[-131.963043,56.157375],[-131.529286,56.214016],[-131.87682,56.22309],[-131.971303,56.356431],[-132.337148,56.523749],[-132.305043,56.640204],[-132.520009,56.627672],[-132.369496,56.814114],[-132.537099,56.758124],[-132.761383,56.845771],[-132.896555,56.958075],[-132.786204,56.967597],[-132.809804,57.05565],[-133.538157,57.176459],[-133.485097,57.277004],[-133.05842,57.331855],[-133.442128,57.358954],[-133.344797,57.405422],[-133.497426,57.531562],[-133.348866,57.575914],[-133.59142,57.574612],[-133.646637,57.687201],[-133.008534,57.511868],[-133.52892,57.750922],[-133.558176,57.889635],[-133.142486,57.854722],[-133.554311,57.929429],[-133.68635,57.790717],[-133.861155,57.956732],[-133.701812,57.940009],[-133.755483,58.030097],[-133.685048,58.142808],[-133.864369,57.986965],[-134.059722,58.07217],[-134.005849,58.372382],[-133.920074,58.497545],[-133.771799,58.518459],[-133.959625,58.512641],[-134.144928,58.209906],[-134.767323,58.400336],[-134.975657,58.658922],[-134.920644,58.660346],[-134.93399,58.777411],[-135.026031,58.793158],[-135.025543,58.737535],[-135.149037,58.843695],[-135.367543,59.312934],[-135.331695,59.451565],[-135.401112,59.319892],[-135.527903,59.319729],[-135.306996,59.11107],[-135.519643,59.236518],[-135.168446,58.645738],[-135.226186,58.612291],[-135.057281,58.351549],[-135.135162,58.219428],[-135.30956,58.252143],[-135.467519,58.467353],[-135.507069,58.380683],[-135.886708,58.379381],[-135.950347,58.456366],[-135.847971,58.470038],[-135.889556,58.573065],[-135.820668,58.600328],[-136.057525,58.803697],[-135.758616,58.888373],[-136.013824,58.85871],[-136.141713,59.037095],[-136.202382,58.934068],[-136.097524,58.876858],[-136.209706,58.7508],[-136.382395,58.806464],[-136.259511,58.826321],[-136.475209,58.836575],[-136.492258,58.963446],[-136.574127,58.915717],[-136.693105,59.017971],[-136.608266,58.908271],[-136.657704,58.898749],[-137.063914,59.055406],[-136.929311,58.968329],[-137.129709,58.833157],[-136.895863,58.892401],[-136.587554,58.848334],[-136.484771,58.799628],[-136.649892,58.820054],[-136.515859,58.702379],[-136.3426,58.691555],[-136.519521,58.620836],[-136.29719,58.647121],[-136.082509,58.516425],[-136.076283,58.345608],[-136.272817,58.312974],[-136.327748,58.408596],[-136.50593,58.442694],[-136.561147,58.373765],[-136.410064,58.37934],[-136.370595,58.299547],[-136.656728,58.339667],[-136.574778,58.282131],[-136.65099,58.220526],[-136.860504,58.382392],[-137.131418,58.401313],[-137.620758,58.602607],[-137.451975,58.650092],[-137.642974,58.634508],[-138.184885,59.02558],[-138.610015,59.127997],[-138.446523,59.176093],[-138.688344,59.176988],[-139.857004,59.546291],[-139.644887,59.57274],[-139.480051,59.704413],[-139.621083,59.890286],[-139.473215,59.993598],[-139.305165,59.864691],[-139.289906,59.576158],[-139.226389,59.621405],[-139.279612,59.819729],[-138.920074,59.804999],[-139.218739,59.871039],[-139.507232,60.046536],[-139.849029,59.819403],[-140.322743,59.701239],[-141.428538,59.872138],[-141.46817,59.903062],[-141.260121,59.994208],[-141.443512,60.135688],[-141.399403,60.052802],[-141.673492,59.961127],[-142.798492,60.112372],[-143.918609,59.997016],[-144.249623,60.032294],[-144.031361,60.034084],[-144.187571,60.193671],[-144.601471,60.196438],[-144.916575,60.294745],[-144.790842,60.464911],[-144.853179,60.469875],[-144.818756,60.584133],[-144.746449,60.676581],[-144.633168,60.669745],[-144.705393,60.703803],[-145.235911,60.368109],[-145.938754,60.456066],[-145.62914,60.652737],[-146.003651,60.635647],[-145.914296,60.703925],[-146.256907,60.646186],[-146.032216,60.788398],[-146.482289,60.686957],[-146.695709,60.744818],[-146.093088,60.84101],[-146.223459,60.892646],[-146.61913,60.831041],[-146.753163,60.964301],[-146.60497,60.937161],[-146.685292,61.011664],[-146.590932,61.032904],[-146.647939,61.073798],[-146.283762,61.081448],[-146.30012,61.132514],[-146.585846,61.136461],[-146.94872,60.949652],[-147.207265,61.008694],[-147.364613,60.891262],[-147.429026,60.905585],[-147.380971,60.985663],[-147.468861,61.000474],[-147.509755,60.925727],[-147.543284,61.15705],[-147.658599,61.019477],[-147.596791,60.885688],[-147.664662,60.858303],[-147.703114,60.944729],[-147.870188,60.837714],[-148.019846,60.941636],[-147.723215,61.255927],[-148.049428,61.026597],[-148.139963,61.11286],[-148.390574,61.067288],[-148.449818,60.999335],[-148.177724,61.076606],[-148.207143,60.98192],[-148.313588,60.969794],[-148.332875,60.819403],[-148.703684,60.79267],[-148.476308,60.814276],[-148.677724,60.700344],[-148.621327,60.695136],[-148.374705,60.779608],[-148.429921,60.62873],[-148.264638,60.76081],[-148.20641,60.65351],[-148.315256,60.549709],[-148.462473,60.589301],[-148.68989,60.457221],[-148.470204,60.54621],[-148.237538,60.457465],[-148.093821,60.603583],[-147.944407,60.468899],[-148.379709,60.287421],[-148.415232,60.204413],[-148.189768,60.25141],[-148.264841,60.232164],[-148.210194,60.155829],[-148.105946,60.230862],[-148.216746,60.129096],[-148.322987,60.172593],[-148.451365,59.955024],[-148.54601,60.032294],[-148.645579,59.923163],[-149.074778,59.969468],[-149.103098,60.058092],[-149.285878,59.874661],[-149.408681,60.123725],[-149.448801,59.968085],[-149.60615,59.845526],[-149.54658,59.751776],[-149.635935,59.74494],[-149.724721,59.964057],[-149.76594,59.839667],[-149.829945,59.856676],[-149.789866,59.673245],[-150.018666,59.798529],[-149.957468,59.669827],[-150.119252,59.700344],[-150.087839,59.594672],[-150.198354,59.586982],[-150.177195,59.53205],[-150.389475,59.477444],[-150.224355,59.715399],[-150.465199,59.494452],[-150.541941,59.515286],[-150.505849,59.581855],[-150.616689,59.564399],[-150.636464,59.463121],[-150.917673,59.326565],[-150.958608,59.203681],[-151.034983,59.292467],[-151.228708,59.316352],[-151.146311,59.20954],[-151.39684,59.258287],[-151.741526,59.167141],[-151.986684,59.292792],[-151.689076,59.480292],[-151.423166,59.453925],[-151.41747,59.546291],[-151.194773,59.597602],[-150.992787,59.779039],[-151.430979,59.666205],[-151.42573,59.611518],[-151.871775,59.749457],[-151.706044,60.041693],[-151.465443,60.18769],[-151.300649,60.423326],[-151.396921,60.738023],[-151.071482,60.785346],[-150.387034,61.047268],[-150.043772,60.916815],[-149.752919,60.973822],[-149.025828,60.854682],[-150.067332,61.155748],[-149.65571,61.409003],[-149.261057,61.48664],[-149.41686,61.498969],[-149.757395,61.453355],[-149.983754,61.246324],[-150.450551,61.25259],[-150.541737,61.286566],[-150.540273,61.369289],[-151.177113,61.053941],[-151.746938,60.916815],[-151.795277,60.868964],[-151.717763,60.743069],[-151.910105,60.731106],[-152.232901,60.559881],[-152.343373,60.457424],[-152.24592,60.395982],[-152.467763,60.282294],[-152.596303,60.228461],[-153.082631,60.299791],[-152.706532,60.17121],[-152.597971,60.04267],[-152.856679,59.882066],[-153.229726,59.868476],[-153.279164,59.832343],[-153.005686,59.827053],[-153.055287,59.71015],[-153.199818,59.654202],[-153.391103,59.649359],[-153.358957,59.720771],[-153.452585,59.79267],[-153.513173,59.641791],[-153.695627,59.64468],[-153.570383,59.609117],[-153.621938,59.555243],[-153.855784,59.555609],[-153.751454,59.440253],[-154.145253,59.381171],[-153.994456,59.374945],[-154.24767,59.168891],[-154.16511,59.02558],[-153.711537,59.070746],[-153.415028,58.974026],[-153.270823,58.871405],[-153.438832,58.733588],[-154.110463,58.477484],[-154.061879,58.364569],[-154.364369,58.285102],[-154.121327,58.279731],[-154.329579,58.106879],[-154.47053,58.194241],[-154.460398,58.115058],[-154.577016,58.125718],[-154.583119,58.02497],[-155.040151,58.017239],[-155.137929,57.873114],[-155.32551,57.839545],[-155.351186,57.730536],[-155.605092,57.792222],[-155.588612,57.689643],[-155.76183,57.648261],[-155.793202,57.544582],[-156.020457,57.576809],[-156.060658,57.430243],[-156.221873,57.468329],[-156.544626,57.322699],[-156.339955,57.285305],[-156.447377,57.229926],[-156.346018,57.177802],[-156.542795,57.045396],[-156.625478,57.079047],[-156.565378,57.004543],[-156.776357,57.051744],[-156.824452,56.897284],[-156.94929,56.976223],[-157.215199,56.780341],[-157.419667,56.867377],[-157.448435,56.758938],[-157.60558,56.722154],[-157.473826,56.625434],[-157.804189,56.678127],[-158.127634,56.549506],[-157.881947,56.570624],[-157.877146,56.478217],[-158.126332,56.516669],[-158.41572,56.446479],[-158.632802,56.298245],[-158.208241,56.283922],[-158.386586,56.235989],[-158.326405,56.200385],[-158.147328,56.245795],[-158.393259,56.181545],[-158.407582,56.078437],[-158.487009,56.059638],[-158.434071,56.042914],[-158.53364,56.004462],[-158.601918,56.086737],[-158.479237,56.191474],[-158.639638,56.202053],[-158.564565,56.167914],[-158.742909,55.95539],[-158.888254,55.983832],[-158.928293,55.920844],[-159.380849,55.871405],[-159.416331,55.802151],[-159.544993,55.889635],[-159.510487,55.783026],[-159.626536,55.578274],[-159.741689,55.613267],[-159.623402,55.63288],[-159.693308,55.660346],[-159.650746,55.786811],[-159.830393,55.852729],[-160.142161,55.733791],[-160.133656,55.674465],[-160.419423,55.653876],[-160.366404,55.612982],[-160.495188,55.486151],[-160.598948,55.606106],[-160.74177,55.548651],[-160.68342,55.464667],[-160.92455,55.51911],[-161.279164,55.354885],[-161.479115,55.361029],[-161.481923,55.480373],[-161.388743,55.57217],[-161.182607,55.523627],[-161.408193,55.635932],[-161.620798,55.612982],[-161.894521,55.242418],[-162.018015,55.239814],[-162.001291,55.093207],[-162.192738,55.142564],[-162.202097,55.039862],[-162.472239,55.048977],[-162.526479,55.10224],[-162.360707,55.105292],[-162.645334,55.300035],[-162.705312,55.201361],[-162.599965,55.137112],[-162.641713,55.090969],[-162.559926,54.961249],[-162.662953,55.016547],[-162.850413,54.935045],[-163.183054,55.139146],[-163.205515,55.018988],[-163.06725,54.973293],[-163.32079,54.81387],[-163.376658,54.844957],[-163.279897,54.91352],[-163.345286,54.91942],[-163.281361,54.944648],[-163.334543,55.119534],[-163.024729,55.245592],[-163.066396,55.201483],[-162.895823,55.189643],[-162.51891,55.372789],[-162.556996,55.446926],[-162.621409,55.406928],[-161.826283,55.879869],[-161.155344,56.017035],[-161.367543,55.955634],[-160.874135,55.99315],[-160.860463,55.934516],[-161.014394,55.917711],[-160.820383,55.739163],[-160.664784,55.729804],[-160.756703,55.786119],[-160.717112,55.866278],[-160.24352,55.776842],[-160.309071,55.819281],[-160.237294,55.838324],[-160.572458,55.934516],[-160.403798,56.239691],[-160.18871,56.386908],[-159.231068,56.691962],[-158.889231,56.889594],[-159.025136,56.816718],[-158.655751,56.767646],[-158.688059,57.007025],[-158.312449,57.314887],[-158.058095,57.367092],[-157.78661,57.556098],[-157.395579,57.502427],[-157.454783,57.552069],[-157.419749,57.512641],[-157.569569,57.491197],[-157.600779,57.612982],[-157.70991,57.652533],[-157.610097,58.092353],[-157.384226,58.207099],[-157.139475,58.168402],[-157.568471,58.320746],[-157.457875,58.50788],[-156.940867,58.737535],[-157.077992,58.757392],[-156.783193,59.155219],[-157.084462,58.886664],[-158.153676,58.614],[-158.546132,58.799262],[-158.421132,58.977118],[-158.475779,58.983954],[-158.1728,59.013007],[-157.995351,58.902045],[-158.102122,59.014716],[-158.505564,59.145982],[-158.457265,59.075873],[-158.608998,58.933173],[-158.746409,58.877834],[-158.746409,58.994818],[-158.825266,58.977118],[-158.797312,58.757392],[-158.914622,58.775377],[-158.722849,58.504828],[-158.881734,58.39962],[-159.071645,58.442694],[-159.482737,58.816067],[-159.660918,58.839443],[-159.638148,58.935098],[-159.86636,58.779123],[-160.328931,58.941429],[-160.267539,58.977495],[-160.334723,59.053837],[-160.83372,58.812546],[-160.90775,58.876391],[-161.300404,58.814643],[-161.262953,58.77669],[-161.374501,58.672349],[-161.301285,58.681818],[-161.693105,58.569322],[-161.764841,58.559394],[-161.756418,58.643134],[-161.762885,58.590986],[-162.137766,58.633857],[-161.891103,58.653713],[-161.677398,58.773527],[-161.762126,58.772668],[-161.834706,59.002875],[-161.569163,59.115058],[-161.939443,59.098578],[-162.038686,59.289374],[-162.009023,59.237535],[-161.929433,59.393866],[-161.717234,59.495836],[-162.209828,60.025458],[-162.245554,60.19477],[-162.149037,60.245185],[-162.298085,60.235907],[-162.236519,60.162752],[-162.288355,60.121594],[-162.45858,60.295086],[-162.222157,60.577948],[-161.88154,60.703925],[-162.072255,60.665229],[-162.183176,60.731147],[-162.133168,60.647406],[-162.284128,60.593655],[-162.415964,60.382392],[-162.703318,60.265692],[-162.469187,60.204901],[-162.525828,59.997504],[-162.751698,60.00495],[-163.316477,59.830268],[-164.098337,59.833686],[-164.204783,59.915595],[-164.094919,59.977688],[-164.399648,60.087551],[-164.661122,60.266425],[-164.649159,60.33393],[-164.988962,60.341376],[-165.143259,60.450629],[-164.985585,60.54682],[-165.22175,60.49901],[-165.431223,60.553046],[-165.023386,60.696682],[-165.031361,60.787014],[-164.874949,60.848782],[-164.94225,60.889635],[-164.668406,60.92178],[-164.596384,60.818915],[-164.283559,60.79267],[-164.228627,60.701117],[-164.406077,60.586859],[-163.955637,60.779853],[-163.838694,60.769029],[-163.779897,60.58039],[-163.409006,60.752346],[-163.912831,60.849595],[-163.57844,60.884101],[-163.725087,60.932359],[-163.683054,60.978949],[-163.957509,60.86815],[-164.564443,60.854682],[-164.714955,60.937242],[-165.170766,60.941596],[-164.785756,61.104315],[-165.084828,61.070258],[-165.175242,61.121772],[-165.0985,61.20307],[-165.143259,61.259426],[-165.103586,61.223131],[-165.211497,61.149563],[-165.346873,61.197089],[-165.225453,61.259426],[-165.259877,61.328315],[-165.158762,61.418647],[-164.763376,61.541693],[-164.690745,61.601386],[-164.742258,61.628363],[-165.204661,61.410224],[-165.437449,61.081244],[-165.621693,61.1435],[-165.609975,61.287299],[-165.87678,61.336575],[-165.921254,61.399359],[-165.776967,61.515815],[-166.096018,61.519477],[-166.185374,61.656684],[-166.160512,61.713935],[-166.056223,61.642401],[-165.782419,61.684068],[-166.102773,61.821112],[-165.60908,61.851304],[-165.750356,61.984442],[-165.730946,62.076483],[-165.133046,62.515692],[-164.867869,62.538031],[-164.608835,62.437445],[-164.71349,62.386176],[-164.597605,62.423407],[-164.670277,62.461982],[-164.629954,62.51317],[-164.81074,62.486274],[-164.852488,62.560981],[-164.479075,62.745917],[-164.813222,62.620185],[-164.86266,62.773871],[-164.792104,62.786933],[-164.861765,62.819525],[-164.690745,63.027086],[-164.35497,63.014106],[-164.562449,63.122545],[-164.423533,63.20897],[-163.994578,63.256252],[-163.58849,63.135077],[-163.791941,63.021918],[-163.556956,63.104722],[-163.350535,63.030829],[-163.093984,63.057359],[-162.596506,63.276679],[-162.313547,63.534247],[-162.046091,63.49022],[-162.148997,63.444078],[-161.589589,63.458075],[-161.056508,63.574408],[-160.766957,63.824123],[-160.95165,64.206285],[-161.238026,64.398098],[-161.188832,64.411282],[-161.538889,64.390774],[-161.387522,64.54206],[-161.035024,64.507758],[-161.085927,64.552558],[-160.833974,64.617336],[-160.825429,64.748928],[-161.146474,64.918199],[-161.029612,64.931464],[-161.182566,64.939521],[-161.444081,64.770738],[-161.806386,64.82274],[-161.740915,64.798],[-161.949778,64.725898],[-161.79955,64.761298],[-161.895457,64.711737],[-162.080881,64.721096],[-162.51122,64.558661],[-162.781321,64.343695],[-162.827463,64.49315],[-163.148997,64.658271],[-163.358591,64.603746],[-163.039744,64.521145],[-163.134999,64.412543],[-163.678538,64.58633],[-164.921457,64.532416],[-164.965077,64.507473],[-164.766469,64.48017],[-165.035512,64.44831],[-166.189687,64.585191],[-166.483469,64.729641],[-166.390207,64.898505],[-166.961531,65.154359],[-166.852773,65.277899],[-166.932078,65.16885],[-166.754262,65.115627],[-166.579539,65.12995],[-166.356679,65.275214],[-166.056451,65.232976],[-166.14041,65.285693],[-167.398555,65.401082],[-168.127797,65.642157],[-167.924019,65.748608],[-167.866811,65.74901],[-168.056711,65.677232],[-167.5006,65.74079],[-167.559193,65.778713],[-167.345937,65.898586],[-167.059885,65.877631],[-166.893422,65.929389],[-166.973012,65.974189],[-166.310902,66.17536],[-165.754994,66.105292],[-165.500111,66.152289],[-165.848948,66.22012],[-165.838694,66.288967],[-164.274363,66.602281],[-163.628733,66.570014],[-163.908152,66.584133],[-163.7624,66.525824],[-163.864247,66.436469],[-163.868967,66.309312],[-164.17573,66.208157],[-163.933176,66.212348],[-163.680491,66.078599],[-162.784169,66.105373],[-162.692006,66.033108],[-162.210072,66.071682],[-161.820668,65.980292],[-161.50593,66.278876],[-161.128651,66.245795],[-161.106882,66.138617],[-161.182607,66.131171],[-161.024037,66.184231],[-161.113759,66.332913],[-161.510691,66.40766],[-161.874705,66.377631],[-161.928538,66.309394],[-161.888376,66.5244],[-162.209828,66.707221],[-162.495107,66.746527],[-162.625315,66.861477],[-162.484812,66.960395],[-162.284861,66.937079],[-162.03303,66.786282],[-162.083241,66.686754],[-161.915232,66.557196],[-161.633778,66.457994],[-161.204213,66.538642],[-160.784779,66.374498],[-160.249094,66.402289],[-160.219187,66.53205],[-160.317942,66.655585],[-160.634511,66.597968],[-161.136057,66.651923],[-161.271962,66.542955],[-161.518422,66.550116],[-161.868276,66.706285],[-161.806386,66.899604],[-161.49885,66.971096],[-161.687571,67.029283],[-162.248036,67.015041],[-162.275258,67.067816],[-162.435496,66.991034],[-162.354482,67.13231],[-162.416127,67.165595],[-162.558787,67.019965],[-163.688303,67.103217],[-163.765614,67.13996],[-163.823964,67.35456],[-164.151479,67.619615],[-166.29662,68.299628],[-166.789866,68.339586],[-166.338206,68.39997],[-166.23998,68.564276],[-166.227976,68.849595],[-166.085642,68.891425],[-164.346425,68.929389],[-163.622548,69.119208],[-163.195302,69.415229],[-163.23998,69.328315],[-163.155751,69.359361],[-163.07079,69.520413],[-163.148997,69.599555],[-163.025461,69.626288],[-163.066396,69.674058],[-162.938425,69.711249],[-162.993479,69.727973],[-162.949778,69.790473],[-161.90571,70.320624],[-161.723704,70.274848],[-162.121693,70.161322],[-160.9499,70.290432],[-160.172231,70.604926],[-159.947092,70.597235],[-160.201894,70.47663],[-159.948476,70.494452],[-160.114207,70.344143],[-159.948476,70.370429],[-159.80309,70.220282],[-159.88032,70.375678],[-159.825795,70.497056],[-159.305776,70.52619],[-159.732289,70.499905],[-159.947865,70.63642],[-160.119985,70.60635],[-159.644846,70.810004],[-159.161,70.886908],[-159.410878,70.787421],[-159.246449,70.706448],[-159.279042,70.764716],[-158.989735,70.777045],[-159.085317,70.804999],[-157.864939,70.866441],[-156.471506,71.412502],[-156.398264,71.3935],[-156.604441,71.353664],[-156.059193,71.220649],[-156.110951,71.182318],[-155.573435,71.150377],[-155.551503,71.100898],[-155.76537,70.999986],[-156.145009,70.932685],[-155.953196,70.865424],[-155.978261,70.767279],[-155.577138,70.845933],[-155.531077,70.941799],[-155.29601,71.031562],[-155.191721,70.995063],[-155.267323,71.072943],[-155.069692,71.153266],[-155.097401,71.017279],[-155.011098,71.115912],[-154.808176,71.095933],[-154.613271,70.981635],[-154.788686,70.896308],[-154.171742,70.781643],[-153.940134,70.881903],[-153.302439,70.928656],[-152.714915,70.821031],[-152.65746,70.845933],[-152.719106,70.880357],[-152.327504,70.856879],[-152.219228,70.81802],[-152.509145,70.663886],[-152.103831,70.598782],[-152.630116,70.558539],[-151.760365,70.566718],[-151.943308,70.480455],[-151.222279,70.375718],[-151.202952,70.440741],[-150.745107,70.47663],[-150.793528,70.503323],[-150.379384,70.497016],[-150.416737,70.421373],[-149.514353,70.522773],[-148.721018,70.422024],[-148.51183,70.318345],[-147.819936,70.300686],[-147.679596,70.212226],[-145.928578,70.167548],[-145.215403,70.044013],[-145.301381,69.999661],[-144.706451,69.97602],[-144.129547,70.067694],[-144.070424,70.004055],[-144.064036,70.085598],[-143.316762,70.05565],[-143.235666,70.118232],[-142.600819,70.013129],[-142.270904,69.856024],[-141.440338,69.661078],[-141.005564,69.650946]]],[[[-123.090506,48.992515],[-123.035308,48.992499],[-123.08849,48.972235],[-123.090506,48.992515]]],[[[-73.93338,40.797187],[-74.016916,40.699286],[-73.939158,40.854234],[-73.93338,40.797187]]],[[[-71.315094,41.580797],[-71.355458,41.660224],[-71.303375,41.62637],[-71.315094,41.580797]]],[[[-69.664052,43.78913],[-69.688791,43.828192],[-69.647125,43.837307],[-69.664052,43.78913]]],[[[-69.66926,43.955797],[-69.699781,43.870638],[-69.730458,43.890692],[-69.66926,43.955797]]],[[[-68.60676,44.088609],[-68.634104,44.018297],[-68.653635,44.052151],[-68.60676,44.088609]]],[[[-68.811187,44.148505],[-68.937489,44.105536],[-68.889312,44.16413],[-68.811187,44.148505]]],[[[-68.390614,44.162828],[-68.489573,44.140692],[-68.472646,44.177151],[-68.390614,44.162828]]],[[[-68.920562,44.237047],[-68.924469,44.307359],[-68.885406,44.299547],[-68.920562,44.237047]]],[[[-68.489573,44.347724],[-68.522125,44.322984],[-68.524729,44.359442],[-68.489573,44.347724]]],[[[-68.868479,44.381578],[-68.885406,44.330797],[-68.911448,44.365953],[-68.868479,44.381578]]],[[[-67.566396,44.461005],[-67.584625,44.444078],[-67.614573,44.51439],[-67.566396,44.461005]]],[[[-67.283844,44.619859],[-67.276031,44.602932],[-67.321604,44.602932],[-67.283844,44.619859]]],[[[-67.045115,44.927151],[-67.038157,44.954901],[-66.989573,44.89761],[-67.045115,44.927151]]],[[[-132.647694,54.817857],[-132.6162,54.760199],[-132.788808,54.911038],[-132.629303,54.903998],[-132.647694,54.817857]]],[[[-131.243723,54.934556],[-131.194692,54.907294],[-131.350087,54.860907],[-131.482167,54.925605],[-131.263824,54.996894],[-131.243723,54.934556]]],[[[-132.826487,55.054389],[-132.822662,55.190497],[-132.668202,55.050686],[-132.750722,54.995429],[-132.873647,55.036363],[-132.826487,55.054389]]],[[[-132.702952,54.701239],[-132.842885,54.693793],[-132.908355,54.838324],[-133.154775,54.981757],[-133.203236,55.133205],[-133.143463,55.248847],[-132.956166,55.064276],[-133.086537,55.092231],[-132.702952,54.701239]]],[[[-131.479563,55.006293],[-131.534495,55.087104],[-131.624501,55.017401],[-131.52359,55.119534],[-131.560862,55.263821],[-131.36913,55.163723],[-131.34553,55.058051],[-131.479563,55.006293]]],[[[-133.291371,55.262926],[-133.240142,55.220364],[-133.449859,55.25023],[-133.318105,55.339057],[-133.291371,55.262926]]],[[[-131.818471,55.413764],[-131.636098,55.299302],[-131.739491,55.250718],[-131.72289,55.140082],[-131.817779,55.197984],[-131.818471,55.413764]]],[[[-133.449615,55.406928],[-133.607289,55.235582],[-133.65567,55.276557],[-133.590443,55.417182],[-133.449615,55.406928]]],[[[-133.538401,55.482652],[-133.42809,55.446519],[-133.600453,55.447903],[-133.538401,55.482652]]],[[[-133.346588,55.447903],[-133.428538,55.544135],[-133.272084,55.530463],[-133.346588,55.447903]]],[[[-133.603871,55.489447],[-133.779408,55.449856],[-133.646311,55.542304],[-133.603871,55.489447]]],[[[-133.305653,55.797349],[-133.542104,55.694892],[-133.663238,55.760728],[-133.638905,55.817084],[-133.305653,55.797349]]],[[[-133.285146,55.907172],[-133.250803,55.775946],[-133.330556,55.868313],[-133.285146,55.907172]]],[[[-155.652333,55.886664],[-155.56904,55.868801],[-155.597264,55.760431],[-155.749849,55.81768],[-155.652333,55.886664]]],[[[-134.17927,55.914618],[-134.12206,55.923733],[-134.31843,55.833808],[-134.264556,55.873725],[-134.334788,55.895087],[-134.17927,55.914618]]],[[[-133.919504,55.920844],[-133.856028,55.942288],[-133.842519,55.86636],[-133.919504,55.920844]]],[[[-130.961903,55.58511],[-130.967152,55.423774],[-131.192006,55.185736],[-131.271718,55.225002],[-131.199534,55.399726],[-131.298329,55.276557],[-131.463206,55.293402],[-131.278188,55.430243],[-131.343577,55.630276],[-131.325429,55.446763],[-131.462148,55.331855],[-131.421254,55.530463],[-131.489003,55.511786],[-131.50886,55.311713],[-131.810292,55.47663],[-131.619781,55.595282],[-131.703928,55.661119],[-131.534983,55.72309],[-131.691762,55.705268],[-131.66393,55.761217],[-131.512847,55.774726],[-131.687734,55.831977],[-131.470367,55.831977],[-131.572133,55.893215],[-131.323598,55.95425],[-131.044423,55.790473],[-130.961903,55.58511]]],[[[-133.607289,56.078518],[-133.285308,56.147203],[-133.339752,55.996568],[-133.794911,55.94359],[-133.607289,56.078518]]],[[[-132.548411,56.304429],[-132.42748,56.3522],[-132.376943,56.271633],[-132.47053,56.204047],[-132.092193,56.106431],[-132.202016,56.09219],[-132.122629,55.945502],[-132.345082,55.924302],[-132.392405,56.005845],[-132.676625,56.097235],[-132.687367,56.19538],[-132.548411,56.304429]]],[[[-131.976715,54.831529],[-132.067535,54.699042],[-132.27774,54.71483],[-132.224517,54.791653],[-132.336497,54.803412],[-132.28303,54.831],[-132.380198,55.023383],[-132.428578,54.920315],[-132.485585,54.907375],[-132.490061,55.002875],[-132.579416,54.954413],[-132.553456,55.052436],[-132.483795,55.04385],[-132.511138,55.112738],[-132.602854,55.069525],[-132.558339,55.167914],[-132.640859,55.25609],[-132.63093,55.146877],[-132.696116,55.146877],[-132.826731,55.275458],[-133.030426,55.214097],[-132.913726,55.264716],[-133.212961,55.279202],[-133.218007,55.380316],[-132.872426,55.359076],[-133.125844,55.483588],[-132.922678,55.627631],[-133.357045,55.616197],[-133.381947,55.722846],[-133.236684,55.745063],[-133.144195,55.889838],[-133.248647,55.935981],[-133.285512,56.167385],[-133.56192,56.183783],[-133.614735,56.345404],[-133.312245,56.277248],[-133.182118,56.332343],[-133.035024,56.184963],[-133.12385,56.124498],[-133.092641,56.069159],[-132.842437,56.039049],[-132.531728,55.848538],[-132.462717,55.667629],[-132.157582,55.496731],[-132.552113,55.619208],[-132.65453,55.42121],[-132.401275,55.516791],[-132.302602,55.463568],[-132.478261,55.39057],[-132.250111,55.413764],[-132.090728,55.276801],[-132.250478,55.208319],[-131.994293,55.268134],[-131.991811,55.158271],[-132.208852,55.002631],[-131.963043,55.030219],[-132.033559,54.905585],[-131.976715,54.831529]]],[[[-132.612904,56.400621],[-132.634633,56.304429],[-132.819651,56.236151],[-133.038889,56.330512],[-132.946685,56.445787],[-132.612904,56.400621]]],[[[-132.004018,56.339179],[-131.940094,56.233059],[-132.072336,56.119452],[-132.352895,56.277777],[-132.375356,56.488471],[-132.004018,56.339179]]],[[[-154.055816,56.530341],[-153.877146,56.565131],[-154.120595,56.504136],[-154.055816,56.530341]]],[[[-157.060618,56.582221],[-157.008778,56.563951],[-157.308705,56.530666],[-157.060618,56.582221]]],[[[-154.42516,56.593044],[-154.767812,56.400621],[-154.731435,56.508205],[-154.42516,56.593044]]],[[[-154.08259,56.552069],[-154.333811,56.519599],[-154.24767,56.606106],[-154.103017,56.613186],[-154.08259,56.552069]]],[[[-132.959584,56.787991],[-132.816314,56.797349],[-132.558339,56.606106],[-132.918609,56.507025],[-132.959584,56.787991]]],[[[-133.884674,56.490058],[-133.916371,56.373358],[-133.847483,56.298245],[-133.956695,56.359687],[-133.891916,56.229804],[-133.941477,56.103095],[-134.039296,56.112616],[-134.032582,56.30683],[-134.167104,56.182115],[-134.086415,56.09219],[-134.14859,56.011664],[-134.255198,56.228461],[-134.164418,56.306098],[-134.282704,56.346625],[-134.228424,56.420233],[-134.060374,56.375922],[-134.059478,56.515286],[-134.276479,56.564032],[-134.106109,56.628974],[-134.357574,56.676581],[-134.408559,56.842922],[-134.125559,56.846015],[-134.264556,56.941881],[-134.051747,56.895209],[-133.912668,56.763739],[-134.025014,56.653876],[-133.964345,56.643256],[-133.858225,56.78026],[-133.750152,56.783759],[-133.705678,56.604153],[-133.9051,56.620347],[-133.884674,56.490058]]],[[[-133.912668,57.08275],[-133.236724,56.935045],[-133.293284,56.988349],[-133.052358,56.982856],[-132.955922,56.905097],[-132.933949,56.641588],[-133.024648,56.612738],[-133.331288,56.834377],[-133.234364,56.742011],[-133.24234,56.634101],[-133.132883,56.631659],[-133.079091,56.530341],[-133.199534,56.455268],[-133.435943,56.503648],[-133.621246,56.442206],[-133.670033,56.813422],[-133.877553,56.87641],[-133.73762,56.89411],[-134.018178,57.017564],[-133.912668,57.08275]]],[[[-152.907867,57.16474],[-153.272165,56.998521],[-153.391835,57.060736],[-153.244374,57.211005],[-153.212351,57.133694],[-152.907867,57.16474]]],[[[-135.601552,57.171576],[-135.546295,57.141099],[-135.601633,57.035549],[-135.841135,56.989691],[-135.727203,57.142524],[-135.833974,57.306342],[-135.615224,57.284491],[-135.601552,57.171576]]],[[[-134.62149,56.743842],[-134.689768,56.181545],[-135.035715,56.525458],[-134.847401,56.688666],[-135.119008,56.617133],[-135.014272,56.739407],[-135.187896,56.676744],[-135.121734,56.832017],[-135.367543,56.828925],[-135.305898,56.890692],[-135.356272,56.9383],[-135.203359,57.013495],[-135.348134,57.06391],[-135.334055,57.250393],[-135.542836,57.242987],[-135.674957,57.358629],[-135.485666,57.35102],[-135.567047,57.389472],[-135.436513,57.549994],[-135.279408,57.511054],[-135.381825,57.47134],[-135.008127,57.403469],[-134.852854,57.260321],[-134.62149,56.743842]]],[[[-153.301747,57.833197],[-153.506663,57.969794],[-153.228749,57.853909],[-153.301747,57.833197]]],[[[-152.160878,57.627143],[-152.330312,57.44595],[-152.973378,57.51789],[-152.917226,57.500881],[-153.028025,57.476264],[-152.832468,57.476264],[-152.606191,57.363593],[-152.863515,57.277655],[-153.165151,57.352769],[-152.976186,57.275539],[-153.376658,57.205797],[-153.455271,57.116848],[-153.531606,57.179755],[-153.498158,57.074286],[-153.761057,57.051744],[-153.607126,57.051744],[-153.65807,57.019843],[-153.603953,56.960354],[-154.015207,56.748481],[-154.137807,56.743842],[-153.810496,56.970893],[-153.973337,56.962958],[-153.739939,57.133694],[-154.099558,56.96483],[-154.137807,57.003974],[-153.959665,57.120063],[-154.468251,57.124457],[-154.412953,57.050198],[-154.121205,57.123725],[-154.281809,56.887274],[-154.514882,56.989691],[-154.535024,57.174628],[-154.810007,57.346584],[-154.523427,57.570014],[-154.239329,57.673285],[-154.000559,57.629706],[-153.973337,57.572496],[-154.110463,57.544582],[-153.974802,57.549954],[-153.777821,57.322333],[-153.630686,57.270901],[-153.753896,57.336371],[-153.843699,57.550971],[-153.70637,57.539049],[-153.868723,57.628607],[-153.630686,57.599799],[-153.925526,57.72956],[-153.924631,57.810492],[-153.702707,57.891262],[-153.596262,57.846869],[-153.529408,57.661322],[-153.446238,57.777411],[-153.333567,57.713853],[-153.458811,57.802802],[-153.424998,57.842719],[-153.212351,57.72956],[-153.240305,57.902086],[-153.075063,57.83747],[-153.301747,58.0008],[-152.808298,57.908271],[-152.903676,57.837592],[-152.885569,57.728705],[-152.843699,57.845282],[-152.506947,57.915107],[-152.363271,57.846869],[-152.535024,57.719794],[-152.420847,57.681952],[-152.438344,57.617174],[-152.160878,57.627143]]],[[[-136.389801,57.963568],[-136.451283,57.846869],[-136.541982,57.978095],[-136.514719,58.086737],[-136.361928,58.031195],[-136.389801,57.963568]]],[[[-153.418365,58.065985],[-153.260813,58.141059],[-152.890818,57.997707],[-153.418365,58.065985]]],[[[-151.866078,58.257758],[-151.809885,58.262926],[-151.846181,58.175198],[-151.866078,58.257758]]],[[[-135.847971,57.394355],[-136.012441,57.51789],[-135.779693,57.435289],[-135.836578,57.488715],[-136.389801,57.839423],[-136.31192,57.99551],[-136.058583,57.850409],[-136.405263,58.133938],[-136.295522,58.115302],[-136.272694,58.220933],[-136.101186,58.058539],[-136.136586,58.223049],[-135.982289,58.167629],[-135.813547,58.274359],[-135.484853,58.162095],[-135.793324,57.984036],[-135.656158,57.949286],[-135.40803,58.138577],[-134.924794,58.027493],[-134.915679,57.846869],[-135.197499,57.949286],[-134.930002,57.81269],[-135.203033,57.785102],[-135.845815,57.992174],[-135.403228,57.814195],[-135.363881,57.726223],[-134.936513,57.764309],[-134.813873,57.497463],[-135.028961,57.460517],[-135.768178,57.759711],[-135.703969,57.675523],[-135.806996,57.641425],[-135.584869,57.592963],[-135.64387,57.570543],[-135.553049,57.498684],[-135.66686,57.386664],[-135.847971,57.394355]]],[[[-134.597279,58.23725],[-134.67984,58.309272],[-134.481842,58.333482],[-134.279368,58.220649],[-134.597279,58.23725]]],[[[-134.353993,57.092719],[-134.614613,57.010199],[-134.624908,57.184882],[-134.457021,57.311835],[-134.56017,57.386176],[-134.319163,57.385077],[-134.533681,57.457709],[-134.353993,57.544582],[-134.541127,57.511054],[-134.653554,57.598212],[-134.806467,58.055406],[-134.756174,58.144924],[-134.797841,58.112779],[-134.944895,58.278632],[-134.94929,58.409491],[-134.696156,58.174018],[-134.186391,58.168402],[-133.803944,57.610012],[-133.962961,57.692328],[-134.306752,58.09809],[-134.224233,57.969713],[-134.299387,57.993964],[-134.289174,57.836656],[-133.951405,57.627875],[-133.854237,57.47602],[-134.100697,57.476264],[-133.877553,57.346584],[-134.156565,57.384711],[-134.072825,57.277655],[-134.353993,57.092719]]],[[[-151.966013,58.332831],[-152.116811,58.147895],[-152.282664,58.259833],[-152.282541,58.138739],[-152.522165,58.109605],[-152.562937,58.178778],[-152.777537,58.0008],[-153.229604,58.168891],[-153.188466,58.219875],[-152.9051,58.168402],[-153.071034,58.240139],[-153.059153,58.298814],[-152.795359,58.287258],[-152.86738,58.394355],[-152.650624,58.483629],[-152.414906,58.369615],[-152.091868,58.380683],[-152.143544,58.233832],[-151.966013,58.332831]]],[[[-152.644399,58.518459],[-152.369578,58.638088],[-152.502024,58.473456],[-152.644399,58.518459]]],[[[-160.947643,58.737648],[-160.687786,58.818724],[-160.966253,58.549508],[-161.074126,58.546924],[-161.171903,58.690754],[-161.07803,58.639275],[-160.947643,58.737648]]],[[[-152.249705,58.922512],[-152.334218,58.911933],[-152.329091,58.970893],[-152.157786,58.956692],[-152.249705,58.922512]]],[[[-150.704172,59.395453],[-150.608591,59.381171],[-150.779856,59.334052],[-150.704172,59.395453]]],[[[-153.524526,59.330268],[-153.476755,59.405422],[-153.357411,59.378119],[-153.524526,59.330268]]],[[[-150.334828,59.456977],[-150.294626,59.464586],[-150.443471,59.402289],[-150.334828,59.456977]]],[[[-144.341786,59.984524],[-144.245758,60.007554],[-144.605295,59.813178],[-144.341786,59.984524]]],[[[-148.005035,60.046576],[-148.081166,59.971666],[-148.244985,59.943549],[-148.005035,60.046576]]],[[[-147.82665,60.052802],[-148.035715,59.952582],[-147.891754,60.069037],[-147.82665,60.052802]]],[[[-147.963775,60.07392],[-148.093332,60.017768],[-147.975657,60.147895],[-147.914784,60.125474],[-147.963775,60.07392]]],[[[-148.159373,60.043158],[-148.313832,60.032294],[-148.060618,60.195136],[-148.159373,60.043158]]],[[[-147.107249,60.2862],[-146.922271,60.313463],[-147.328196,60.070258],[-147.49234,59.861802],[-147.915395,59.79267],[-147.197011,60.251207],[-147.189605,60.362209],[-147.011057,60.347602],[-147.107249,60.2862]]],[[[-147.977447,60.375556],[-148.104441,60.292873],[-148.075632,60.369371],[-147.977447,60.375556]]],[[[-145.174428,60.382392],[-145.119781,60.409817],[-145.136586,60.306627],[-145.261871,60.332668],[-145.174428,60.382392]]],[[[-146.188629,60.402167],[-146.093658,60.410346],[-146.621246,60.248684],[-146.67219,60.270941],[-146.490305,60.361274],[-146.700551,60.354804],[-146.588124,60.484036],[-146.151357,60.438788],[-146.188629,60.402167]]],[[[-147.771392,60.409654],[-147.821197,60.399482],[-147.723785,60.492906],[-147.614369,60.436957],[-147.710927,60.401801],[-147.66218,60.347602],[-147.798695,60.170111],[-147.79247,60.238349],[-147.908559,60.238349],[-147.757721,60.341376],[-147.860585,60.377387],[-147.771392,60.409654]]],[[[-151.869822,60.485419],[-152.08967,60.359117],[-151.943064,60.511623],[-151.869822,60.485419]]],[[[-145.757232,60.62873],[-146.29426,60.454779],[-146.305735,60.510159],[-145.757232,60.62873]]],[[[-147.49767,60.656684],[-147.428782,60.711371],[-147.338979,60.679348],[-147.49767,60.656684]]],[[[-147.929067,60.718166],[-147.865468,60.72012],[-148.012196,60.725002],[-147.929067,60.718166]]],[[[-148.16865,60.662909],[-148.211659,60.756049],[-148.111155,60.738105],[-148.16865,60.662909]]],[[[-148.087351,60.800116],[-148.13683,60.826361],[-148.032094,60.930406],[-147.915395,60.813137],[-148.087351,60.800116]]],[[[-162.34081,63.602484],[-162.359364,63.54621],[-162.678171,63.563666],[-162.556467,63.629828],[-162.34081,63.602484]]],[[[-163.185374,69.610256],[-163.152903,69.67829],[-163.176259,69.482245],[-163.185374,69.610256]]],[[[-141.423085,69.721869],[-141.385121,69.694525],[-141.857981,69.81509],[-141.423085,69.721869]]],[[[-163.055776,69.804511],[-162.841135,69.93476],[-163.095448,69.731391],[-163.055776,69.804511]]],[[[-162.701772,70.022325],[-162.559926,70.092434],[-162.806345,69.948391],[-162.701772,70.022325]]],[[[-162.484527,70.173163],[-162.162709,70.269924],[-162.539133,70.113715],[-162.484527,70.173163]]],[[[-161.551137,70.325995],[-161.977122,70.312161],[-161.888132,70.353949],[-161.551137,70.325995]]],[[[-148.819692,70.469794],[-149.313181,70.544867],[-149.236277,70.55329],[-148.819692,70.469794]]],[[[-81.746246,24.576117],[-81.732004,24.55622],[-81.814565,24.542548],[-81.746246,24.576117]]],[[[-81.705312,24.597805],[-81.65685,24.597805],[-81.725738,24.55622],[-81.705312,24.597805]]],[[[-81.506012,24.638821],[-81.636464,24.583564],[-81.52245,24.637926],[-81.567494,24.672309],[-81.506012,24.638821]]],[[[-81.087717,24.68594],[-81.136098,24.707017],[-81.061431,24.73135],[-81.087717,24.68594]]],[[[-81.430287,24.754828],[-81.355458,24.686184],[-81.36266,24.631334],[-81.430287,24.754828]]],[[[-80.923818,24.76911],[-81.03307,24.720689],[-80.955556,24.768744],[-80.923818,24.76911]]],[[[-80.800364,24.843573],[-80.793528,24.816881],[-80.85497,24.80329],[-80.800364,24.843573]]],[[[-80.320546,25.248277],[-80.555979,24.970933],[-80.273427,25.352607],[-80.320546,25.248277]]],[[[-80.190175,25.481024],[-80.231191,25.403388],[-80.188222,25.498358],[-80.190175,25.481024]]],[[[-80.162913,25.672838],[-80.181793,25.681301],[-80.166005,25.728176],[-80.162913,25.672838]]],[[[-82.129221,26.461127],[-82.026845,26.447455],[-82.200673,26.519599],[-82.129221,26.461127]]],[[[-82.260162,26.701321],[-82.245961,26.694525],[-82.225453,26.611274],[-82.260162,26.701321]]],[[[-82.136708,26.584662],[-82.177642,26.701321],[-82.080963,26.509019],[-82.136708,26.584662]]],[[[-82.273834,26.803127],[-82.266428,26.714993],[-82.287506,26.803127],[-82.273834,26.803127]]],[[[-97.198313,26.276109],[-97.164402,26.131495],[-97.397532,26.831],[-97.391591,27.193101],[-97.198313,26.276109]]],[[[-82.65746,27.396796],[-82.680979,27.434068],[-82.593088,27.33983],[-82.65746,27.396796]]],[[[-97.075429,27.814521],[-97.365912,27.224231],[-97.245107,27.623196],[-97.075429,27.814521]]],[[[-80.388783,27.718655],[-80.438466,27.830471],[-80.167226,27.197008],[-80.388783,27.718655]]],[[[-96.880238,28.130113],[-96.847157,28.080471],[-97.014638,27.890937],[-96.880238,28.130113]]],[[[-80.636464,28.181057],[-80.64859,28.222724],[-80.629018,28.181057],[-80.636464,28.181057]]],[[[-96.427724,28.393297],[-96.406728,28.344428],[-96.820872,28.088324],[-96.791127,28.195258],[-96.427724,28.393297]]],[[[-96.3697,28.406928],[-96.312896,28.458564],[-96.232533,28.489488],[-96.3697,28.406928]]],[[[-80.67748,28.578925],[-80.618479,28.537665],[-80.659006,28.256293],[-80.728342,28.469062],[-80.67748,28.578925]]],[[[-90.943715,29.060777],[-90.879628,29.051256],[-90.91511,29.051256],[-90.943715,29.060777]]],[[[-90.346547,29.058051],[-90.31078,29.082424],[-90.283844,29.086005],[-90.346547,29.058051]]],[[[-89.962961,29.270982],[-90.023752,29.216376],[-90.024281,29.238471],[-89.962961,29.270982]]],[[[-94.81428,29.352932],[-94.724409,29.333155],[-95.075955,29.114044],[-94.81428,29.352932]]],[[[-89.167836,29.50373],[-89.166249,29.482367],[-89.221832,29.469631],[-89.167836,29.50373]]],[[[-91.802073,29.490058],[-92.020497,29.568752],[-91.861399,29.637193],[-91.758534,29.586737],[-91.802073,29.490058]]],[[[-85.141754,29.640855],[-85.182281,29.673977],[-85.113678,29.691962],[-85.141754,29.640855]]],[[[-84.737375,29.736477],[-84.692698,29.76439],[-84.969472,29.611762],[-85.09732,29.627265],[-84.737375,29.736477]]],[[[-89.45519,29.791693],[-89.427317,29.743964],[-89.48998,29.736477],[-89.45519,29.791693]]],[[[-89.304351,29.805365],[-89.290679,29.771226],[-89.337026,29.806627],[-89.304351,29.805365]]],[[[-84.617014,29.805365],[-84.576405,29.81977],[-84.664703,29.778713],[-84.617014,29.805365]]],[[[-89.234364,29.948432],[-89.235504,29.931627],[-89.293935,29.920071],[-89.234364,29.948432]]],[[[-89.272939,29.982082],[-89.295806,29.942206],[-89.322581,29.917182],[-89.272939,29.982082]]],[[[-88.872426,30.058661],[-88.810943,29.915229],[-88.854563,29.769192],[-88.872426,30.058661]]],[[[-89.433013,30.145697],[-89.424916,30.142564],[-89.431264,30.133368],[-89.439361,30.136542],[-89.433013,30.145697]]],[[[-89.188344,30.079739],[-89.310699,30.054592],[-89.180816,30.168524],[-89.235463,30.120673],[-89.188344,30.079739]]],[[[-88.940785,30.217515],[-88.927846,30.217597],[-88.969309,30.210639],[-88.940785,30.217515]]],[[[-88.503041,30.216254],[-88.503041,30.223782],[-88.427358,30.216254],[-88.503041,30.216254]]],[[[-89.057973,30.257799],[-89.084625,30.195787],[-89.121409,30.230862],[-89.057973,30.257799]]],[[[-88.643056,30.240465],[-88.559682,30.231147],[-88.756337,30.244208],[-88.643056,30.240465]]],[[[-88.071116,30.250434],[-88.311269,30.236762],[-88.109039,30.276109],[-88.071116,30.250434]]],[[[-86.693756,30.408108],[-86.52184,30.401272],[-87.296498,30.332343],[-86.693756,30.408108]]],[[[-81.478749,30.805976],[-81.432688,30.938788],[-81.454213,30.734849],[-81.478749,30.805976]]],[[[-118.358766,32.827828],[-118.474263,32.838122],[-118.608245,33.014377],[-118.358766,32.827828]]],[[[-79.340443,33.060248],[-79.360951,33.005683],[-79.363108,33.043036],[-79.340443,33.060248]]],[[[-119.488604,33.267188],[-119.443391,33.24217],[-119.578926,33.276097],[-119.488604,33.267188]]],[[[-118.515654,33.423005],[-118.603913,33.476589],[-118.317255,33.343429],[-118.472771,33.332943],[-118.515654,33.423005]]],[[[-77.96996,33.889553],[-77.942047,33.916815],[-78.012278,33.865627],[-77.96996,33.889553]]],[[[-120.044139,34.037273],[-119.96883,33.941117],[-120.124206,33.895086],[-120.210244,33.972488],[-120.044139,34.037273]]],[[[-120.344582,34.046492],[-120.308301,34.0182],[-120.406226,34.031415],[-120.344582,34.046492]]],[[[-119.529426,34.025248],[-119.817205,33.959338],[-119.928468,34.0558],[-119.529426,34.025248]]],[[[-77.87442,34.088121],[-77.844228,34.166653],[-77.819203,34.177476],[-77.87442,34.088121]]],[[[-77.431874,34.499661],[-77.374135,34.523139],[-77.617787,34.377631],[-77.431874,34.499661]]],[[[-76.565338,34.670966],[-76.537709,34.642157],[-76.643219,34.678412],[-76.565338,34.670966]]],[[[-76.89745,34.698228],[-76.681467,34.705146],[-77.099762,34.649848],[-76.89745,34.698228]]],[[[-76.256256,34.913642],[-76.20226,34.944729],[-76.519643,34.61579],[-76.256256,34.913642]]],[[[-76.078114,35.071601],[-76.03718,35.061347],[-76.1256,35.011542],[-76.078114,35.071601]]],[[[-75.98998,35.12344],[-75.798899,35.184231],[-76.017323,35.075019],[-75.98998,35.12344]]],[[[-75.476064,35.69538],[-75.515614,35.260199],[-75.698313,35.197943],[-75.517079,35.321479],[-75.468617,35.56509],[-75.520009,35.756659],[-75.476064,35.69538]]],[[[-75.715688,35.92475],[-75.61262,35.863267],[-75.659291,35.836005],[-75.715688,35.92475]]],[[[-75.656127,37.461506],[-75.719214,37.368298],[-75.676477,37.455073],[-75.656127,37.461506]]],[[[-75.621981,37.57112],[-75.599806,37.575131],[-75.659575,37.482976],[-75.621981,37.57112]]],[[[-76.005365,38.026514],[-76.026368,37.913515],[-76.051422,37.994086],[-76.005365,38.026514]]],[[[-76.03323,38.148551],[-76.083608,38.160666],[-76.048608,38.200408],[-76.03323,38.148551]]],[[[-75.15331,38.207017],[-75.114369,38.280219],[-75.392913,37.864699],[-75.15331,38.207017]]],[[[-74.358795,39.44717],[-74.302113,39.464748],[-74.425526,39.393744],[-74.358795,39.44717]]],[[[-74.132883,39.714667],[-74.098134,39.755683],[-74.231632,39.552991],[-74.132883,39.714667]]],[[[-73.256144,40.639052],[-73.57412,40.575093],[-73.339384,40.644593],[-73.256144,40.639052]]],[[[-74.126088,40.63349],[-74.053569,40.602704],[-74.242984,40.499435],[-74.126088,40.63349]]],[[[-72.881511,40.7344],[-72.77923,40.766843],[-73.297459,40.622622],[-72.881511,40.7344]]],[[[-71.918935,41.064887],[-71.857411,41.071723],[-72.704442,40.776177],[-72.650516,40.797455],[-73.897118,40.554678],[-73.815411,40.645627],[-73.877761,40.582096],[-74.030021,40.605498],[-73.930233,40.773121],[-73.565273,40.914514],[-72.628326,40.983588],[-72.289459,41.16116],[-72.599562,40.930715],[-72.480847,40.897937],[-72.306683,41.035525],[-71.918935,41.064887]]],[[[-71.559474,41.201024],[-71.544473,41.162888],[-71.59955,41.145779],[-71.559474,41.201024]]],[[[-71.998734,41.251666],[-72.038798,41.249447],[-71.953888,41.286711],[-71.998734,41.251666]]],[[[-70.054149,41.392686],[-69.967149,41.249453],[-70.278112,41.307907],[-70.04601,41.307563],[-70.054149,41.392686]]],[[[-70.5006,41.393622],[-70.455719,41.429633],[-70.446685,41.367418],[-70.5006,41.393622]]],[[[-70.576405,41.427802],[-70.507436,41.362616],[-70.834055,41.339911],[-70.659901,41.456529],[-70.576405,41.427802]]],[[[-71.357818,41.558173],[-71.392649,41.463284],[-71.377675,41.577948],[-71.357818,41.558173]]],[[[-69.973012,41.653713],[-69.959381,41.632636],[-70.021474,41.550727],[-69.973012,41.653713]]],[[[-71.285512,41.581732],[-71.220611,41.660549],[-71.233632,41.530829],[-71.33495,41.459052],[-71.285512,41.581732]]],[[[-123.973997,46.49293],[-123.945531,46.417647],[-123.997763,46.453397],[-123.973997,46.49293]]],[[[-122.435129,47.425727],[-122.387359,47.393988],[-122.449534,47.347724],[-122.510243,47.455797],[-122.471018,47.495795],[-122.435129,47.425727]]],[[[-122.496938,47.607123],[-122.557607,47.597886],[-122.558013,47.695746],[-122.496938,47.607123]]],[[[-122.729319,48.096747],[-122.673207,48.023749],[-122.7176,48.023017],[-122.729319,48.096747]]],[[[-122.359364,47.97663],[-122.435414,47.910468],[-122.74413,48.205878],[-122.668446,48.36286],[-122.515981,48.321967],[-122.723704,48.233791],[-122.571034,48.166246],[-122.535512,48.005927],[-122.460032,48.053453],[-122.359364,47.97663]]],[[[-122.861928,48.489325],[-122.808339,48.458197],[-122.937611,48.458319],[-122.887074,48.563666],[-122.861928,48.489325]]],[[[-122.693715,48.585924],[-122.694081,48.543524],[-122.73705,48.577135],[-122.693715,48.585924]]],[[[-123.020172,48.499335],[-122.9829,48.463609],[-123.139312,48.495836],[-123.177561,48.598822],[-122.977651,48.531317],[-123.020172,48.499335]]],[[[-122.745839,48.664374],[-122.88679,48.696275],[-122.861928,48.601711],[-123.009633,48.605414],[-122.929311,48.708441],[-122.745839,48.664374]]],[[[-122.621409,48.668524],[-122.620473,48.645941],[-122.720286,48.724921],[-122.621409,48.668524]]],[[[-166.094553,53.980658],[-166.191274,53.964911],[-166.189158,53.989691],[-166.094553,53.980658]]],[[[-159.521474,54.792222],[-159.547109,54.753892],[-159.604197,54.812323],[-159.521474,54.792222]]],[[[-161.333567,55.191474],[-161.42219,55.185452],[-161.411448,55.219468],[-161.333567,55.191474]]],[[[-161.559031,55.254462],[-161.564076,55.207913],[-161.691721,55.211615],[-161.559031,55.254462]]],[[[-160.036244,55.326199],[-160.072947,55.308295],[-160.099355,55.340277],[-160.036244,55.326199]]],[[[-159.312734,55.811225],[-159.302113,55.759223],[-159.362294,55.786282],[-159.312734,55.811225]]],[[[-156.680409,56.039008],[-156.746165,56.034898],[-156.701283,56.066148],[-156.680409,56.039008]]],[[[-156.779897,56.189643],[-156.792063,56.153022],[-156.77831,56.226711],[-156.779897,56.189643]]],[[[-157.812327,56.342882],[-157.833323,56.313666],[-157.898386,56.339057],[-157.812327,56.342882]]],[[[-153.833811,57.502021],[-153.881459,57.476142],[-153.875722,57.533108],[-153.833811,57.502021]]],[[[-152.343902,57.923326],[-152.369374,57.88642],[-152.490305,57.956692],[-152.343902,57.923326]]],[[[-152.744374,57.983832],[-152.764109,57.93008],[-152.860707,57.954657],[-152.744374,57.983832]]],[[[-152.81135,58.290351],[-152.930613,58.328559],[-152.846059,58.337592],[-152.81135,58.290351]]],[[[-160.258738,58.678616],[-160.27718,58.636693],[-160.301242,58.729354],[-160.258738,58.678616]]],[[[-160.384592,58.730862],[-160.417185,58.681789],[-160.405998,58.751282],[-160.384592,58.730862]]],[[[-150.210846,61.173041],[-150.177724,61.161363],[-150.265248,61.12344],[-150.210846,61.173041]]],[[[-164.586903,63.064439],[-164.563303,63.05622],[-164.611806,63.046698],[-164.586903,63.064439]]],[[[-179.143503,51.275051],[-179.069447,51.262844],[-179.103098,51.226467],[-179.143503,51.275051]]],[[[-178.985829,51.384223],[-178.917551,51.377427],[-178.973622,51.312445],[-178.985829,51.384223]]],[[[-178.786529,51.829901],[-178.740183,51.783637],[-178.808298,51.747301],[-178.858144,51.788642],[-178.786529,51.829901]]],[[[-176.264719,51.810004],[-176.397043,51.741889],[-176.347157,51.86994],[-176.264719,51.810004]]],[[[-176.011464,51.829901],[-176.159006,51.791449],[-176.204539,51.881008],[-176.011464,51.829901]]],[[[-175.990956,51.884508],[-175.956858,51.85102],[-176.107737,51.884508],[-175.990956,51.884508]]],[[[-177.800282,51.795722],[-177.810374,51.69538],[-177.948842,51.610785],[-178.082509,51.662502],[-177.955393,51.763739],[-178.189565,51.854967],[-177.95226,51.92475],[-177.648183,51.847602],[-177.800282,51.795722]]],[[[-177.122182,51.932929],[-177.054677,51.909817],[-177.156687,51.700141],[-177.691762,51.693305],[-177.29247,51.782782],[-177.122182,51.932929]]],[[[-175.72411,51.973863],[-175.678456,51.966986],[-175.752024,51.939154],[-175.72411,51.973863]]],[[[-176.437245,51.788275],[-176.706899,51.638332],[-176.824778,51.624823],[-176.829701,51.690579],[-176.977895,51.600287],[-176.820261,51.7685],[-176.885569,51.819159],[-176.726552,51.781968],[-176.781809,51.936469],[-176.722361,51.960517],[-176.545888,51.980129],[-176.641469,51.864],[-176.437245,51.788275]]],[[[-175.867502,51.987494],[-175.80602,51.987494],[-175.950022,51.973863],[-175.867502,51.987494]]],[[[-176.138743,51.994371],[-176.175526,52.089667],[-176.105417,52.110745],[-175.963694,52.035346],[-176.04304,51.963365],[-176.138743,51.994371]]],[[[-173.123402,52.107978],[-172.9558,52.089911],[-173.500559,52.022854],[-174.033315,52.108466],[-173.123402,52.107978]]],[[[-172.407175,52.385443],[-172.325999,52.309475],[-172.633046,52.261298],[-172.407175,52.385443]]],[[[-174.051951,52.24079],[-174.180735,52.230699],[-174.100209,52.140937],[-174.429921,52.110053],[-174.398142,52.052639],[-174.510935,52.084377],[-174.490183,52.035346],[-175.323557,52.007758],[-174.339345,52.186184],[-174.236318,52.24372],[-174.442576,52.307522],[-174.190297,52.417873],[-174.010976,52.3581],[-174.051951,52.24079]]],[[[-171.256418,52.529446],[-171.207631,52.498725],[-171.276845,52.453681],[-171.256418,52.529446]]],[[[-170.604644,52.687079],[-170.621938,52.593899],[-170.846669,52.584377],[-170.604644,52.687079]]],[[[-170.1044,52.78266],[-170.056101,52.760321],[-170.194407,52.727444],[-170.1044,52.78266]]],[[[-169.686635,52.872016],[-169.737904,52.778306],[-170.011098,52.823635],[-169.686635,52.872016]]],[[[-170.070261,52.919176],[-170.014272,52.905829],[-170.056101,52.857082],[-170.070261,52.919176]]],[[[-169.693471,53.035875],[-169.71935,52.950141],[-169.758005,52.982733],[-169.693471,53.035875]]],[[[-167.857493,53.392768],[-168.287587,53.242987],[-168.466054,53.056627],[-168.780385,52.913642],[-169.111277,52.823635],[-168.863271,52.971584],[-168.686106,53.228339],[-168.379465,53.260972],[-168.373606,53.46015],[-168.270701,53.513861],[-167.837392,53.525458],[-167.857493,53.392768]]],[[[-166.136952,53.837836],[-166.121205,53.783637],[-166.290883,53.749091],[-166.136952,53.837836]]],[[[-166.294301,53.727973],[-166.593373,53.569566],[-166.66454,53.598212],[-166.667958,53.519436],[-166.771555,53.548163],[-166.800282,53.464748],[-167.66511,53.241929],[-167.850046,53.309638],[-166.980051,53.528062],[-167.162058,53.602362],[-166.99352,53.618109],[-167.028025,53.704779],[-166.801707,53.631781],[-166.827097,53.690863],[-166.705515,53.721137],[-167.151112,53.824164],[-167.031077,53.957668],[-166.668324,54.013577],[-166.605702,53.985785],[-166.609934,53.831],[-166.409861,53.98017],[-166.276723,53.974921],[-166.26655,53.874335],[-166.575144,53.714301],[-166.346181,53.782701],[-166.294301,53.727973]]],[[[-165.266713,54.091051],[-165.292836,54.04682],[-165.465281,54.073879],[-165.266713,54.091051]]],[[[-165.739084,54.12519],[-165.672109,54.128852],[-166.040761,54.036444],[-166.116444,54.139472],[-165.971384,54.219468],[-165.739084,54.12519]]],[[[-165.485829,54.173651],[-165.588816,54.110907],[-165.596018,54.21369],[-165.684438,54.235053],[-165.531199,54.294379],[-165.485829,54.173651]]],[[[-159.284535,54.940823],[-159.226877,54.93358],[-159.28661,54.871731],[-159.284535,54.940823]]],[[[-159.390085,55.023383],[-159.339182,54.975531],[-159.462717,54.948188],[-159.390085,55.023383]]],[[[-159.524159,55.071112],[-159.645375,55.112698],[-159.551381,55.142157],[-159.606068,55.167914],[-159.53364,55.251044],[-159.524159,55.071112]]],[[[-159.901479,55.140082],[-159.857533,55.190253],[-160.208445,54.873847],[-160.240224,54.927069],[-160.100819,55.034247],[-160.174631,55.058051],[-160.127431,55.153713],[-160.024037,55.111029],[-160.056101,55.181383],[-159.898671,55.285346],[-159.901479,55.140082]]],[[[-163.139027,55.40351],[-163.188181,55.425116],[-163.142771,55.441067],[-163.139027,55.40351]]],[[[-154.899622,19.567016],[-154.814064,19.506579],[-154.874736,19.412884],[-155.487782,19.142524],[-155.674756,18.906117],[-155.859133,19.023812],[-155.91993,19.138601],[-155.88553,19.334157],[-156.060164,19.731221],[-155.824083,20.020092],[-155.880483,20.252021],[-155.168043,19.946827],[-154.899622,19.567016]]],[[[-156.561774,20.598008],[-156.549768,20.541473],[-156.679261,20.504713],[-156.561774,20.598008]]],[[[-156.848378,20.876817],[-156.831257,20.763807],[-156.913738,20.734724],[-157.05081,20.871406],[-157.031551,20.922718],[-156.848378,20.876817]]],[[[-156.001698,20.800442],[-155.984696,20.717591],[-156.075404,20.650672],[-156.407653,20.587207],[-156.464319,20.781383],[-156.633256,20.823738],[-156.69226,20.936103],[-156.581386,21.01815],[-156.001698,20.800442]]],[[[-156.749013,21.170966],[-156.724843,21.123725],[-156.869578,21.053371],[-157.30427,21.128241],[-157.259036,21.214829],[-156.749013,21.170966]]],[[[-157.706824,21.351995],[-157.693212,21.262742],[-157.947003,21.302743],[-157.991332,21.391073],[-158.077952,21.298061],[-158.278933,21.575265],[-157.982646,21.70985],[-157.706824,21.351995]]],[[[-160.113759,22.000271],[-160.059964,22.000563],[-160.102534,21.886284],[-160.248036,21.82803],[-160.113759,22.000271]]],[[[-159.301259,22.151028],[-159.347862,21.93671],[-159.433717,21.874117],[-159.78722,22.033299],[-159.576594,22.225661],[-159.357866,22.222729],[-159.301259,22.151028]]],[[[179.400076,51.408433],[179.458507,51.381293],[179.23585,51.363471],[178.636404,51.637437],[178.88738,51.620551],[179.400076,51.408433]]],[[[178.252208,51.829901],[178.396169,51.7685],[178.224864,51.836737],[178.252208,51.829901]]],[[[178.533946,51.987494],[178.590505,51.968248],[178.516775,51.896186],[178.471934,51.976996],[178.533946,51.987494]]],[[[179.780935,51.967027],[179.6421,51.874172],[179.49936,51.95893],[179.621267,52.022162],[179.780935,51.967027]]],[[[177.642589,52.124701],[177.69044,52.089911],[177.567638,52.001858],[177.567638,51.911811],[177.413585,51.93065],[177.334483,51.839667],[177.237804,51.883124],[177.642589,52.124701]]],[[[175.881847,52.377997],[175.973318,52.364651],[175.928884,52.33926],[175.881847,52.377997]]],[[[173.79127,52.501532],[173.743419,52.361233],[173.401703,52.396674],[173.79127,52.501532]]],[[[174.09669,52.713772],[174.113943,52.741034],[174.164806,52.720933],[174.09669,52.713772]]],[[[173.376638,52.830471],[172.907481,52.754706],[172.640391,52.868801],[172.652843,52.924384],[172.491873,52.920111],[172.660411,53.008612],[173.127208,52.99494],[173.376638,52.830471]]],[[[-164.972524,54.12519],[-164.965077,54.07746],[-165.206776,54.085354],[-164.972524,54.12519]]],[[[-162.409128,54.406399],[-162.368113,54.385891],[-162.480173,54.401923],[-162.409128,54.406399]]],[[[-162.587229,54.441107],[-162.545359,54.402981],[-162.841135,54.461005],[-162.587229,54.441107]]],[[[-162.374949,54.954413],[-162.237782,54.968085],[-162.230946,54.907294],[-162.342152,54.839545],[-162.434153,54.914374],[-162.374949,54.954413]]],[[[-163.073842,54.687567],[-163.347768,54.752265],[-163.622548,54.611802],[-164.13268,54.623236],[-164.361318,54.458482],[-164.633046,54.395819],[-164.802317,54.404039],[-164.938303,54.598863],[-164.739207,54.652777],[-164.477528,54.918891],[-164.225087,54.894721],[-163.75654,55.06037],[-163.571645,55.057034],[-163.373036,54.79267],[-163.177113,54.778795],[-163.073842,54.687567]]],[[[-161.730662,55.160549],[-161.660837,55.130683],[-161.696523,55.071112],[-161.797434,55.077053],[-161.813222,55.160549],[-161.871938,55.121405],[-161.730662,55.160549]]],[[[-160.325429,55.358547],[-160.346913,55.250556],[-160.498484,55.302232],[-160.325429,55.358547]]],[[[-160.497385,55.194648],[-160.733347,55.191962],[-160.818918,55.119534],[-160.853627,55.331855],[-160.695994,55.406928],[-160.650136,55.321601],[-160.559275,55.393134],[-160.497385,55.194648]]],[[[-160.147939,55.38642],[-160.346547,55.417467],[-160.171132,55.453762],[-160.147939,55.38642]]],[[[-158.708567,55.831488],[-158.887318,55.831488],[-158.853749,55.890937],[-158.708567,55.831488]]],[[[-169.580881,56.609524],[-169.474355,56.593004],[-169.63268,56.544664],[-169.766225,56.606879],[-169.580881,56.609524]]],[[[-170.241567,57.216254],[-170.14741,57.234076],[-170.255238,57.141099],[-170.385203,57.153551],[-170.241567,57.216254]]],[[[-165.582102,59.950995],[-166.246693,59.853909],[-166.094675,59.7956],[-166.199045,59.761664],[-167.121938,60.000718],[-167.436147,60.19538],[-166.820424,60.217597],[-166.760854,60.304429],[-166.136952,60.388577],[-166.157419,60.436957],[-165.98823,60.320624],[-165.705556,60.313463],[-165.693715,60.093207],[-165.582102,59.950995]]],[[[-172.297312,60.351345],[-172.225779,60.323635],[-172.599965,60.32982],[-173.057607,60.49844],[-172.952341,60.600979],[-172.811838,60.477973],[-172.297312,60.351345]]],[[[-169.809967,63.064643],[-169.777089,63.035061],[-169.931874,63.139146],[-169.809967,63.064643]]],[[[-169.440943,63.36354],[-169.489329,63.367825],[-169.529001,63.383368],[-169.440943,63.36354]]],[[[-170.296213,63.239407],[-170.707834,63.395209],[-170.485463,63.344672],[-170.296213,63.239407]]],[[[-170.975209,63.43122],[-171.058542,63.430121],[-170.784047,63.408515],[-170.975209,63.43122]]],[[[-171.090037,63.603909],[-171.07079,63.602484],[-171.0749,63.60224],[-171.090037,63.603909]]],[[[-171.090037,63.603909],[-171.157656,63.609737],[-171.144032,63.611762],[-171.090037,63.603909]]],[[[-168.740712,63.280992],[-168.850819,63.162828],[-169.351145,63.176215],[-169.649403,62.948432],[-169.817454,63.126776],[-170.236033,63.197455],[-170.261342,63.28913],[-170.596425,63.399156],[-171.083852,63.444892],[-171.557444,63.335028],[-171.759145,63.390326],[-171.845448,63.554755],[-171.672597,63.796332],[-171.646189,63.712348],[-171.446523,63.658637],[-171.543772,63.616767],[-171.487172,63.608954],[-170.888743,63.585395],[-170.337758,63.699286],[-170.067006,63.594143],[-170.073232,63.499335],[-169.521555,63.352973],[-168.740712,63.280992]]],[[[-68.848134,44.095526],[-68.807118,44.037543],[-68.910186,44.095526],[-68.848134,44.095526]]],[[[-68.642079,44.260037],[-68.60851,44.212836],[-68.716339,44.167344],[-68.642079,44.260037]]],[[[-68.244822,44.424506],[-68.198923,44.308621],[-68.414052,44.258612],[-68.410105,44.360053],[-68.244822,44.424506]]],[[[-161.947865,23.038031],[-161.944773,23.04621],[-161.940419,23.0456],[-161.947865,23.038031]]],[[[-164.704335,23.579332],[-164.699086,23.570543],[-164.707265,23.572577],[-164.704335,23.579332]]],[[[-167.996775,25.001125],[-168.002797,25.014797],[-167.995554,25.011664],[-167.996775,25.001125]]],[[[-171.722849,25.773017],[-171.72936,25.751939],[-171.740671,25.769029],[-171.722849,25.773017]]],[[[-173.964996,26.071357],[-173.959177,26.059638],[-173.965647,26.05858],[-173.964996,26.071357]]],[[[-178.290381,28.401679],[-178.287905,28.392989],[-178.298397,28.387372],[-178.290381,28.401679]]],[[[-122.705393,47.181952],[-122.677073,47.139553],[-122.737904,47.14232],[-122.705393,47.181952]]],[[[-122.868153,47.268297],[-122.87385,47.167873],[-122.914866,47.255561],[-122.868153,47.268297]]],[[[-82.118398,24.556464],[-82.113759,24.557318],[-82.128774,24.550849],[-82.118398,24.556464]]],[[[-82.119618,24.58511],[-82.139963,24.593329],[-82.110463,24.565497],[-82.119618,24.58511]]],[[[-81.424469,24.654975],[-81.410634,24.655422],[-81.414784,24.647691],[-81.424469,24.654975]]],[[[-81.265207,24.671291],[-81.258372,24.667629],[-81.276031,24.655585],[-81.265207,24.671291]]],[[[-81.448069,24.680569],[-81.43932,24.660386],[-81.460683,24.664374],[-81.448069,24.680569]]],[[[-81.482411,24.683254],[-81.511138,24.661322],[-81.515004,24.69774],[-81.482411,24.683254]]],[[[-81.329457,24.703315],[-81.315541,24.679633],[-81.340891,24.7001],[-81.329457,24.703315]]],[[[-80.700836,24.881008],[-80.733551,24.850328],[-80.735992,24.857367],[-80.700836,24.881008]]],[[[-80.625478,24.936225],[-80.61852,24.941555],[-80.657135,24.901109],[-80.625478,24.936225]]],[[[-81.047475,25.309394],[-81.051747,25.278306],[-81.078359,25.301703],[-81.047475,25.309394]]],[[[-81.089019,25.338853],[-81.090728,25.312812],[-81.122222,25.336575],[-81.089019,25.338853]]],[[[-81.380483,25.82095],[-81.439565,25.8039],[-81.4405,25.842434],[-81.380483,25.82095]]],[[[-81.453359,25.825507],[-81.512034,25.836127],[-81.494456,25.867621],[-81.453359,25.825507]]],[[[-81.676137,25.901272],[-81.672027,25.867255],[-81.701568,25.877509],[-81.676137,25.901272]]],[[[-81.541005,25.890123],[-81.545766,25.853664],[-81.558339,25.903388],[-81.541005,25.890123]]],[[[-82.666005,28.734442],[-82.672271,28.715237],[-82.696034,28.725572],[-82.666005,28.734442]]],[[[-82.696401,28.763983],[-82.694936,28.787584],[-82.673492,28.777086],[-82.696401,28.763983]]],[[[-90.652089,29.067206],[-90.765207,29.040961],[-90.714101,29.065416],[-90.652089,29.067206]]],[[[-90.417388,29.055487],[-90.413401,29.04857],[-90.512359,29.074856],[-90.417388,29.055487]]],[[[-83.038197,29.145209],[-83.049957,29.131985],[-83.057525,29.150092],[-83.038197,29.145209]]],[[[-90.450022,29.235093],[-90.446278,29.260321],[-90.433827,29.255113],[-90.450022,29.235093]]],[[[-89.927846,29.288153],[-89.913157,29.290229],[-89.92927,29.276597],[-89.927846,29.288153]]],[[[-89.994944,29.45661],[-90.101796,29.478339],[-90.081776,29.511298],[-89.994944,29.45661]]],[[[-89.057037,29.562079],[-89.049916,29.565009],[-89.0985,29.520941],[-89.057037,29.562079]]],[[[-88.979604,29.63288],[-88.964508,29.642768],[-88.978261,29.631659],[-88.979604,29.63288]]],[[[-88.925404,29.683092],[-88.938832,29.673285],[-88.874094,29.747463],[-88.925404,29.683092]]],[[[-81.251289,31.504578],[-81.202909,31.534334],[-81.261718,31.387792],[-81.251289,31.504578]]],[[[-81.160555,31.669889],[-81.136435,31.69841],[-81.16096,31.567314],[-81.160555,31.669889]]],[[[-118.234676,33.763153],[-118.257629,33.716554],[-118.24432,33.734291],[-118.267506,33.747029],[-118.234676,33.763153]]],[[[-75.903773,37.129214],[-75.895603,37.25297],[-75.823227,37.196323],[-75.903773,37.129214]]],[[[-72.341559,41.090652],[-72.27566,41.039271],[-72.371306,41.054992],[-72.341559,41.090652]]],[[[-72.131022,41.120472],[-72.091354,41.1019],[-72.100823,41.054246],[-72.131022,41.120472]]],[[[-70.830471,41.260366],[-70.801798,41.256785],[-70.810903,41.248046],[-70.830471,41.260366]]],[[[-70.871176,41.43867],[-70.848598,41.434332],[-70.938665,41.41122],[-70.871176,41.43867]]],[[[-70.724354,41.5111],[-70.679194,41.51045],[-70.839861,41.450531],[-70.724354,41.5111]]],[[[-123.417085,46.204842],[-123.324327,46.154662],[-123.396638,46.168933],[-123.417085,46.204842]]],[[[-123.480747,46.255944],[-123.436684,46.220399],[-123.468439,46.225003],[-123.480747,46.255944]]],[[[-133.520334,54.814114],[-133.543975,54.779446],[-133.544749,54.831692],[-133.520334,54.814114]]],[[[-131.18915,55.103431],[-131.189992,55.048337],[-131.254895,55.069237],[-131.18915,55.103431]]],[[[-133.307277,55.432187],[-133.236057,55.44022],[-133.274493,55.40428],[-133.307277,55.432187]]],[[[-152.288189,57.396985],[-152.255922,57.384243],[-152.298183,57.363155],[-152.288189,57.396985]]],[[[-136.137573,58.265089],[-136.045053,58.318596],[-136.059997,58.267785],[-136.137573,58.265089]]],[[[-135.718503,58.346144],[-135.654904,58.379797],[-135.543345,58.334832],[-135.718503,58.346144]]],[[[-152.035227,58.951687],[-152.013132,58.939846],[-152.065094,58.911282],[-152.035227,58.951687]]],[[[-151.687859,59.129656],[-151.64372,59.115749],[-151.713647,59.105835],[-151.687859,59.129656]]],[[[-151.465133,59.138191],[-151.428281,59.117302],[-151.508501,59.128566],[-151.465133,59.138191]]],[[[-151.858987,59.163867],[-151.816822,59.170664],[-151.89319,59.144364],[-151.858987,59.163867]]],[[[-146.323598,59.452135],[-146.322418,59.425849],[-146.358632,59.422431],[-146.323598,59.452135]]],[[[-152.563181,60.14997],[-152.580149,60.107245],[-152.628285,60.148627],[-152.563181,60.14997]]],[[[-147.360422,60.300727],[-147.472727,60.22956],[-147.500966,60.258368],[-147.360422,60.300727]]],[[[-173.06432,60.642524],[-173.113596,60.653022],[-173.071726,60.686225],[-173.06432,60.642524]]],[[[-146.820306,60.841694],[-146.712851,60.853252],[-146.76558,60.801956],[-146.820306,60.841694]]],[[[-147.094146,60.897935],[-147.139638,60.855618],[-147.310536,60.874457],[-147.094146,60.897935]]],[[[-165.948923,62.029527],[-165.99828,62.0185],[-165.9829,62.065904],[-165.948923,62.029527]]],[[[-168.035512,64.985297],[-168.048411,64.95893],[-168.087595,64.978827],[-168.035512,64.985297]]],[[[-168.907908,65.768297],[-168.899607,65.747626],[-168.951731,65.75316],[-168.907908,65.768297]]],[[[-167.777008,65.773017],[-167.738271,65.777167],[-167.827219,65.738593],[-167.777008,65.773017]]],[[[-167.670969,65.793687],[-167.566477,65.816636],[-167.695424,65.740912],[-167.670969,65.793687]]],[[[-166.859486,66.03974],[-166.835805,66.041815],[-167.239491,65.909247],[-166.859486,66.03974]]],[[[-166.283518,66.200629],[-166.187082,66.210273],[-166.800526,66.0515],[-166.283518,66.200629]]],[[[-166.088531,66.256171],[-166.041819,66.259996],[-166.14741,66.220364],[-166.088531,66.256171]]],[[[-165.864329,66.316881],[-165.814646,66.326361],[-166.010365,66.257717],[-165.864329,66.316881]]],[[[-165.488718,66.409003],[-165.697743,66.356838],[-165.690867,66.370754],[-165.488718,66.409003]]],[[[-165.488718,66.409003],[-165.448313,66.418769],[-165.42394,66.421332],[-165.488718,66.409003]]],[[[-165.342641,66.436713],[-165.381663,66.425686],[-165.423039,66.421449],[-165.342641,66.436713]]],[[[-165.342641,66.436713],[-165.326405,66.440253],[-165.322703,66.440416],[-165.342641,66.436713]]],[[[-164.763336,66.546454],[-164.866567,66.507025],[-165.32085,66.440582],[-164.763336,66.546454]]]]}}