{"type":"Feature","properties":{"iso3":"UZB","name":"Uzbekistan","continent":"Asia"},"geometry":{"type":"MultiPolygon","coordinates":[[[[71.78552,39.989705],[71.767123,39.915446],[71.675346,39.925781],[71.681753,39.955082],[71.78552,39.989705]]],[[[70.958955,40.238372],[70.622128,40.199563],[70.581821,40.221732],[70.524046,40.34374],[70.371394,40.364927],[70.369637,40.475515],[70.468184,40.50249],[70.732096,40.674986],[70.767132,40.737618],[70.637424,40.770587],[70.628743,40.815856],[70.703157,40.788933],[70.696852,40.816218],[70.40116,41.039977],[70.363539,41.032432],[70.335892,40.92696],[70.280392,40.877713],[70.009659,40.75803],[69.803315,40.70563],[69.717687,40.63628],[69.66012,40.638709],[69.509224,40.77467],[69.417757,40.804229],[69.355074,40.780354],[69.314198,40.729298],[69.313474,40.609357],[69.198442,40.566517],[69.312699,40.34281],[69.305309,40.293821],[69.208364,40.298317],[69.285259,40.194964],[69.197926,40.182975],[69.019229,40.232067],[68.581116,40.164216],[68.687052,40.110318],[68.930655,40.146801],[68.986982,40.091714],[68.977267,40.064894],[68.881769,40.070837],[68.826062,40.042053],[68.761725,40.061483],[68.880787,39.878342],[68.838258,39.864648],[68.758883,39.980558],[68.775212,39.862529],[68.741623,39.819638],[68.701522,39.858447],[68.626178,39.84961],[68.600339,39.642853],[68.506702,39.56756],[68.517268,39.548765],[68.337565,39.527924],[67.717603,39.623371],[67.507435,39.552936],[67.494567,39.493714],[67.427284,39.47661],[67.386873,39.294192],[67.344395,39.273831],[67.350037,39.220058],[67.661172,39.133375],[67.690524,38.989611],[68.100938,38.979276],[68.172562,38.845279],[68.066729,38.787969],[68.075927,38.726862],[68.040322,38.673351],[68.055153,38.536305],[68.183724,38.335491],[68.35622,38.212604],[68.344334,38.115452],[68.256226,37.96156],[68.122229,37.908333],[68.050192,37.760409],[67.829224,37.527943],[67.797339,37.424435],[67.820645,37.303306],[67.785092,37.20357],[67.644635,37.251216],[67.572185,37.223155],[67.503145,37.281963],[67.259129,37.185147],[67.024105,37.377487],[66.667021,37.344311],[66.519588,37.36418],[66.494835,37.379425],[66.546615,37.45079],[66.493491,37.522207],[66.518813,37.782708],[66.645782,37.945902],[66.624336,37.993832],[66.306939,38.08039],[66.231078,38.148784],[65.876681,38.272962],[65.740204,38.224076],[65.60414,38.237409],[65.205301,38.449644],[64.977718,38.61227],[64.634897,38.744148],[64.337344,38.970956],[64.150585,38.949458],[63.709268,39.190891],[63.477551,39.402919],[62.593161,39.890228],[62.452808,40.009239],[62.421595,40.115072],[62.435754,40.194189],[62.353279,40.430402],[62.191842,40.499028],[62.134171,40.577834],[62.036812,40.736326],[61.982707,40.885671],[61.979297,40.998842],[61.877907,41.124984],[61.654355,41.249421],[61.43318,41.300323],[61.281355,41.157282],[61.09966,41.2241],[60.99114,41.212473],[60.860295,41.252987],[60.478096,41.212111],[60.094244,41.389516],[60.059207,41.434165],[60.071713,41.514366],[60.155635,41.603327],[60.049182,41.753499],[60.102408,41.795279],[60.252684,41.780061],[60.088766,41.919355],[59.906451,41.966613],[59.997195,42.010615],[59.983656,42.145594],[60.040397,42.18647],[59.866351,42.304215],[59.426481,42.286774],[59.258429,42.347545],[59.223806,42.460872],[59.146084,42.526759],[58.89442,42.547843],[58.587876,42.791188],[58.534546,42.654503],[58.258283,42.689514],[58.130643,42.638846],[58.145732,42.592569],[58.306239,42.528671],[58.494135,42.305713],[58.478218,42.291993],[58.385821,42.301321],[58.384684,42.387827],[58.325049,42.431856],[58.016024,42.499707],[57.908641,42.430434],[57.928794,42.330931],[57.888073,42.261582],[57.835467,42.240446],[57.850453,42.191431],[57.619769,42.148178],[57.382264,42.163629],[57.207805,42.07056],[57.115511,41.952092],[56.978361,41.895118],[56.950146,41.86605],[56.960481,41.647201],[57.012054,41.557826],[57.019599,41.465946],[57.07417,41.394994],[57.153751,41.37236],[57.029521,41.262599],[55.978422,41.321717],[55.975839,44.993275],[58.554906,45.557169],[61.036305,44.382822],[61.161672,44.168106],[62.026115,43.480629],[63.208007,43.627467],[64.426744,43.547033],[64.922941,43.719115],[65.271447,43.417015],[65.51691,43.297229],[65.795239,42.877203],[66.101267,42.990323],[66.053208,42.440873],[66.013727,42.40302],[66.006493,42.013431],[66.499176,41.995603],[66.602632,41.493799],[66.688208,41.199192],[66.73296,41.158057],[67.748143,41.184102],[67.834908,41.156869],[67.937434,41.20038],[68.034379,41.042716],[68.117371,41.066745],[68.121196,41.045506],[68.088226,40.885929],[67.998619,40.822057],[68.226099,40.678862],[68.461743,40.584656],[68.514815,40.619124],[68.61424,40.609099],[68.625454,40.660413],[68.554657,40.79317],[68.570574,40.902517],[68.689378,40.964943],[68.773766,41.087261],[69.031217,41.208752],[69.040313,41.376649],[69.217149,41.460054],[69.390679,41.469718],[69.393779,41.544959],[69.607565,41.658285],[69.912404,41.712856],[70.1111,41.825975],[70.357907,42.06224],[70.45542,42.093737],[70.54482,42.021855],[70.594533,42.021855],[70.734266,42.197296],[70.842373,42.192542],[71.045772,42.29096],[71.249868,42.198385],[71.238215,42.160244],[70.977145,42.044231],[70.845474,42.030356],[70.814003,41.919535],[70.648948,41.887393],[70.453663,41.71208],[70.169288,41.578342],[70.166549,41.520206],[70.344419,41.493799],[70.470782,41.404879],[70.66781,41.471372],[70.769199,41.352102],[70.770439,41.238518],[70.828524,41.249111],[70.914203,41.193042],[71.024688,41.189787],[71.164421,41.116199],[71.206382,41.188753],[71.276145,41.113151],[71.325238,41.157334],[71.393657,41.112737],[71.421459,41.162088],[71.412571,41.334687],[71.52383,41.296654],[71.585532,41.323525],[71.637415,41.431271],[71.605582,41.476849],[71.615297,41.532143],[71.671418,41.547388],[71.671108,41.437627],[71.75317,41.44729],[71.847015,41.341819],[71.871613,41.194489],[71.977033,41.195213],[72.016513,41.163535],[72.158417,41.187875],[72.185599,41.060647],[72.165135,40.999359],[72.289778,41.023544],[72.33236,41.072843],[72.395198,41.022045],[72.476744,41.011813],[72.483358,40.970575],[72.658231,40.867171],[72.830107,40.87208],[72.872998,40.834821],[73.00343,40.870168],[73.148641,40.813686],[72.783908,40.669663],[72.748355,40.575096],[72.682416,40.577679],[72.625468,40.5105],[72.351893,40.601967],[72.372254,40.503265],[72.426096,40.459545],[72.394061,40.389422],[72.224356,40.422443],[72.26363,40.452519],[72.182705,40.45779],[71.956672,40.31568],[71.958222,40.286534],[72.025402,40.250878],[72.004834,40.237287],[71.836473,40.249172],[71.707178,40.144269],[71.673072,40.147886],[71.62832,40.258887],[71.592973,40.198426],[71.521246,40.203749],[71.263949,40.318212],[71.201008,40.263848],[71.053213,40.274235],[70.958955,40.238372]],[[70.565904,41.018376],[70.56146,40.994605],[70.645072,40.935177],[70.61665,40.99352],[70.565904,41.018376]]],[[[71.176926,40.042001],[71.244002,40.046756],[71.174704,39.993994],[71.219094,39.900925],[71.021897,39.880823],[71.007634,39.911157],[71.045823,39.99203],[70.98314,40.021383],[70.954046,40.095797],[71.008564,40.157757],[71.078844,40.07864],[71.176926,40.042001]]]]}}