{"type":"Feature","properties":{"iso3":"VEN","name":"Venezuela","continent":"Americas"},"geometry":{"type":"MultiPolygon","coordinates":[[[[-60.020985,8.55801],[-59.815595,8.287764],[-59.829289,8.245105],[-59.967679,8.18839],[-60.029587,8.042818],[-60.129219,8.028813],[-60.231125,7.964114],[-60.37476,7.823606],[-60.525758,7.813374],[-60.582086,7.736325],[-60.601257,7.63385],[-60.730578,7.525433],[-60.599862,7.32188],[-60.643555,7.25067],[-60.628413,7.191138],[-60.548005,7.125509],[-60.475322,7.188503],[-60.372021,7.172277],[-60.312825,7.132589],[-60.295798,7.070732],[-60.377344,6.938544],[-60.63955,6.837723],[-60.700347,6.767082],[-60.894573,6.814159],[-60.928369,6.735869],[-61.139312,6.70445],[-61.21197,6.561435],[-61.139752,6.441262],[-61.160913,6.342353],[-61.114792,6.264012],[-61.121562,6.186652],[-61.256101,6.114382],[-61.386274,5.956588],[-61.379608,5.9053],[-60.816903,5.285079],[-60.664303,5.170254],[-60.598674,4.99688],[-60.612626,4.900581],[-60.71815,4.784283],[-60.887958,4.711135],[-60.977281,4.53497],[-61.151198,4.492053],[-61.297262,4.52373],[-61.322945,4.508847],[-61.308243,4.433322],[-61.501874,4.401851],[-61.552156,4.254961],[-61.756355,4.246357],[-61.866891,4.157034],[-62.035046,4.159876],[-62.153592,4.090294],[-62.428097,4.183182],[-62.536979,4.125408],[-62.560957,4.037791],[-62.766216,4.020712],[-62.788798,3.899401],[-62.739912,3.700447],[-62.786318,3.604406],[-62.871997,3.565468],[-62.997054,3.599135],[-63.251199,3.88656],[-63.35171,3.958726],[-63.4254,3.968364],[-63.46886,3.867233],[-63.510666,3.854546],[-63.671587,3.946246],[-63.87514,3.949812],[-64.037663,3.882503],[-64.1467,4.110551],[-64.364981,4.151867],[-64.58967,4.118871],[-64.69987,4.264159],[-64.791622,4.284417],[-64.813042,4.210571],[-64.727104,4.140782],[-64.642897,3.972963],[-64.202976,3.594717],[-64.195638,3.532912],[-64.245609,3.41894],[-64.222923,3.123996],[-64.000869,2.725364],[-64.056628,2.488531],[-63.831319,2.428638],[-63.384834,2.420577],[-63.37052,2.281154],[-63.411758,2.149379],[-63.617533,2.101165],[-63.783208,1.974997],[-63.958339,1.970708],[-64.036629,1.927274],[-64.092957,1.622615],[-64.301523,1.446657],[-64.352941,1.365835],[-64.389579,1.369297],[-64.363819,1.477353],[-64.40901,1.507506],[-64.551197,1.419527],[-64.604217,1.331289],[-64.730876,1.247574],[-64.821439,1.27057],[-65.022486,1.139983],[-65.136769,1.126909],[-65.203044,0.923821],[-65.310272,0.918653],[-65.389027,0.835661],[-65.45122,0.69014],[-65.542661,0.649315],[-65.587336,0.739129],[-65.518503,0.88651],[-65.582943,0.977668],[-65.74544,0.974154],[-65.891761,0.895605],[-65.974082,0.80698],[-66.134382,0.731119],[-66.208745,0.763107],[-66.285071,0.745847],[-66.407079,0.802071],[-66.875061,1.22251],[-66.900899,1.288966],[-66.883536,1.349945],[-66.936504,1.438518],[-66.980894,1.665946],[-67.135148,2.003341],[-67.114633,2.102999],[-67.169255,2.141162],[-67.217262,2.266064],[-67.17375,2.336448],[-67.186101,2.384455],[-67.316636,2.469463],[-67.500294,2.675342],[-67.563701,2.68175],[-67.626591,2.813421],[-67.690411,2.806341],[-67.751028,2.842102],[-67.841255,2.801432],[-67.838619,2.88613],[-67.395804,3.266572],[-67.304647,3.425709],[-67.403917,3.504464],[-67.499829,3.717914],[-67.631759,3.761865],[-67.714079,4.056498],[-67.786219,4.172976],[-67.793092,4.428981],[-67.873398,4.546519],[-67.795211,5.052716],[-67.827561,5.130696],[-67.834589,5.339313],[-67.652481,5.477961],[-67.617031,5.541601],[-67.64907,5.65609],[-67.625144,5.784506],[-67.418593,5.995346],[-67.491199,6.114486],[-67.456299,6.193224],[-67.573984,6.266234],[-67.827199,6.313414],[-67.977991,6.217839],[-68.146508,6.223781],[-68.304172,6.176988],[-68.449021,6.194998],[-68.659344,6.13867],[-69.061129,6.217839],[-69.246104,6.080664],[-69.331396,6.15637],[-69.43108,6.122237],[-69.472628,6.158747],[-70.129203,6.972547],[-70.319062,6.938286],[-70.510704,7.009702],[-70.571476,7.079362],[-70.732965,7.099309],[-70.895539,7.06851],[-71.011268,6.990892],[-71.136041,6.992132],[-71.184048,6.962574],[-71.262028,6.978697],[-71.307762,7.027376],[-71.455763,7.015697],[-71.654304,7.053369],[-71.848194,6.983864],[-71.993818,7.012855],[-72.098256,7.086752],[-72.164143,7.220801],[-72.16404,7.328856],[-72.206208,7.381876],[-72.395812,7.407492],[-72.478698,7.484454],[-72.454462,7.876161],[-72.487793,7.94918],[-72.407074,8.043774],[-72.333849,8.065478],[-72.335761,8.103899],[-72.390538,8.234331],[-72.40325,8.370498],[-72.67543,8.651514],[-72.785604,9.102443],[-72.826687,9.141691],[-72.936396,9.099187],[-72.97319,9.128436],[-73.003575,9.28791],[-73.032669,9.294602],[-73.212245,9.173446],[-73.363645,9.165033],[-73.390839,9.194504],[-73.324383,9.255922],[-73.178448,9.523037],[-73.107652,9.577995],[-72.98554,9.812167],[-72.987711,9.999417],[-72.935621,10.175194],[-72.907561,10.452464],[-72.499317,11.120795],[-72.256593,11.167795],[-71.97108,11.661925],[-71.449458,11.795457],[-71.357629,11.850802],[-71.327507,11.849998],[-71.336049,11.789252],[-71.467112,11.721625],[-71.900706,11.621324],[-71.971303,11.554836],[-71.93932,11.380764],[-71.856923,11.216986],[-71.769765,11.10635],[-71.626454,11.01496],[-71.679311,10.987982],[-71.724273,11.030829],[-71.768666,11.015286],[-71.723704,10.970893],[-71.674062,10.802395],[-71.576283,10.721096],[-71.629547,10.463528],[-71.779042,10.341742],[-71.897694,10.139228],[-71.969065,10.105699],[-72.043691,9.929592],[-72.124379,9.826077],[-71.946848,9.541164],[-71.987864,9.610053],[-72.00829,9.575873],[-71.96052,9.51789],[-72.002024,9.507758],[-71.995229,9.459215],[-71.918935,9.50019],[-71.84439,9.439358],[-71.900746,9.434556],[-71.905263,9.384711],[-71.894765,9.41885],[-71.833567,9.425727],[-71.760854,9.364732],[-71.734527,9.384711],[-71.73998,9.289374],[-71.816518,9.233303],[-71.757924,9.238959],[-71.751536,9.115709],[-71.708567,9.076728],[-71.557688,9.041571],[-71.241038,9.155748],[-71.161855,9.278754],[-71.056508,9.344468],[-71.09024,9.555406],[-71.035064,9.740383],[-71.108469,9.905341],[-71.206939,9.980618],[-71.267812,10.151923],[-71.363881,10.219957],[-71.46935,10.401801],[-71.462758,10.489081],[-71.541575,10.564887],[-71.502838,10.626939],[-71.531361,10.752672],[-71.573069,10.799302],[-71.445912,10.79621],[-71.453359,10.871894],[-71.422027,10.902777],[-71.488596,10.953803],[-71.458323,10.974921],[-71.293935,10.98664],[-70.8697,11.196275],[-70.685618,11.248033],[-70.513905,11.25316],[-70.48644,11.295111],[-70.231067,11.351587],[-70.159006,11.401435],[-70.164403,11.462933],[-70.099374,11.429547],[-70.036529,11.440904],[-70.053909,11.506482],[-70.161598,11.568545],[-69.975625,11.502896],[-69.925899,11.513061],[-69.814076,11.425605],[-69.759999,11.468085],[-69.743642,11.503363],[-69.816029,11.693671],[-70.186513,11.602688],[-70.229888,11.627875],[-70.233144,11.748358],[-70.205922,11.762519],[-70.301991,11.85814],[-70.283559,11.939643],[-70.211293,12.102729],[-70.01773,12.19892],[-69.925364,12.159613],[-69.835317,12.015204],[-69.808583,11.803616],[-69.747141,11.63227],[-69.623606,11.46776],[-69.500071,11.508734],[-69.376698,11.494045],[-69.270416,11.536038],[-69.061879,11.453518],[-68.863189,11.452867],[-68.754384,11.374091],[-68.65567,11.347886],[-68.48351,11.206936],[-68.417592,11.179145],[-68.410756,11.200263],[-68.278432,10.925482],[-68.376617,10.919094],[-68.23884,10.884955],[-68.331939,10.829576],[-68.287099,10.657904],[-68.209584,10.537258],[-68.129547,10.487738],[-67.869211,10.461249],[-67.56017,10.528266],[-67.170033,10.555976],[-67.012359,10.611233],[-66.541575,10.632717],[-66.350453,10.611151],[-66.275868,10.652167],[-66.057973,10.579047],[-66.122222,10.507025],[-65.882069,10.309556],[-65.929921,10.323188],[-65.923004,10.282213],[-65.717641,10.22016],[-65.868479,10.309556],[-65.580434,10.185452],[-65.169545,10.097317],[-65.091461,10.066881],[-65.175689,10.083645],[-65.148915,10.058417],[-65.083974,10.047512],[-64.943593,10.099799],[-64.776601,10.090399],[-64.728627,10.136054],[-64.721832,10.214016],[-64.667633,10.187323],[-64.631418,10.248114],[-64.468373,10.248603],[-64.376698,10.310248],[-64.463368,10.332831],[-64.395334,10.339504],[-64.381256,10.386217],[-64.364613,10.338324],[-64.339182,10.390692],[-64.165598,10.480862],[-63.863637,10.446112],[-63.655019,10.494534],[-63.966664,10.581366],[-64.045481,10.570258],[-64.03185,10.590074],[-64.155507,10.572699],[-64.249135,10.520453],[-64.297678,10.619859],[-64.270741,10.672675],[-64.157216,10.620185],[-64.048899,10.652167],[-63.91511,10.631049],[-63.836822,10.66234],[-63.812123,10.713609],[-63.756947,10.665595],[-63.553334,10.629136],[-63.393463,10.690904],[-63.251291,10.680569],[-63.171295,10.731594],[-62.928212,10.699368],[-62.719635,10.759996],[-62.170766,10.68651],[-61.864817,10.744818],[-61.880483,10.686347],[-61.962473,10.652167],[-62.239858,10.637885],[-62.33495,10.530219],[-62.662343,10.567043],[-62.923329,10.530829],[-63.010813,10.453559],[-62.857004,10.531562],[-62.835764,10.398342],[-62.995188,10.407864],[-63.003977,10.38467],[-62.975982,10.398342],[-62.956166,10.357367],[-62.992787,10.289049],[-62.945912,10.278144],[-62.927154,10.303371],[-62.942494,10.405178],[-62.879791,10.370998],[-62.764475,10.395331],[-62.674957,10.293362],[-62.630727,10.114488],[-62.702463,10.070461],[-62.777455,10.086493],[-62.813873,10.044094],[-62.894358,10.096625],[-63.017649,10.103461],[-62.96231,10.088039],[-62.936025,10.008246],[-62.92219,10.082668],[-62.785715,10.002021],[-62.764312,10.076158],[-62.716705,10.048407],[-62.61852,10.09162],[-62.619537,10.224433],[-62.579945,10.224433],[-62.494944,10.151801],[-62.429433,9.980862],[-62.44164,9.932807],[-62.377594,9.88467],[-62.32429,9.785631],[-62.326975,9.721829],[-62.290761,9.733303],[-62.242991,9.842841],[-62.257232,9.974351],[-62.221995,9.938381],[-62.1787,9.846137],[-62.175893,9.704983],[-62.215688,9.637926],[-62.181874,9.648871],[-62.154286,9.726142],[-62.19518,9.932807],[-62.028676,9.870673],[-62.236806,9.966946],[-62.206532,10.01435],[-62.025383,9.957357],[-61.831451,9.791938],[-61.810374,9.748196],[-61.845774,9.651028],[-61.797353,9.760891],[-61.765492,9.738674],[-61.743316,9.596381],[-61.734731,9.70303],[-61.823822,9.820737],[-61.592519,9.781968],[-61.591176,9.822455],[-61.670966,9.896499],[-61.636735,9.898771],[-61.422265,9.736261],[-61.503098,9.839567],[-61.451954,9.825046],[-61.206044,9.577379],[-61.208323,9.603827],[-61.068023,9.583319],[-60.97704,9.549628],[-60.954254,9.488186],[-60.862294,9.456122],[-60.789052,9.364244],[-60.78539,9.313544],[-61.085439,9.102444],[-61.11205,9.04149],[-60.959137,9.182522],[-61.006581,9.048774],[-61.09968,8.960354],[-61.209462,8.609036],[-61.523061,8.596625],[-61.645172,8.626654],[-61.660756,8.596422],[-61.598744,8.555487],[-61.434234,8.479153],[-61.34911,8.479315],[-61.295277,8.41234],[-61.159047,8.498277],[-61.026601,8.500922],[-61.077992,8.466457],[-61.071889,8.403306],[-61.06192,8.459866],[-60.992421,8.512193],[-60.984771,8.570543],[-60.692454,8.604682],[-60.626088,8.555487],[-60.478912,8.532375],[-60.371897,8.635403],[-60.197825,8.623847],[-60.020985,8.55801]]],[[[-61.016469,8.610093],[-60.992543,8.576728],[-61.050649,8.555487],[-61.043772,8.528632],[-61.270375,8.514553],[-61.22761,8.571601],[-61.126373,8.534369],[-61.098459,8.602688],[-61.016469,8.610093]]],[[[-60.920277,9.028469],[-60.838368,9.000556],[-60.86498,8.94123],[-61.091624,8.822414],[-61.016713,8.880316],[-60.920277,9.028469]]],[[[-61.085439,8.890692],[-61.078521,8.962958],[-60.946889,9.066107],[-60.85204,9.096137],[-60.866567,9.051744],[-60.942983,9.025824],[-61.085439,8.890692]]],[[[-60.873158,9.116604],[-60.961293,9.069403],[-60.936757,9.164618],[-60.872141,9.19477],[-60.845204,9.182359],[-60.873158,9.116604]]],[[[-60.81786,9.206],[-60.757924,9.230414],[-60.728505,9.192939],[-60.797434,9.17182],[-60.845204,9.116604],[-60.81786,9.206]]],[[[-63.976552,10.809231],[-63.903635,10.777289],[-63.909169,10.735541],[-64.004506,10.775702],[-63.976552,10.809231]]],[[[-65.22761,10.953803],[-65.201975,10.918158],[-65.244618,10.884955],[-65.411773,10.92475],[-65.329905,10.977607],[-65.22761,10.953803]]],[[[-63.846832,11.135403],[-63.787668,10.973782],[-63.842926,10.96776],[-63.898061,10.884955],[-64.059722,10.857611],[-64.056874,10.887112],[-64.161122,10.955959],[-64.389027,10.966051],[-64.356068,11.064195],[-64.198313,11.087633],[-64.18163,11.034084],[-64.049062,10.990709],[-63.976552,11.118313],[-63.896108,11.168036],[-63.846832,11.135403]]],[[[-66.608266,11.783108],[-66.587799,11.783108],[-66.641835,11.761461],[-66.704498,11.783108],[-66.650868,11.780178],[-66.615102,11.824042],[-66.608266,11.783108]]],[[[-66.132192,11.824042],[-66.10851,11.825832],[-66.114003,11.779934],[-66.194325,11.817694],[-66.132192,11.824042]]],[[[-64.607167,11.899115],[-64.562856,11.868109],[-64.562856,11.816596],[-64.648793,11.830268],[-64.607167,11.899115]]],[[[-66.749989,11.777574],[-66.728505,11.783596],[-66.851064,11.747016],[-66.749989,11.777574]]],[[[-66.733388,11.86994],[-66.711781,11.867906],[-66.81786,11.87108],[-66.733388,11.86994]]],[[[-67.65803,11.984931],[-67.637603,11.980048],[-67.671986,11.993109],[-67.65803,11.984931]]],[[[-67.680409,12.025051],[-67.681549,12.025784],[-67.679067,12.028144],[-67.680409,12.025051]]],[[[-67.677602,12.027818],[-67.677235,12.030015],[-67.676381,12.027818],[-67.677602,12.027818]]],[[[-67.677235,12.050238],[-67.674672,12.048407],[-67.676096,12.04442],[-67.677235,12.050238]]],[[[-67.681386,12.063707],[-67.68102,12.061835],[-67.684438,12.063463],[-67.681386,12.063707]]],[[[-67.687327,12.065579],[-67.688832,12.068996],[-67.687082,12.067532],[-67.687327,12.065579]]],[[[-63.639882,15.696031],[-63.639638,15.702948],[-63.633941,15.696194],[-63.639882,15.696031]]],[[[-61.390271,8.580581],[-61.314603,8.571314],[-61.259426,8.472074],[-61.276443,8.450202],[-61.325707,8.494809],[-61.540116,8.565411],[-61.390271,8.580581]]],[[[-60.745024,8.719359],[-60.68372,8.757892],[-60.687225,8.709995],[-60.611611,8.683771],[-60.608289,8.654354],[-60.809814,8.642141],[-60.745024,8.719359]]],[[[-60.951361,8.827825],[-60.732365,8.89215],[-60.686043,8.789015],[-60.769735,8.741511],[-60.846576,8.637715],[-61.054207,8.638843],[-61.1768,8.603848],[-61.167108,8.699385],[-61.12644,8.756478],[-60.951361,8.827825]]],[[[-62.331125,9.920559],[-62.325754,9.844184],[-62.349355,9.872301],[-62.331125,9.920559]]],[[[-62.40331,10.006293],[-62.396067,9.978095],[-62.420522,9.982652],[-62.435658,10.033189],[-62.40331,10.006293]]],[[[-62.240834,10.0515],[-62.245188,10.003607],[-62.298004,9.98371],[-62.240834,10.0515]]],[[[-62.665151,10.36636],[-62.65982,10.310004],[-62.787587,10.430121],[-62.781117,10.492906],[-62.665151,10.36636]]],[[[-64.168609,10.827948],[-64.174794,10.799221],[-64.220937,10.806464],[-64.168609,10.827948]]]]}}