{"type":"Feature","properties":{"iso3":"VGB","name":"British Virgin Islands","continent":"Americas"},"geometry":{"type":"MultiPolygon","coordinates":[[[[-64.635121,18.405504],[-64.659685,18.383072],[-64.714128,18.386203],[-64.700509,18.39807],[-64.682554,18.399548],[-64.661821,18.440416],[-64.641705,18.451158],[-64.560161,18.454103],[-64.527199,18.449118],[-64.516845,18.43929],[-64.520129,18.434123],[-64.548596,18.440271],[-64.583323,18.416327],[-64.613393,18.422553],[-64.635121,18.405504]]],[[[-64.380605,18.480902],[-64.408193,18.456692],[-64.443349,18.443061],[-64.411733,18.49136],[-64.415395,18.511949],[-64.402415,18.505764],[-64.326039,18.511949],[-64.334299,18.497056],[-64.380605,18.480902]]],[[[-64.336537,18.72427],[-64.380523,18.726142],[-64.398671,18.732082],[-64.408559,18.744696],[-64.320302,18.746243],[-64.285064,18.734076],[-64.270741,18.70067],[-64.336537,18.72427]]],[[[-64.569447,18.357978],[-64.56786,18.337388],[-64.600738,18.35163],[-64.569447,18.357978]]],[[[-64.729807,18.453437],[-64.724233,18.442694],[-64.730336,18.437893],[-64.773997,18.442288],[-64.768422,18.449652],[-64.729807,18.453437]]],[[[-64.532704,18.494127],[-64.529164,18.476386],[-64.536529,18.462388],[-64.539459,18.482856],[-64.532704,18.494127]]]]}}