{"type":"Feature","properties":{"iso3":"VIR","name":"United States Virgin Islands","continent":"Americas"},"geometry":{"type":"MultiPolygon","coordinates":[[[[-64.559397,17.751614],[-64.585194,17.748969],[-64.670522,17.717231],[-64.895172,17.682766],[-64.887847,17.699897],[-64.887685,17.755276],[-64.876454,17.775865],[-64.838694,17.764838],[-64.771637,17.792629],[-64.689768,17.744778],[-64.6669,17.762885],[-64.630971,17.770331],[-64.591786,17.768297],[-64.559397,17.75845],[-64.559397,17.751614]]],[[[-64.700994,18.342976],[-64.708161,18.340145],[-64.697423,18.32654],[-64.704005,18.30331],[-64.73623,18.319753],[-64.786367,18.315222],[-64.801285,18.328253],[-64.786365,18.349772],[-64.751736,18.361689],[-64.755913,18.369057],[-64.746955,18.37359],[-64.682472,18.356003],[-64.66039,18.336723],[-64.700994,18.342976]]],[[[-64.871637,18.314623],[-64.878839,18.304441],[-64.921859,18.322555],[-64.930834,18.33955],[-64.935023,18.330486],[-64.944586,18.336714],[-64.981643,18.335558],[-64.993621,18.348024],[-65.025309,18.338926],[-65.041493,18.353658],[-64.986643,18.374823],[-64.926019,18.366154],[-64.950028,18.386599],[-64.854984,18.340129],[-64.84008,18.317489],[-64.871637,18.314623]]]]}}