{"type":"Feature","properties":{"iso3":"VNM","name":"Vietnam","continent":"Asia"},"geometry":{"type":"MultiPolygon","coordinates":[[[[107.520393,14.704582],[107.490885,14.80424],[107.555326,14.876199],[107.461947,14.956814],[107.444687,15.011824],[107.589071,15.058178],[107.623591,15.187239],[107.656818,15.205688],[107.657594,15.282427],[107.598476,15.330616],[107.577702,15.39963],[107.493934,15.420042],[107.487475,15.481408],[107.447891,15.508124],[107.388669,15.492518],[107.24873,15.631088],[107.215295,15.727517],[107.150183,15.794283],[107.175246,15.848543],[107.390633,15.935824],[107.444738,16.00998],[107.435643,16.068839],[107.298959,16.064189],[107.13599,16.184784],[107.089101,16.281075],[106.956551,16.307068],[106.855885,16.414658],[106.846687,16.530052],[106.732482,16.417552],[106.670677,16.444424],[106.644322,16.57532],[106.540659,16.659139],[106.533425,16.97266],[106.411365,16.995708],[106.272614,17.28985],[106.233391,17.251971],[106.185435,17.257397],[106.019296,17.394495],[105.846025,17.597997],[105.735282,17.664039],[105.605212,17.85426],[105.606039,17.964124],[105.476021,18.127318],[105.472817,18.171993],[105.410031,18.201888],[105.381557,18.162768],[105.321871,18.170081],[105.292518,18.252737],[105.235933,18.249456],[105.166169,18.306791],[105.162862,18.366012],[105.079973,18.454353],[105.113615,18.580831],[105.169477,18.61486],[105.112684,18.698343],[104.919725,18.735576],[104.872906,18.777976],[104.721959,18.792007],[104.48094,18.977706],[104.210621,19.100747],[104.14773,19.182887],[103.973994,19.225288],[103.858549,19.295335],[104.089956,19.48367],[104.000969,19.680738],[104.109231,19.654874],[104.228966,19.706008],[104.295267,19.654874],[104.380068,19.685285],[104.505848,19.60281],[104.604963,19.606479],[104.675967,19.724689],[104.805003,19.790886],[104.81663,19.848092],[104.760716,19.86145],[104.780663,19.908088],[104.86903,19.977748],[104.945688,19.992373],[104.95688,20.091798],[104.903446,20.157091],[104.819162,20.220989],[104.657053,20.212695],[104.680928,20.340982],[104.589357,20.406818],[104.35981,20.439735],[104.444973,20.534613],[104.495823,20.511927],[104.542642,20.535699],[104.614071,20.642616],[104.389059,20.770981],[104.287877,20.885755],[104.099155,20.957688],[103.775557,20.834905],[103.755196,20.759406],[103.702383,20.708711],[103.713752,20.679824],[103.676338,20.656518],[103.577946,20.732896],[103.489373,20.752481],[103.426586,20.820694],[103.363799,20.787621],[103.115287,20.868391],[103.014518,21.040526],[102.951576,21.068999],[102.889099,21.166409],[102.887859,21.226923],[102.801301,21.254828],[102.878816,21.322162],[102.916798,21.438641],[102.86476,21.432181],[102.974107,21.575325],[102.95602,21.723946],[102.835149,21.716453],[102.806727,21.836084],[102.752157,21.6809],[102.657434,21.658421],[102.59103,21.901352],[102.478065,21.957576],[102.482871,22.021396],[102.20697,22.245413],[102.118655,22.397549],[102.218029,22.410675],[102.252549,22.495476],[102.376882,22.615572],[102.356263,22.658721],[102.442718,22.765175],[102.515789,22.745176],[102.535787,22.695825],[102.576198,22.713808],[102.831842,22.599707],[102.893698,22.487362],[103.029039,22.430157],[103.04418,22.486484],[103.142004,22.537799],[103.141745,22.607045],[103.244891,22.668695],[103.309642,22.787938],[103.36876,22.767139],[103.447515,22.618259],[103.503635,22.581413],[103.582545,22.755796],[103.646934,22.799049],[103.959525,22.507103],[104.02381,22.719183],[104.086856,22.791556],[104.241161,22.824396],[104.236821,22.742076],[104.35547,22.688642],[104.55122,22.832845],[104.588427,22.806852],[104.715344,22.827083],[104.823606,22.924132],[104.797923,23.085569],[104.861279,23.119598],[104.880864,23.171713],[104.945201,23.159828],[105.046642,23.226826],[105.217536,23.265351],[105.235933,23.319792],[105.312155,23.36581],[105.332258,23.317958],[105.414475,23.278477],[105.517156,23.167734],[105.539687,23.075466],[105.690324,23.043969],[105.853879,22.90465],[105.973975,22.939893],[105.989995,22.970615],[106.132105,22.975007],[106.202385,22.946998],[106.255405,22.854653],[106.457977,22.888966],[106.501178,22.921703],[106.610371,22.85287],[106.674398,22.861474],[106.731035,22.800108],[106.789843,22.797188],[106.680186,22.57945],[106.646338,22.568804],[106.587995,22.607768],[106.530324,22.449277],[106.536525,22.360548],[106.63378,22.30944],[106.662926,22.223296],[106.653107,21.968893],[106.722354,22.006978],[106.864774,21.968066],[106.920378,21.916958],[106.991898,21.935355],[107.021147,21.892257],[106.989107,21.82425],[107.172352,21.715058],[107.272656,21.718314],[107.348155,21.599355],[107.40996,21.645398],[107.445927,21.646949],[107.491196,21.58411],[107.76012,21.658214],[107.832363,21.639352],[107.991222,21.485663],[107.929698,21.442613],[107.909679,21.526516],[107.862804,21.530219],[107.847911,21.493109],[107.766856,21.520209],[107.786388,21.458401],[107.748546,21.4112],[107.676524,21.4112],[107.590587,21.293891],[107.522309,21.348538],[107.537446,21.301947],[107.415294,21.328681],[107.443126,21.293891],[107.367442,21.273383],[107.374278,21.03384],[107.224132,20.998236],[107.170909,20.93358],[107.066091,20.958726],[107.149181,21.03384],[107.092459,21.008246],[107.037934,21.032172],[106.997813,21.020168],[107.016775,20.957668],[106.863536,20.991604],[106.943126,20.90351],[106.881602,20.937649],[106.867931,20.882717],[106.783214,20.942572],[106.816905,20.969468],[106.812185,21.013373],[106.658702,21.024848],[106.67628,20.958726],[106.755138,20.938544],[106.744477,20.883002],[106.717784,20.90351],[106.699962,20.882758],[106.744477,20.848863],[106.749197,20.804348],[106.717784,20.807847],[106.805919,20.677558],[106.772472,20.707953],[106.675548,20.698635],[106.703136,20.659654],[106.654063,20.630805],[106.598155,20.655097],[106.628429,20.605862],[106.518565,20.540961],[106.579926,20.547187],[106.584483,20.496039],[106.518565,20.437323],[106.584239,20.457831],[106.563324,20.375474],[106.592593,20.275411],[106.504405,20.308254],[106.548513,20.291449],[106.569615,20.231994],[106.39503,20.204576],[106.160899,19.984076],[106.10141,19.979967],[106.114513,20.033271],[106.088878,19.973863],[106.039073,19.98843],[105.964366,19.935289],[105.932302,19.805406],[105.867442,19.773179],[105.915538,19.774482],[105.895274,19.72134],[105.866954,19.721096],[105.823904,19.598944],[105.791759,19.587592],[105.805431,19.60871],[105.812755,19.423163],[105.784923,19.403266],[105.808767,19.280178],[105.745779,19.23725],[105.737071,19.108466],[105.668305,19.089545],[105.614268,18.998603],[105.648285,18.892727],[105.716645,18.85456],[105.685802,18.831285],[105.757579,18.77204],[105.754731,18.676256],[105.766775,18.755601],[105.879242,18.510932],[105.949474,18.471015],[105.977306,18.402086],[106.112153,18.262885],[106.165782,18.26557],[106.332286,18.145209],[106.354015,18.114691],[106.306326,18.100491],[106.34669,18.059475],[106.422374,18.128363],[106.438975,18.051988],[106.518565,17.957017],[106.436046,17.881985],[106.478526,17.703518],[106.374522,17.765286],[106.285167,17.772121],[106.42921,17.731147],[106.383067,17.719184],[106.408702,17.682766],[106.417491,17.712958],[106.504405,17.682766],[106.638438,17.468899],[106.763927,17.335517],[107.111827,17.088284],[107.121267,17.018541],[107.203868,16.919257],[107.141775,16.874579],[107.190196,16.874579],[107.20753,16.904975],[107.635265,16.587226],[107.44337,16.648017],[107.663097,16.551825],[107.672862,16.49726],[107.707205,16.504543],[107.841156,16.379788],[107.79656,16.387356],[107.824067,16.304836],[107.882172,16.278062],[107.933116,16.305406],[107.930919,16.343411],[108.011974,16.319037],[108.042979,16.346381],[108.094493,16.236518],[108.046072,16.247382],[108.204356,16.216702],[108.142263,16.148383],[108.142833,16.119371],[108.236664,16.055121],[108.19752,16.00373],[108.258962,16.010565],[108.238617,16.146715],[108.331391,16.155341],[108.348399,16.134711],[108.258556,16.07099],[108.279145,15.995673],[108.388194,15.898383],[108.377126,15.874213],[108.40268,15.882392],[108.455333,15.747016],[108.618663,15.529242],[108.683442,15.517768],[108.628917,15.455715],[108.652517,15.438788],[108.690929,15.490424],[108.774587,15.375067],[108.77296,15.325344],[108.8213,15.345852],[108.796235,15.356391],[108.800141,15.429023],[108.877452,15.34398],[108.881033,15.29914],[108.943614,15.236884],[108.862478,15.152493],[108.897716,15.119859],[108.910004,15.146633],[109.005626,14.838772],[108.985525,14.836615],[109.080821,14.729478],[109.095063,14.667426],[109.076427,14.685614],[109.064464,14.57038],[109.239024,14.133002],[109.17449,14.172065],[109.184093,14.136298],[109.215099,14.119574],[109.266368,13.920722],[109.301606,13.88581],[109.303966,13.759263],[109.269786,13.755601],[109.259532,13.87401],[109.239024,13.879788],[109.221853,13.813218],[109.258962,13.77733],[109.224783,13.722113],[109.2942,13.530341],[109.211192,13.646959],[109.26588,13.533881],[109.31422,13.522895],[109.303722,13.479885],[109.334646,13.440904],[109.307384,13.406806],[109.277517,13.421617],[109.300466,13.461371],[109.262543,13.489325],[109.234141,13.410061],[109.308849,13.341457],[109.272634,13.263251],[109.2942,13.2355],[109.307384,13.283881],[109.321056,13.259019],[109.32838,13.084662],[109.467296,12.897691],[109.462901,12.862128],[109.368826,12.824612],[109.420746,12.691311],[109.469493,12.660346],[109.440278,12.564602],[109.403494,12.687445],[109.380138,12.647895],[109.354259,12.660061],[109.38559,12.70246],[109.362559,12.792914],[109.204926,12.64643],[109.204926,12.550238],[109.239024,12.583726],[109.237153,12.522284],[109.336681,12.410142],[109.297374,12.35102],[109.185069,12.45893],[109.149669,12.440375],[109.242035,12.305406],[109.182384,12.27261],[109.224783,12.200832],[109.198497,12.207953],[109.226817,12.137885],[109.213878,12.068101],[109.286794,11.967434],[109.266368,11.926459],[109.2942,11.878648],[109.228282,11.880805],[109.186209,12.117743],[109.163341,12.112006],[109.208181,11.97663],[109.125824,11.863593],[109.131602,11.830024],[109.163341,11.824042],[109.197927,11.869452],[109.203868,11.788682],[109.242931,11.735663],[109.135997,11.570217],[109.020274,11.632799],[109.038341,11.587714],[109.005626,11.343655],[108.951671,11.310126],[108.8213,11.323717],[108.766124,11.275946],[108.72934,11.181545],[108.646251,11.190497],[108.531261,11.153266],[108.481944,11.064032],[108.376313,11.026272],[108.300059,10.912828],[108.258637,10.951809],[108.106456,10.918158],[107.998302,10.699368],[107.898204,10.719957],[107.823904,10.692369],[107.586518,10.573513],[107.511404,10.501654],[107.32602,10.44245],[107.271983,10.378485],[107.190196,10.405178],[107.211925,10.443549],[107.175955,10.477444],[107.059825,10.480862],[107.059825,10.508205],[107.031912,10.474066],[107.025645,10.50137],[107.003591,10.488593],[107.031912,10.607489],[106.984141,10.699368],[107.026866,10.544176],[106.997813,10.54914],[106.997813,10.624905],[106.984141,10.566881],[107.011404,10.521877],[106.972179,10.47427],[106.943126,10.600653],[106.890554,10.644639],[106.828624,10.630276],[106.772472,10.686347],[106.747569,10.673651],[106.772472,10.603746],[106.740977,10.539984],[106.688813,10.503648],[106.662608,10.521877],[106.606781,10.447659],[106.579926,10.487738],[106.581879,10.452786],[106.597423,10.433051],[106.648936,10.474066],[106.689789,10.433051],[106.741059,10.468004],[106.781993,10.407782],[106.790782,10.284857],[106.437673,10.321845],[106.785655,10.164944],[106.79713,10.125393],[106.737071,10.054145],[106.704112,10.048896],[106.708344,10.075263],[106.653982,9.985012],[106.607432,9.97484],[106.468923,10.058987],[106.359874,10.220689],[106.292003,10.261705],[106.461681,10.035712],[106.6963,9.896552],[106.682465,9.855129],[106.674083,9.876125],[106.637869,9.825995],[106.586762,9.822943],[106.127289,10.239447],[106.19337,10.120266],[106.562999,9.747219],[106.575531,9.648627],[106.543712,9.585028],[106.497244,9.549994],[106.398204,9.54206],[106.250336,9.631171],[105.932872,9.95539],[105.838064,10.005032],[106.073497,9.747952],[106.197032,9.541164],[106.18393,9.362209],[105.538748,9.12934],[105.408214,9.000556],[105.315126,8.812237],[105.184031,8.740882],[105.101472,8.634275],[104.856212,8.565579],[104.728526,8.599514],[104.828136,8.656562],[104.845551,8.698147],[104.911632,8.685207],[104.963145,8.719387],[104.87615,8.699205],[104.864268,8.731757],[104.928966,8.747301],[104.91627,8.790473],[104.816661,8.771308],[104.774595,8.817867],[104.811717,8.937049],[104.856558,9.738037],[104.892789,9.851095],[104.969981,9.853664],[105.054861,9.933417],[105.076671,9.943427],[105.113292,9.857082],[105.107107,9.952704],[105.003266,10.092108],[104.901052,10.097317],[104.771983,10.22663],[104.707367,10.222317],[104.654145,10.14883],[104.615977,10.14643],[104.588878,10.260891],[104.503754,10.357367],[104.524913,10.41942],[104.48585,10.383287],[104.453624,10.379828],[104.455821,10.407172],[104.582536,10.531529],[104.854406,10.531322],[104.944323,10.641625],[105.042456,10.690821],[105.066227,10.746425],[105.011399,10.883833],[105.077906,10.946904],[105.097543,10.914348],[105.253296,10.883523],[105.303009,10.844016],[105.397887,10.954578],[105.523603,10.951294],[105.752904,11.015608],[105.878684,10.828074],[105.929844,10.880061],[106.177322,10.766863],[106.126938,10.908999],[106.124664,10.953183],[106.17665,10.996203],[106.160321,11.053512],[106.130865,11.084234],[106.08663,11.056329],[105.857187,11.279959],[105.872173,11.443463],[105.853208,11.546867],[105.793179,11.582884],[105.80489,11.624925],[105.840857,11.658153],[105.934081,11.642856],[106.01542,11.770497],[106.223624,11.72497],[106.287341,11.674586],[106.364184,11.688538],[106.425834,11.66208],[106.398859,11.746313],[106.436169,11.861189],[106.395416,11.965807],[106.70158,11.970795],[106.771963,12.065828],[106.953399,12.081072],[107.211884,12.30571],[107.320198,12.329223],[107.415851,12.254085],[107.514295,12.343847],[107.565093,12.606415],[107.46298,13.007321],[107.606951,13.369754],[107.604315,13.498531],[107.44324,13.783475],[107.430734,13.984471],[107.343143,14.020618],[107.31994,14.119837],[107.358594,14.238615],[107.351773,14.341968],[107.386912,14.421912],[107.455745,14.433875],[107.476726,14.475242],[107.520393,14.704582]]],[[[106.210704,9.620917],[106.279307,9.595689],[106.27003,9.534491],[106.189626,9.603827],[106.221446,9.572496],[106.196625,9.571682],[106.087169,9.754625],[106.210704,9.620917]]],[[[106.724132,10.268622],[106.7588,10.244371],[106.717784,10.231024],[106.511729,10.295885],[106.724132,10.268622]]],[[[107.172048,10.464586],[107.202647,10.438056],[107.100597,10.33515],[107.073741,10.372626],[107.172048,10.464586]]],[[[106.93629,10.439276],[106.977306,10.405178],[106.88795,10.370998],[106.879405,10.490058],[106.927501,10.521186],[106.93629,10.439276]]],[[[106.908946,10.532375],[106.855968,10.561713],[106.877696,10.635565],[106.929454,10.597561],[106.908946,10.532375]]],[[[109.32838,12.221259],[109.333507,12.189602],[109.287608,12.188951],[109.245291,12.221259],[109.32838,12.221259]]],[[[106.662608,8.739814],[106.57838,8.655463],[106.570974,8.705959],[106.658376,8.766669],[106.662608,8.739814]]],[[[106.498057,9.891181],[106.544119,9.838039],[106.422374,9.932807],[106.498057,9.891181]]],[[[104.082042,10.370998],[104.08546,10.248114],[104.033458,10.096015],[104.048025,10.025295],[104.01059,10.030463],[103.957042,10.233791],[103.849457,10.360541],[103.942149,10.374742],[103.993175,10.4501],[104.082042,10.370998]]],[[[106.874278,10.460395],[106.819591,10.46662],[106.85963,10.431789],[106.840099,10.405178],[106.770681,10.464301],[106.751964,10.566555],[106.785899,10.601386],[106.751964,10.665839],[106.85377,10.598375],[106.842459,10.55508],[106.871837,10.515204],[106.840099,10.50137],[106.874278,10.460395]]],[[[107.080333,20.800442],[107.031912,20.787421],[107.067393,20.749742],[107.031912,20.718492],[106.912852,20.8369],[107.022716,20.86225],[107.100841,20.804267],[107.080333,20.800442]]],[[[106.840099,20.879869],[106.886485,20.796129],[106.856212,20.792873],[106.819591,20.876776],[106.783865,20.852362],[106.785411,20.930813],[106.840099,20.879869]]],[[[107.525401,20.910305],[107.549571,20.956122],[107.463878,20.814114],[107.470714,20.876776],[107.525401,20.910305]]],[[[107.745128,21.020168],[107.792817,20.992255],[107.756114,20.945705],[107.745128,21.020168]]],[[[107.532725,21.020168],[107.546397,21.034898],[107.511729,20.923977],[107.41212,20.899482],[107.532725,21.040595],[107.532725,21.020168]]],[[[107.621267,21.116034],[107.5796,20.98314],[107.559418,20.986029],[107.621267,21.116034]]],[[[107.580577,21.211982],[107.603201,21.219306],[107.388682,21.047512],[107.455333,21.275702],[107.526622,21.207994],[107.580577,21.211982]]],[[[107.813487,21.3605],[107.817068,21.348538],[107.711436,21.307563],[107.813487,21.3605]]],[[[107.868663,21.390082],[107.998302,21.403754],[107.854259,21.350409],[107.872813,21.374213],[107.826915,21.370266],[107.868663,21.390082]]],[[[108.942556,10.551947],[108.966156,10.517646],[108.940196,10.504218],[108.942556,10.551947]]],[[[109.393403,12.601874],[109.400238,12.557929],[109.320323,12.627997],[109.393403,12.601874]]],[[[107.36964,20.825914],[107.383556,20.799302],[107.342133,20.828437],[107.36964,20.825914]]],[[[107.382172,20.887885],[107.367686,20.858385],[107.343516,20.877346],[107.382172,20.887885]]],[[[107.825694,21.02497],[107.856293,21.033271],[107.827403,20.989081],[107.825694,21.02497]]]]}}