{"type":"Feature","properties":{"iso3":"VUT","name":"Vanuatu","continent":"Oceania"},"geometry":{"type":"MultiPolygon","coordinates":[[[[169.840343,-20.140802],[169.888845,-20.173923],[169.898936,-20.192315],[169.871593,-20.239435],[169.830089,-20.253106],[169.737966,-20.208917],[169.736339,-20.185805],[169.755544,-20.143813],[169.821137,-20.135024],[169.840343,-20.140802]]],[[[169.432791,-19.492852],[169.50172,-19.52752],[169.460134,-19.582208],[169.453298,-19.626153],[169.436209,-19.657322],[169.357677,-19.636163],[169.306163,-19.582208],[169.278331,-19.578302],[169.218516,-19.490167],[169.214529,-19.439142],[169.219981,-19.414809],[169.238943,-19.398533],[169.234711,-19.362481],[169.243419,-19.341974],[169.261485,-19.328302],[169.336599,-19.31463],[169.352875,-19.328058],[169.344005,-19.380141],[169.357677,-19.455255],[169.366466,-19.469659],[169.432791,-19.492852]]],[[[169.336599,-18.934828],[169.32781,-18.960382],[169.286957,-18.982354],[169.275076,-18.999282],[169.166515,-18.939223],[169.134125,-18.940851],[169.102794,-18.932224],[169.059255,-18.901951],[168.987315,-18.87656],[168.985525,-18.859633],[169.002208,-18.80169],[168.98227,-18.762628],[168.98878,-18.690606],[169.008149,-18.649998],[169.038422,-18.629164],[169.07781,-18.618259],[169.118419,-18.619399],[169.152354,-18.636326],[169.162446,-18.652276],[169.17213,-18.726495],[169.227306,-18.739353],[169.243988,-18.732517],[169.268321,-18.769952],[169.193207,-18.787042],[169.22047,-18.824965],[169.319835,-18.882013],[169.332367,-18.90488],[169.336599,-18.934828]]],[[[168.549571,-17.691013],[168.583751,-17.684177],[168.58546,-17.701267],[168.547618,-17.784601],[168.540212,-17.796645],[168.50115,-17.807061],[168.484141,-17.820733],[168.467784,-17.809259],[168.388357,-17.823663],[168.37086,-17.813897],[168.360362,-17.793715],[168.34962,-17.807061],[168.343516,-17.780369],[168.309337,-17.794041],[168.315603,-17.75921],[168.283051,-17.778578],[168.247325,-17.786554],[168.264659,-17.767836],[168.304698,-17.752048],[168.309337,-17.731215],[168.2942,-17.736749],[168.286632,-17.71087],[168.25172,-17.695571],[168.213145,-17.704034],[168.185802,-17.738702],[168.174815,-17.740981],[168.151134,-17.718194],[168.178966,-17.656183],[168.226817,-17.615167],[168.266612,-17.558526],[168.292735,-17.537693],[168.323009,-17.532647],[168.336681,-17.555597],[168.354177,-17.545343],[168.423106,-17.534275],[168.45338,-17.546319],[168.459158,-17.570571],[168.487478,-17.594822],[168.510427,-17.648858],[168.529063,-17.656183],[168.549571,-17.691013]]],[[[168.205414,-17.58115],[168.207856,-17.550388],[168.238943,-17.521905],[168.275645,-17.509373],[168.295421,-17.526462],[168.247081,-17.546319],[168.205414,-17.58115]]],[[[168.322765,-17.447361],[168.327403,-17.419366],[168.338552,-17.414483],[168.36378,-17.443943],[168.372081,-17.479099],[168.356293,-17.484145],[168.334158,-17.469985],[168.322765,-17.447361]]],[[[168.391124,-17.067153],[168.376475,-17.085382],[168.333018,-17.094415],[168.322765,-17.089451],[168.339529,-17.066176],[168.388357,-17.041192],[168.425141,-17.046645],[168.391124,-17.067153]]],[[[168.559255,-16.943617],[168.532725,-16.937921],[168.533946,-16.894464],[168.552745,-16.879083],[168.57838,-16.876886],[168.597016,-16.895196],[168.570323,-16.937595],[168.559255,-16.943617]]],[[[168.192068,-16.813897],[168.149913,-16.778578],[168.144216,-16.731378],[168.120372,-16.709161],[168.131114,-16.635837],[168.149099,-16.616957],[168.144216,-16.573012],[168.189952,-16.580255],[168.230235,-16.642022],[168.247325,-16.690362],[168.281505,-16.676853],[168.298106,-16.682061],[168.335216,-16.733168],[168.353363,-16.738214],[168.370291,-16.767022],[168.441173,-16.77044],[168.464122,-16.778009],[168.480724,-16.800226],[168.46754,-16.805922],[168.473888,-16.848077],[168.45338,-16.848077],[168.384125,-16.802504],[168.333263,-16.786716],[168.291677,-16.795343],[168.232921,-16.822931],[168.192068,-16.813897]]],[[[168.3296,-16.539646],[168.315929,-16.535821],[168.295421,-16.497979],[168.33725,-16.491876],[168.349376,-16.497979],[168.361176,-16.514255],[168.361339,-16.529392],[168.350434,-16.539239],[168.3296,-16.539646]]],[[[168.213145,-16.478123],[168.222667,-16.440606],[168.260997,-16.429783],[168.25172,-16.444757],[168.243826,-16.494561],[168.210134,-16.504653],[168.203136,-16.495375],[168.213145,-16.478123]]],[[[168.182384,-16.347833],[168.139985,-16.361912],[168.10255,-16.339939],[168.076508,-16.340427],[168.050059,-16.322442],[168.021983,-16.326593],[167.920909,-16.258884],[167.926443,-16.244806],[167.912852,-16.233087],[167.925792,-16.219822],[167.994477,-16.192315],[168.048676,-16.190118],[168.069509,-16.179783],[168.125499,-16.129083],[168.140961,-16.089776],[168.171641,-16.080255],[168.207286,-16.134454],[168.230724,-16.227716],[168.249685,-16.246189],[168.3213,-16.282892],[168.329845,-16.306248],[168.288259,-16.344008],[168.182384,-16.347833]]],[[[167.812511,-16.419529],[167.822765,-16.419041],[167.843923,-16.457696],[167.820323,-16.481052],[167.799571,-16.486993],[167.771658,-16.524509],[167.771983,-16.54046],[167.76059,-16.546319],[167.744395,-16.546482],[167.726573,-16.517836],[167.690929,-16.511],[167.679373,-16.499933],[167.64088,-16.501642],[167.621918,-16.494236],[167.568126,-16.525974],[167.590017,-16.539646],[167.580251,-16.552179],[167.542166,-16.560154],[167.521007,-16.580499],[167.50294,-16.574395],[167.500662,-16.587335],[167.494395,-16.587335],[167.486176,-16.577081],[167.458751,-16.567966],[167.421072,-16.520196],[167.418712,-16.497979],[167.45281,-16.517836],[167.450206,-16.501886],[167.43572,-16.462823],[167.406505,-16.420017],[167.40504,-16.38128],[167.387543,-16.369724],[167.381521,-16.346775],[167.387706,-16.272638],[167.374848,-16.192966],[167.363455,-16.1867],[167.322439,-16.115004],[167.30128,-16.128676],[167.295177,-16.12127],[167.233084,-16.16961],[167.209321,-16.148858],[167.195974,-16.14365],[167.185313,-16.149102],[167.171641,-16.108168],[167.147472,-16.08294],[167.148448,-16.046319],[167.178477,-15.990899],[167.174164,-15.9249],[167.185313,-15.89072],[167.226248,-15.867364],[167.336111,-15.908949],[167.334809,-15.944106],[167.394705,-16.017999],[167.377126,-16.052911],[167.400401,-16.064711],[167.404307,-16.074395],[167.397634,-16.087091],[167.459646,-16.131768],[167.473399,-16.131036],[167.466482,-16.104425],[167.480154,-16.113214],[167.494395,-16.134942],[167.48699,-16.162774],[167.514903,-16.176446],[167.534679,-16.162774],[167.555186,-16.20436],[167.603038,-16.224298],[167.65268,-16.269708],[167.679373,-16.258966],[167.688731,-16.263849],[167.68572,-16.287042],[167.703624,-16.306248],[167.746918,-16.340427],[167.772472,-16.336033],[167.786143,-16.358575],[167.794688,-16.407973],[167.77589,-16.441176],[167.773936,-16.459568],[167.789236,-16.470636],[167.794444,-16.438653],[167.812511,-16.419529]]],[[[167.20574,-15.751235],[167.185883,-15.750746],[167.144216,-15.724054],[167.089122,-15.703546],[167.072276,-15.676202],[167.075694,-15.649591],[167.094981,-15.629571],[167.126964,-15.621515],[167.233572,-15.641534],[167.236827,-15.659356],[167.224946,-15.690037],[167.233735,-15.741388],[167.20574,-15.751235]]],[[[167.1574,-15.538995],[167.190196,-15.531671],[167.178477,-15.545831],[167.192638,-15.553888],[167.185313,-15.56699],[167.208344,-15.579034],[167.209483,-15.596368],[167.194835,-15.607517],[167.171641,-15.601007],[167.142833,-15.60589],[167.109548,-15.587498],[167.1574,-15.538995]]],[[[168.185802,-15.517836],[168.203787,-15.534438],[168.199474,-15.627699],[168.213145,-15.659356],[168.216075,-15.70379],[168.239513,-15.768162],[168.247325,-15.819513],[168.264008,-15.85711],[168.270356,-15.914239],[168.267751,-15.949151],[168.254893,-15.975763],[168.226817,-15.990899],[168.204275,-15.992446],[168.192393,-15.985528],[168.187511,-15.971124],[168.15504,-15.793634],[168.131114,-15.737563],[168.11964,-15.662774],[168.124522,-15.621352],[168.148936,-15.543227],[168.154552,-15.463311],[168.176524,-15.461602],[168.185802,-15.517836]]],[[[167.939464,-15.39186],[167.927908,-15.423598],[167.861583,-15.476739],[167.838552,-15.484796],[167.734141,-15.484308],[167.678722,-15.461033],[167.672862,-15.449802],[167.682384,-15.43255],[167.804454,-15.320001],[167.891612,-15.291925],[167.976899,-15.277765],[168.002452,-15.281834],[168.003266,-15.291599],[167.953949,-15.34881],[167.939464,-15.39186]]],[[[167.12322,-14.963637],[167.096446,-14.928888],[167.1574,-14.956231],[167.139659,-14.969659],[167.12322,-14.963637]]],[[[168.096446,-14.980401],[168.100434,-14.962091],[168.090505,-14.943536],[168.110688,-14.915785],[168.122895,-14.922784],[168.141368,-14.960138],[168.171641,-15.172784],[168.192068,-15.206313],[168.194347,-15.289158],[168.178966,-15.395115],[168.131114,-15.395115],[168.135427,-15.346856],[168.12379,-15.299412],[168.130544,-15.264744],[168.130138,-15.157647],[168.120616,-15.134942],[168.096446,-14.980401]]],[[[167.140636,-15.535577],[167.102712,-15.580011],[167.076427,-15.592869],[166.989106,-15.575616],[166.90797,-15.586358],[166.883474,-15.608005],[166.89324,-15.617771],[166.86378,-15.614841],[166.835785,-15.648858],[166.815603,-15.658298],[166.793142,-15.656345],[166.753917,-15.627699],[166.766449,-15.608819],[166.766775,-15.583917],[166.756196,-15.562433],[166.707205,-15.53281],[166.674083,-15.468032],[166.641368,-15.434747],[166.616059,-15.385024],[166.646169,-15.285577],[166.649181,-15.218357],[166.613943,-15.14186],[166.59962,-15.062107],[166.609874,-15.031915],[166.592621,-15.0263],[166.582042,-15.011407],[166.570811,-14.956231],[166.541026,-14.90838],[166.522634,-14.832127],[166.534679,-14.775323],[166.527354,-14.737074],[166.554535,-14.682387],[166.556163,-14.645929],[166.587657,-14.636407],[166.598399,-14.625258],[166.609874,-14.634698],[166.64031,-14.690037],[166.644054,-14.713149],[166.671235,-14.74391],[166.686209,-14.779962],[166.747081,-14.819594],[166.737315,-14.829522],[166.769867,-14.947931],[166.77296,-15.009698],[166.788097,-15.028497],[166.801768,-15.152276],[166.813162,-15.160414],[166.91977,-15.155938],[166.963227,-15.104181],[166.971934,-14.979913],[166.964529,-14.951349],[166.975922,-14.93727],[167.00766,-14.922052],[167.082856,-14.928888],[167.082856,-14.936293],[167.056163,-14.947686],[167.056814,-15.002048],[167.04127,-15.025079],[167.057872,-15.026951],[167.064626,-15.038832],[167.089122,-15.141209],[167.113292,-15.1242],[167.144216,-15.128106],[167.139415,-15.146417],[167.1574,-15.226821],[167.144216,-15.246352],[167.151134,-15.264744],[167.178477,-15.277765],[167.191742,-15.305597],[167.185069,-15.340997],[167.178884,-15.346612],[167.164806,-15.33294],[167.171723,-15.366388],[167.212901,-15.463556],[167.245372,-15.488051],[167.247244,-15.498224],[167.233409,-15.523614],[167.171723,-15.517836],[167.140636,-15.535577]]],[[[167.514903,-14.140558],[167.586436,-14.172459],[167.603038,-14.18906],[167.593435,-14.250421],[167.562022,-14.298923],[167.548025,-14.313084],[167.526134,-14.31992],[167.430919,-14.318455],[167.401215,-14.305108],[167.396821,-14.299574],[167.411143,-14.267836],[167.407481,-14.19492],[167.447927,-14.161391],[167.480724,-14.161065],[167.514903,-14.140558]]],[[[167.45281,-13.918634],[167.448416,-13.885024],[167.418712,-13.86004],[167.39503,-13.824965],[167.390798,-13.77752],[167.412283,-13.739516],[167.473806,-13.708429],[167.488943,-13.708185],[167.521007,-13.736505],[167.549653,-13.789483],[167.562022,-13.798028],[167.542166,-13.818536],[167.548595,-13.832778],[167.588715,-13.848403],[167.590017,-13.856622],[167.568126,-13.86004],[167.533702,-13.880466],[167.48699,-13.887384],[167.493663,-13.89186],[167.48699,-13.901056],[167.498546,-13.924493],[167.484874,-13.942153],[167.463878,-13.943943],[167.45281,-13.918634]]],[[[167.702647,-13.619806],[167.716482,-13.640232],[167.712901,-13.668227],[167.650727,-13.681899],[167.63502,-13.693536],[167.633474,-13.684259],[167.669932,-13.636489],[167.702647,-13.619806]]],[[[167.329275,-13.510512],[167.346934,-13.528009],[167.37086,-13.517348],[167.368663,-13.54339],[167.3567,-13.553399],[167.315603,-13.551528],[167.297048,-13.520603],[167.296641,-13.50449],[167.308849,-13.490167],[167.334809,-13.483575],[167.351329,-13.492934],[167.35141,-13.505955],[167.329275,-13.510512]]],[[[166.575206,-13.236261],[166.611583,-13.215265],[166.631521,-13.216729],[166.644054,-13.230076],[166.642833,-13.247735],[166.613048,-13.268243],[166.588145,-13.258477],[166.575206,-13.236261]]],[[[166.575206,-13.154392],[166.554535,-13.188409],[166.529633,-13.169854],[166.53419,-13.095636],[166.520518,-13.064874],[166.561371,-13.078709],[166.575206,-13.120212],[166.56837,-13.138279],[166.575206,-13.154392]]],[[[166.672699,-13.455011],[166.658458,-13.41546],[166.673839,-13.407647],[166.688731,-13.423435],[166.672699,-13.455011]]]]}}