{"type":"Feature","properties":{"iso3":"WLF","name":"Wallis and Futuna","continent":"Oceania"},"geometry":{"type":"MultiPolygon","coordinates":[[[[-178.142323,-14.243585],[-178.105092,-14.285252],[-178.046742,-14.312595],[-178.046742,-14.319431],[-178.108835,-14.319431],[-178.156606,-14.305108],[-178.18574,-14.248224],[-178.178049,-14.232599],[-178.142323,-14.243585]]],[[[-176.155466,-13.208917],[-176.1256,-13.264093],[-176.13561,-13.284763],[-176.128163,-13.298272],[-176.14448,-13.300877],[-176.147654,-13.310479],[-176.141835,-13.33587],[-176.147165,-13.347752],[-176.159495,-13.350274],[-176.18281,-13.339288],[-176.199574,-13.290623],[-176.18281,-13.277927],[-176.190175,-13.257013],[-176.184031,-13.237888],[-176.155466,-13.208917]]]]}}