{"type":"Feature","properties":{"iso3":"WSM","name":"Samoa","continent":"Oceania"},"geometry":{"type":"MultiPolygon","coordinates":[[[[-172.201039,-13.592543],[-172.190256,-13.65602],[-172.175649,-13.680271],[-172.180613,-13.702407],[-172.211497,-13.744561],[-172.212961,-13.800958],[-172.219065,-13.805352],[-172.253245,-13.802911],[-172.297556,-13.769789],[-172.368642,-13.788995],[-172.523183,-13.805352],[-172.575144,-13.762791],[-172.597117,-13.700616],[-172.633046,-13.681899],[-172.66747,-13.633884],[-172.693349,-13.624119],[-172.718739,-13.602797],[-172.725575,-13.581964],[-172.749745,-13.578302],[-172.776479,-13.542087],[-172.782582,-13.520278],[-172.76655,-13.510512],[-172.732371,-13.510512],[-172.695139,-13.524184],[-172.661204,-13.52516],[-172.569203,-13.501397],[-172.530629,-13.483982],[-172.451853,-13.483982],[-172.344431,-13.462986],[-172.300771,-13.476495],[-172.280507,-13.493585],[-172.222768,-13.558364],[-172.217519,-13.582778],[-172.201039,-13.592543]]],[[[-171.56428,-13.949395],[-171.51948,-13.944757],[-171.46935,-13.969415],[-171.437693,-14.006117],[-171.448191,-14.03753],[-171.440745,-14.051853],[-171.579213,-14.049493],[-171.619496,-14.03753],[-171.635813,-14.046157],[-171.700144,-14.038995],[-171.753285,-14.051528],[-171.768056,-14.043227],[-171.774526,-14.0263],[-171.837961,-14.003188],[-171.893503,-14.007013],[-171.926625,-14.001153],[-171.972401,-13.946222],[-171.98884,-13.949395],[-172.018015,-13.917901],[-172.061025,-13.906183],[-172.063669,-13.885024],[-172.044057,-13.846368],[-171.965199,-13.818536],[-171.880198,-13.805352],[-171.834543,-13.807387],[-171.792307,-13.816502],[-171.650217,-13.87127],[-171.585154,-13.883884],[-171.557444,-13.915216],[-171.570017,-13.938165],[-171.56428,-13.949395]]]]}}