{"type":"Feature","properties":{"iso3":"YEM","name":"Yemen","continent":"Asia"},"geometry":{"type":"MultiPolygon","coordinates":[[[[51.978615,18.995638],[52.730145,17.299875],[52.801562,17.267423],[53.090343,16.642401],[52.984874,16.62816],[52.532563,16.447252],[52.292735,16.263821],[52.160004,16.002102],[52.175466,15.877916],[52.224376,15.846747],[52.228363,15.616116],[51.913097,15.515326],[51.865408,15.4501],[51.7588,15.445624],[51.679942,15.403469],[51.655284,15.33275],[51.54949,15.322984],[51.382009,15.238023],[50.554047,15.04857],[50.179535,14.843329],[50.051768,14.818752],[49.942149,14.838772],[49.372406,14.649807],[49.190196,14.54857],[49.181895,14.516588],[49.092784,14.519599],[49.009939,14.401109],[49.006033,14.331204],[48.882335,14.243232],[48.85255,14.166978],[48.701834,14.046698],[48.564789,14.046047],[48.47755,13.996731],[48.338227,14.016303],[48.188731,13.969143],[48.177582,14.009182],[48.016856,14.057278],[47.645681,13.873196],[47.398204,13.654853],[46.911876,13.533271],[46.700694,13.430325],[46.247813,13.432115],[45.665782,13.341986],[45.494151,13.194648],[45.403005,13.070136],[45.193533,13.012681],[45.118175,12.961737],[45.039317,12.756293],[44.97934,12.782294],[45.042491,12.820868],[45.009288,12.856676],[44.867442,12.794827],[44.871837,12.769965],[44.91627,12.774888],[44.881358,12.729885],[44.785167,12.772284],[44.727794,12.742011],[44.706879,12.793647],[44.610606,12.819566],[44.542817,12.797309],[44.415538,12.670152],[44.191173,12.619127],[44.149425,12.624986],[44.198416,12.639065],[44.191173,12.660468],[44.153494,12.655951],[43.961436,12.599595],[43.8296,12.680609],[43.619395,12.749579],[43.468028,12.683905],[43.473155,12.846625],[43.226329,13.283881],[43.284516,13.58039],[43.280935,13.722113],[43.233165,13.87637],[43.09552,14.083956],[42.96339,14.507758],[42.965994,14.53026],[43.006114,14.454779],[43.021983,14.471096],[42.990489,14.68008],[42.883637,14.883694],[42.881602,14.904608],[42.945649,14.811428],[42.937266,14.948472],[42.880138,15.024848],[42.864024,15.13642],[42.733409,15.209296],[42.637706,15.190863],[42.61671,15.229722],[42.682628,15.246487],[42.704275,15.355455],[42.699392,15.311672],[42.774262,15.260443],[42.781993,15.215074],[42.803071,15.245185],[42.778331,15.47899],[42.719249,15.570014],[42.691905,15.702094],[42.834809,15.915351],[42.840099,16.097805],[42.790701,16.368638],[42.898187,16.418896],[42.906766,16.479357],[43.036267,16.536304],[43.097762,16.677794],[43.162926,16.661516],[43.186077,16.683272],[43.168507,16.737222],[43.211502,16.796857],[43.157345,16.825382],[43.112644,16.910028],[43.118432,17.086245],[43.156156,17.2097],[43.248605,17.25192],[43.241836,17.293416],[43.165044,17.32592],[43.303072,17.459039],[43.412885,17.519965],[43.487144,17.517485],[43.619539,17.458832],[43.730643,17.35243],[43.886706,17.353671],[43.903294,17.30432],[44.003908,17.36783],[44.08535,17.343439],[44.169376,17.40235],[45.165387,17.428395],[45.430384,17.312019],[46.322629,17.224066],[46.710099,17.275381],[46.970342,16.956847],[47.161338,16.947442],[47.427575,17.091826],[47.589012,17.463276],[48.161949,18.148919],[49.035849,18.57972],[51.978615,18.995638]]],[[[53.248326,12.121302],[53.286884,12.127337],[53.310267,12.111444],[53.248326,12.121302]]],[[[53.053068,12.17492],[53.086378,12.134344],[52.985265,12.162727],[53.053068,12.17492]]],[[[52.289199,12.200815],[52.374685,12.200588],[52.388464,12.148868],[52.24023,12.156877],[52.068487,12.222008],[52.118435,12.241549],[52.289199,12.200815]]],[[[43.428966,12.673774],[43.435802,12.632148],[43.392751,12.653062],[43.428966,12.673774]]],[[[54.470662,12.543566],[54.540294,12.550238],[54.40234,12.467224],[54.245942,12.433539],[54.154959,12.359809],[53.731165,12.300414],[53.572147,12.334614],[53.505626,12.416327],[53.309744,12.537665],[53.384532,12.557318],[53.396027,12.656468],[53.518946,12.714351],[53.654755,12.704758],[53.762894,12.619703],[53.846104,12.598605],[53.875995,12.647294],[54.008097,12.645744],[54.119395,12.701117],[54.470662,12.543566]]],[[[42.719249,13.742621],[42.782563,13.779934],[42.75408,13.697903],[42.688569,13.663804],[42.719249,13.742621]]],[[[42.760265,14.064683],[42.801606,14.012274],[42.781749,13.919989],[42.691905,14.01317],[42.760265,14.064683]]],[[[42.635997,15.445543],[42.581554,15.391588],[42.628184,15.398668],[42.56837,15.268866],[42.545746,15.29442],[42.55893,15.392971],[42.635997,15.445543]]]]}}