{"type":"Feature","properties":{"iso3":"ZAF","name":"South Africa","continent":"Africa"},"geometry":{"type":"MultiPolygon","coordinates":[[[[19.981447,-24.752493],[20.107847,-24.880341],[20.364886,-25.0332],[20.535831,-25.371163],[20.656547,-25.467798],[20.618514,-25.528466],[20.663369,-25.564743],[20.643318,-25.613216],[20.716699,-25.732588],[20.727137,-25.818165],[20.766928,-25.83067],[20.79411,-25.893922],[20.800518,-26.052466],[20.841446,-26.131324],[20.622544,-26.427533],[20.605284,-26.493265],[20.630709,-26.618322],[20.61469,-26.753198],[20.685693,-26.881769],[20.907695,-26.800017],[21.122462,-26.865336],[21.42663,-26.822651],[21.664548,-26.863062],[21.76232,-26.804461],[21.780613,-26.678164],[22.057702,-26.617599],[22.248285,-26.346918],[22.342853,-26.317359],[22.450857,-26.210079],[22.527958,-26.213696],[22.563821,-26.18114],[22.719367,-25.984253],[22.708825,-25.891028],[22.764119,-25.820335],[22.740451,-25.77703],[22.812798,-25.667063],[22.844631,-25.481131],[23.030666,-25.299437],[23.065496,-25.320831],[23.265691,-25.263987],[23.45927,-25.282177],[23.924772,-25.629236],[23.976448,-25.617557],[24.027091,-25.651766],[24.183464,-25.625928],[24.338907,-25.751812],[24.456729,-25.743027],[24.664985,-25.823332],[24.828903,-25.826019],[25.013284,-25.743027],[25.177822,-25.763284],[25.458425,-25.711194],[25.587254,-25.61952],[25.835198,-25.016353],[25.876746,-24.886025],[25.868374,-24.748152],[26.278788,-24.62847],[26.404001,-24.632758],[26.531176,-24.458661],[26.714007,-24.315931],[26.839168,-24.265598],[26.96717,-23.718706],[27.00417,-23.645842],[27.070058,-23.656074],[27.078326,-23.602021],[27.13672,-23.570188],[27.127419,-23.525023],[27.195632,-23.52709],[27.191497,-23.503836],[27.335571,-23.402446],[27.361203,-23.422497],[27.410502,-23.389321],[27.425178,-23.412678],[27.548892,-23.360795],[27.608009,-23.216721],[27.698443,-23.193467],[27.753634,-23.220752],[27.77172,-23.133005],[27.930057,-23.057041],[27.937498,-22.963817],[28.037441,-22.911417],[28.045399,-22.847752],[28.145858,-22.779745],[28.196191,-22.671638],[28.338559,-22.584615],[28.623865,-22.562808],[28.912529,-22.453667],[28.967926,-22.38039],[28.960227,-22.310213],[29.038723,-22.223914],[29.758886,-22.130896],[30.13509,-22.293574],[30.2217,-22.290886],[30.334975,-22.344733],[30.507367,-22.309593],[30.647411,-22.32644],[30.83789,-22.282308],[31.07033,-22.333674],[31.163348,-22.322616],[31.288922,-22.39734],[31.536349,-23.156983],[31.527615,-23.45681],[31.642285,-23.587861],[31.755198,-23.857767],[31.855812,-23.946548],[31.869455,-24.163795],[31.986554,-24.423108],[31.988724,-25.37261],[31.9664,-25.479684],[31.995752,-25.636884],[31.905835,-25.812997],[31.949243,-25.958104],[31.891882,-25.983839],[31.834573,-25.982082],[31.401473,-25.735999],[31.309282,-25.757393],[31.119836,-25.910045],[30.969871,-26.209148],[30.804559,-26.397457],[30.782906,-26.472388],[30.80244,-26.808905],[30.868741,-26.784927],[30.960983,-26.911224],[30.976073,-27.035041],[31.141954,-27.196478],[31.52653,-27.31089],[31.96826,-27.316264],[31.942112,-27.10067],[31.990068,-26.808285],[32.352216,-26.860272],[32.893077,-26.846124],[32.865245,-27.017348],[32.676524,-27.520685],[32.550548,-28.171563],[32.43922,-28.366632],[32.399669,-28.387872],[32.428233,-28.429376],[32.3921,-28.535333],[32.083751,-28.799493],[32.016856,-28.784926],[31.993988,-28.806248],[32.016124,-28.833591],[32.070079,-28.805597],[32.012055,-28.866469],[31.888357,-28.924737],[31.769054,-28.922296],[31.782725,-28.943455],[31.360037,-29.342462],[31.18686,-29.560317],[31.055512,-29.789809],[31.055837,-29.868259],[31.015798,-29.868097],[31.001231,-29.902439],[31.050466,-29.885186],[31.049571,-29.908624],[30.890636,-30.050063],[30.392345,-30.847101],[30.062755,-31.238702],[29.864106,-31.411554],[29.742035,-31.457452],[29.619884,-31.586033],[29.411632,-31.677504],[29.215505,-31.940118],[29.147634,-31.969822],[28.870372,-32.287042],[28.548595,-32.562433],[28.336925,-32.709405],[28.155528,-32.788507],[28.072276,-32.908298],[27.90211,-33.029474],[27.749848,-33.099786],[27.108897,-33.519138],[26.476085,-33.764255],[25.955251,-33.71087],[25.785411,-33.743585],[25.679047,-33.79518],[25.617524,-33.911391],[25.70102,-34.031671],[25.410492,-34.032973],[25.192638,-33.962172],[24.952891,-33.985121],[24.913341,-34.011326],[24.916352,-34.072361],[24.841075,-34.132501],[24.840831,-34.198012],[24.583995,-34.178318],[24.163097,-34.054783],[23.635509,-33.979669],[23.406098,-34.02044],[23.361176,-34.066664],[23.408376,-34.103204],[23.062836,-34.082696],[22.998057,-34.02752],[23.03891,-34.079767],[22.936046,-34.082696],[22.800141,-34.035577],[22.812511,-34.000746],[22.774587,-33.983575],[22.730479,-33.979669],[22.785167,-34.02752],[22.583669,-33.994073],[22.455414,-34.057061],[22.1692,-34.083185],[22.111013,-34.141534],[22.114106,-34.193943],[21.946951,-34.223728],[21.894542,-34.336033],[21.788748,-34.38128],[21.702647,-34.390558],[21.537608,-34.348891],[21.305919,-34.424574],[21.05836,-34.363377],[20.913422,-34.360447],[20.805186,-34.398045],[20.85613,-34.416925],[20.859874,-34.458754],[20.664317,-34.438409],[20.482677,-34.470473],[20.374522,-34.569757],[20.072602,-34.736912],[20.057872,-34.79518],[20.015636,-34.818943],[19.858409,-34.749688],[19.642426,-34.772068],[19.398692,-34.601821],[19.305512,-34.612726],[19.360118,-34.53867],[19.344412,-34.468438],[19.27768,-34.406508],[19.119314,-34.400567],[19.085216,-34.356541],[19.139903,-34.294366],[19.098969,-34.335545],[18.826996,-34.381768],[18.82252,-34.184991],[18.858165,-34.150323],[18.816173,-34.097101],[18.647227,-34.070001],[18.478363,-34.106866],[18.441661,-34.14422],[18.48878,-34.342706],[18.406261,-34.301853],[18.362478,-34.186212],[18.313813,-34.144627],[18.358409,-34.054783],[18.316173,-34.043552],[18.32309,-34.015883],[18.372081,-33.925063],[18.475352,-33.899835],[18.48878,-33.86297],[18.431814,-33.69671],[18.320323,-33.567478],[18.282725,-33.445245],[18.146169,-33.35589],[18.075206,-33.202244],[17.966645,-33.115818],[18.00587,-33.091729],[18.086111,-33.189386],[18.123383,-33.18613],[18.037446,-33.091729],[18.023204,-33.014337],[17.940684,-33.006443],[17.954926,-33.02752],[17.912771,-33.047459],[17.895844,-33.026462],[17.852387,-32.829685],[17.919688,-32.716567],[17.967459,-32.703546],[18.037446,-32.766778],[18.118826,-32.773045],[18.296397,-32.608575],[18.337901,-32.451593],[18.31544,-32.343683],[18.349376,-32.260349],[18.276866,-31.892673],[18.196788,-31.697361],[17.893728,-31.344822],[17.871837,-31.272882],[17.617198,-30.934015],[17.450369,-30.639093],[17.454112,-30.601251],[17.281993,-30.347752],[17.085704,-29.833754],[17.007823,-29.539239],[16.847667,-29.219903],[16.808767,-29.078302],[16.600352,-28.857517],[16.564301,-28.72031],[16.471853,-28.625421],[16.487071,-28.572931],[16.673121,-28.45976],[16.703817,-28.494487],[16.758387,-28.459657],[16.803863,-28.366123],[16.764382,-28.283234],[16.8266,-28.251918],[16.819779,-28.20975],[16.868665,-28.167892],[16.892953,-28.082626],[17.076404,-28.026815],[17.180894,-28.099472],[17.21314,-28.232074],[17.349773,-28.238689],[17.399692,-28.395268],[17.324244,-28.470509],[17.420569,-28.593396],[17.403619,-28.704293],[17.598026,-28.689617],[17.628722,-28.764135],[17.746338,-28.748632],[17.913252,-28.781291],[18.166467,-28.901904],[18.30868,-28.879993],[18.397564,-28.898907],[18.745656,-28.839892],[18.954533,-28.866661],[19.01396,-28.928466],[19.120207,-28.957508],[19.27658,-28.889502],[19.244954,-28.792453],[19.265935,-28.742637],[19.45507,-28.705223],[19.579197,-28.525183],[19.981653,-28.422347],[19.981447,-24.752493]],[[28.980846,-28.909035],[28.859014,-28.77299],[28.699519,-28.68848],[28.634303,-28.570761],[28.382949,-28.626469],[28.297063,-28.706877],[28.145031,-28.714732],[28.013566,-28.878443],[27.926233,-28.853431],[27.861327,-28.915443],[27.747432,-28.908622],[27.61297,-29.133828],[27.528169,-29.207622],[27.518919,-29.268393],[27.408642,-29.35707],[27.417634,-29.396551],[27.350247,-29.480267],[27.263121,-29.541141],[27.022412,-29.616176],[27.002155,-29.666508],[27.080135,-29.735135],[27.198835,-29.978531],[27.265911,-30.033308],[27.312782,-30.131596],[27.381357,-30.142655],[27.343685,-30.212935],[27.367817,-30.295411],[27.459388,-30.316598],[27.5923,-30.481859],[27.743608,-30.600302],[28.078782,-30.658799],[28.081572,-30.586866],[28.141207,-30.500773],[28.133249,-30.445376],[28.238462,-30.352255],[28.200635,-30.282492],[28.284712,-30.246215],[28.383879,-30.144205],[28.557306,-30.114957],[28.639678,-30.131493],[28.795637,-30.089428],[29.150654,-29.911145],[29.105799,-29.825569],[29.113599,-29.752851],[29.1613,-29.666922],[29.26734,-29.626098],[29.296279,-29.571631],[29.282739,-29.485641],[29.4079,-29.421459],[29.432808,-29.336606],[29.316846,-29.147367],[29.311781,-29.089799],[29.208429,-29.068922],[29.040532,-28.922988],[28.980846,-28.909035]]],[[[37.662446,-46.828546],[37.821056,-46.844171],[37.895763,-46.889907],[37.806488,-46.965753],[37.618826,-46.95436],[37.576671,-46.916762],[37.662446,-46.828546]]],[[[37.861095,-46.636163],[37.900401,-46.599705],[37.977794,-46.615655],[37.93865,-46.654392],[37.861095,-46.636163]]]]}}