{"type":"Feature","properties":{"iso3":"ZMB","name":"Zambia","continent":"Africa"},"geometry":{"type":"Polygon","coordinates":[[[32.920863,-9.4079],[32.937503,-9.487792],[32.983082,-9.497714],[32.986906,-9.628455],[33.03574,-9.616983],[33.08044,-9.662251],[33.09832,-9.588458],[33.175422,-9.602307],[33.209838,-9.641374],[33.207254,-9.712894],[33.336962,-9.823689],[33.365591,-9.898826],[33.304096,-10.063777],[33.533281,-10.231209],[33.532919,-10.342623],[33.622733,-10.494035],[33.665418,-10.515119],[33.673523,-10.569367],[33.500983,-10.769161],[33.332621,-10.813602],[33.232576,-10.883262],[33.265855,-10.901142],[33.303682,-11.034571],[33.390912,-11.164795],[33.273607,-11.409432],[33.239707,-11.402404],[33.212629,-11.563841],[33.296758,-11.593606],[33.314018,-11.7722],[33.25273,-12.139516],[33.349468,-12.327929],[33.458298,-12.31811],[33.527131,-12.355627],[33.350398,-12.532671],[33.263168,-12.528536],[33.163019,-12.620417],[33.122815,-12.584554],[33.035378,-12.599126],[32.944635,-12.752399],[32.947012,-12.843246],[33.013571,-12.917247],[32.965925,-13.116821],[32.992797,-13.216401],[32.937865,-13.255882],[32.892131,-13.404814],[32.819061,-13.471683],[32.813066,-13.528217],[32.663308,-13.596327],[32.67509,-13.628056],[32.769865,-13.646866],[32.807795,-13.699163],[32.763044,-13.777194],[32.85942,-13.808097],[32.923912,-13.880444],[32.999825,-14.050459],[33.130256,-13.93057],[33.202707,-14.013872],[31.658408,-14.519578],[31.410878,-14.633576],[30.815772,-14.768245],[30.230898,-14.977224],[30.225834,-15.106312],[30.287949,-15.278911],[30.357919,-15.335652],[30.389648,-15.471148],[30.365257,-15.547422],[30.412696,-15.627934],[30.207231,-15.653152],[30.130129,-15.623696],[30.010654,-15.646227],[29.837331,-15.614808],[29.672793,-15.663281],[29.587217,-15.655736],[29.186311,-15.812832],[29.055053,-15.934375],[28.932373,-15.963727],[28.860336,-16.049407],[28.86416,-16.231205],[28.836772,-16.306342],[28.857236,-16.388198],[28.741377,-16.550668],[28.280113,-16.706524],[28.113922,-16.827551],[27.816886,-16.959636],[27.641186,-17.198484],[27.577314,-17.363125],[27.157081,-17.769302],[27.11543,-17.882163],[27.021275,-17.958541],[26.71194,-18.065821],[26.211919,-17.882783],[26.095234,-17.958541],[25.924495,-17.998952],[25.86362,-17.971563],[25.849667,-17.906658],[25.681409,-17.81147],[25.516458,-17.862319],[25.345254,-17.842579],[25.156841,-17.72517],[25.036952,-17.5812],[24.684415,-17.49242],[24.571244,-17.533451],[24.407016,-17.474539],[24.220464,-17.4795],[23.381652,-17.641144],[23.320158,-17.54637],[23.189726,-17.536551],[23.176187,-17.478157],[23.097639,-17.432165],[22.998627,-17.293775],[22.778278,-17.180397],[22.710479,-17.055444],[22.499742,-16.89349],[22.333654,-16.673658],[22.237743,-16.665493],[22.104004,-16.536716],[22.08075,-16.441011],[22.105555,-16.379413],[22.055842,-16.364633],[22.022356,-16.266345],[22.045197,-16.252289],[21.981531,-16.144285],[21.979878,-13.001479],[24.000633,-13.001479],[23.865654,-12.789709],[23.928699,-12.561609],[24.030812,-12.385083],[23.954331,-12.151919],[23.98854,-11.834212],[23.954641,-11.636911],[24.009935,-11.459454],[24.061094,-11.394962],[24.011175,-11.272903],[24.003733,-10.982481],[23.967457,-10.872307],[24.114218,-10.919229],[24.117732,-11.03085],[24.275138,-11.047903],[24.370533,-11.1002],[24.396061,-11.259673],[24.293948,-11.3992],[24.446497,-11.463589],[24.554191,-11.446329],[24.712527,-11.326026],[25.184023,-11.246651],[25.31032,-11.194768],[25.32541,-11.273936],[25.279004,-11.396306],[25.344943,-11.642182],[25.481163,-11.715253],[25.49558,-11.776541],[25.621464,-11.728895],[25.725644,-11.800519],[25.855765,-11.797212],[25.994051,-11.904802],[26.16665,-11.902425],[26.28623,-11.940562],[26.414594,-11.91183],[26.489111,-11.960819],[26.717418,-12.013012],[26.785011,-11.968364],[26.874204,-11.964333],[26.947688,-11.909143],[27.023756,-11.59557],[27.173617,-11.570559],[27.234182,-11.809097],[27.420734,-11.921959],[27.52047,-12.179617],[27.638189,-12.293615],[27.756734,-12.304261],[27.856676,-12.262403],[27.933881,-12.303331],[27.958686,-12.367823],[28.08767,-12.377538],[28.131285,-12.429214],[28.185752,-12.402446],[28.322488,-12.4411],[28.42274,-12.521302],[28.512295,-12.668373],[28.474003,-12.736482],[28.542836,-12.885621],[28.667893,-12.849344],[28.707994,-12.889755],[28.830881,-13.051812],[28.85367,-13.137078],[28.903434,-13.162296],[28.93413,-13.309626],[28.993971,-13.395925],[29.122129,-13.38435],[29.184141,-13.436853],[29.574401,-13.225393],[29.666592,-13.271178],[29.601686,-13.388381],[29.626078,-13.429825],[29.767154,-13.458351],[29.797643,-13.424244],[29.799607,-12.159463],[29.648918,-12.212793],[29.576727,-12.188092],[29.489548,-12.2315],[29.450378,-12.342915],[29.528202,-12.410508],[29.480453,-12.454949],[29.265066,-12.370923],[29.042651,-12.378778],[28.944672,-12.206076],[28.751092,-11.992238],[28.686032,-11.984074],[28.606191,-11.91028],[28.507851,-11.872763],[28.355664,-11.518159],[28.354424,-11.464725],[28.434212,-11.351244],[28.473693,-11.22567],[28.476174,-11.087694],[28.554412,-10.834996],[28.699622,-10.643174],[28.634924,-10.51946],[28.623865,-10.276374],[28.569915,-10.219633],[28.628516,-10.102741],[28.627947,-9.929419],[28.698486,-9.791959],[28.631255,-9.715582],[28.587588,-9.573161],[28.611101,-9.551044],[28.569191,-9.525929],[28.495397,-9.353226],[28.368532,-9.308578],[28.35246,-9.271991],[28.59906,-9.096395],[28.893099,-8.765769],[28.930461,-8.679883],[28.935474,-8.590792],[28.892789,-8.501909],[28.915268,-8.472867],[30.752107,-8.194124],[30.828278,-8.388117],[31.03364,-8.600301],[31.119836,-8.616631],[31.206756,-8.580767],[31.260913,-8.623969],[31.350107,-8.588519],[31.539036,-8.70355],[31.55335,-8.809074],[31.672671,-8.913047],[31.787599,-8.892169],[31.936634,-8.93258],[31.938081,-9.061771],[32.057247,-9.049576],[32.231448,-9.133808],[32.423426,-9.143834],[32.504455,-9.249253],[32.713228,-9.28584],[32.746507,-9.329972],[32.920863,-9.4079]]]}}