{"type":"Feature","properties":{"iso3":"ZWE","name":"Zimbabwe","continent":"Africa"},"geometry":{"type":"Polygon","coordinates":[[[25.259781,-17.794107],[25.335538,-17.841235],[25.516458,-17.862319],[25.681409,-17.81147],[25.849667,-17.906658],[25.86362,-17.971563],[25.924495,-17.998952],[26.095234,-17.958541],[26.203031,-17.887227],[26.408599,-17.939007],[26.685689,-18.066751],[27.006289,-17.962675],[27.149019,-17.842476],[27.157081,-17.769302],[27.577314,-17.363125],[27.641186,-17.198484],[27.816886,-16.959636],[28.113922,-16.827551],[28.280113,-16.706524],[28.741377,-16.550668],[28.808866,-16.486279],[28.857236,-16.388198],[28.860336,-16.049407],[28.932373,-15.963727],[29.042341,-15.946261],[29.186311,-15.812832],[29.587217,-15.655736],[29.672793,-15.663281],[29.837331,-15.614808],[30.010654,-15.646227],[30.396263,-15.635995],[30.402568,-16.001244],[30.857424,-15.998144],[30.989767,-16.06429],[31.1141,-15.996904],[31.259983,-16.023465],[31.404574,-16.162268],[31.710705,-16.217872],[31.86005,-16.340759],[31.910279,-16.428919],[32.290463,-16.45176],[32.671783,-16.599761],[32.725217,-16.706421],[32.893372,-16.712415],[32.968509,-16.681616],[32.916213,-16.847911],[32.828776,-16.935141],[33.022459,-17.361471],[32.942981,-17.491593],[32.947218,-17.543166],[33.024526,-17.619233],[32.999102,-17.794313],[32.946082,-17.834724],[32.927375,-17.972907],[32.975537,-18.183333],[32.95497,-18.256301],[33.042768,-18.352005],[32.988198,-18.41319],[32.996414,-18.46714],[32.870737,-18.535767],[32.92231,-18.693173],[32.902518,-18.774512],[32.69142,-18.83425],[32.71576,-18.919826],[32.681085,-18.954966],[32.698965,-19.022249],[32.814203,-19.023799],[32.855906,-19.083744],[32.832187,-19.266678],[32.768831,-19.363623],[32.763354,-19.463979],[32.832187,-19.500876],[32.819629,-19.674302],[32.872184,-19.690218],[32.960964,-19.658799],[32.954143,-19.717813],[33.022769,-19.773107],[33.004373,-20.024255],[32.95373,-20.030249],[32.88531,-20.10301],[32.845209,-20.286668],[32.671783,-20.531821],[32.646462,-20.557969],[32.513136,-20.564583],[32.481614,-20.603031],[32.491019,-20.936344],[32.339814,-21.134058],[32.444613,-21.304693],[32.408543,-21.290327],[31.433822,-22.302048],[31.288922,-22.39734],[31.163348,-22.322616],[31.07033,-22.333674],[30.83789,-22.282308],[30.647411,-22.32644],[30.507367,-22.309593],[30.334975,-22.344733],[29.758886,-22.130896],[29.356947,-22.190944],[29.244395,-22.075706],[29.10797,-22.069194],[29.040532,-22.020929],[29.013815,-21.940417],[29.057637,-21.829209],[29.038723,-21.797893],[28.860853,-21.757379],[28.629704,-21.651339],[28.464598,-21.660331],[28.321919,-21.603486],[28.002559,-21.564212],[27.884995,-21.310171],[27.666611,-21.071219],[27.709605,-20.756716],[27.683767,-20.49606],[27.340739,-20.473013],[27.268392,-20.49575],[27.266015,-20.234164],[27.201781,-20.092984],[27.097343,-20.068903],[27.02665,-20.010095],[26.730957,-19.935888],[26.595565,-19.855583],[26.549263,-19.784063],[26.312171,-19.651358],[26.333462,-19.613014],[26.30349,-19.577254],[26.155488,-19.537153],[25.948576,-19.103277],[25.9678,-19.000958],[25.940721,-18.921273],[25.815251,-18.813993],[25.761921,-18.630335],[25.508499,-18.399134],[25.387525,-18.138995],[25.255026,-18.001122],[25.21937,-17.879786],[25.259781,-17.794107]]]}}